{"version": 0.6, "generator": "Overpass API 0.7.59 e21c39fe", "osm3s": {"timestamp_osm_base": "2023-01-17T15:17:22Z", "copyright": "The data included in this document is from www.openstreetmap.org. The data is made available under ODbL."}, "elements": [{"type": "node", "id": 746272173, "lat": 48.4284592, "lon": 19.7900916}, {"type": "node", "id": 746274485, "lat": 48.4288549, "lon": 19.7950523}, {"type": "node", "id": 746275471, "lat": 48.4285277, "lon": 19.7895801}, {"type": "node", "id": 746275796, "lat": 48.4283237, "lon": 19.789956}, {"type": "node", "id": 746276056, "lat": 48.4286662, "lon": 19.7896699}, {"type": "node", "id": 746276490, "lat": 48.4286799, "lon": 19.7895734}, {"type": "node", "id": 746276731, "lat": 48.4285197, "lon": 19.7896391}, {"type": "node", "id": 746277145, "lat": 48.428494, "lon": 19.7895698}, {"type": "node", "id": 746277951, "lat": 48.4282801, "lon": 19.7902456}, {"type": "node", "id": 746278115, "lat": 48.4289139, "lon": 19.7950619}, {"type": "node", "id": 746278231, "lat": 48.4284492, "lon": 19.7902976}, {"type": "node", "id": 746279528, "lat": 48.4289047, "lon": 19.7951903}, {"type": "node", "id": 746279785, "lat": 48.4282074, "lon": 19.7900523}, {"type": "node", "id": 746280300, "lat": 48.4286642, "lon": 19.7896835}, {"type": "node", "id": 746281035, "lat": 48.4284661, "lon": 19.7900444}, {"type": "node", "id": 746281212, "lat": 48.4286858, "lon": 19.7895326}, {"type": "node", "id": 746281615, "lat": 48.4283045, "lon": 19.7900842}, {"type": "node", "id": 746281673, "lat": 48.4284741, "lon": 19.7900958}, {"type": "node", "id": 746282376, "lat": 48.4285919, "lon": 19.7896593}, {"type": "node", "id": 746283057, "lat": 48.4282265, "lon": 19.7899231}, {"type": "node", "id": 746283139, "lat": 48.4283176, "lon": 19.789996}, {"type": "node", "id": 746283926, "lat": 48.4285178, "lon": 19.7896532}, {"type": "node", "id": 746284036, "lat": 48.4284602, "lon": 19.790216}, {"type": "node", "id": 746284667, "lat": 48.4285413, "lon": 19.7894858}, {"type": "node", "id": 746284709, "lat": 48.4284525, "lon": 19.7900398}, {"type": "node", "id": 746284730, "lat": 48.4288457, "lon": 19.7951807}, {"type": "node", "id": 746284838, "lat": 48.4285915, "lon": 19.7896624}, {"type": "node", "id": 746286093, "lat": 48.4284842, "lon": 19.7896429}, {"type": "node", "id": 760556557, "lat": 48.2731691, "lon": 19.838564}, {"type": "node", "id": 760573911, "lat": 48.2732596, "lon": 19.8384165}, {"type": "node", "id": 760578982, "lat": 48.2731674, "lon": 19.8384198}, {"type": "node", "id": 760580318, "lat": 48.2732626, "lon": 19.8385608}, {"type": "node", "id": 797218165, "lat": 48.2202253, "lon": 19.8287115}, {"type": "node", "id": 797219993, "lat": 48.2202598, "lon": 19.8287293}, {"type": "node", "id": 797221878, "lat": 48.2202835, "lon": 19.828627}, {"type": "node", "id": 797223772, "lat": 48.2202501, "lon": 19.8286084}, {"type": "node", "id": 872566905, "lat": 48.4387907, "lon": 20.3354601}, {"type": "node", "id": 872566906, "lat": 48.4388241, "lon": 20.3355973}, {"type": "node", "id": 872566908, "lat": 48.4387219, "lon": 20.3356584}, {"type": "node", "id": 872566911, "lat": 48.4386861, "lon": 20.3355229}, {"type": "node", "id": 1712885519, "lat": 48.3777372, "lon": 19.8945085, "tags": {"amenity": "pub"}}, {"type": "node", "id": 1712887549, "lat": 48.3775234, "lon": 19.8910324, "tags": {"amenity": "pub"}}, {"type": "node", "id": 1712887931, "lat": 48.3768001, "lon": 19.8892299, "tags": {"alt_name": "u Barnu", "amenity": "pub", "name": "Bistro T\u00dcNDE"}}, {"type": "node", "id": 1842376024, "lat": 48.4482714, "lon": 20.3160593, "tags": {"amenity": "pub", "name": "Hubert"}}, {"type": "node", "id": 2181269430, "lat": 48.3800695, "lon": 20.0103092, "tags": {"amenity": "pub", "internet_access": "no", "name": "Kongo Pub&Restaurant"}}, {"type": "node", "id": 2182379706, "lat": 48.3820291, "lon": 20.02033, "tags": {"amenity": "pub"}}, {"type": "node", "id": 2283492912, "lat": 48.3771983, "lon": 20.0061957, "tags": {"addr:city": "Rimavsk\u00e1 Sobota", "addr:country": "SK", "addr:housenumber": "32", "addr:postcode": "979 01", "addr:street": "Toma\u0161ovsk\u00e1", "addr:streetnumber": "32", "amenity": "pub", "internet_access": "no", "name": "U Janky", "source": "own knowledges"}}, {"type": "node", "id": 2941862331, "lat": 48.2724112, "lon": 20.1113116}, {"type": "node", "id": 2941862338, "lat": 48.2724667, "lon": 20.1114274}, {"type": "node", "id": 2941862344, "lat": 48.2724835, "lon": 20.1112331}, {"type": "node", "id": 2941862345, "lat": 48.2724899, "lon": 20.1113361}, {"type": "node", "id": 2941862349, "lat": 48.2725109, "lon": 20.1113798}, {"type": "node", "id": 2941862350, "lat": 48.2725191, "lon": 20.1113051}, {"type": "node", "id": 3266698362, "lat": 48.3807977, "lon": 20.0222923, "tags": {"amenity": "pub", "name": "Hostinec Lipa", "source": "survey"}}, {"type": "node", "id": 3439641974, "lat": 48.22185, "lon": 20.2649, "tags": {"amenity": "pub", "fixme": "resurvey (source was old)", "name": "Green Wood Pub", "source": "turistautak.hu", "source:date": "2008-06-05", "url": "http://turistautak.hu/poi.php?id=698", "wheelchair": "no"}}, {"type": "node", "id": 3439652005, "lat": 48.2195561, "lon": 20.288882, "tags": {"amenity": "pub", "name": "K\u00e9k S\u00f6r\u00f6z\u0151 & \u00c9telb\u00e1r", "source": "turistautak.hu", "source:date": "2013-02-25", "url": "http://turistautak.hu/poi.php?id=93823"}}, {"type": "node", "id": 3484799380, "lat": 48.1958905, "lon": 20.1292297, "tags": {"amenity": "pub", "source": "turistautak.hu", "source:date": "2010-04-16", "url": "http://turistautak.hu/poi.php?id=17006"}}, {"type": "node", "id": 3484800494, "lat": 48.224117, "lon": 20.193483, "tags": {"amenity": "pub", "source": "turistautak.hu", "source:date": "2010-04-16", "url": "http://turistautak.hu/poi.php?id=17015"}}, {"type": "node", "id": 3608350287, "lat": 48.3122696, "lon": 20.2841116, "tags": {"amenity": "pub", "toilets:wheelchair": "no", "wheelchair": "no"}}, {"type": "node", "id": 4192544245, "lat": 48.3251832, "lon": 20.0819533, "tags": {"amenity": "pub", "name": "Flipper"}}, {"type": "node", "id": 4426322944, "lat": 48.428288, "lon": 19.7901915, "tags": {"amenity": "atm", "opening_hours": "24/7", "operator": "V\u00daB", "ref": "S6AV352C"}}, {"type": "node", "id": 4742528421, "lat": 48.2265062, "lon": 20.2883986, "tags": {"addr:city": "\u00d3zd", "amenity": "pub", "name": "Gy\u00f6ngy s\u00f6r\u00f6z\u0151"}}, {"type": "node", "id": 4769808259, "lat": 48.2692175, "lon": 19.8228459, "tags": {"amenity": "pub", "name": "Bar Eur\u00f3pa"}}, {"type": "node", "id": 4769808265, "lat": 48.2706518, "lon": 19.8224386, "tags": {"amenity": "pub", "name": "Roxy bar"}}, {"type": "node", "id": 4769808267, "lat": 48.273257, "lon": 19.8273763, "tags": {"amenity": "pub", "name": "Bandi pub"}}, {"type": "node", "id": 4933478298, "lat": 48.2975324, "lon": 20.3570326, "tags": {"amenity": "pub", "name": "Kal\u00f3z Tanya", "toilets:wheelchair": "no", "wheelchair": "no"}}, {"type": "node", "id": 4933478332, "lat": 48.2339695, "lon": 20.2970301, "tags": {"amenity": "pub", "fixme": "verify", "name": "Thomass B\u00e1r", "source": "route4u", "toilets:wheelchair": "no", "wheelchair": "yes"}}, {"type": "node", "id": 4933478333, "lat": 48.2345218, "lon": 20.1959933, "tags": {"amenity": "pub", "fixme": "verify", "name": "Pityerg\u0151 Vedelde", "source": "route4u", "toilets:wheelchair": "no", "wheelchair": "no"}}, {"type": "node", "id": 5043217624, "lat": 48.5149212, "lon": 20.3828445, "tags": {"amenity": "pub", "name": "Retro pub"}}, {"type": "node", "id": 5155385736, "lat": 48.1943721, "lon": 19.9759168, "tags": {"amenity": "pub"}}, {"type": "node", "id": 5163538224, "lat": 48.2994145, "lon": 19.9882908, "tags": {"amenity": "pub", "name": "LaLoca bar", "smoking": "yes"}}, {"type": "node", "id": 5167659731, "lat": 48.2267428, "lon": 20.2676907, "tags": {"amenity": "pub", "name": "F\u00fczes kocsma"}}, {"type": "node", "id": 5175248666, "lat": 48.453823, "lon": 19.9690314, "tags": {"amenity": "pub"}}, {"type": "node", "id": 5183898307, "lat": 48.3847029, "lon": 20.0152867, "tags": {"amenity": "pub", "internet_access": "wlan", "name": "Babalu"}}, {"type": "node", "id": 5246884336, "lat": 48.2222095, "lon": 20.2682627}, {"type": "node", "id": 5246884337, "lat": 48.2224163, "lon": 20.2686203}, {"type": "node", "id": 5246884338, "lat": 48.2223709, "lon": 20.2686793}, {"type": "node", "id": 5246884339, "lat": 48.2221642, "lon": 20.2683218}, {"type": "node", "id": 5276929448, "lat": 48.2080393, "lon": 20.295525}, {"type": "node", "id": 5276929449, "lat": 48.2080511, "lon": 20.2958168}, {"type": "node", "id": 5276929450, "lat": 48.2079862, "lon": 20.2958227}, {"type": "node", "id": 5276929451, "lat": 48.2079802, "lon": 20.2956739}, {"type": "node", "id": 5276929452, "lat": 48.2079084, "lon": 20.2956804}, {"type": "node", "id": 5276929453, "lat": 48.2079027, "lon": 20.2955374}, {"type": "node", "id": 5277072302, "lat": 48.2290664, "lon": 20.2832112}, {"type": "node", "id": 5277072303, "lat": 48.2290599, "lon": 20.2833381}, {"type": "node", "id": 5277072304, "lat": 48.2288049, "lon": 20.2833029}, {"type": "node", "id": 5277072305, "lat": 48.2288101, "lon": 20.283176}, {"type": "node", "id": 5282699851, "lat": 48.2134048, "lon": 20.2684565}, {"type": "node", "id": 5282699852, "lat": 48.2133457, "lon": 20.2685386}, {"type": "node", "id": 5282699853, "lat": 48.2133106, "lon": 20.2684817}, {"type": "node", "id": 5282699854, "lat": 48.2133697, "lon": 20.2683996}, {"type": "node", "id": 5282750663, "lat": 48.2072814, "lon": 20.2644643}, {"type": "node", "id": 5282750664, "lat": 48.2072467, "lon": 20.2648412}, {"type": "node", "id": 5282750665, "lat": 48.2071482, "lon": 20.2648208}, {"type": "node", "id": 5282750666, "lat": 48.2071787, "lon": 20.2644895}, {"type": "node", "id": 5282750667, "lat": 48.2071996, "lon": 20.2644939}, {"type": "node", "id": 5282750668, "lat": 48.2072038, "lon": 20.2644483}, {"type": "node", "id": 5282750675, "lat": 48.2072741, "lon": 20.2645431}, {"type": "node", "id": 5305314938, "lat": 48.2328549, "lon": 20.2851467}, {"type": "node", "id": 5305314939, "lat": 48.2328034, "lon": 20.2852842}, {"type": "node", "id": 5305314940, "lat": 48.2327231, "lon": 20.2852163}, {"type": "node", "id": 5305314941, "lat": 48.2327746, "lon": 20.2850788}, {"type": "node", "id": 5670644391, "lat": 48.1813904, "lon": 20.1066342, "tags": {"amenity": "pub", "name": "Lapos kocsma"}}, {"type": "node", "id": 5673553010, "lat": 48.2966384, "lon": 20.3513983, "tags": {"amenity": "pub", "name": "Feny\u0151 b\u00fcf\u00e9"}}, {"type": "node", "id": 5673553043, "lat": 48.2719738, "lon": 20.2478614, "tags": {"amenity": "pub"}}, {"type": "node", "id": 5673553052, "lat": 48.299837, "lon": 20.3583565, "tags": {"amenity": "pub"}}, {"type": "node", "id": 6371604146, "lat": 48.3081955, "lon": 19.8007776, "tags": {"amenity": "pub", "outdoor_seating": "yes", "smoking": "yes"}}, {"type": "node", "id": 6727695995, "lat": 48.2370496, "lon": 20.3727145, "tags": {"amenity": "pub", "name": "Gy\u00f6ngyszem pressz\u00f3"}}, {"type": "node", "id": 7218210236, "lat": 48.4323089, "lon": 19.8595676, "tags": {"amenity": "pub"}}, {"type": "node", "id": 8483009240, "lat": 48.2202312, "lon": 19.8286868}, {"type": "node", "id": 8483021801, "lat": 48.2202575, "lon": 19.8286626, "tags": {"amenity": "pub"}}, {"type": "node", "id": 8951831627, "lat": 48.4755677, "lon": 20.0984868, "tags": {"amenity": "pub", "name": "V\u00fd\u010dap tobog\u00e1n"}}, {"type": "node", "id": 8951831637, "lat": 48.4747373, "lon": 20.0990541, "tags": {"amenity": "pub", "name": "Ob\u010derstvenie Jakub"}}, {"type": "node", "id": 9233337923, "lat": 48.2221869, "lon": 20.2682923, "tags": {"entrance": "yes"}}, {"type": "node", "id": 9248784503, "lat": 48.2398709, "lon": 20.289947}, {"type": "node", "id": 9248784504, "lat": 48.2397944, "lon": 20.2900426}, {"type": "node", "id": 9248784505, "lat": 48.2397502, "lon": 20.2899629}, {"type": "node", "id": 9248784506, "lat": 48.2398268, "lon": 20.2898673}, {"type": "node", "id": 9248871720, "lat": 48.2254464, "lon": 20.2577282}, {"type": "node", "id": 9248871721, "lat": 48.2254436, "lon": 20.2577436}, {"type": "node", "id": 9248871722, "lat": 48.2254433, "lon": 20.2577587}, {"type": "node", "id": 9248871723, "lat": 48.2254464, "lon": 20.257773}, {"type": "node", "id": 9248871724, "lat": 48.2255028, "lon": 20.2577509}, {"type": "node", "id": 9248871725, "lat": 48.2255009, "lon": 20.2577368}, {"type": "node", "id": 9248871726, "lat": 48.2254962, "lon": 20.2577243}, {"type": "node", "id": 9248871727, "lat": 48.2254891, "lon": 20.2577147}, {"type": "node", "id": 9248871728, "lat": 48.2254529, "lon": 20.2577835}, {"type": "node", "id": 9248871729, "lat": 48.2254607, "lon": 20.2577934}, {"type": "node", "id": 9248871730, "lat": 48.2254705, "lon": 20.2577971}, {"type": "node", "id": 9248871731, "lat": 48.2254805, "lon": 20.2577958}, {"type": "node", "id": 9248871732, "lat": 48.2254896, "lon": 20.2577896}, {"type": "node", "id": 9248871733, "lat": 48.2254969, "lon": 20.2577792}, {"type": "node", "id": 9248871734, "lat": 48.2255014, "lon": 20.2577658}, {"type": "node", "id": 9248871735, "lat": 48.2254803, "lon": 20.257709}, {"type": "node", "id": 9248871736, "lat": 48.2254708, "lon": 20.2577077}, {"type": "node", "id": 9248871737, "lat": 48.2254615, "lon": 20.257711}, {"type": "node", "id": 9248871738, "lat": 48.2254521, "lon": 20.2577175}, {"type": "node", "id": 9248871766, "lat": 48.2254209, "lon": 20.257797}, {"type": "node", "id": 9248871775, "lat": 48.2254651, "lon": 20.2578004}, {"type": "node", "id": 9248871776, "lat": 48.2254679, "lon": 20.2578123}, {"type": "node", "id": 9248871777, "lat": 48.2254679, "lon": 20.257825}, {"type": "node", "id": 9248871778, "lat": 48.2254653, "lon": 20.257837}, {"type": "node", "id": 9248871779, "lat": 48.2254603, "lon": 20.2578471}, {"type": "node", "id": 9248871780, "lat": 48.2254533, "lon": 20.2578543}, {"type": "node", "id": 9248871781, "lat": 48.2254272, "lon": 20.2577874}, {"type": "node", "id": 9248871782, "lat": 48.2254452, "lon": 20.2578577}, {"type": "node", "id": 9248871783, "lat": 48.2254368, "lon": 20.2578571}, {"type": "node", "id": 9248871784, "lat": 48.225428, "lon": 20.2578536}, {"type": "node", "id": 9248871786, "lat": 48.2254182, "lon": 20.2578334}, {"type": "node", "id": 9248871787, "lat": 48.2254164, "lon": 20.2578211}, {"type": "node", "id": 9248871788, "lat": 48.2254173, "lon": 20.2578085}, {"type": "node", "id": 9248871789, "lat": 48.2254352, "lon": 20.2577815}, {"type": "node", "id": 9248871790, "lat": 48.2254442, "lon": 20.2577802}, {"type": "node", "id": 9248871794, "lat": 48.2253879, "lon": 20.2578511}, {"type": "node", "id": 9248871800, "lat": 48.2253818, "lon": 20.2578655}, {"type": "node", "id": 9248871809, "lat": 48.2254327, "lon": 20.2578658}, {"type": "node", "id": 9248871810, "lat": 48.2254343, "lon": 20.2578798}, {"type": "node", "id": 9248871811, "lat": 48.2254326, "lon": 20.2578936}, {"type": "node", "id": 9248871812, "lat": 48.2254279, "lon": 20.2579058}, {"type": "node", "id": 9248871813, "lat": 48.2254206, "lon": 20.2579149}, {"type": "node", "id": 9248871814, "lat": 48.2254118, "lon": 20.2579196}, {"type": "node", "id": 9248871815, "lat": 48.2253952, "lon": 20.2578432}, {"type": "node", "id": 9248871816, "lat": 48.2254038, "lon": 20.2578392}, {"type": "node", "id": 9248871817, "lat": 48.2254024, "lon": 20.2579196}, {"type": "node", "id": 9248871818, "lat": 48.2253936, "lon": 20.2579147}, {"type": "node", "id": 9248871819, "lat": 48.2253864, "lon": 20.2579055}, {"type": "node", "id": 9248871820, "lat": 48.2253817, "lon": 20.2578933}, {"type": "node", "id": 9248871821, "lat": 48.2253801, "lon": 20.2578794}, {"type": "node", "id": 9248871822, "lat": 48.225385, "lon": 20.2578578}, {"type": "node", "id": 9248871823, "lat": 48.2254128, "lon": 20.2578398}, {"type": "node", "id": 9248871824, "lat": 48.2254212, "lon": 20.2578448}, {"type": "node", "id": 10180368107, "lat": 48.1946526, "lon": 19.9761365, "tags": {"amenity": "pub", "outdoor_seating": "yes"}}, {"type": "node", "id": 10180368237, "lat": 48.2160724, "lon": 19.9548666, "tags": {"amenity": "pub", "name": "Galax"}}, {"type": "node", "id": 10285252077, "lat": 48.2265369, "lon": 20.2592218}, {"type": "node", "id": 10285252078, "lat": 48.2265528, "lon": 20.2591794}, {"type": "node", "id": 10285252079, "lat": 48.2265466, "lon": 20.259137}, {"type": "node", "id": 10285252080, "lat": 48.2265204, "lon": 20.2591132}, {"type": "node", "id": 10285252081, "lat": 48.2264894, "lon": 20.2591215}, {"type": "node", "id": 10285252082, "lat": 48.2264736, "lon": 20.259167}, {"type": "node", "id": 10285252083, "lat": 48.2264846, "lon": 20.2592094}, {"type": "node", "id": 10285252084, "lat": 48.2265073, "lon": 20.259228}, {"type": "node", "id": 10285293311, "lat": 48.2270288, "lon": 20.2604232, "tags": {"amenity": "pub", "brewery": "yes", "name": "Bolyki S\u00f6r\u00f6z\u0151 \u00e9s Serf\u0151zde"}}, {"type": "way", "id": 60043126, "nodes": [746281673, 746284036, 746278231, 746277951, 4426322944, 746281615, 746283139, 746284709, 746281035, 746272173, 746281673], "tags": {"addr:city": "Polt\u00e1r", "addr:conscriptionnumber": "783", "addr:country": "SK", "addr:housenumber": "783/84", "addr:postcode": "98701", "addr:street": "Skl\u00e1rska", "addr:streetnumber": "84", "addr:suburb": "Polt\u00e1r", "amenity": "pub", "building": "yes", "import": "budovy201004", "name": "Gogo Bar", "ref:minvskaddress": "710155302A", "source": "kapor2", "source:addr": "minvskaddress 2022-01"}}, {"type": "way", "id": 60043469, "nodes": [746279528, 746284730, 746274485, 746278115, 746279528], "tags": {"amenity": "pub", "building": "yes", "import": "budovy201004", "name": "bufet Stanica", "source": "kapor2"}}, {"type": "way", "id": 60043515, "nodes": [746276490, 746276056, 746280300, 746282376, 746284838, 746276731, 746283926, 746286093, 746277145, 746275471, 746284667, 746281212, 746276490], "tags": {"addr:city": "Polt\u00e1r", "addr:conscriptionnumber": "769", "addr:country": "SK", "addr:housenumber": "769/82", "addr:postcode": "98701", "addr:street": "Skl\u00e1rska", "addr:streetnumber": "82", "addr:suburb": "Polt\u00e1r", "amenity": "pub", "building": "yes", "import": "budovy201004", "name": "Billiard Bar", "ref:minvskaddress": "10802770", "source": "kapor2", "source:addr": "minvskaddress 2022-01"}}, {"type": "way", "id": 60043642, "nodes": [746283139, 746281615, 746279785, 746283057, 746275796, 746283139], "tags": {"addr:city": "Polt\u00e1r", "addr:conscriptionnumber": "704", "addr:country": "SK", "addr:housenumber": "704/63", "addr:postcode": "98701", "addr:street": "Skl\u00e1rska", "addr:streetnumber": "63", "addr:suburb": "Polt\u00e1r", "amenity": "pub", "building": "yes", "import": "budovy201004", "name": "Orient Bar", "ref:minvskaddress": "10798821", "source": "kapor2", "source:addr": "minvskaddress 2022-01"}}, {"type": "way", "id": 60764187, "nodes": [760578982, 760573911, 760580318, 760556557, 760578982], "tags": {"addr:city": "Fi\u013eakovo", "addr:conscriptionnumber": "405", "addr:country": "SK", "addr:housenumber": "405/67", "addr:postcode": "98601", "addr:street": "Mlynsk\u00e1", "addr:streetnumber": "67", "amenity": "pub", "building": "yes", "import": "budovy201004", "ref:minvskaddress": "16558300", "source": "kapor2", "source:addr": "minvskaddress 2022-09"}}, {"type": "way", "id": 65158866, "nodes": [797223772, 797221878, 797219993, 797218165, 8483009240, 797223772], "tags": {"addr:city": "Radzovce", "addr:conscriptionnumber": "648", "addr:country": "SK", "addr:place": "Radzovce", "addr:postcode": "985 58", "amenity": "pub", "brewery": "yes", "building": "yes", "import": "budovy201004", "name": "Moln\u00e1r vend\u00e9gl\u0151", "smoking": "outside", "source": "kapor2", "source:conscriptionnumber": "kapor2"}}, {"type": "way", "id": 73659116, "nodes": [872566905, 872566906, 872566908, 872566911, 872566905], "tags": {"amenity": "pub", "building": "yes", "import": "budovy201004", "source": "kapor2"}}, {"type": "way", "id": 290679263, "nodes": [2941862344, 2941862350, 2941862345, 2941862349, 2941862338, 2941862331, 2941862344], "tags": {"addr:city": "\u0160imonovce", "addr:conscriptionnumber": "10", "addr:country": "SK", "addr:housenumber": "10", "addr:place": "\u0160imonovce", "amenity": "pub", "building": "yes", "source": "kapor2", "source:conscriptionnumber": "kapor2"}}, {"type": "way", "id": 542722499, "nodes": [5246884336, 5246884337, 5246884338, 5246884339, 9233337923, 5246884336], "tags": {"addr:city": "\u00d3zd", "addr:housenumber": "6", "addr:postcode": "3600", "addr:street": "Bolyki f\u0151\u00fat", "amenity": "pub", "building": "yes", "name": "Bolyki Boroz\u00f3"}}, {"type": "way", "id": 546009841, "nodes": [5276929448, 5276929449, 5276929450, 5276929451, 5276929452, 5276929453, 5276929448], "tags": {"amenity": "pub", "building": "yes", "name": "K\u0151 Kocsma Club"}}, {"type": "way", "id": 546032580, "nodes": [5277072302, 5277072303, 5277072304, 5277072305, 5277072302], "tags": {"amenity": "pub", "building": "yes", "name": "Panor\u00e1ma S\u00f6r\u00f6z\u0151"}}, {"type": "way", "id": 546670337, "nodes": [5282699851, 5282699852, 5282699853, 5282699854, 5282699851], "tags": {"amenity": "pub", "building": "yes", "name": "Nimr\u00f3d B\u00fcf\u00e9"}}, {"type": "way", "id": 546676804, "nodes": [5282750663, 5282750675, 5282750664, 5282750665, 5282750666, 5282750667, 5282750668, 5282750663], "tags": {"addr:city": "\u00d3zd", "addr:postcode": "3661", "addr:suburb": "H\u00f3doscs\u00e9p\u00e1ny", "amenity": "pub", "building": "yes", "name": "\u00c1szok S\u00f6r\u00f6z\u0151"}}, {"type": "way", "id": 549211444, "nodes": [5305314938, 5305314939, 5305314940, 5305314941, 5305314938], "tags": {"addr:city": "\u00d3zd", "amenity": "pub", "building": "yes", "name": "Okos pressz\u00f3"}}, {"type": "way", "id": 1002098240, "nodes": [9248784503, 9248784504, 9248784505, 9248784506, 9248784503], "tags": {"amenity": "pub", "building": "yes", "name": "N\u00e9gy \u00c1sz S\u00f6rb\u00e1r"}}, {"type": "way", "id": 1002106219, "nodes": [9248871729, 9248871730, 9248871731, 9248871732, 9248871733, 9248871734, 9248871724, 9248871725, 9248871726, 9248871727, 9248871735, 9248871736, 9248871737, 9248871738, 9248871720, 9248871721, 9248871722, 9248871723, 9248871728]}, {"type": "way", "id": 1002106222, "nodes": [9248871729, 9248871775, 9248871776, 9248871777, 9248871778, 9248871779, 9248871780, 9248871782, 9248871783, 9248871784]}, {"type": "way", "id": 1002106224, "nodes": [9248871784, 9248871809, 9248871810, 9248871811, 9248871812, 9248871813, 9248871814, 9248871817, 9248871818, 9248871819, 9248871820, 9248871821, 9248871800, 9248871822, 9248871794, 9248871815, 9248871816, 9248871823, 9248871824]}, {"type": "way", "id": 1003254275, "nodes": [9248871824, 9248871786, 9248871787, 9248871788, 9248871766, 9248871781, 9248871789, 9248871790, 9248871728]}, {"type": "way", "id": 1124721239, "nodes": [10285252077, 10285252078, 10285252079, 10285252080, 10285252081, 10285252082, 10285252083, 10285252084, 10285252077], "tags": {"amenity": "pub", "building": "yes", "name": "Hangulat Pressz\u00f3"}}, {"type": "relation", "id": 13436382, "members": [{"type": "way", "ref": 1002106219, "role": "outer"}, {"type": "way", "ref": 1003254275, "role": "outer"}, {"type": "way", "ref": 1002106224, "role": "outer"}, {"type": "way", "ref": 1002106222, "role": "outer"}], "tags": {"amenity": "pub", "building": "yes", "name": "Am\u00edg\u00f3", "type": "multipolygon"}}]}