{"version": 0.6, "generator": "Overpass API 0.7.59 e21c39fe", "osm3s": {"timestamp_osm_base": "2023-01-21T09:47:07Z", "copyright": "The data included in this document is from www.openstreetmap.org. The data is made available under ODbL."}, "elements": [{"type": "node", "id": 498837996, "lat": 47.1166504, "lon": 21.7980175, "tags": {"amenity": "fuel", "brand": "Petrom", "brand:wikidata": "Q1755034", "brand:wikipedia": "en:Petrom", "name": "Petrom", "opening_hours": "24/7", "phone": "+40 372 088370"}}, {"type": "node", "id": 501603989, "lat": 47.0787026, "lon": 21.8967706, "tags": {"amenity": "fuel", "contact:email": "infoline@rompetrol.com", "contact:phone": "+40 728 606 591", "contact:website": "https://www.rompetrol.ro/", "name": "Rompetrol", "opening_hours": "24/7"}}, {"type": "node", "id": 506535623, "lat": 47.065677, "lon": 21.9289469, "tags": {"amenity": "fuel", "brand": "Petrom", "brand:wikidata": "Q1755034", "name": "Petrom", "opening_hours": "24/7", "operator": "Petrom", "phone": "0372 483549"}}, {"type": "node", "id": 548114529, "lat": 47.0698517, "lon": 21.9034044, "tags": {"amenity": "fuel", "compressed_air": "yes", "fuel:lpg": "no", "fuel:octane_100": "yes", "fuel:octane_95": "yes", "name": "OMV"}}, {"type": "node", "id": 937504523, "lat": 47.0650502, "lon": 21.8987024, "tags": {"addr:street": "Strada Ovid Densu\u0219ianu", "amenity": "fuel", "compressed_air": "yes", "contact:email": "infoline@rompetrol.com", "contact:phone": "+40 372 784 953", "contact:website": "https://www.rompetrol.ro/", "name": "Rompetrol", "opening_hours": "24/7"}}, {"type": "node", "id": 945679223, "lat": 47.0572884, "lon": 21.906116, "tags": {"addr:street": "Strada Me\u0219te\u0219ugarilor", "amenity": "fuel", "fuel:diesel": "yes", "fuel:octane_95": "yes", "name": "Agip"}}, {"type": "node", "id": 1340947333, "lat": 47.1125253, "lon": 21.8112126, "tags": {"amenity": "fuel"}}, {"type": "node", "id": 1340947361, "lat": 47.1111016, "lon": 21.8160555, "tags": {"amenity": "fuel", "name": "LukOil"}}, {"type": "node", "id": 1988158177, "lat": 47.3414731, "lon": 22.0929929, "tags": {"amenity": "fuel", "name": "Ifor"}}, {"type": "node", "id": 2007157612, "lat": 47.1175809, "lon": 21.7975449, "tags": {"amenity": "fuel", "brand": "Petrom", "brand:wikidata": "Q1755034", "brand:wikipedia": "en:Petrom", "name": "Petrom", "opening_hours": "24/7", "phone": "+40 372 868037"}}, {"type": "node", "id": 2012692642, "lat": 47.0722925, "lon": 21.8282127, "tags": {"amenity": "fuel", "fuel:diesel": "yes", "fuel:octane_95": "yes", "name": "Nalect"}}, {"type": "node", "id": 2047728438, "lat": 47.0079246, "lon": 21.8858173, "tags": {"amenity": "fuel", "brand": "Rompetrol", "fuel:diesel": "yes", "fuel:octane_95": "yes", "name": "Partener Rompetrol", "operator": "Rompetrol"}}, {"type": "node", "id": 2081273606, "lat": 47.1122992, "lon": 21.8131665, "tags": {"amenity": "fuel", "name": "Agip"}}, {"type": "node", "id": 2135418106, "lat": 47.0489155, "lon": 21.8883062}, {"type": "node", "id": 2135418110, "lat": 47.0487693, "lon": 21.8880406}, {"type": "node", "id": 2135418112, "lat": 47.0489539, "lon": 21.8881157}, {"type": "node", "id": 2135418119, "lat": 47.0487328, "lon": 21.8882284}, {"type": "node", "id": 2136345618, "lat": 47.0489123, "lon": 21.8880988}, {"type": "node", "id": 2136345621, "lat": 47.0487851, "lon": 21.888047}, {"type": "node", "id": 2311644911, "lat": 47.1009306, "lon": 21.8452871, "tags": {"amenity": "fuel", "building": "yes", "name": "Gazprom"}}, {"type": "node", "id": 2506380319, "lat": 47.0078704, "lon": 21.8856688}, {"type": "node", "id": 2506380323, "lat": 47.0078714, "lon": 21.8859208}, {"type": "node", "id": 2506380326, "lat": 47.0079754, "lon": 21.8856678}, {"type": "node", "id": 2506380330, "lat": 47.0079764, "lon": 21.8857908}, {"type": "node", "id": 2506380334, "lat": 47.0080024, "lon": 21.8857908}, {"type": "node", "id": 2506380337, "lat": 47.0080034, "lon": 21.8859188}, {"type": "node", "id": 2649687188, "lat": 47.0516405, "lon": 21.918887}, {"type": "node", "id": 2649687191, "lat": 47.0515463, "lon": 21.9189176}, {"type": "node", "id": 2649687194, "lat": 47.0515725, "lon": 21.919091}, {"type": "node", "id": 2649687197, "lat": 47.0516666, "lon": 21.9190604}, {"type": "node", "id": 3180509721, "lat": 47.0720386, "lon": 21.9310684, "tags": {"amenity": "fuel", "fuel:diesel": "yes", "fuel:lpg": "yes", "fuel:octane_95": "yes", "name": "Butangas"}}, {"type": "node", "id": 3214640981, "lat": 47.0615989, "lon": 21.911381, "tags": {"addr:city": "Oradea", "amenity": "fuel", "fuel:lpg": "yes", "name": "GPL", "opening_hours": "PH,Mo-Su 00:00-23:55"}}, {"type": "node", "id": 3334248904, "lat": 47.061629, "lon": 21.9199017, "tags": {"amenity": "fuel"}}, {"type": "node", "id": 3334249393, "lat": 47.0876878, "lon": 21.9127015, "tags": {"addr:street": "Strada Matei Corvin", "amenity": "fuel", "name": "Petrom", "opening_hours": "24/7"}}, {"type": "node", "id": 4210463155, "lat": 47.0438096, "lon": 21.9016689}, {"type": "node", "id": 4210463157, "lat": 47.0438361, "lon": 21.9015129}, {"type": "node", "id": 4210463161, "lat": 47.0439328, "lon": 21.9020066}, {"type": "node", "id": 4210463162, "lat": 47.0439737, "lon": 21.9015631}, {"type": "node", "id": 4228002709, "lat": 47.0511222, "lon": 21.9345226}, {"type": "node", "id": 4228002717, "lat": 47.0511603, "lon": 21.9342669}, {"type": "node", "id": 4228002719, "lat": 47.0511807, "lon": 21.9345413}, {"type": "node", "id": 4228002726, "lat": 47.0512188, "lon": 21.9342857}, {"type": "node", "id": 4323523411, "lat": 47.1130779, "lon": 21.8099221}, {"type": "node", "id": 4323523412, "lat": 47.1129181, "lon": 21.8102625}, {"type": "node", "id": 4323523414, "lat": 47.1130422, "lon": 21.810391}, {"type": "node", "id": 4323523415, "lat": 47.1132068, "lon": 21.8101712}, {"type": "node", "id": 4323523416, "lat": 47.1132471, "lon": 21.8100627}, {"type": "node", "id": 4323523433, "lat": 47.1164529, "lon": 21.800644, "tags": {"addr:city": "Bor\u0219", "amenity": "fuel", "fuel:diesel": "yes", "name": "Diesel Access point"}}, {"type": "node", "id": 4326583497, "lat": 47.088169, "lon": 21.9115529, "tags": {"addr:housenumber": "1b", "addr:street": "Strada Matei Corvin", "amenity": "fuel", "contact:email": "infoline@rompetrol.com", "contact:phone": "+40 728 095 791", "contact:website": "https://www.rompetrol.ro/", "name": "Rompetrol", "opening_hours": "24/7"}}, {"type": "node", "id": 4331615764, "lat": 47.1151457, "lon": 21.8055116}, {"type": "node", "id": 4586945193, "lat": 47.2107735, "lon": 22.0222935, "tags": {"amenity": "fuel", "name": "UNIC OIL", "name:ro": "UNIC OIL"}}, {"type": "node", "id": 4862309496, "lat": 47.0615797, "lon": 21.9192621, "tags": {"amenity": "fuel", "fuel:lpg": "yes", "name": "ButanGas", "operator": "ButanGas"}}, {"type": "node", "id": 5002673697, "lat": 47.1150849, "lon": 21.8056756}, {"type": "node", "id": 5002673698, "lat": 47.1149695, "lon": 21.8055846}, {"type": "node", "id": 5002673699, "lat": 47.11503, "lon": 21.805419}, {"type": "node", "id": 5003670041, "lat": 47.1319919, "lon": 21.7031761}, {"type": "node", "id": 5003670042, "lat": 47.1319311, "lon": 21.703111}, {"type": "node", "id": 5003670043, "lat": 47.1318357, "lon": 21.7033326}, {"type": "node", "id": 5003670044, "lat": 47.1318938, "lon": 21.7033855}, {"type": "node", "id": 5004366274, "lat": 47.1139979, "lon": 21.8076871}, {"type": "node", "id": 5004366275, "lat": 47.1140574, "lon": 21.8077326}, {"type": "node", "id": 5004366276, "lat": 47.1141198, "lon": 21.8075565}, {"type": "node", "id": 5004366277, "lat": 47.1140602, "lon": 21.807511}, {"type": "node", "id": 5004366996, "lat": 47.0933825, "lon": 21.869804}, {"type": "node", "id": 5004366997, "lat": 47.0932455, "lon": 21.870062}, {"type": "node", "id": 5004366998, "lat": 47.0931007, "lon": 21.8698948}, {"type": "node", "id": 5004366999, "lat": 47.0932494, "lon": 21.8696283}, {"type": "node", "id": 5264793851, "lat": 47.0558159, "lon": 21.9162449, "tags": {"amenity": "fuel", "brand": "Petrom", "brand:wikidata": "Q1755034", "brand:wikipedia": "en:Petrom", "name": "Petrom"}}, {"type": "node", "id": 5637238321, "lat": 47.1511277, "lon": 21.9193249, "tags": {"amenity": "fuel", "name": "USA OIL"}}, {"type": "node", "id": 6155686987, "lat": 47.0594539, "lon": 21.9170877}, {"type": "node", "id": 6155686988, "lat": 47.0591341, "lon": 21.916987}, {"type": "node", "id": 6155686989, "lat": 47.0590959, "lon": 21.9172485}, {"type": "node", "id": 6155686990, "lat": 47.0592274, "lon": 21.9172899}, {"type": "node", "id": 6155686991, "lat": 47.0592399, "lon": 21.9172047}, {"type": "node", "id": 6155686992, "lat": 47.0593424, "lon": 21.9172369}, {"type": "node", "id": 6155686993, "lat": 47.0593251, "lon": 21.917355}, {"type": "node", "id": 6155686994, "lat": 47.0594109, "lon": 21.917382}, {"type": "node", "id": 6661027662, "lat": 47.082445, "lon": 21.9204204}, {"type": "node", "id": 6661027663, "lat": 47.0823814, "lon": 21.9205366}, {"type": "node", "id": 6661027664, "lat": 47.0824284, "lon": 21.9205921}, {"type": "node", "id": 6661027665, "lat": 47.0824427, "lon": 21.920566}, {"type": "node", "id": 6661027666, "lat": 47.0825025, "lon": 21.9206366}, {"type": "node", "id": 6661027667, "lat": 47.0824839, "lon": 21.9206705}, {"type": "node", "id": 6661027668, "lat": 47.0825772, "lon": 21.9207807}, {"type": "node", "id": 6661027669, "lat": 47.0826499, "lon": 21.9206478}, {"type": "node", "id": 6661027670, "lat": 47.0825611, "lon": 21.9205429}, {"type": "node", "id": 6661027671, "lat": 47.0825449, "lon": 21.9205724}, {"type": "node", "id": 6661027672, "lat": 47.0824897, "lon": 21.9205072}, {"type": "node", "id": 6661027673, "lat": 47.082501, "lon": 21.9204866}, {"type": "node", "id": 6734859029, "lat": 47.075506, "lon": 21.9040103}, {"type": "node", "id": 6734859030, "lat": 47.0753445, "lon": 21.9044247}, {"type": "node", "id": 6734859031, "lat": 47.0752681, "lon": 21.9043604}, {"type": "node", "id": 6734859032, "lat": 47.075284, "lon": 21.9043196}, {"type": "node", "id": 6734859033, "lat": 47.0751736, "lon": 21.9042268}, {"type": "node", "id": 6734859034, "lat": 47.0752612, "lon": 21.904002}, {"type": "node", "id": 6734859035, "lat": 47.075372, "lon": 21.9040951}, {"type": "node", "id": 6734859036, "lat": 47.07543, "lon": 21.9039464}, {"type": "node", "id": 7108900032, "lat": 47.0518741, "lon": 21.9053688}, {"type": "node", "id": 7108900033, "lat": 47.051969, "lon": 21.9054446}, {"type": "node", "id": 7108900034, "lat": 47.0519197, "lon": 21.9055778}, {"type": "node", "id": 7108900037, "lat": 47.0518247, "lon": 21.9055021}, {"type": "node", "id": 7580342934, "lat": 47.0437379, "lon": 21.9019356}, {"type": "node", "id": 7580342935, "lat": 47.0438128, "lon": 21.901845}, {"type": "node", "id": 7580342936, "lat": 47.0437567, "lon": 21.9018245}, {"type": "node", "id": 7580342937, "lat": 47.0438407, "lon": 21.9016803}, {"type": "node", "id": 7580342938, "lat": 47.0439206, "lon": 21.9018765}, {"type": "node", "id": 7580342939, "lat": 47.0439528, "lon": 21.9018883}, {"type": "node", "id": 7903315817, "lat": 47.0455468, "lon": 21.9098113}, {"type": "node", "id": 7903315818, "lat": 47.0453644, "lon": 21.9097154}, {"type": "node", "id": 7903315819, "lat": 47.0453356, "lon": 21.9098334}, {"type": "node", "id": 7903315820, "lat": 47.0453646, "lon": 21.9098487}, {"type": "node", "id": 7903315821, "lat": 47.0453444, "lon": 21.9099314}, {"type": "node", "id": 7903315822, "lat": 47.0452922, "lon": 21.909904}, {"type": "node", "id": 7903315823, "lat": 47.0452543, "lon": 21.9100596}, {"type": "node", "id": 7903315824, "lat": 47.045436, "lon": 21.910155}, {"type": "node", "id": 7903315825, "lat": 47.0454888, "lon": 21.9099386}, {"type": "node", "id": 7903315826, "lat": 47.0455127, "lon": 21.9099512}, {"type": "node", "id": 7903315835, "lat": 47.043819, "lon": 21.9017855}, {"type": "node", "id": 7903315836, "lat": 47.0439274, "lon": 21.9018254}, {"type": "node", "id": 8598798467, "lat": 47.1131097, "lon": 21.8102472}, {"type": "node", "id": 8598798468, "lat": 47.1130385, "lon": 21.8101828}, {"type": "node", "id": 8598798469, "lat": 47.1130932, "lon": 21.8100661}, {"type": "node", "id": 9314756906, "lat": 47.1115025, "lon": 21.8949825}, {"type": "node", "id": 9314756907, "lat": 47.1114856, "lon": 21.895138}, {"type": "node", "id": 9314756909, "lat": 47.1114029, "lon": 21.8949662}, {"type": "node", "id": 9314756910, "lat": 47.1113801, "lon": 21.8951714}, {"type": "node", "id": 9314756911, "lat": 47.1114805, "lon": 21.8951901}, {"type": "node", "id": 9314756912, "lat": 47.1115796, "lon": 21.8968095}, {"type": "node", "id": 9314756913, "lat": 47.1114835, "lon": 21.8967933}, {"type": "node", "id": 9314756914, "lat": 47.1114656, "lon": 21.8970221}, {"type": "node", "id": 9314756915, "lat": 47.1115617, "lon": 21.8970383}, {"type": "node", "id": 9314761837, "lat": 47.1065268, "lon": 21.8952902}, {"type": "node", "id": 9314761838, "lat": 47.1063616, "lon": 21.8952452}, {"type": "node", "id": 9314761839, "lat": 47.1063412, "lon": 21.8954074}, {"type": "node", "id": 9314761840, "lat": 47.1065063, "lon": 21.8954524}, {"type": "node", "id": 9314761847, "lat": 47.1063445, "lon": 21.8953812}, {"type": "node", "id": 9396798597, "lat": 47.350647, "lon": 22.091514, "tags": {"amenity": "fuel", "contact:email": "infoline@rompetrol.com", "contact:phone": "+40 745 667 735", "contact:website": "https://www.rompetrol.ro/", "name": "Rompetrol", "opening_hours": "24/7"}}, {"type": "way", "id": 203530886, "nodes": [2135418110, 2135418119, 2135418106, 2135418112, 2136345618, 2136345621, 2135418110], "tags": {"amenity": "fuel", "brand": "MOL", "building": "yes"}}, {"type": "way", "id": 243219761, "nodes": [2506380337, 2506380323, 2506380319, 2506380326, 2506380330, 2506380334, 2506380337], "tags": {"amenity": "fuel", "building": "yes"}}, {"type": "way", "id": 259541285, "nodes": [2649687188, 2649687191, 2649687194, 2649687197, 2649687188], "tags": {"addr:city": "Oradea", "addr:housenumber": "51", "addr:postcode": "410219", "addr:street": "Bulevardul Decebal", "amenity": "fuel", "building": "yes", "name": "MOL", "operator": "MOL"}}, {"type": "way", "id": 421260366, "nodes": [4210463157, 4210463162, 7903315836, 7580342938, 7580342939, 4210463161, 7580342934, 7580342936, 7580342935, 7903315835, 7580342937, 4210463155, 4210463157], "tags": {"addr:city": "Oradea", "addr:housenumber": "85", "addr:postcode": "410240", "addr:street": "Calea Aradului", "amenity": "fuel", "brand": "Gazprom", "brand:wikidata": "Q102673", "brand:wikipedia": "en:Gazprom", "building": "yes", "name": "Gazprom"}}, {"type": "way", "id": 423100434, "nodes": [4228002717, 4228002726, 4228002719, 4228002709, 4228002717], "tags": {"addr:city": "Oradea", "addr:housenumber": "4", "addr:street": "Strada Mihail Kog\u0103lniceanu", "amenity": "fuel", "building": "retail", "name": "Petrom"}}, {"type": "way", "id": 433862962, "nodes": [4323523411, 4323523412, 4323523414, 8598798467, 8598798468, 8598798469, 4323523415, 4323523416, 4323523411], "tags": {"amenity": "fuel", "brand": "Rompetrol", "building": "roof", "contact:email": "infoline@rompetrol.com", "contact:phone": "+40 372 784 418", "contact:website": "https://www.rompetrol.ro/", "name": "Rompetrol", "opening_hours": "24/7"}}, {"type": "way", "id": 511430361, "nodes": [5002673697, 5002673698, 5002673699, 4331615764, 5002673697], "tags": {"amenity": "fuel", "brand": "MOL", "building": "retail", "name": "MOL", "operator": "MOL"}}, {"type": "way", "id": 511551790, "nodes": [5003670041, 5003670042, 5003670043, 5003670044, 5003670041], "tags": {"addr:city": "Biharkeresztes", "addr:postcode": "4110", "addr:street": "42. sz\u00e1m\u00fa f\u0151k\u00f6zleked\u00e9si \u00fat", "air_conditioning": "yes", "amenity": "fuel", "brand": "MOL", "brand:wikidata": "Q549181", "brand:wikipedia": "hu:MOL Magyar Olaj- \u00e9s G\u00e1zipari Nyrt.", "building": "retail", "compressed_air": "yes", "contact:facebook": "https://www.facebook.com/mol.magyarorszag/", "contact:instagram": "https://www.instagram.com/mol.magyarorszag/", "contact:website": "https://www.mol.hu", "contact:youtube": "https://www.youtube.com/user/molgrouptv", "food": "no", "fuel:GTL_diesel": "yes", "fuel:adblue": "no", "fuel:diesel": "yes", "fuel:lpg": "no", "fuel:octane_100": "yes", "fuel:octane_95": "yes", "name": "MOL", "operator": "MOL Nyrt.", "operator:addr": "1117 Budapest, Domb\u00f3v\u00e1ri \u00fat 28.", "payment:cash": "yes", "payment:contactless": "yes", "payment:maestro": "yes", "payment:mastercard": "yes", "payment:mastercard_contactless": "yes", "payment:mastercard_electronic": "yes", "payment:visa": "yes", "payment:visa_electron": "yes", "ref:HU:company": "01-10-041683", "ref:HU:vatin": "10625790-4-44", "rent:lpg_bottles": "yes", "source": "website", "source:date": "2022-05-21", "truck": "no"}}, {"type": "way", "id": 511639729, "nodes": [5004366274, 5004366275, 5004366276, 5004366277, 5004366274], "tags": {"amenity": "fuel", "brand": "Lukoil", "building": "retail", "name": "Lukoil"}}, {"type": "way", "id": 511639746, "nodes": [5004366996, 5004366997, 5004366998, 5004366999, 5004366996], "tags": {"amenity": "fuel", "brand": "MOL", "brand:wikidata": "Q549181", "brand:wikipedia": "en:MOL (company)", "building": "retail", "name": "MOL", "operator": "MOL"}}, {"type": "way", "id": 657246975, "nodes": [6155686987, 6155686988, 6155686989, 6155686990, 6155686991, 6155686992, 6155686993, 6155686994, 6155686987], "tags": {"amenity": "fuel", "brand": "OMV", "brand:wikidata": "Q168238", "brand:wikipedia": "en:OMV", "building": "yes", "name": "OMV"}}, {"type": "way", "id": 708887560, "nodes": [6661027662, 6661027663, 6661027664, 6661027665, 6661027666, 6661027667, 6661027668, 6661027669, 6661027670, 6661027671, 6661027672, 6661027673, 6661027662], "tags": {"amenity": "fuel", "brand": "MOL", "brand:wikidata": "Q549181", "brand:wikipedia": "en:MOL (company)", "building": "yes", "name": "MOL"}}, {"type": "way", "id": 717082628, "nodes": [6734859029, 6734859030, 6734859031, 6734859032, 6734859033, 6734859034, 6734859035, 6734859036, 6734859029], "tags": {"addr:city": "Oradea", "addr:housenumber": "2B", "addr:street": "Calea Bor\u0219ului", "amenity": "fuel", "brand": "Petrom", "brand:wikidata": "Q1755034", "brand:wikipedia": "en:Petrom", "building": "yes", "name": "Petrom"}}, {"type": "way", "id": 760915987, "nodes": [7108900037, 7108900032, 7108900033, 7108900034, 7108900037], "tags": {"addr:city": "Oradea", "amenity": "fuel", "brand": "Rompetrol", "brand:wikidata": "Q1788862", "brand:wikipedia": "en:Rompetrol", "building": "retail", "contact:email": "infoline@rompetrol.com", "contact:phone": "+40 372 784 952", "contact:website": "https://www.rompetrol.ro/", "name": "Rompetrol", "opening_hours": "24/7"}}, {"type": "way", "id": 846970278, "nodes": [7903315817, 7903315818, 7903315819, 7903315820, 7903315821, 7903315822, 7903315823, 7903315824, 7903315825, 7903315826, 7903315817], "tags": {"amenity": "fuel", "brand": "Rompetrol", "brand:wikidata": "Q1788862", "brand:wikipedia": "en:Rompetrol", "building": "yes", "contact:email": "infoline@rompetrol.com", "contact:phone": "+40 749 274 376", "contact:website": "https://www.rompetrol.ro/", "name": "Rompetrol", "opening_hours": "24/7"}}, {"type": "way", "id": 1009535246, "nodes": [9314756906, 9314756909, 9314756910, 9314756911, 9314756907, 9314756906], "tags": {"amenity": "fuel", "brand": "Gazprom", "brand:wikidata": "Q102673", "brand:wikipedia": "en:Gazprom", "building": "yes", "name": "Gazprom"}}, {"type": "way", "id": 1009535247, "nodes": [9314756912, 9314756913, 9314756914, 9314756915, 9314756912], "tags": {"amenity": "fuel", "brand": "Lukoil", "brand:wikidata": "Q329347", "brand:wikipedia": "en:Lukoil", "building": "yes", "name": "Lukoil"}}, {"type": "way", "id": 1009535254, "nodes": [9314761837, 9314761838, 9314761847, 9314761839, 9314761840, 9314761837], "tags": {"amenity": "fuel", "brand": "Socar", "brand:wikidata": "Q1622293", "brand:wikipedia": "en:SOCAR", "building": "yes", "name": "Socar"}}]}