{"version": 0.6, "generator": "Overpass API 0.7.59 e21c39fe", "osm3s": {"timestamp_osm_base": "2023-01-21T09:46:07Z", "copyright": "The data included in this document is from www.openstreetmap.org. The data is made available under ODbL."}, "elements": [{"type": "node", "id": 198915144, "lat": 46.634687, "lon": 18.6529474, "tags": {"amenity": "fuel", "created_by": "Potlatch 0.6"}}, {"type": "node", "id": 199074959, "lat": 46.8343036, "lon": 18.9097997, "tags": {"amenity": "fuel", "email": "info@normbenz.hu", "name": "Orlen", "operator": "Normbenz Magyarorsz\u00e1g Kft.", "website": "https://orlen.hu/"}}, {"type": "node", "id": 199109806, "lat": 46.8125638, "lon": 18.9102869, "tags": {"addr:city": "Dunaf\u00f6ldv\u00e1r", "addr:postcode": "7020", "addr:street": "6-os \u00fat", "air_conditioning": "yes", "amenity": "fuel", "brand": "MOL", "brand:wikidata": "Q549181", "brand:wikipedia": "hu:MOL Magyar Olaj- \u00e9s G\u00e1zipari Nyrt.", "compressed_air": "yes", "contact:facebook": "https://www.facebook.com/mol.magyarorszag/", "contact:instagram": "https://www.instagram.com/mol.magyarorszag/", "contact:website": "https://www.mol.hu", "contact:youtube": "https://www.youtube.com/user/molgrouptv", "food": "no", "fuel:GTL_diesel": "yes", "fuel:adblue": "no", "fuel:diesel": "yes", "fuel:lpg": "no", "fuel:octane_100": "yes", "fuel:octane_95": "yes", "name": "MOL", "opening_hours": "06:00-20:00", "operator": "MOL Nyrt.", "operator:addr": "1117 Budapest, Domb\u00f3v\u00e1ri \u00fat 28.", "payment:cash": "yes", "payment:contactless": "yes", "payment:maestro": "yes", "payment:mastercard": "yes", "payment:mastercard_contactless": "yes", "payment:mastercard_electronic": "yes", "payment:visa": "yes", "payment:visa_electron": "yes", "ref:HU:company": "01-10-041683", "ref:HU:vatin": "10625790-4-44", "rent:lpg_bottles": "yes", "source": "website", "source:date": "2022-05-21", "truck": "no", "wheelchair": "yes"}}, {"type": "node", "id": 199266760, "lat": 46.7948118, "lon": 18.9183947, "tags": {"addr:city": "Dunaf\u00f6ldv\u00e1r", "addr:housenumber": "125/A", "addr:postcode": "7020", "addr:street": "Paksi utca", "air_conditioning": "yes", "amenity": "fuel", "brand": "OMV", "brand:wikidata": "Q168238", "brand:wikipedia": "en:OMV", "compressed_air": "yes", "contact:email": "info.hungary@omv.com", "contact:facebook": "https://www.facebook.com/omvmagyarorszag", "contact:fax": "+36 1 381 9899", "contact:instagram": "https://www.instagram.com/omv/", "contact:linkedin": "https://www.linkedin.com/company/omv", "contact:twitter": "omv", "contact:website": "https://www.omv.hu", "contact:youtube": "https://www.youtube.com/user/omvofficial", "fuel:GTL_diesel": "yes", "fuel:diesel": "yes", "fuel:octane_100": "yes", "fuel:octane_95": "yes", "name": "OMV", "opening_hours": "Mo-Su 06:00-21:00; PH off", "opening_hours:covid19": "same", "operator": "OMV Hung\u00e1ria Kft.", "operator:addr": "1117 Budapest, Okt\u00f3ber huszonharmadika utca 6-10 5. emelet 5/A.", "payment:cash": "yes", "payment:contactless": "yes", "payment:maestro": "yes", "payment:mastercard": "yes", "payment:mastercard_contactless": "yes", "payment:mastercard_electronic": "yes", "payment:visa": "yes", "payment:visa_electron": "yes", "ref:HU:company": "01-09-071584", "ref:HU:vatin": "10542925-2-44", "ref:vatin": "HU10542925", "source": "website", "source:date": "2020-10-03"}}, {"type": "node", "id": 199276931, "lat": 46.7172173, "lon": 18.7697531, "tags": {"amenity": "fuel", "check_date": "2022-12-15", "contact:facebook": "https://hu-hu.facebook.com/people/N%C3%A9metk%C3%A9r-Benzink%C3%BAt/100088732836551/", "email": "nemetkerbenzinkut@gmail.com", "fuel:diesel": "yes", "fuel:octane_95": "yes", "name": "Natoil", "opening_hours": "Mo-Fr 07:00-11:00, 15:00-18:00; Sa 08:00-12:00", "phone": "+36 20 312 4971", "self_service": "yes"}}, {"type": "node", "id": 312919585, "lat": 46.6295943, "lon": 18.6972097, "tags": {"amenity": "fuel", "created_by": "Potlatch 0.10f"}}, {"type": "node", "id": 315204012, "lat": 46.6190319, "lon": 18.857881, "tags": {"addr:city": "Paks", "addr:postcode": "7030", "addr:street": "6. sz\u00e1m\u00fa f\u0151k\u00f6zleked\u00e9si \u00fat", "air_conditioning": "yes", "amenity": "fuel", "brand": "OMV", "brand:wikidata": "Q168238", "brand:wikipedia": "en:OMV", "compressed_air": "yes", "contact:email": "info.hungary@omv.com", "contact:facebook": "https://www.facebook.com/omvmagyarorszag", "contact:fax": "+36 1 381 9899", "contact:instagram": "https://www.instagram.com/omv/", "contact:linkedin": "https://www.linkedin.com/company/omv", "contact:phone": "+36 75 310 578", "contact:twitter": "omv", "contact:website": "https://www.omv.hu", "contact:youtube": "https://www.youtube.com/user/omvofficial", "fuel:GTL_diesel": "yes", "fuel:diesel": "yes", "fuel:octane_100": "yes", "fuel:octane_95": "yes", "name": "OMV", "opening_hours": "Mo-Su 06:00-22:00; PH off", "opening_hours:covid19": "same", "operator": "OMV Hung\u00e1ria Kft.", "operator:addr": "1117 Budapest, Okt\u00f3ber huszonharmadika utca 6-10 5. emelet 5/A.", "payment:cash": "yes", "payment:contactless": "yes", "payment:maestro": "yes", "payment:mastercard": "yes", "payment:mastercard_contactless": "yes", "payment:mastercard_electronic": "yes", "payment:visa": "yes", "payment:visa_electron": "yes", "ref:HU:company": "01-09-071584", "ref:HU:vatin": "10542925-2-44", "ref:vatin": "HU10542925", "source": "website", "source:date": "2020-10-03", "wheelchair": "yes"}}, {"type": "node", "id": 315204100, "lat": 46.6133463, "lon": 18.8533476, "tags": {"addr:city": "Paks", "addr:postcode": "7030", "addr:street": "6. sz\u00e1m\u00fa f\u0151k\u00f6zleked\u00e9si \u00fat", "air_conditioning": "yes", "amenity": "fuel", "brand": "MOL", "brand:wikidata": "Q549181", "brand:wikipedia": "hu:MOL Magyar Olaj- \u00e9s G\u00e1zipari Nyrt.", "compressed_air": "yes", "contact:facebook": "https://www.facebook.com/mol.magyarorszag/", "contact:instagram": "https://www.instagram.com/mol.magyarorszag/", "contact:website": "https://www.mol.hu", "contact:youtube": "https://www.youtube.com/user/molgrouptv", "food": "yes", "fuel:GTL_diesel": "yes", "fuel:HGV_diesel": "yes", "fuel:adblue": "yes", "fuel:diesel": "yes", "fuel:lpg": "yes", "fuel:octane_100": "yes", "fuel:octane_95": "yes", "name": "MOL", "note": "Old user replaced.", "opening_hours": "24/7", "operator": "MOL Nyrt.", "operator:addr": "1117 Budapest, Domb\u00f3v\u00e1ri \u00fat 28.", "payment:cash": "yes", "payment:contactless": "yes", "payment:maestro": "yes", "payment:mastercard": "yes", "payment:mastercard_contactless": "yes", "payment:mastercard_electronic": "yes", "payment:visa": "yes", "payment:visa_electron": "yes", "phone": "+36 75 510 993", "ref:HU:company": "01-10-041683", "ref:HU:vatin": "10625790-4-44", "rent:lpg_bottles": "yes", "shop": "yes", "source": "website", "source:date": "2022-07-11", "wheelchair": "yes"}}, {"type": "node", "id": 867262061, "lat": 46.6431345, "lon": 18.8173148, "tags": {"amenity": "fuel", "brand": "Mobil Petrol", "contact:email": "info@mpetrol.hu", "contact:website": "http://www.mpetrol.hu/", "name": "Mobil Petrol", "operator": "Mobil Petrol"}}, {"type": "node", "id": 872667008, "lat": 46.6386877, "lon": 19.0036875, "tags": {"amenity": "fuel", "brand": "Agip", "brand:wikidata": "Q377915", "brand:wikipedia": "en:Agip", "name": "Agip", "website": "https://www.eni.com/"}}, {"type": "node", "id": 1038560028, "lat": 46.6469281, "lon": 18.8148528, "tags": {"amenity": "fuel", "brand": "Mobil Petrol", "contact:email": "info@mpetrol.hu", "contact:website": "http://www.mpetrol.hu/", "name": "Mobil Petrol", "operator": "Mobil Petrol"}}, {"type": "node", "id": 1916812322, "lat": 46.5876191, "lon": 18.9005748, "tags": {"amenity": "fuel"}}, {"type": "node", "id": 1947729127, "lat": 46.914766, "lon": 18.9272271, "tags": {"amenity": "fuel", "fuel:diesel": "yes", "fuel:lpg": "no", "fuel:octane_95": "yes", "name": "DUNA PETROL"}}, {"type": "node", "id": 2396622270, "lat": 46.8084035, "lon": 19.0055495}, {"type": "node", "id": 2396627147, "lat": 46.8190197, "lon": 18.9684004, "tags": {"addr:city": "Solt", "addr:housenumber": "97", "addr:postcode": "6320", "addr:street": "F\u00f6ldv\u00e1ri \u00fat", "amenity": "fuel", "brand": "M.Oil", "brand:wikidata": "Q62296914", "building": "yes", "contact:phone": "+36 78 588 099", "fuel:diesel": "yes", "fuel:lpg": "yes", "fuel:octane_95": "yes", "name": "Moil", "opening_hours": "Mo-Su 00:00-24:00", "operator": "Moil", "url": "https://nyitva.hu/solt/moil-205262", "website": "https://www.eni.com/"}}, {"type": "node", "id": 2827139059, "lat": 46.8137449, "lon": 18.9079928, "tags": {"amenity": "fuel", "brand": "Shell", "brand:wikidata": "Q110716465", "name": "Shell", "wheelchair": "yes"}}, {"type": "node", "id": 3170173816, "lat": 46.6664489, "lon": 18.8799451, "tags": {"amenity": "fuel", "name": "Palot\u00e1s", "source": "survey"}}, {"type": "node", "id": 3334249618, "lat": 46.89754, "lon": 18.61419, "tags": {"addr:city": "S\u00e1rbog\u00e1rd", "addr:housenumber": "3", "addr:postcode": "7000", "addr:street": "Ady Endre \u00fat", "air_conditioning": "yes", "amenity": "fuel", "brand": "OMV", "brand:wikidata": "Q168238", "brand:wikipedia": "en:OMV", "compressed_air": "yes", "contact:email": "info.hungary@omv.com", "contact:facebook": "https://www.facebook.com/omvmagyarorszag", "contact:fax": "+36 1 381 9899", "contact:instagram": "https://www.instagram.com/omv/", "contact:linkedin": "https://www.linkedin.com/company/omv", "contact:phone": "+36 25 460 016", "contact:twitter": "omv", "contact:website": "https://www.omv.hu", "contact:youtube": "https://www.youtube.com/user/omvofficial", "fuel:GTL_diesel": "yes", "fuel:diesel": "yes", "fuel:octane_100": "yes", "fuel:octane_95": "yes", "name": "OMV", "opening_hours": "Mo-Su 06:00-22:00; PH off", "opening_hours:covid19": "same", "operator": "OMV Hung\u00e1ria Kft.", "operator:addr": "1117 Budapest, Okt\u00f3ber huszonharmadika utca 6-10 5. emelet 5/A.", "payment:cash": "yes", "payment:contactless": "yes", "payment:maestro": "yes", "payment:mastercard": "yes", "payment:mastercard_contactless": "yes", "payment:mastercard_electronic": "yes", "payment:visa": "yes", "payment:visa_electron": "yes", "ref:HU:company": "01-09-071584", "ref:HU:vatin": "10542925-2-44", "ref:vatin": "HU10542925", "source": "website", "source:date": "2020-10-03"}}, {"type": "node", "id": 3452046620, "lat": 46.8082658, "lon": 19.0055415}, {"type": "node", "id": 3452046621, "lat": 46.8082675, "lon": 19.0054789}, {"type": "node", "id": 3452046622, "lat": 46.8082854, "lon": 19.00548}, {"type": "node", "id": 3452046623, "lat": 46.8082904, "lon": 19.0052984}, {"type": "node", "id": 3452046627, "lat": 46.8084102, "lon": 19.0053054}, {"type": "node", "id": 3452835446, "lat": 46.7364, "lon": 18.9505, "tags": {"amenity": "fuel", "name": "Diesel \u00fczemanyagt\u00f6lt\u0151 \u00e1llom\u00e1s", "source": "turistautak.hu", "source:date": "2012-01-01", "url": "http://turistautak.hu/poi.php?id=131398"}}, {"type": "node", "id": 3452835582, "lat": 46.831414, "lon": 18.921523, "tags": {"amenity": "fuel", "name": "LUKOIL Tankert\u00f6lt\u0151", "source": "turistautak.hu", "source:date": "2015-01-12", "url": "http://turistautak.hu/poi.php?id=74649", "wheelchair": "yes"}}, {"type": "node", "id": 3452836144, "lat": 46.6124435, "lon": 18.6517834, "tags": {"amenity": "fuel", "source": "turistautak.hu", "source:date": "2012-01-01", "url": "http://turistautak.hu/poi.php?id=127552"}}, {"type": "node", "id": 3454477982, "lat": 46.935171, "lon": 18.952709, "tags": {"amenity": "fuel", "brand": "OMV", "brand:wikidata": "Q168238", "brand:wikipedia": "en:OMV", "name": "OMV", "source": "turistautak.hu", "source:date": "2015-01-12", "url": "http://turistautak.hu/poi.php?id=73211"}}, {"type": "node", "id": 3454478622, "lat": 46.9275603, "lon": 18.9346686, "tags": {"amenity": "fuel", "name": "Supermol", "source": "turistautak.hu", "source:date": "2015-01-12", "url": "http://turistautak.hu/poi.php?id=36611"}}, {"type": "node", "id": 3454478666, "lat": 46.8319767, "lon": 18.8307202, "tags": {"addr:city": "El\u0151sz\u00e1ll\u00e1s", "amenity": "fuel", "brand": "TT.AG", "fuel:diesel": "yes", "fuel:octane_95": "yes", "name": "TT.AG", "source": "turistautak.hu", "source:date": "2012-01-01", "url": "http://turistautak.hu/poi.php?id=97378"}}, {"type": "node", "id": 3461942284, "lat": 46.9039073, "lon": 18.9742407, "tags": {"amenity": "fuel", "source": "turistautak.hu", "source:date": "2011-06-24", "url": "http://turistautak.hu/poi.php?id=72885"}}, {"type": "node", "id": 3465129290, "lat": 46.7713758, "lon": 18.6251324, "tags": {"addr:city": "Cece", "addr:housenumber": "2", "addr:postcode": "7013", "addr:street": "Vas\u00fat utca", "air_conditioning": "yes", "amenity": "fuel", "brand": "OMV", "brand:wikidata": "Q168238", "brand:wikipedia": "en:OMV", "compressed_air": "yes", "contact:email": "info.hungary@omv.com", "contact:facebook": "https://www.facebook.com/omvmagyarorszag", "contact:fax": "+36 1 381 9899", "contact:instagram": "https://www.instagram.com/omv/", "contact:linkedin": "https://www.linkedin.com/company/omv", "contact:twitter": "omv", "contact:website": "https://www.omv.hu", "contact:youtube": "https://www.youtube.com/user/omvofficial", "description": "Nyitva: 06-23 (?)", "fuel:GTL_diesel": "yes", "fuel:diesel": "yes", "fuel:octane_100": "yes", "fuel:octane_95": "yes", "name": "OMV", "opening_hours": "Mo-Su 05:00-22:00; PH off", "opening_hours:covid19": "same", "operator": "OMV Hung\u00e1ria Kft.", "operator:addr": "1117 Budapest, Okt\u00f3ber huszonharmadika utca 6-10 5. emelet 5/A.", "payment:cash": "yes", "payment:contactless": "yes", "payment:maestro": "yes", "payment:mastercard": "yes", "payment:mastercard_contactless": "yes", "payment:mastercard_electronic": "yes", "payment:visa": "yes", "payment:visa_electron": "yes", "ref:HU:company": "01-09-071584", "ref:HU:vatin": "10542925-2-44", "ref:vatin": "HU10542925", "source": "website", "source:date": "2020-10-03", "toilets:wheelchair": "yes", "wheelchair": "yes"}}, {"type": "node", "id": 3465129535, "lat": 46.8622362, "lon": 18.6290002, "tags": {"addr:city": "S\u00e1rbog\u00e1rd", "addr:housenumber": "147", "addr:postcode": "7003", "addr:street": "K\u00f6zt\u00e1rsas\u00e1g utca", "air_conditioning": "yes", "amenity": "fuel", "brand": "MOL", "brand:wikidata": "Q549181", "brand:wikipedia": "hu:MOL Magyar Olaj- \u00e9s G\u00e1zipari Nyrt.", "compressed_air": "yes", "contact:facebook": "https://www.facebook.com/mol.magyarorszag/", "contact:instagram": "https://www.instagram.com/mol.magyarorszag/", "contact:website": "https://www.mol.hu", "contact:youtube": "https://www.youtube.com/user/molgrouptv", "description": "MOL benzink\u00fat S\u00e1rbog\u00e1rdon, a 63-as f\u0151\u00fat ment\u00e9n.", "food": "no", "fuel:GTL_diesel": "yes", "fuel:adblue": "no", "fuel:diesel": "yes", "fuel:lpg": "yes", "fuel:octane_100": "yes", "fuel:octane_95": "yes", "name": "MOL", "opening_hours": "06:00-20:00", "operator": "MOL Nyrt.", "operator:addr": "1117 Budapest, Domb\u00f3v\u00e1ri \u00fat 28.", "payment:cash": "yes", "payment:contactless": "yes", "payment:maestro": "yes", "payment:mastercard": "yes", "payment:mastercard_contactless": "yes", "payment:mastercard_electronic": "yes", "payment:visa": "yes", "payment:visa_electron": "yes", "ref:HU:company": "01-10-041683", "ref:HU:vatin": "10625790-4-44", "rent:lpg_bottles": "yes", "source": "turistautak.hu;website", "source:date": "2022-05-21", "truck": "no", "url": "http://turistautak.hu/poi.php?id=16044"}}, {"type": "node", "id": 8668252619, "lat": 46.7980213, "lon": 19.0443787, "tags": {"amenity": "fuel", "brand": "52", "fuel:diesel": "yes", "fuel:e10": "yes", "fuel:lpg": "yes", "fuel:octane_95": "yes"}}, {"type": "node", "id": 8668347533, "lat": 46.8193488, "lon": 18.972128, "tags": {"addr:city": "Solt", "addr:housenumber": "97", "addr:postcode": "6320", "addr:street": "F\u00f6ldv\u00e1ri \u00fat", "amenity": "fuel", "brand": "M.Oil", "brand:wikidata": "Q62296914", "building": "yes", "contact:phone": "+36 78 588 099", "fuel:diesel": "yes", "fuel:lpg": "yes", "fuel:octane_95": "yes", "name": "Moil", "opening_hours": "Mo-Su 00:00-24:00", "operator": "Moil", "url": "https://nyitva.hu/solt/moil-205262", "website": "https://www.eni.com/"}}, {"type": "node", "id": 8895193517, "lat": 46.8053976, "lon": 18.9289414, "tags": {"addr:city": "Dunaf\u00f6ldv\u00e1r", "addr:housenumber": "15", "addr:postcode": "7020", "addr:street": "Vak Botty\u00e1n t\u00e9r", "amenity": "fuel", "name": "Mobil Petrol", "phone": "36 70 74 64 122"}}, {"type": "way", "id": 231256315, "nodes": [3452046622, 3452046623, 3452046627, 2396622270, 3452046620, 3452046621, 3452046622], "tags": {"addr:city": "Solt", "addr:housenumber": "52", "addr:postcode": "6320", "addr:street": "Vecsei \u00fat", "air_conditioning": "yes", "amenity": "fuel", "brand": "MOL", "brand:wikidata": "Q549181", "brand:wikipedia": "hu:MOL Magyar Olaj- \u00e9s G\u00e1zipari Nyrt.", "building": "yes", "compressed_air": "yes", "contact:facebook": "https://www.facebook.com/mol.magyarorszag/", "contact:instagram": "https://www.instagram.com/mol.magyarorszag/", "contact:website": "https://www.mol.hu", "contact:youtube": "https://www.youtube.com/user/molgrouptv", "food": "no", "fuel:GTL_diesel": "yes", "fuel:adblue": "yes", "fuel:diesel": "yes", "fuel:lpg": "yes", "fuel:octane_100": "yes", "fuel:octane_95": "yes", "name": "MOL", "operator": "MOL Nyrt.", "operator:addr": "1117 Budapest, Domb\u00f3v\u00e1ri \u00fat 28.", "payment:cash": "yes", "payment:contactless": "yes", "payment:maestro": "yes", "payment:mastercard": "yes", "payment:mastercard_contactless": "yes", "payment:mastercard_electronic": "yes", "payment:visa": "yes", "payment:visa_electron": "yes", "ref:HU:company": "01-10-041683", "ref:HU:vatin": "10625790-4-44", "rent:lpg_bottles": "yes", "source": "website", "source:date": "2022-05-21", "truck": "no", "url": "https://nyitva.hu/solt/mol-t%C3%B6lt%C5%91%C3%A1llom%C3%A1s-23248"}}]}