{"version": 0.6, "generator": "Overpass API 0.7.59 e21c39fe", "osm3s": {"timestamp_osm_base": "2023-01-17T15:17:22Z", "copyright": "The data included in this document is from www.openstreetmap.org. The data is made available under ODbL."}, "elements": [{"type": "node", "id": 2505807205, "lat": 47.9357581, "lon": 21.7533905, "tags": {"addr:city": "Ny\u00edregyh\u00e1za", "addr:postcode": "4405", "addr:street": "K\u00e1ll\u00f3i \u00fat", "amenity": "pub", "name": "Aranykakas pressz\u00f3"}}, {"type": "node", "id": 2777346900, "lat": 47.984621, "lon": 21.6769199, "tags": {"addr:city": "Ny\u00edregyh\u00e1za", "addr:housenumber": "35/a", "addr:postcode": "4400", "addr:street": "Tokaji \u00fat", "addr:suburb": "Fels\u0151p\u00e1zsit", "amenity": "pub", "opening_hours": "off", "outdoor_seating": "yes", "smoking": "outside"}}, {"type": "node", "id": 2777347953, "lat": 47.9782899, "lon": 21.6847647, "tags": {"addr:city": "Ny\u00edregyh\u00e1za", "addr:housenumber": "1", "addr:postcode": "4400", "addr:street": "Sir\u00e1ly utca", "amenity": "pub", "name": "R\u00e1k\u00f3czi Cs\u00e1rda", "opening_hours": "off", "outdoor_seating": "yes", "smoking": "outside"}}, {"type": "node", "id": 2777348104, "lat": 47.959746, "lon": 21.7066703, "tags": {"amenity": "pub", "name": "R\u00e1k\u00f3czi pub", "outdoor_seating": "yes", "smoking": "outside"}}, {"type": "node", "id": 2777349369, "lat": 47.9596303, "lon": 21.711188, "tags": {"addr:city": "Ny\u00edregyh\u00e1za", "addr:housenumber": "2", "addr:postcode": "4400", "addr:street": "B\u00faza t\u00e9r", "amenity": "pub", "name": "Unicum Pub", "opening_hours": "Mo-Su 17:00-00:00", "outdoor_seating": "no", "phone": "+36 30 519 8840", "smoking": "outside"}}, {"type": "node", "id": 2783037658, "lat": 47.9474962, "lon": 21.7169403, "tags": {"addr:city": "Ny\u00edregyh\u00e1za", "addr:housenumber": "2", "addr:postcode": "4400", "addr:street": "K\u00edgy\u00f3 utca", "amenity": "pub", "brewery": "yes", "name": "D\u00f3zis s\u00f6r\u00f6z\u0151", "smoking": "outside"}}, {"type": "node", "id": 2978842486, "lat": 47.9804361, "lon": 22.2500652, "tags": {"amenity": "pub", "name": "P\u00e1lma pressz\u00f3"}}, {"type": "node", "id": 3029423478, "lat": 47.9600902, "lon": 21.7120421, "tags": {"amenity": "pub", "name": "Maximus s\u00f6r\u00f6z\u0151"}}, {"type": "node", "id": 3029477277, "lat": 47.9616556, "lon": 21.7135068, "tags": {"amenity": "pub", "name": "Irok\u00e9z pressz\u00f3"}}, {"type": "node", "id": 3030395197, "lat": 47.9470534, "lon": 21.7102712, "tags": {"amenity": "pub", "name": "Krajc\u00e1ros S\u00f6r\u00f6z\u0151"}}, {"type": "node", "id": 3031532561, "lat": 47.9655768, "lon": 21.7149284, "tags": {"amenity": "pub", "name": "M\u00e1rka Pressz\u00f3", "opening_hours": "Su-Th 07:00-23:00; Fr,Sa 07:00-24:00"}}, {"type": "node", "id": 3042972155, "lat": 47.9593396, "lon": 21.710455, "tags": {"addr:city": "Ny\u00edregyh\u00e1za", "addr:postcode": "4400", "addr:street": "B\u00faza t\u00e9r", "amenity": "pub", "name": "Vadvir\u00e1g s\u00f6r\u00f6z\u0151", "opening_hours": "05:00-21:00", "outdoor_seating": "yes", "smoking": "outside", "wheelchair": "no"}}, {"type": "node", "id": 3044111129, "lat": 47.9597592, "lon": 21.7144765, "tags": {"amenity": "pub", "name": "Utaz\u00f3 Pressz\u00f3", "smoking": "outside", "wheelchair": "no"}}, {"type": "node", "id": 3044130766, "lat": 47.9594498, "lon": 21.7153481, "tags": {"amenity": "pub", "name": "\u00d6reg Motoros S\u00f6r\u00f6z\u0151", "toilets:wheelchair": "limited", "wheelchair": "yes"}}, {"type": "node", "id": 3045611160, "lat": 47.9606607, "lon": 21.7145874, "tags": {"addr:city": "Ny\u00edregyh\u00e1za", "addr:housenumber": "25", "addr:postcode": "4400", "addr:street": "Kossuth utca", "amenity": "pub", "email": "info@jafi.hu", "internet_access": "wlan", "name": "Jafi Pizz\u00e9ria, \u00c9tterem, S\u00f6r\u00f6z\u0151", "opening_hours": "Mo-Th 14:00-23:00; Fr 14:00-18:00; Sa 14:00-16:00", "phone": "+36 42 341 753", "smoking": "outside", "website": "http://www.jafi.hu", "wheelchair": "no"}}, {"type": "node", "id": 3047233290, "lat": 47.9659231, "lon": 21.7221459}, {"type": "node", "id": 3047233291, "lat": 47.9659161, "lon": 21.7223304}, {"type": "node", "id": 3047233292, "lat": 47.9658246, "lon": 21.7222755}, {"type": "node", "id": 3047233293, "lat": 47.9658364, "lon": 21.7221331}, {"type": "node", "id": 3066780992, "lat": 47.950891, "lon": 21.7055399, "tags": {"addr:city": "Ny\u00edregyh\u00e1za", "addr:housenumber": "2", "addr:postcode": "4400", "addr:street": "Pet\u0151fi utca", "amenity": "pub", "contact:facebook": "https://facebook.com/bastyapresszo", "contact:phone": "+36 30 549 6440", "internet_access": "wlan", "name": "B\u00e1stya s\u00f6r\u00f6z\u0151", "opening_hours": "Mo-Th 07:00-23:30; Fr 07:00-01:00; Sa 17:00-23:30", "operator": "Somogyi P\u00e9ter"}}, {"type": "node", "id": 3066780995, "lat": 47.959287, "lon": 21.7089176, "tags": {"addr:city": "Ny\u00edregyh\u00e1za", "addr:postcode": "4400", "addr:street": "R\u00e1k\u00f3czi utca", "amenity": "pub", "brewery": "yes", "name": "Ny\u00edri F\u00e9szek s\u00f6r\u00f6z\u0151", "outdoor_seating": "yes", "smoking": "outside"}}, {"type": "node", "id": 3066780998, "lat": 47.9546835, "lon": 21.7189408, "tags": {"amenity": "pub", "name": "B\u00e9keb\u00edr\u00f3 s\u00f6r\u00f6z\u0151", "toilets:wheelchair": "limited", "wheelchair": "limited"}}, {"type": "node", "id": 3066797041, "lat": 47.9682454, "lon": 21.7138363, "tags": {"amenity": "pub", "name": "Sport s\u00f6r\u00f6z\u0151"}}, {"type": "node", "id": 3066797042, "lat": 47.9692903, "lon": 21.7130373, "tags": {"addr:city": "Ny\u00edregyh\u00e1za", "addr:housenumber": "24/a", "addr:postcode": "4400", "addr:street": "S\u00f3st\u00f3i \u00fat", "amenity": "pub", "name": "Stadion s\u00f6r\u00f6z\u0151", "smoking": "outside"}}, {"type": "node", "id": 3066797043, "lat": 47.9692141, "lon": 21.7085115, "tags": {"amenity": "pub", "name": "H\u00edmesi S\u00f6r\u00f6z\u0151"}}, {"type": "node", "id": 3066803859, "lat": 48.0142061, "lon": 21.6487841, "tags": {"amenity": "pub", "name": "Fekete Tulip\u00e1n"}}, {"type": "node", "id": 3070910640, "lat": 47.9851456, "lon": 21.6759408, "tags": {"addr:city": "Ny\u00edregyh\u00e1za", "addr:housenumber": "1", "addr:postcode": "4400", "addr:street": "S\u00e1tor utca", "addr:suburb": "Fels\u0151p\u00e1zsit", "amenity": "pub", "name": "Pirike B\u00fcf\u00e9", "opening_hours": "Mo-We, Fr-Su 07:00-10:00, 14:00-18:00", "outdoor_seating": "yes", "smoking": "outside"}}, {"type": "node", "id": 3070910646, "lat": 47.9601678, "lon": 21.7191901, "tags": {"amenity": "pub", "name": "4-es pressz\u00f3"}}, {"type": "node", "id": 3070989717, "lat": 47.9475822, "lon": 21.7058469, "tags": {"amenity": "pub", "name": "Tomi Pub"}}, {"type": "node", "id": 3070989718, "lat": 47.9472406, "lon": 21.7109593, "tags": {"amenity": "pub", "name": "Csillag Pressz\u00f3"}}, {"type": "node", "id": 3070989719, "lat": 47.9423616, "lon": 21.7125094, "tags": {"addr:city": "Ny\u00edregyh\u00e1za", "addr:postcode": "4400", "addr:street": "Toldi utca", "amenity": "pub", "name": "G\u00f3l Pressz\u00f3", "smoking": "outside"}}, {"type": "node", "id": 3085252243, "lat": 47.9496162, "lon": 21.7196087, "tags": {"amenity": "pub", "name": "H\u00e1rom r\u00f3zsa"}}, {"type": "node", "id": 3085254855, "lat": 47.958011, "lon": 21.7096807, "tags": {"amenity": "pub", "name": "Piac B\u00fcf\u00e9"}}, {"type": "node", "id": 3089539074, "lat": 47.9567249, "lon": 21.7183551, "tags": {"amenity": "pub", "name": "Yes S\u00f6r\u00f6z\u0151", "toilets:wheelchair": "no", "wheelchair": "limited"}}, {"type": "node", "id": 3094373910, "lat": 47.9725197, "lon": 21.7291417, "tags": {"amenity": "pub", "name": "Becks Pub"}}, {"type": "node", "id": 3094374095, "lat": 47.9747588, "lon": 21.7257974, "tags": {"amenity": "pub", "name": "Mignom Pressz\u00f3", "smoking": "outside"}}, {"type": "node", "id": 3095243938, "lat": 47.9565422, "lon": 21.8043749, "tags": {"amenity": "pub", "name": "Nosztalgi\u00e1z\u00f3 Pressz\u00f3"}}, {"type": "node", "id": 3095243939, "lat": 47.9590716, "lon": 21.8028735, "tags": {"amenity": "pub", "name": "Lugas Pub"}}, {"type": "node", "id": 3097624828, "lat": 47.9551867, "lon": 21.7128765, "tags": {"amenity": "pub", "name": "Drink Pub"}}, {"type": "node", "id": 3113242902, "lat": 47.9658458, "lon": 21.7221351}, {"type": "node", "id": 3113242905, "lat": 47.9659064, "lon": 21.7221435}, {"type": "node", "id": 3113242908, "lat": 47.9658314, "lon": 21.7221988}, {"type": "node", "id": 3147418529, "lat": 47.9622867, "lon": 21.7115664, "tags": {"amenity": "pub", "name": "Jegeske"}}, {"type": "node", "id": 3148151853, "lat": 47.9787021, "lon": 21.7271161, "tags": {"amenity": "pub", "name": "Pikol\u00f3 S\u00f6r\u00f6z\u0151", "opening_hours": "Mo-Fr 14:00-24:00; Sa,Su 15:00-24:00", "toilets:wheelchair": "no", "wheelchair": "limited"}}, {"type": "node", "id": 3149439216, "lat": 47.888205, "lon": 21.8415786, "tags": {"amenity": "pub"}}, {"type": "node", "id": 3149444479, "lat": 47.9353061, "lon": 21.7547966, "tags": {"amenity": "pub"}}, {"type": "node", "id": 3159366378, "lat": 47.956121, "lon": 21.7173258, "tags": {"amenity": "pub", "name": "John Bull Pub", "toilets:wheelchair": "yes", "wheelchair": "limited"}}, {"type": "node", "id": 3159366379, "lat": 47.9591213, "lon": 21.7115371, "tags": {"addr:city": "Ny\u00edregyh\u00e1za", "addr:housenumber": "19", "addr:postcode": "4400", "addr:street": "R\u00e1k\u00f3czi utca", "amenity": "pub", "brewery": "yes", "internet_access": "wlan", "name": "Blues Caf\u00e9", "opening_hours": "Mo-Th 14:00-00:00; Fr-Sa 14:00-02:00; Su 16:00-00:00", "outdoor_seating": "yes", "smoking": "outside"}}, {"type": "node", "id": 3159370362, "lat": 47.9549163, "lon": 21.7095629, "tags": {"amenity": "pub", "name": "M\u00f3riczkert Retro S\u00f6r\u00f6z\u0151"}}, {"type": "node", "id": 3203353626, "lat": 47.9639561, "lon": 21.7143149, "tags": {"amenity": "pub", "level": "0", "name": "\u00d6reg Bar\u00e1t S\u00f6r\u00f6z\u0151", "opening_hours": "06:00-20:00", "smoking": "no", "wheelchair": "limited"}}, {"type": "node", "id": 3209724882, "lat": 47.9506792, "lon": 21.7048346, "tags": {"addr:city": "Ny\u00edregyh\u00e1za", "addr:housenumber": "1", "addr:postcode": "4400", "addr:street": "Pet\u0151fi t\u00e9r", "amenity": "pub", "name": "Papa Presz\u00f3ja", "smoking": "outside", "toilets:wheelchair": "no", "wheelchair": "limited"}}, {"type": "node", "id": 3219213156, "lat": 47.9505257, "lon": 21.6845667, "tags": {"amenity": "pub", "name": "Aranyalma Pressz\u00f3", "toilets:wheelchair": "no", "wheelchair": "limited"}}, {"type": "node", "id": 3223413984, "lat": 47.9216565, "lon": 21.6509379, "tags": {"amenity": "pub", "name": "Ranch Pressz\u00f3"}}, {"type": "node", "id": 3258506720, "lat": 47.9662971, "lon": 21.7200148, "tags": {"amenity": "pub", "name": "Gar\u00e1zs Pressz\u00f3", "wheelchair": "yes"}}, {"type": "node", "id": 3259765220, "lat": 47.9162609, "lon": 21.6762107, "tags": {"amenity": "pub"}}, {"type": "node", "id": 3260504708, "lat": 47.9594131, "lon": 21.7153572, "tags": {"amenity": "pub", "name": "Pikol\u00f3 Pub", "toilets:wheelchair": "limited", "wheelchair": "yes"}}, {"type": "node", "id": 3267866595, "lat": 47.8320928, "lon": 22.1181329}, {"type": "node", "id": 3267866596, "lat": 47.8320008, "lon": 22.1181883}, {"type": "node", "id": 3267866597, "lat": 47.8321574, "lon": 22.1186576}, {"type": "node", "id": 3267866598, "lat": 47.8322278, "lon": 22.1186168}, {"type": "node", "id": 3267866599, "lat": 47.8322024, "lon": 22.1185031}, {"type": "node", "id": 3279502371, "lat": 47.9691409, "lon": 21.7084324, "tags": {"amenity": "pub", "name": "Csernyik S\u00f6r\u00f6z\u0151"}}, {"type": "node", "id": 3279502372, "lat": 47.9712313, "lon": 21.7114355, "tags": {"amenity": "pub", "name": "Ut\u00f3vizsga Pressz\u00f3"}}, {"type": "node", "id": 3279534055, "lat": 47.9599558, "lon": 21.7113186, "tags": {"amenity": "pub", "internet_access": "wlan", "name": "Szmog Rock Music Pub", "outdoor_seating": "no"}}, {"type": "node", "id": 3290200412, "lat": 47.9750164, "lon": 21.7256473, "tags": {"amenity": "pub", "name": "Safaga Pressz\u00f3", "smoking": "no"}}, {"type": "node", "id": 3369818259, "lat": 47.9467449, "lon": 21.713342, "tags": {"amenity": "pub", "name": "\u00c9rkerti Kisvend\u00e9gl\u0151"}}, {"type": "node", "id": 3391064685, "lat": 48.0219133, "lon": 21.6514841, "tags": {"amenity": "pub", "name": "Lag\u00fana Italbolt", "opening_hours": "off"}}, {"type": "node", "id": 3393255927, "lat": 47.9550948, "lon": 21.7157215, "tags": {"addr:city": "Ny\u00edregyh\u00e1za", "addr:housenumber": "2", "addr:postcode": "4400", "addr:street": "Bethlen G\u00e1bor utca", "amenity": "pub", "name": "Gedeon K\u00e9zm\u0171ves S\u00f6r\u00f6z\u0151", "opening_hours": "Mo-Th 11:00-23:00; Fr-Sa 11:00-23:45; Su off", "smoking": "outside", "wheelchair": "yes"}}, {"type": "node", "id": 3393787792, "lat": 48.0252845, "lon": 21.695508, "tags": {"amenity": "pub", "name": "Vir\u00e1g Pressz\u00f3"}}, {"type": "node", "id": 3393790803, "lat": 48.0248016, "lon": 21.6905744, "tags": {"amenity": "pub"}}, {"type": "node", "id": 3393906465, "lat": 47.9449555, "lon": 21.7196215, "tags": {"amenity": "pub"}}, {"type": "node", "id": 3459027448, "lat": 47.943043, "lon": 21.865848, "tags": {"amenity": "pub", "name": "D\u00fchi-net pressz\u00f3", "source": "turistautak.hu", "url": "http://turistautak.hu/poi.php?id=150991"}}, {"type": "node", "id": 3459027456, "lat": 47.933081, "lon": 21.876165, "tags": {"amenity": "pub", "name": "Lesz Vigasz", "source": "turistautak.hu", "url": "http://turistautak.hu/poi.php?id=95170"}}, {"type": "node", "id": 3459027457, "lat": 47.950934, "lon": 21.854449, "tags": {"amenity": "pub", "source": "turistautak.hu", "url": "http://turistautak.hu/poi.php?id=150985"}}, {"type": "node", "id": 3465102100, "lat": 48.11611, "lon": 22.24288, "tags": {"amenity": "pub", "source": "turistautak.hu", "source:date": "2010-11-03", "url": "http://turistautak.hu/poi.php?id=25700"}}, {"type": "node", "id": 3471734586, "lat": 47.882366, "lon": 21.99023, "tags": {"amenity": "pub", "name": "B\u00fcf\u00e9", "source": "turistautak.hu", "source:date": "2013-03-26", "url": "http://turistautak.hu/poi.php?id=151878"}}, {"type": "node", "id": 3471735308, "lat": 47.875993, "lon": 22.025399, "tags": {"amenity": "pub", "name": "Musk\u00e1tli", "source": "turistautak.hu", "source:date": "2013-03-26", "url": "http://turistautak.hu/poi.php?id=151890"}}, {"type": "node", "id": 3471735337, "lat": 47.84636, "lon": 22.140691, "tags": {"amenity": "pub", "name": "Retro b\u00e1r s\u00f6r\u00f6z\u0151", "source": "turistautak.hu", "source:date": "2010-05-10", "toilets:wheelchair": "no", "url": "http://turistautak.hu/poi.php?id=80697", "wheelchair": "no"}}, {"type": "node", "id": 3471735345, "lat": 47.896683, "lon": 22.162267, "tags": {"amenity": "pub", "name": "S\u00f6r\u00f6z\u0151", "source": "turistautak.hu", "source:date": "2011-05-03", "url": "http://turistautak.hu/poi.php?id=7954"}}, {"type": "node", "id": 3471735391, "lat": 47.7798, "lon": 22.066167, "tags": {"amenity": "pub", "source": "turistautak.hu", "source:date": "2013-04-21", "url": "http://turistautak.hu/poi.php?id=8808"}}, {"type": "node", "id": 3471735393, "lat": 47.830482, "lon": 22.129383, "tags": {"amenity": "pub", "source": "turistautak.hu", "source:date": "2010-11-03", "url": "http://turistautak.hu/poi.php?id=7943"}}, {"type": "node", "id": 3484823549, "lat": 47.93035, "lon": 22.153133, "tags": {"amenity": "pub", "name": "Patika b\u00fcf\u00e9", "source": "turistautak.hu", "source:date": "2011-11-09", "url": "http://turistautak.hu/poi.php?id=7956"}}, {"type": "node", "id": 3484823551, "lat": 47.937899, "lon": 22.145798, "tags": {"amenity": "pub", "name": "Pressz\u00f3", "source": "turistautak.hu", "source:date": "2011-05-03", "url": "http://turistautak.hu/poi.php?id=80723"}}, {"type": "node", "id": 3485118186, "lat": 47.787137, "lon": 21.677227, "tags": {"amenity": "pub", "name": "Di\u00f3fa s\u00f6r\u00f6z\u0151", "source": "turistautak.hu", "source:date": "2013-01-28", "url": "http://turistautak.hu/poi.php?id=150177"}}, {"type": "node", "id": 3485121902, "lat": 47.786177, "lon": 21.67664, "tags": {"amenity": "pub", "name": "Kir\u00e1ly kocsma", "source": "turistautak.hu", "source:date": "2013-01-28", "toilets:wheelchair": "no", "url": "http://turistautak.hu/poi.php?id=150174", "wheelchair": "no"}}, {"type": "node", "id": 3485121917, "lat": 47.9676295, "lon": 21.9836745, "tags": {"amenity": "pub", "name": "F\u0171r\u00e9szes Pressz\u00f3", "outdoor_seating": "yes", "smoking": "outside", "source": "turistautak.hu", "source:date": "2013-03-01", "url": "http://turistautak.hu/poi.php?id=151000"}}, {"type": "node", "id": 3485121939, "lat": 47.9614937, "lon": 21.9319316, "tags": {"amenity": "pub", "name": "Vad\u00e1sz pressz\u00f3", "source": "turistautak.hu", "source:date": "2013-03-01", "toilets:wheelchair": "yes", "url": "http://turistautak.hu/poi.php?id=151006", "wheelchair": "no"}}, {"type": "node", "id": 3488372745, "lat": 47.950117, "lon": 21.78164, "tags": {"amenity": "pub", "name": "F\u00f3kusz pressz\u00f3", "source": "turistautak.hu", "source:date": "2013-03-01", "url": "http://turistautak.hu/poi.php?id=150974"}}, {"type": "node", "id": 3488372750, "lat": 47.9517619, "lon": 21.7581376, "tags": {"amenity": "pub", "name": "Hajnal s\u00f6rkert", "source": "turistautak.hu", "source:date": "2010-05-10", "url": "http://turistautak.hu/poi.php?id=77757"}}, {"type": "node", "id": 3488372781, "lat": 47.90482, "lon": 21.79142, "tags": {"amenity": "pub", "source": "turistautak.hu", "source:date": "2011-05-03", "url": "http://turistautak.hu/poi.php?id=27436"}}, {"type": "node", "id": 3489614029, "lat": 47.90945, "lon": 21.834133, "tags": {"amenity": "pub", "source": "turistautak.hu", "source:date": "2013-04-21", "url": "http://turistautak.hu/poi.php?id=39752"}}, {"type": "node", "id": 3490733203, "lat": 47.93977, "lon": 22.03892, "tags": {"amenity": "pub", "source": "turistautak.hu", "source:date": "2010-11-03", "url": "http://turistautak.hu/poi.php?id=27454"}}, {"type": "node", "id": 3514884184, "lat": 47.8658126, "lon": 21.7017439, "tags": {"amenity": "pub"}}, {"type": "node", "id": 3559298070, "lat": 47.8782279, "lon": 21.8606012}, {"type": "node", "id": 3559298071, "lat": 47.8782323, "lon": 21.8607363}, {"type": "node", "id": 3559298074, "lat": 47.8783679, "lon": 21.8605912}, {"type": "node", "id": 3559298075, "lat": 47.8783722, "lon": 21.8607264}, {"type": "node", "id": 3658055708, "lat": 47.9493716, "lon": 21.7043283, "tags": {"addr:city": "Ny\u00edregyh\u00e1za", "addr:postcode": "4400", "addr:street": "Pet\u0151fi t\u00e9r", "amenity": "pub", "name": "Park B\u00fcf\u00e9"}}, {"type": "node", "id": 3750082127, "lat": 47.9774904, "lon": 21.7218551, "tags": {"amenity": "pub", "name": "Deszk\u00e1s S\u00f6r\u00f6z\u0151", "opening_hours": "Su-Th 14:00-22:00; Fr,Sa 14:00-23:00", "wheelchair": "no"}}, {"type": "node", "id": 3773364235, "lat": 47.9493116, "lon": 21.8046436, "tags": {"amenity": "pub", "name": "Vigad\u00f3 Pressz\u00f3", "toilets:wheelchair": "yes", "wheelchair": "yes"}}, {"type": "node", "id": 3820786944, "lat": 47.9376288, "lon": 21.866306, "tags": {"amenity": "pub", "name": "Kokt\u00e9l pressz\u00f3"}}, {"type": "node", "id": 3825501457, "lat": 48.0082821, "lon": 21.7189067, "tags": {"amenity": "pub"}}, {"type": "node", "id": 3853305657, "lat": 47.973197, "lon": 21.7222417, "tags": {"addr:city": "Ny\u00edregyh\u00e1za", "addr:housenumber": "10/C", "addr:postcode": "4400", "addr:street": "Ungv\u00e1r s\u00e9t\u00e1ny", "amenity": "pub", "name": "Jonat\u00e1n B\u00fcf\u00e9", "opening_hours": "Mo-Fr 05:00-22:00", "smoking": "outside"}}, {"type": "node", "id": 3864894800, "lat": 47.9573363, "lon": 21.789288, "tags": {"amenity": "pub", "name": "Csap Eszpressz\u00f3"}}, {"type": "node", "id": 3864894801, "lat": 47.9548216, "lon": 21.7944582, "tags": {"amenity": "pub", "name": "Kanyar Kocsma", "toilets:wheelchair": "no", "wheelchair": "limited"}}, {"type": "node", "id": 3878906089, "lat": 47.9482629, "lon": 21.8592484, "tags": {"amenity": "pub", "name": "S\u00e1m\u00e9r Pressz\u00f3"}}, {"type": "node", "id": 3892207289, "lat": 47.9652528, "lon": 21.7219815, "tags": {"addr:city": "Ny\u00edregyh\u00e1za", "addr:postcode": "4400", "addr:street": "Pazonyi t\u00e9r", "amenity": "pub", "name": "K\u00e9k-Feh\u00e9r Eszpressz\u00f3", "smoking": "outside"}}, {"type": "node", "id": 3892211387, "lat": 47.9652886, "lon": 21.7181068, "tags": {"amenity": "pub", "name": "G\u00e1la Pressz\u00f3"}}, {"type": "node", "id": 4047443724, "lat": 47.9775752, "lon": 21.7242321, "tags": {"amenity": "pub", "name": "Feh\u00e9r Eg\u00e9r Eszpressz\u00f3"}}, {"type": "node", "id": 4075780323, "lat": 47.9552152, "lon": 21.7249015, "tags": {"addr:postcode": "4400", "amenity": "pub", "name": "Boroz\u00f3 Eszpressz\u00f3"}}, {"type": "node", "id": 4075780324, "lat": 47.9542168, "lon": 21.7286605, "tags": {"amenity": "pub"}}, {"type": "node", "id": 4111108589, "lat": 47.9487965, "lon": 21.7315297, "tags": {"amenity": "pub", "name": "Mokka Pressz\u00f3"}}, {"type": "node", "id": 4156757186, "lat": 47.9649705, "lon": 21.6986162, "tags": {"amenity": "pub", "name": "Zuzsa B\u00fcf\u00e9", "outdoor_seating": "no", "smoking": "outside"}}, {"type": "node", "id": 4251272464, "lat": 47.9773194, "lon": 21.8017503, "tags": {"amenity": "pub", "name": "R\u00f6fi S\u00f6r\u00f6z\u0151"}}, {"type": "node", "id": 4441232415, "lat": 47.9289774, "lon": 21.7632343, "tags": {"addr:street": "K\u00e1ll\u00f3i \u00fat", "amenity": "pub", "name": "Cs\u00e1rda Pressz\u00f3", "name:hu": "Cs\u00e1rda Pressz\u00f3"}}, {"type": "node", "id": 4441232416, "lat": 47.9325113, "lon": 21.7589724, "tags": {"amenity": "pub"}}, {"type": "node", "id": 4441235587, "lat": 47.9258695, "lon": 21.7261855, "tags": {"amenity": "pub", "name": "Ez\u00fcst Feny\u0151 Pressz\u00f3"}}, {"type": "node", "id": 4441235588, "lat": 47.9254958, "lon": 21.7276305, "tags": {"amenity": "pub", "name": "G\u00e1lya"}}, {"type": "node", "id": 4472199850, "lat": 47.8348037, "lon": 22.1364521, "tags": {"amenity": "pub"}}, {"type": "node", "id": 4528652585, "lat": 48.1127871, "lon": 21.9237555}, {"type": "node", "id": 4528652586, "lat": 48.1127791, "lon": 21.9240341}, {"type": "node", "id": 4528652587, "lat": 48.1126788, "lon": 21.9240277}, {"type": "node", "id": 4528652588, "lat": 48.1126867, "lon": 21.923749}, {"type": "node", "id": 4528666407, "lat": 48.111655, "lon": 21.9260201}, {"type": "node", "id": 4528666408, "lat": 48.1117049, "lon": 21.9260061}, {"type": "node", "id": 4528666409, "lat": 48.1116861, "lon": 21.9258566}, {"type": "node", "id": 4528666410, "lat": 48.1116363, "lon": 21.925852}, {"type": "node", "id": 4528666411, "lat": 48.1116581, "lon": 21.92595}, {"type": "node", "id": 4528666412, "lat": 48.111549, "lon": 21.9258239}, {"type": "node", "id": 4528666413, "lat": 48.1115209, "lon": 21.9258847}, {"type": "node", "id": 4530255047, "lat": 47.9039624, "lon": 21.7014779, "tags": {"addr:city": "Ny\u00edregyh\u00e1za", "addr:postcode": "4400", "addr:street": "F\u0151zde utca", "amenity": "pub", "name": "Sz\u0151l\u0151 Pressz\u00f3"}}, {"type": "node", "id": 4535042576, "lat": 48.0981763, "lon": 22.0997807, "tags": {"amenity": "pub", "name": "Gold kocsma"}}, {"type": "node", "id": 4535042585, "lat": 48.0938594, "lon": 22.0969979, "tags": {"amenity": "pub", "name": "\u00dcss Huss k\u00e1v\u00e9z\u00f3"}}, {"type": "node", "id": 4623876953, "lat": 47.7796575, "lon": 22.0660225}, {"type": "node", "id": 4623876954, "lat": 47.7796656, "lon": 22.0658857}, {"type": "node", "id": 4623876955, "lat": 47.7797053, "lon": 22.0660287}, {"type": "node", "id": 4623876956, "lat": 47.7797134, "lon": 22.0658919}, {"type": "node", "id": 4623876957, "lat": 47.896385, "lon": 22.1620434}, {"type": "node", "id": 4623876958, "lat": 47.8964372, "lon": 22.1622231}, {"type": "node", "id": 4623876959, "lat": 47.8964787, "lon": 22.1619829}, {"type": "node", "id": 4623876960, "lat": 47.8965308, "lon": 22.1621626}, {"type": "node", "id": 4623876965, "lat": 48.0966896, "lon": 22.100833}, {"type": "node", "id": 4623876966, "lat": 48.0967505, "lon": 22.1007871}, {"type": "node", "id": 4623876967, "lat": 48.096764, "lon": 22.1010542}, {"type": "node", "id": 4623876968, "lat": 48.0968248, "lon": 22.1010084}, {"type": "node", "id": 4623876969, "lat": 48.1394287, "lon": 22.1089777}, {"type": "node", "id": 4623876970, "lat": 48.1394496, "lon": 22.1091061}, {"type": "node", "id": 4623876971, "lat": 48.1395424, "lon": 22.1089361}, {"type": "node", "id": 4623876972, "lat": 48.1395633, "lon": 22.1090645}, {"type": "node", "id": 4911413991, "lat": 47.944667, "lon": 21.6948546, "tags": {"addr:city": "Ny\u00edregyh\u00e1za", "addr:postcode": "4400", "addr:street": "Derkovits Gyula utca", "amenity": "pub", "name": "Bea B\u00fcf\u00e9", "opening_hours": "Mo-Fr 05:00-17:00", "outdoor_seating": "yes", "smoking": "outside"}}, {"type": "node", "id": 4933475515, "lat": 47.8160931, "lon": 21.8532585, "tags": {"amenity": "pub", "fixme": "verify", "name": "Picolo S\u00f6rh\u00e1z", "source": "route4u", "toilets:wheelchair": "no", "wheelchair": "no"}}, {"type": "node", "id": 4933476652, "lat": 47.8783887, "lon": 21.8435063, "tags": {"amenity": "pub", "fixme": "verify", "name": "Z\u00f6ld \u00c1sz Italbolt", "source": "route4u", "toilets:wheelchair": "no", "wheelchair": "no"}}, {"type": "node", "id": 4933476941, "lat": 47.8048846, "lon": 21.6849964, "tags": {"amenity": "pub", "fixme": "verify", "name": "H2O B\u00e1r", "source": "route4u", "toilets:wheelchair": "yes", "wheelchair": "yes"}}, {"type": "node", "id": 4933476942, "lat": 47.8049099, "lon": 21.6785248}, {"type": "node", "id": 4933477013, "lat": 47.8760246, "lon": 21.8362661, "tags": {"amenity": "pub", "fixme": "verify", "name": "Casablanca Drink B\u00e1r", "source": "route4u", "toilets:wheelchair": "limited", "wheelchair": "limited"}}, {"type": "node", "id": 4933477035, "lat": 47.7985372, "lon": 22.0662671, "tags": {"amenity": "pub", "fixme": "verify", "name": "Kiskocsma Italbolt", "source": "route4u", "toilets:wheelchair": "no", "wheelchair": "limited"}}, {"type": "node", "id": 4933477556, "lat": 47.9703914, "lon": 21.9359924, "tags": {"amenity": "pub", "fixme": "verify", "name": "Horg\u00e1sztanya", "source": "route4u", "toilets:wheelchair": "yes", "wheelchair": "yes"}}, {"type": "node", "id": 4933477577, "lat": 47.9803535, "lon": 21.9651572, "tags": {"amenity": "pub", "fixme": "verify", "name": "Tam\u00e1s B\u00e1tya Kunyh\u00f3ja", "source": "route4u", "toilets:wheelchair": "yes", "wheelchair": "limited"}}, {"type": "node", "id": 4933477599, "lat": 48.0068013, "lon": 21.7284665, "tags": {"amenity": "pub", "fixme": "verify", "name": "Pompom", "source": "route4u", "toilets:wheelchair": "yes", "wheelchair": "yes"}}, {"type": "node", "id": 4933477600, "lat": 48.0070412, "lon": 21.7286927, "tags": {"amenity": "pub", "fixme": "verify", "name": "Szek\u00e9rtanya", "source": "route4u", "toilets:wheelchair": "yes", "wheelchair": "yes"}}, {"type": "node", "id": 4933477601, "lat": 48.0070953, "lon": 21.7282999, "tags": {"amenity": "pub", "fixme": "verify", "name": "Izom B\u00e1r", "source": "route4u", "toilets:wheelchair": "yes", "wheelchair": "limited"}}, {"type": "node", "id": 4933477607, "lat": 48.0072722, "lon": 21.7282105, "tags": {"amenity": "pub", "fixme": "verify", "name": "Fr\u00f6ccs Terasz", "source": "route4u", "toilets:wheelchair": "yes", "wheelchair": "yes"}}, {"type": "node", "id": 4933477779, "lat": 47.9995147, "lon": 22.1704329, "tags": {"amenity": "pub", "name": "Anna Pub", "source": "route4u", "survey:date": "2022-03-27", "toilets:wheelchair": "no", "wheelchair": "no"}}, {"type": "node", "id": 4933477868, "lat": 48.054981, "lon": 22.0432086, "tags": {"amenity": "pub", "fixme": "verify", "name": "Huszas Kocsma", "source": "route4u", "toilets:wheelchair": "yes", "wheelchair": "limited"}}, {"type": "node", "id": 4933477886, "lat": 48.0634404, "lon": 22.1893197, "tags": {"amenity": "pub", "fixme": "verify", "name": "\u00dcss-Fuss S\u00f6r\u00f6z\u0151", "source": "route4u", "toilets:wheelchair": "limited", "wheelchair": "no"}}, {"type": "node", "id": 4933477934, "lat": 48.0517916, "lon": 21.6976787, "tags": {"amenity": "pub", "name": "Play Club", "toilets:wheelchair": "yes", "wheelchair": "yes"}}, {"type": "node", "id": 4933477939, "lat": 48.0526561, "lon": 22.0823543, "tags": {"amenity": "pub", "fixme": "verify", "name": "B\u00edr\u00f3t\u00edm", "source": "route4u", "toilets:wheelchair": "yes", "wheelchair": "no"}}, {"type": "node", "id": 4933477947, "lat": 48.0754825, "lon": 21.7376613, "tags": {"amenity": "pub", "fixme": "verify", "name": "Randev\u00fa Italbolt", "source": "route4u", "toilets:wheelchair": "yes", "wheelchair": "yes"}}, {"type": "node", "id": 4933478003, "lat": 48.1498806, "lon": 21.6664146, "tags": {"amenity": "pub", "fixme": "verify", "name": "F\u00e9szek S\u00f6r\u00f6z\u0151", "source": "route4u", "toilets:wheelchair": "yes", "wheelchair": "no"}}, {"type": "node", "id": 4933478082, "lat": 48.1339933, "lon": 21.7589054, "tags": {"addr:city": "Nagyhal\u00e1sz", "addr:housenumber": "15", "addr:postcode": "4485", "addr:street": "Kossuth utca", "amenity": "pub", "contact:phone": "+36 70 461 9883", "name": "Erzs\u00e9bet Pressz\u00f3", "source": "route4u", "toilets:wheelchair": "yes", "wheelchair": "limited"}}, {"type": "node", "id": 4933478086, "lat": 48.1356194, "lon": 21.7584302, "tags": {"amenity": "pub", "fixme": "verify", "name": "\u00d6reg Motoros S\u00f6r\u00f6z\u0151je", "source": "route4u", "toilets:wheelchair": "yes", "wheelchair": "limited"}}, {"type": "node", "id": 4933478129, "lat": 48.1185249, "lon": 21.8784114, "tags": {"amenity": "pub", "name": "K\u00e9k Di\u00f3fa S\u00f6r\u00f6z\u0151", "toilets:wheelchair": "yes", "wheelchair": "limited"}}, {"type": "node", "id": 4933478136, "lat": 48.1226005, "lon": 21.7160833, "tags": {"amenity": "pub", "fixme": "verify", "name": "Rozoga S\u00f6r\u00f6z\u0151", "source": "route4u", "toilets:wheelchair": "yes", "wheelchair": "limited"}}, {"type": "node", "id": 4939173882, "lat": 47.9576486, "lon": 21.7190647, "tags": {"amenity": "pub", "fixme": "verify", "name": "Holdudvar", "source": "route4u", "toilets:wheelchair": "yes", "wheelchair": "yes"}}, {"type": "node", "id": 4939174826, "lat": 47.9544702, "lon": 21.7197487, "tags": {"amenity": "pub", "fixme": "verify", "name": "Gourmet Pub", "source": "route4u", "toilets:wheelchair": "yes", "wheelchair": "limited"}}, {"type": "node", "id": 4939174898, "lat": 48.0064545, "lon": 21.7266831, "tags": {"amenity": "pub", "name": "Aquab\u00e1r", "toilets:wheelchair": "yes", "wheelchair": "yes"}}, {"type": "node", "id": 4939175885, "lat": 47.8119002, "lon": 21.8512689, "tags": {"amenity": "pub", "fixme": "verify", "name": "Cintia Bisztr\u00f3", "source": "route4u", "toilets:wheelchair": "no", "wheelchair": "no"}}, {"type": "node", "id": 4939176994, "lat": 47.8123598, "lon": 21.8513106, "tags": {"amenity": "pub", "fixme": "verify", "name": "Kokt\u00e9l S\u00f6r\u00f6z\u0151", "source": "route4u", "toilets:wheelchair": "no", "wheelchair": "no"}}, {"type": "node", "id": 4939177744, "lat": 48.1205197, "lon": 21.708404, "tags": {"amenity": "pub", "fixme": "verify", "name": "Bisztr\u00f3", "source": "route4u", "toilets:wheelchair": "yes", "wheelchair": "limited"}}, {"type": "node", "id": 4939178714, "lat": 48.1277421, "lon": 21.7116743, "tags": {"amenity": "pub", "fixme": "verify", "name": "Vicsi Korcsma", "source": "route4u", "toilets:wheelchair": "yes", "wheelchair": "limited"}}, {"type": "node", "id": 4939178837, "lat": 48.1349579, "lon": 21.719145, "tags": {"amenity": "pub", "fixme": "verify", "name": "Corner S\u00f6r\u00f6z\u0151", "source": "route4u", "toilets:wheelchair": "yes", "wheelchair": "no"}}, {"type": "node", "id": 4944083381, "lat": 48.0081892, "lon": 21.7271403, "tags": {"addr:city": "Ny\u00edregyh\u00e1za", "addr:housenumber": "1-3", "addr:postcode": "4431", "addr:street": "Beren\u00e1t utca", "amenity": "pub", "cuisine": "burger;sandwich;hotdog;buschenschank;grill", "internet_access": "wlan", "name": "S\u00f3st\u00f3 Garden"}}, {"type": "node", "id": 5045686551, "lat": 47.9481858, "lon": 21.7064353, "tags": {"amenity": "pub", "name": "Tomi Pub 2"}}, {"type": "node", "id": 5306127810, "lat": 47.9898678, "lon": 22.0805141, "tags": {"amenity": "pub", "name": "O\u00e1zis Pressz\u00f3"}}, {"type": "node", "id": 5331510737, "lat": 47.9598069, "lon": 21.7414451, "tags": {"amenity": "pub", "name": "\u00c1cs Pressz\u00f3"}}, {"type": "node", "id": 5352211623, "lat": 47.9477352, "lon": 21.7059767, "tags": {"amenity": "pub", "name": "Don Pedro S\u00f6r\u00f6z\u0151"}}, {"type": "node", "id": 5499344838, "lat": 47.9531124, "lon": 21.7759136, "tags": {"addr:city": "Ny\u00edregyh\u00e1za", "addr:housenumber": "36", "addr:postcode": "4551", "addr:street": "Kezd\u0151 utca", "addr:suburb": "Oros", "amenity": "pub", "name": "Pince Pressz\u00f3"}}, {"type": "node", "id": 5624879484, "lat": 47.8049904, "lon": 21.6784146}, {"type": "node", "id": 5624879485, "lat": 47.8048608, "lon": 21.678429}, {"type": "node", "id": 5624879486, "lat": 47.8048679, "lon": 21.6785708}, {"type": "node", "id": 5624879487, "lat": 47.804912, "lon": 21.6785658}, {"type": "node", "id": 5624879489, "lat": 47.8049955, "lon": 21.6785153}, {"type": "node", "id": 6296050045, "lat": 47.9510028, "lon": 21.703433, "tags": {"addr:city": "Ny\u00edregyh\u00e1za", "addr:postcode": "4400", "addr:street": "Sz\u00e9chenyi utca", "amenity": "pub", "name": "H\u00edd Plusz Eszpressz\u00f3 S\u00f6r\u00f6z\u0151"}}, {"type": "node", "id": 6363281749, "lat": 47.9503925, "lon": 21.7049239, "tags": {"addr:city": "Ny\u00edregyh\u00e1za", "addr:housenumber": "1", "addr:postcode": "4400", "addr:street": "Pet\u0151fi t\u00e9r", "amenity": "pub", "name": "Oban S\u00f6r\u00f6z\u0151"}}, {"type": "node", "id": 6795032684, "lat": 47.9556783, "lon": 21.6941015}, {"type": "node", "id": 6795032685, "lat": 47.9555867, "lon": 21.6941136}, {"type": "node", "id": 6795032686, "lat": 47.9555858, "lon": 21.6942357}, {"type": "node", "id": 6795032687, "lat": 47.95562, "lon": 21.6942249}, {"type": "node", "id": 6795032688, "lat": 47.9556191, "lon": 21.6943818}, {"type": "node", "id": 6795032689, "lat": 47.9556837, "lon": 21.6943765}, {"type": "node", "id": 6968812167, "lat": 48.1323656, "lon": 22.1164831}, {"type": "node", "id": 6968812168, "lat": 48.1324282, "lon": 22.1165582}, {"type": "node", "id": 6968812169, "lat": 48.1324301, "lon": 22.1163623}, {"type": "node", "id": 6968812170, "lat": 48.1324928, "lon": 22.1164374}, {"type": "node", "id": 7514059601, "lat": 48.0275531, "lon": 22.1344721, "tags": {"amenity": "pub", "name": "F\u0151t\u00e9r Pressz\u00f3"}}, {"type": "node", "id": 8504398687, "lat": 47.9483539, "lon": 21.7316304, "tags": {"addr:city": "Ny\u00edregyh\u00e1za", "addr:housenumber": "9", "addr:postcode": "4400", "addr:street": "K\u00e1ll\u00f3i \u00fat", "amenity": "pub", "name": "P\u00e1va Pressz\u00f3"}}, {"type": "node", "id": 9220705569, "lat": 47.9327238, "lon": 21.7090529, "tags": {"amenity": "pub", "name": "K\u0171lv\u00e1rosi Eszpressz\u00f3"}}, {"type": "node", "id": 9913782280, "lat": 47.9500933, "lon": 21.7286202, "tags": {"amenity": "pub"}}, {"type": "node", "id": 9915010827, "lat": 47.9455696, "lon": 21.7124739, "tags": {"amenity": "pub"}}, {"type": "node", "id": 10556872016, "lat": 47.8013109, "lon": 21.6822401, "tags": {"amenity": "pub", "name": "Kocsma"}}, {"type": "way", "id": 300635464, "nodes": [3047233290, 3047233291, 3047233292, 3113242908, 3047233293, 3113242902, 3113242905, 3047233290], "tags": {"amenity": "pub", "building": "yes", "name": "Shamrock Pub", "toilets:wheelchair": "no", "wheelchair": "yes"}}, {"type": "way", "id": 320284408, "nodes": [3267866595, 3267866596, 3267866597, 3267866598, 3267866599, 3267866595], "tags": {"amenity": "pub", "building": "yes", "name": "Bubor\u00e9k"}}, {"type": "way", "id": 350179209, "nodes": [3559298070, 3559298071, 3559298075, 3559298074, 3559298070], "tags": {"amenity": "pub", "building": "yes", "source": "Mapbox"}}, {"type": "way", "id": 456608994, "nodes": [4528652585, 4528652586, 4528652587, 4528652588, 4528652585], "tags": {"amenity": "pub", "building": "yes", "building:levels": "1", "name": "P\u00e9kmester"}}, {"type": "way", "id": 456608999, "nodes": [4528666407, 4528666408, 4528666409, 4528666410, 4528666411, 4528666412, 4528666413, 4528666407], "tags": {"amenity": "pub", "building": "yes"}}, {"type": "way", "id": 467785334, "nodes": [4623876953, 4623876954, 4623876956, 4623876955, 4623876953], "tags": {"amenity": "pub", "building": "yes", "name": "Fapados b\u00fcf\u00e9"}}, {"type": "way", "id": 467785335, "nodes": [4623876969, 4623876971, 4623876972, 4623876970, 4623876969], "tags": {"addr:city": "Gyulah\u00e1za", "addr:housenumber": "4", "addr:postcode": "4545", "addr:street": "Kossuth Lajos utca", "amenity": "pub", "building": "yes", "name": "Gyulah\u00e1zai serf\u0151zde"}}, {"type": "way", "id": 467785336, "nodes": [4623876957, 4623876959, 4623876960, 4623876958, 4623876957], "tags": {"amenity": "pub", "building": "yes", "name": "Hangulat b\u00fcf\u00e9", "opening_hours": "Mo-Su 06:00-22:00", "opening_hours:covid19": "Mo-Su 06:00-19:00"}}, {"type": "way", "id": 467785338, "nodes": [4623876965, 4623876966, 4623876968, 4623876967, 4623876965], "tags": {"amenity": "pub", "building": "yes", "name": "T\u00f6lgyfa pressz\u00f3"}}, {"type": "way", "id": 589028859, "nodes": [5624879484, 5624879485, 5624879486, 5624879487, 4933476942, 5624879489, 5624879484], "tags": {"amenity": "pub", "building": "retail", "name": "H\u00e9tkereszt \u00dati Italbolt \u00e9s Pressz\u00f3", "source": "route4u", "toilets:wheelchair": "yes", "wheelchair": "limited"}}, {"type": "way", "id": 724541490, "nodes": [6795032684, 6795032685, 6795032686, 6795032687, 6795032688, 6795032689, 6795032684], "tags": {"amenity": "pub", "building": "yes"}}, {"type": "way", "id": 744596375, "nodes": [6968812170, 6968812168, 6968812167, 6968812169, 6968812170], "tags": {"addr:city": "Gyulah\u00e1za", "addr:housenumber": "1", "addr:postcode": "4545", "addr:street": "M\u00e1rt\u00edrok \u00fatja", "amenity": "pub", "building": "yes", "name": "Vigad\u00f3h\u00e1z"}}]}