{"version": 0.6, "generator": "Overpass API 0.7.59 e21c39fe", "osm3s": {"timestamp_osm_base": "2023-01-20T17:57:01Z", "copyright": "The data included in this document is from www.openstreetmap.org. The data is made available under ODbL."}, "elements": [{"type": "node", "id": 2053155375, "lat": 47.9332511, "lon": 21.0717901, "tags": {"addr:city": "Tisza\u00fajv\u00e1ros", "addr:housenumber": "33", "addr:postcode": "3580", "addr:street": "Bocskai Istv\u00e1n utca", "addr:suburb": "Tiszaszederk\u00e9ny", "amenity": "library", "name": "Tiszaszederk\u00e9nyi Fi\u00f3kk\u00f6nyvt\u00e1r", "opening_hours": "Mo,We,Th 08:00-16:00;Tu,Fr 10:00-18:00;Sa 09:00-13:00", "wheelchair": "yes"}}, {"type": "node", "id": 2911105228, "lat": 47.8415067, "lon": 21.428609, "tags": {"addr:city": "Hajd\u00fan\u00e1n\u00e1s", "addr:housenumber": "12-14", "addr:postcode": "4080", "addr:street": "Bocskai Istv\u00e1n utca", "amenity": "library", "name": "M\u00f3ricz P\u00e1l V\u00e1rosi K\u00f6nyvt\u00e1r \u00e9s Helyt\u00f6rt\u00e9neti Gy\u0171jtem\u00e9ny", "wheelchair": "yes"}}, {"type": "node", "id": 2937100671, "lat": 47.9596283, "lon": 21.356526, "tags": {"amenity": "library", "name": "Tiszavasv\u00e1ri V\u00e1rosi K\u00f6nyvt\u00e1r"}}, {"type": "node", "id": 3113726874, "lat": 47.8728582, "lon": 21.1123548}, {"type": "node", "id": 3113726876, "lat": 47.8729635, "lon": 21.1122227}, {"type": "node", "id": 3113726877, "lat": 47.8730197, "lon": 21.1128451}, {"type": "node", "id": 3113726879, "lat": 47.8730919, "lon": 21.1127545}, {"type": "node", "id": 3113726881, "lat": 47.8730995, "lon": 21.1129864}, {"type": "node", "id": 3113726884, "lat": 47.8731927, "lon": 21.1126286}, {"type": "node", "id": 3113726886, "lat": 47.8732115, "lon": 21.1126051}, {"type": "node", "id": 3113726890, "lat": 47.8732856, "lon": 21.1127362}, {"type": "node", "id": 3168246499, "lat": 47.814836, "lon": 21.4987794}, {"type": "node", "id": 3168246500, "lat": 47.8146091, "lon": 21.4987231}, {"type": "node", "id": 3168246501, "lat": 47.8145874, "lon": 21.498707}, {"type": "node", "id": 3168246502, "lat": 47.814573, "lon": 21.4986641}, {"type": "node", "id": 3168246503, "lat": 47.8145838, "lon": 21.4986131}, {"type": "node", "id": 3168246504, "lat": 47.8146523, "lon": 21.4984522}, {"type": "node", "id": 3168246505, "lat": 47.8147369, "lon": 21.4985032}, {"type": "node", "id": 3168246506, "lat": 47.8147117, "lon": 21.4985649}, {"type": "node", "id": 3168246507, "lat": 47.814881, "lon": 21.4986105}, {"type": "node", "id": 3394004949, "lat": 48.0092889, "lon": 21.6201014, "tags": {"addr:city": "Ny\u00edrtelek", "addr:housenumber": "42", "addr:postcode": "4461", "addr:street": "Pet\u0151fi S\u00e1ndor utca", "amenity": "library", "internet_access": "yes", "name": "Ny\u00edrteleki \u00c1ltal\u00e1nos M\u0171vel\u0151d\u00e9si K\u00f6zpont \u00e9s V\u00e1rosi K\u00f6nyvt\u00e1r", "phone": "+36 42 210 698"}}, {"type": "node", "id": 3504471742, "lat": 48.0189653, "lon": 21.3774143}, {"type": "node", "id": 3504471743, "lat": 48.018828, "lon": 21.3773063}, {"type": "node", "id": 3504471744, "lat": 48.0187724, "lon": 21.3774621}, {"type": "node", "id": 3504471745, "lat": 48.0189132, "lon": 21.3775753}, {"type": "node", "id": 3671648995, "lat": 47.9298977, "lon": 21.03754, "tags": {"addr:city": "Tisza\u00fajv\u00e1ros", "addr:housenumber": "37", "addr:postcode": "3580", "addr:street": "Sz\u00e9chenyi \u00fat", "amenity": "library", "internet_access": "wlan", "name": "Hamvas B\u00e9la V\u00e1rosi K\u00f6nyvt\u00e1r", "wheelchair": "yes"}}, {"type": "node", "id": 5927612606, "lat": 48.1513364, "lon": 21.1718841, "tags": {"amenity": "library", "contact:email": "marta1107@freemail.hu", "contact:phone": "+36 47 360 238", "description": "Tan\u00edt\u00e1si sz\u00fcnetben m\u00e1s a nyitva tart\u00e1sa", "description:de": "In den Schulferien sind andere \u00d6ffnungszeiten", "description:en": "In school holidays there are different opening times", "name": "K\u00f6zs\u00e9gi k\u00f6nyvt\u00e1r", "name:de": "Gemeindebibliothek", "name:en": "Village library", "opening_hours": "Sep 01-Jun 15 Mo 10:00-12:30,15:00-18:00; Sep 01-Jun 15 Tu 16:00-18:00; Sep 01-Jun 15 We 09:00-10:30,14:00-17:00; PH closed", "operator": "II. R\u00e1k\u00f3czi Ferenc Megyei \u00e9s V\u00e1rosi K\u00f6nyvt\u00e1r, Miskolc", "start_date": "1960"}}, {"type": "node", "id": 7780368508, "lat": 48.1078267, "lon": 21.1759328}, {"type": "node", "id": 7780368509, "lat": 48.1078106, "lon": 21.1761286}, {"type": "node", "id": 7780368510, "lat": 48.1079273, "lon": 21.1761501}, {"type": "node", "id": 7780368511, "lat": 48.1079434, "lon": 21.1759543}, {"type": "way", "id": 306458700, "nodes": [3113726877, 3113726881, 3113726890, 3113726886, 3113726884, 3113726876, 3113726874, 3113726879, 3113726877], "tags": {"amenity": "library", "building": "office", "name": "M\u0171vel\u0151d\u00e9si H\u00e1z \u00e9s K\u00f6nyvt\u00e1r"}}, {"type": "way", "id": 311232623, "nodes": [3168246507, 3168246499, 3168246500, 3168246501, 3168246502, 3168246503, 3168246504, 3168246505, 3168246506, 3168246507], "tags": {"amenity": "library", "building": "yes", "name": "M\u00e9sz\u00e1ros K\u00e1roly V\u00e1rosi K\u00f6nyvt\u00e1r"}}, {"type": "way", "id": 343632084, "nodes": [3504471742, 3504471743, 3504471744, 3504471745, 3504471742], "tags": {"amenity": "library", "building": "yes"}}, {"type": "way", "id": 833454045, "nodes": [7780368511, 7780368510, 7780368509, 7780368508, 7780368511], "tags": {"amenity": "library", "building": "yes", "name": "K\u00f6nyvt\u00e1r"}}]}