{"version": 0.6, "generator": "Overpass API 0.7.59 e21c39fe", "osm3s": {"timestamp_osm_base": "2023-01-17T15:18:24Z", "copyright": "The data included in this document is from www.openstreetmap.org. The data is made available under ODbL."}, "elements": [{"type": "node", "id": 370096038, "lat": 47.8908368, "lon": 17.576736, "tags": {"amenity": "pub"}}, {"type": "node", "id": 373494139, "lat": 48.0402878, "lon": 17.4076347, "tags": {"amenity": "pub", "name": "Zbrojno\u0161"}}, {"type": "node", "id": 378682209, "lat": 48.0473474, "lon": 17.3903006, "tags": {"amenity": "pub", "created_by": "Merkaartor 0.13", "name": "pohostinstvo"}}, {"type": "node", "id": 381972045, "lat": 48.0391087, "lon": 17.4038001, "tags": {"amenity": "pub"}}, {"type": "node", "id": 725128578, "lat": 47.8863813, "lon": 17.8075883}, {"type": "node", "id": 725131133, "lat": 47.8864403, "lon": 17.8074661}, {"type": "node", "id": 725131799, "lat": 47.8865659, "lon": 17.8077803}, {"type": "node", "id": 725135214, "lat": 47.8866249, "lon": 17.8076581}, {"type": "node", "id": 852460585, "lat": 47.9336426, "lon": 17.7131045}, {"type": "node", "id": 916376895, "lat": 48.0134201, "lon": 17.4044675, "tags": {"amenity": "pub"}}, {"type": "node", "id": 916376896, "lat": 47.984165, "lon": 17.3861677, "tags": {"amenity": "pub", "name": "Kompa"}}, {"type": "node", "id": 916376899, "lat": 47.9863696, "lon": 17.3887026, "tags": {"amenity": "pub"}}, {"type": "node", "id": 998585975, "lat": 47.8837158, "lon": 17.4077175, "tags": {"amenity": "pub", "name": "Sarki Vend\u00e9gl\u0151 \u00e9s Boroz\u00f3"}}, {"type": "node", "id": 1091439746, "lat": 48.0514934, "lon": 17.4558235, "tags": {"amenity": "pub", "name": "Hostinec u Sv\u00e4t\u00e9ho J\u00e1na (Kr\u010dma)"}}, {"type": "node", "id": 1381910188, "lat": 47.8506047, "lon": 17.7680193, "tags": {"amenity": "pub", "name": "Cimbora"}}, {"type": "node", "id": 1381910454, "lat": 47.8541592, "lon": 17.7700163, "tags": {"amenity": "pub", "name": "Madison"}}, {"type": "node", "id": 1709889384, "lat": 47.92312, "lon": 17.457968, "tags": {"addr:city": "Bod\u00edky", "addr:housenumber": "14", "addr:place": "Bod\u00edky", "addr:postcode": "93031", "amenity": "pub", "image": "https://image.ibb.co/cOXwUn/IMG_3587.jpg", "name": "Pohostinstvo Bod\u00edky"}}, {"type": "node", "id": 1893857709, "lat": 47.988304, "lon": 17.6100409, "tags": {"amenity": "pub", "name": "Eva Espresso"}}, {"type": "node", "id": 1893857714, "lat": 47.9883021, "lon": 17.6105357, "tags": {"amenity": "pub", "name": "Hostinec Szalacsi"}}, {"type": "node", "id": 2188854289, "lat": 47.9748931, "lon": 17.5202639, "tags": {"addr:postcode": "930 03", "amenity": "pub"}}, {"type": "node", "id": 2265065281, "lat": 47.723277, "lon": 17.3080227, "tags": {"amenity": "pub", "name": "R\u00e1bca Italbolt", "smoking": "outside"}}, {"type": "node", "id": 2297059529, "lat": 48.0190453, "lon": 17.807843, "tags": {"addr:city": "Trstice", "addr:conscriptionnumber": "1119", "addr:housenumber": "1119", "addr:place": "Trstice", "addr:postcode": "92542", "amenity": "pub", "name": "Al\u017ebeta \u00c1rvaiov\u00e1"}}, {"type": "node", "id": 2297059938, "lat": 48.0155144, "lon": 17.807092, "tags": {"amenity": "pub"}}, {"type": "node", "id": 2297062975, "lat": 48.0128482, "lon": 17.8064376, "tags": {"addr:city": "Trstice", "addr:conscriptionnumber": "657", "addr:housenumber": "657", "addr:place": "Trstice", "addr:postcode": "92542", "amenity": "pub", "name": "ZO\u00c1R"}}, {"type": "node", "id": 2297217210, "lat": 48.0133704, "lon": 17.8109956, "tags": {"addr:city": "Trstice", "addr:conscriptionnumber": "333", "addr:housenumber": "333", "addr:place": "Trstice", "addr:postcode": "92542", "amenity": "pub", "name": "Mark\u00edza"}}, {"type": "node", "id": 2357950586, "lat": 47.9764259, "lon": 17.3806456}, {"type": "node", "id": 2357950614, "lat": 47.9764565, "lon": 17.3807328}, {"type": "node", "id": 2357950620, "lat": 47.9764614, "lon": 17.3806177}, {"type": "node", "id": 2357950649, "lat": 47.9764908, "lon": 17.3807051}, {"type": "node", "id": 2425765503, "lat": 47.8604829, "lon": 17.2824195, "tags": {"amenity": "pub", "name": "Bicz\u00f3 Kocsma"}}, {"type": "node", "id": 2445005048, "lat": 48.1017624, "lon": 17.6889061, "tags": {"amenity": "pub"}}, {"type": "node", "id": 2456846182, "lat": 48.0307536, "lon": 17.3088137, "tags": {"amenity": "pub", "name": "2M Billiard Club"}}, {"type": "node", "id": 2474918238, "lat": 47.8613601, "lon": 17.5341822, "tags": {"amenity": "pub", "food": "fish", "name": "Hull\u00e1m Cs\u00e1rda", "opening_hours": "Mo-Su 08:00-21:00", "outdoor_seating": "yes", "phone": "+421 31/559 41 92"}}, {"type": "node", "id": 2526888927, "lat": 47.8507054, "lon": 17.7646139, "tags": {"amenity": "pub", "name": "Hostinec Veveri\u010dka"}}, {"type": "node", "id": 2526888934, "lat": 47.8540657, "lon": 17.7694871, "tags": {"amenity": "pub", "internet_access": "wlan", "internet_access:fee": "yes", "name": "U holuba"}}, {"type": "node", "id": 2541928510, "lat": 47.8532344, "lon": 17.7704206, "tags": {"addr:city": "Ve\u013ek\u00fd Meder", "addr:country": "SK", "addr:housenumber": "16", "addr:street": "Sv\u00e4t\u00e9ho \u0160tefana", "addr:streetnumber": "16", "amenity": "pub", "name": "Big Man's Pub", "opening_hours": "Mo-Su 00:00-01:00,17:00-24:00"}}, {"type": "node", "id": 2541928529, "lat": 47.854631, "lon": 17.7612392, "tags": {"amenity": "pub"}}, {"type": "node", "id": 2689954136, "lat": 47.8483499, "lon": 17.7392029, "tags": {"amenity": "pub", "name": "Tarcsi"}}, {"type": "node", "id": 2689998185, "lat": 47.829299, "lon": 17.6150227, "tags": {"amenity": "pub"}}, {"type": "node", "id": 2689998189, "lat": 47.8358366, "lon": 17.6105885, "tags": {"amenity": "pub", "name": "Topo\u013e"}}, {"type": "node", "id": 2844258199, "lat": 47.7483552, "lon": 17.8197196, "tags": {"addr:city": "Kl\u00ed\u017eska Nem\u00e1", "addr:housenumber": "140", "addr:postcode": "94619", "addr:street": "Kl\u00ed\u017eska Nem\u00e1", "amenity": "pub", "contact:email": "kaffeehaus.kk@gmail.com", "contact:facebook": "https://facebook.com/kkaffeehaus", "name": "K&K Kaffeehaus", "opening_hours": "Tu-Fr 16:00-20:00; Sa, Su 10:00-20:00", "outdoor_seating": "yes"}}, {"type": "node", "id": 2844258200, "lat": 47.7512242, "lon": 17.8198054, "tags": {"amenity": "pub"}}, {"type": "node", "id": 2972007364, "lat": 47.9900059, "lon": 17.6246326, "tags": {"amenity": "pub"}}, {"type": "node", "id": 3025372043, "lat": 47.9335214, "lon": 17.7130045}, {"type": "node", "id": 3025372044, "lat": 47.9336955, "lon": 17.7130568}, {"type": "node", "id": 3025372045, "lat": 47.9336298, "lon": 17.7129063}, {"type": "node", "id": 3025372046, "lat": 47.9335855, "lon": 17.7131517}, {"type": "node", "id": 3082791974, "lat": 47.9851615, "lon": 17.6034382, "tags": {"amenity": "pub", "name": "Bar Aqua", "opening_hours": "Mo-Su 16:00-24:00"}}, {"type": "node", "id": 3118316290, "lat": 48.023878, "lon": 17.3076678, "tags": {"amenity": "pub", "name": "Scottish Pub"}}, {"type": "node", "id": 3118322099, "lat": 48.0269379, "lon": 17.3119309, "tags": {"amenity": "pub", "name": "Norken Pub", "opening_hours": "18:00-24:00", "smoking": "isolated"}}, {"type": "node", "id": 3118342366, "lat": 48.0296553, "lon": 17.3030981, "tags": {"amenity": "pub", "name": "Derby"}}, {"type": "node", "id": 3290991890, "lat": 47.8206681, "lon": 17.616458}, {"type": "node", "id": 3290991892, "lat": 47.8206706, "lon": 17.616637}, {"type": "node", "id": 3290991918, "lat": 47.8208233, "lon": 17.6164532}, {"type": "node", "id": 3290991919, "lat": 47.8208258, "lon": 17.6166321}, {"type": "node", "id": 3441397572, "lat": 47.74465, "lon": 17.6825, "tags": {"amenity": "pub", "name": "Bajcsi s\u00f6r\u00f6z\u0151", "source": "turistautak.hu", "source:date": "2010-05-05", "url": "http://turistautak.hu/poi.php?id=33365"}}, {"type": "node", "id": 3441411601, "lat": 47.7473, "lon": 17.56885, "tags": {"amenity": "pub", "description": "H\u00e1zi f\u0151z\u00e9s\u0171 ser el\u0151\u00e1ll\u00edt\u00e1s\u00e1val foglalkozik. A f\u0151zde Gy\u0151rt\u0151l 10 percre, a szigetk\u00f6z sz\u00edv\u00e9ben, Gy\u0151rz\u00e1molyon tal\u00e1lhat\u00f3. Http://www.cervisia.hu", "name": "Cervisia s\u00f6rf\u0151zde", "source": "turistautak.hu", "source:date": "2012-05-19", "url": "http://turistautak.hu/poi.php?id=138842"}}, {"type": "node", "id": 3441411602, "lat": 47.7294681, "lon": 17.4210396, "tags": {"addr:city": "Mosonszentmikl\u00f3s", "addr:housenumber": "71", "addr:postcode": "9154", "addr:street": "Zr\u00ednyi Mikl\u00f3s utca", "amenity": "pub", "name": "Csopak bisztr\u00f3"}}, {"type": "node", "id": 3441411627, "lat": 47.751583, "lon": 17.649976, "tags": {"amenity": "pub", "name": "Feny\u0151fa boroz\u00f3", "source": "turistautak.hu", "source:date": "2011-02-20", "url": "http://turistautak.hu/poi.php?id=95689"}}, {"type": "node", "id": 3441411655, "lat": 47.75138, "lon": 17.648753, "tags": {"amenity": "pub", "name": "Jungle pub", "source": "turistautak.hu", "source:date": "2011-02-20", "url": "http://turistautak.hu/poi.php?id=95690"}}, {"type": "node", "id": 3441411816, "lat": 47.771167, "lon": 17.538133, "tags": {"amenity": "pub", "name": "Kert kocsma"}}, {"type": "node", "id": 3441411821, "lat": 47.7395701, "lon": 17.5197739, "tags": {"amenity": "pub", "internet_access": "wlan", "name": "Kisduna vend\u00e9gl\u0151", "outdoor_seating": "yes", "smoking": "outside"}}, {"type": "node", "id": 3441411825, "lat": 47.759122, "lon": 17.563787, "tags": {"amenity": "pub", "name": "Kocsma \u00e9s fagyiz\u00f3", "source": "turistautak.hu", "source:date": "2010-05-02", "url": "http://turistautak.hu/poi.php?id=52385"}}, {"type": "node", "id": 3441411865, "lat": 47.7412436, "lon": 17.5763217, "tags": {"amenity": "pub", "name": "M\u00e1kvir\u00e1g kiskocsma"}}, {"type": "node", "id": 3441412029, "lat": 47.7455081, "lon": 17.5719591, "tags": {"amenity": "pub", "internet_access": "yes", "name": "Tr\u00e9fa Drinkb\u00e1r", "outdoor_seating": "yes", "shop": "confectionery", "smoking": "outside", "takeaway": "yes"}}, {"type": "node", "id": 3441412037, "lat": 47.76285, "lon": 17.6837, "tags": {"amenity": "pub", "name": "T\u00f3parti s\u00f6r\u00f6z\u0151", "source": "turistautak.hu", "source:date": "2010-05-05", "url": "http://turistautak.hu/poi.php?id=56109"}}, {"type": "node", "id": 3441412855, "lat": 47.7390437, "lon": 17.7597919, "tags": {"amenity": "pub", "source": "turistautak.hu", "source:date": "2010-05-05", "url": "http://turistautak.hu/poi.php?id=21409"}}, {"type": "node", "id": 3441412936, "lat": 47.7812116, "lon": 17.5006423, "tags": {"amenity": "pub", "name": "Strand B\u00fcf\u00e9", "smoking": "outside"}}, {"type": "node", "id": 3449027234, "lat": 47.8768869, "lon": 17.2717487, "tags": {"addr:city": "Mosonmagyar\u00f3v\u00e1r", "addr:housenumber": "2", "addr:postcode": "9200", "addr:street": "J\u00f3kai utca", "amenity": "pub", "name": "Kulacs Hal\u00e1szcs\u00e1rda", "website": "http://www.ambroziaetterem.hu/"}}, {"type": "node", "id": 3449037286, "lat": 47.8766062, "lon": 17.2720062, "tags": {"addr:city": "Mosonmagyar\u00f3v\u00e1r", "addr:housenumber": "3", "addr:postcode": "9200", "addr:street": "J\u00f3kai utca", "amenity": "pub", "name": "Ali Boroz\u00f3 1921"}}, {"type": "node", "id": 3450689540, "lat": 47.8791837, "lon": 17.2721684, "tags": {"addr:city": "Mosonmagyar\u00f3v\u00e1r", "addr:housenumber": "2", "addr:postcode": "9200", "addr:street": "V\u00e1r k\u00f6z", "amenity": "pub", "name": "Club M", "website": "http://www.clubm.hu/"}}, {"type": "node", "id": 3456418193, "lat": 47.8759906, "lon": 17.4369911, "tags": {"amenity": "pub", "name": "Leg\u00e9nyc\u00e9h boroz\u00f3"}}, {"type": "node", "id": 3456418333, "lat": 47.8493956, "lon": 17.4234327, "tags": {"amenity": "pub", "name": "Sport b\u00fcf\u00e9"}}, {"type": "node", "id": 3456418356, "lat": 47.7962487, "lon": 17.4803055, "tags": {"addr:city": "Mecs\u00e9r", "addr:housenumber": "7", "addr:postcode": "9176", "addr:street": "H\u00edd utca", "amenity": "pub", "name": "Koccint\u00f3"}}, {"type": "node", "id": 3456418693, "lat": 47.9397343, "lon": 17.3527149, "tags": {"amenity": "pub", "source": "turistautak.hu", "source:date": "2015-01-30", "url": "http://turistautak.hu/poi.php?id=52369"}}, {"type": "node", "id": 3495360893, "lat": 47.8287996, "lon": 17.4511531, "tags": {"amenity": "pub", "name": "Malom b\u00fcf\u00e9", "outdoor_seating": "yes"}}, {"type": "node", "id": 3502231925, "lat": 47.8345663, "lon": 17.4572511}, {"type": "node", "id": 3502231926, "lat": 47.8346004, "lon": 17.4573244}, {"type": "node", "id": 3502231927, "lat": 47.8346312, "lon": 17.4571842}, {"type": "node", "id": 3502231928, "lat": 47.8346653, "lon": 17.4572575}, {"type": "node", "id": 3597084448, "lat": 47.8269352, "lon": 17.4049125}, {"type": "node", "id": 3734584487, "lat": 47.9959612, "lon": 17.4854717, "tags": {"amenity": "pub", "name": "Turul"}}, {"type": "node", "id": 3734584493, "lat": 47.9852649, "lon": 17.4635802, "tags": {"amenity": "pub"}}, {"type": "node", "id": 3734584502, "lat": 47.9945371, "lon": 17.4799007, "tags": {"amenity": "pub", "name": "Ny\u00edrfa"}}, {"type": "node", "id": 3734588451, "lat": 48.0164316, "lon": 17.5304483}, {"type": "node", "id": 3734588452, "lat": 48.0164973, "lon": 17.5303643}, {"type": "node", "id": 3734588454, "lat": 48.0164924, "lon": 17.5305545}, {"type": "node", "id": 3734588455, "lat": 48.0165581, "lon": 17.5304705}, {"type": "node", "id": 3734590345, "lat": 48.010173, "lon": 17.5747642, "tags": {"amenity": "pub", "name": "Riki"}}, {"type": "node", "id": 3759240259, "lat": 47.8348938, "lon": 17.4602981}, {"type": "node", "id": 3759240261, "lat": 47.8349404, "lon": 17.4603696}, {"type": "node", "id": 3759240262, "lat": 47.8349791, "lon": 17.4601914}, {"type": "node", "id": 3759240265, "lat": 47.8350219, "lon": 17.4602675}, {"type": "node", "id": 3872713779, "lat": 47.8891292, "lon": 17.8089455, "tags": {"amenity": "pub", "name": "Z\u00f6ld Sas-Zelen\u00fd Orol", "name:hu": "Z\u00f6ld Sas", "name:sk": "Zelen\u00fd Orol"}}, {"type": "node", "id": 3884609491, "lat": 47.891938, "lon": 17.8081819, "tags": {"addr:city": "Oko\u010d", "addr:street": "Lipov\u00fd rad", "amenity": "pub", "name": "Grand Cafe", "opening_hours": "Mo-Th 15:00-23:00, Fr 15:00-01:00, Sa 15:00-04:00"}}, {"type": "node", "id": 3890969241, "lat": 47.8879785, "lon": 17.8100267, "tags": {"amenity": "pub", "name": "CC Coffee and club", "opening_hours": "Mo-Th 08:00-22:00; Fr 08:00-26:00; Sa 08:00-28:00; Su 09:00-22:00"}}, {"type": "node", "id": 3891025229, "lat": 47.8873439, "lon": 17.8120799, "tags": {"amenity": "pub", "name": "Vin\u00e1re\u0148- Boroz\u00f3", "opening_hours": "Mo-Th 15:00-24:00; Fr-Sa 15:00-26:00; Su 15:00-24:00"}}, {"type": "node", "id": 4044671615, "lat": 48.0238875, "lon": 17.5123813, "tags": {"addr:city": "Michal na Ostrove", "addr:postcode": "93035", "amenity": "pub", "name": "Kiskocsma", "outdoor_seating": "yes"}}, {"type": "node", "id": 4110175311, "lat": 47.7339806, "lon": 17.4283567, "tags": {"amenity": "pub", "name": "Ott italbolt"}}, {"type": "node", "id": 4165676986, "lat": 47.9403832, "lon": 17.3692703}, {"type": "node", "id": 4165677189, "lat": 47.9404203, "lon": 17.3692312}, {"type": "node", "id": 4165677190, "lat": 47.9404196, "lon": 17.3694072}, {"type": "node", "id": 4165677194, "lat": 47.9404385, "lon": 17.3693874}, {"type": "node", "id": 4165677195, "lat": 47.9404694, "lon": 17.3695128}, {"type": "node", "id": 4165677199, "lat": 47.9405254, "lon": 17.3694538}, {"type": "node", "id": 4200904809, "lat": 47.832365, "lon": 17.5011315, "tags": {"amenity": "pub", "name": "Pressz\u00f3"}}, {"type": "node", "id": 4318706287, "lat": 47.8271135, "lon": 17.4979895, "tags": {"amenity": "pub", "name": "B\u00fcf\u00e9", "smoking": "outside", "toilets:disposal": "chemical"}}, {"type": "node", "id": 4334567801, "lat": 47.7374521, "lon": 17.3885564, "tags": {"amenity": "pub", "name": "S\u00f6rbarlang"}}, {"type": "node", "id": 4379694730, "lat": 47.8215205, "lon": 17.3680986, "tags": {"amenity": "pub", "name": "Fregatt s\u00f6r\u00f6z\u0151", "outdoor_seating": "yes", "smoking": "outside"}}, {"type": "node", "id": 4383156355, "lat": 47.8032618, "lon": 17.3454181, "tags": {"amenity": "pub", "name": "Domino pressz\u00f3", "outdoor_seating": "yes", "smoking": "outside"}}, {"type": "node", "id": 4383156356, "lat": 47.8011333, "lon": 17.3464051, "tags": {"amenity": "pub", "name": "Italbolt", "outdoor_seating": "yes", "smoking": "outside"}}, {"type": "node", "id": 4419576365, "lat": 47.9822245, "lon": 17.3635069, "tags": {"amenity": "pub", "name": "Dobr\u00fd hos\u0165", "outdoor_seating": "yes"}}, {"type": "node", "id": 4419576369, "lat": 47.9756879, "lon": 17.3785164, "tags": {"amenity": "pub"}}, {"type": "node", "id": 4422038841, "lat": 47.8254675, "lon": 17.4931862}, {"type": "node", "id": 4422038850, "lat": 47.8255211, "lon": 17.4933212}, {"type": "node", "id": 4422038873, "lat": 47.8256616, "lon": 17.4930155}, {"type": "node", "id": 4422038876, "lat": 47.8257151, "lon": 17.4931505}, {"type": "node", "id": 4511550235, "lat": 47.8453135, "lon": 17.4315552}, {"type": "node", "id": 4511550236, "lat": 47.8452778, "lon": 17.4316194}, {"type": "node", "id": 4511550237, "lat": 47.8453214, "lon": 17.4316772}, {"type": "node", "id": 4511550238, "lat": 47.8453593, "lon": 17.4316126}, {"type": "node", "id": 4660576385, "lat": 47.9258062, "lon": 17.4562058}, {"type": "node", "id": 4660576386, "lat": 47.9258361, "lon": 17.4559882}, {"type": "node", "id": 4660576387, "lat": 47.925934, "lon": 17.4560177}, {"type": "node", "id": 4660576388, "lat": 47.9259041, "lon": 17.4562354}, {"type": "node", "id": 4933474377, "lat": 47.7350821, "lon": 17.3926433, "tags": {"amenity": "pub", "name": "99 Vend\u00e9gl\u0151"}}, {"type": "node", "id": 4933475450, "lat": 47.7425016, "lon": 17.5805311, "tags": {"amenity": "pub", "name": "Szomjolt\u00f3", "toilets:wheelchair": "no", "wheelchair": "yes"}}, {"type": "node", "id": 4933475512, "lat": 47.8152627, "lon": 17.3661562, "tags": {"amenity": "pub", "name": "Csalog\u00e1ny Boroz\u00f3"}}, {"type": "node", "id": 4933477076, "lat": 47.8623938, "lon": 17.2717301, "tags": {"amenity": "pub", "fixme": "verify", "name": "Rivalda Kiskocsma", "source": "route4u", "toilets:wheelchair": "no", "wheelchair": "no"}}, {"type": "node", "id": 4933477101, "lat": 47.8914062, "lon": 17.3322969, "tags": {"addr:city": "Hal\u00e1szi", "addr:housenumber": "2", "addr:postcode": "9228", "addr:street": "Szent M\u00e1rton utca", "amenity": "pub", "name": "Lott\u00f3 Pressz\u00f3", "outdoor_seating": "yes"}}, {"type": "node", "id": 4933477256, "lat": 47.8567122, "lon": 17.3185808, "tags": {"amenity": "pub", "fixme": "verify", "name": "Baby Boroz\u00f3", "source": "route4u", "toilets:wheelchair": "no", "wheelchair": "limited"}}, {"type": "node", "id": 4939174916, "lat": 47.8662673, "lon": 17.2725869, "tags": {"amenity": "pub", "name": "D-Corner B\u00e1r", "toilets:wheelchair": "limited", "wheelchair": "yes"}}, {"type": "node", "id": 4939175576, "lat": 47.866396, "lon": 17.2727911, "tags": {"amenity": "pub", "fixme": "verify", "name": "Pity\u00f3k\u00e1s Boroz\u00f3", "source": "route4u", "toilets:wheelchair": "no", "wheelchair": "no"}}, {"type": "node", "id": 4939176159, "lat": 47.8661318, "lon": 17.2727295, "tags": {"amenity": "pub", "name": "Vigad\u00f3", "toilets:wheelchair": "no", "wheelchair": "limited"}}, {"type": "node", "id": 4939179683, "lat": 47.7419592, "lon": 17.3857521, "tags": {"amenity": "pub", "name": "P\u00e1lya B\u00fcf\u00e9", "outdoor_seating": "yes"}}, {"type": "node", "id": 4940559167, "lat": 47.9501505, "lon": 17.3468835, "tags": {"amenity": "pub", "fixme": "verify", "name": "Strand \u00e9s Szabadid\u0151k\u00f6zpont", "source": "route4u", "toilets:wheelchair": "no", "wheelchair": "yes"}}, {"type": "node", "id": 4940561178, "lat": 47.879658, "lon": 17.2804153, "tags": {"amenity": "pub", "fixme": "verify", "source": "route4u", "toilets:wheelchair": "no", "wheelchair": "no"}}, {"type": "node", "id": 5059040370, "lat": 47.8462751, "lon": 17.4327249}, {"type": "node", "id": 5059040371, "lat": 47.8463016, "lon": 17.4327878}, {"type": "node", "id": 5059040372, "lat": 47.846366, "lon": 17.4326399}, {"type": "node", "id": 5059040373, "lat": 47.8463925, "lon": 17.4327027}, {"type": "node", "id": 5062664286, "lat": 47.8632072, "lon": 17.3267783}, {"type": "node", "id": 5062664287, "lat": 47.8632218, "lon": 17.3268257}, {"type": "node", "id": 5062664288, "lat": 47.8632995, "lon": 17.3267154}, {"type": "node", "id": 5062664289, "lat": 47.8633141, "lon": 17.3267628}, {"type": "node", "id": 5088612080, "lat": 47.9946398, "lon": 17.6180011, "tags": {"amenity": "pub", "name": "Nostalgia Pub", "opening_hours": "Mo-Th 10:00-23:23, Fr 10:00-01:00, Sa 11:00-01:00, Su 11:00-23:00", "outdoor_seating": "yes", "phone": "+421 908 833437", "smoking": "outside", "website": "https://www.facebook.com/Nosztalgia-s%C3%B6r%C3%B6z%C5%91-pub-850043181705181/"}}, {"type": "node", "id": 5176933146, "lat": 47.7353003, "lon": 17.3922362, "tags": {"amenity": "pub", "name": "Italbolt"}}, {"type": "node", "id": 5209260012, "lat": 47.728427, "lon": 17.4258987, "tags": {"amenity": "pub", "name": "Plat\u00e1n s\u00f6r\u00f6z\u0151"}}, {"type": "node", "id": 5271553625, "lat": 47.8745395, "lon": 17.65393}, {"type": "node", "id": 5271553800, "lat": 47.8749525, "lon": 17.6552034}, {"type": "node", "id": 5271553964, "lat": 47.8747904, "lon": 17.6549082}, {"type": "node", "id": 5271554070, "lat": 47.8748903, "lon": 17.6552381}, {"type": "node", "id": 5271554579, "lat": 47.8745566, "lon": 17.6539154}, {"type": "node", "id": 5271554660, "lat": 47.8745722, "lon": 17.6538907}, {"type": "node", "id": 5271554754, "lat": 47.8745622, "lon": 17.653856}, {"type": "node", "id": 5271555300, "lat": 47.8745254, "lon": 17.6539819}, {"type": "node", "id": 5271555310, "lat": 47.8745503, "lon": 17.6537971}, {"type": "node", "id": 5271555481, "lat": 47.8744733, "lon": 17.6537714}, {"type": "node", "id": 5271555508, "lat": 47.8748511, "lon": 17.6548677}, {"type": "node", "id": 5271555613, "lat": 47.8744587, "lon": 17.6537816}, {"type": "node", "id": 5271555976, "lat": 47.8744122, "lon": 17.6538929}, {"type": "node", "id": 5271556099, "lat": 47.8745358, "lon": 17.6538486}, {"type": "node", "id": 5298095351, "lat": 47.8748601, "lon": 17.6551383}, {"type": "node", "id": 5303369029, "lat": 47.799524, "lon": 17.6609267, "tags": {"amenity": "pub", "name": "Fakocsma", "opening_hours": "Mo-Th 08:00-22:00; Fr-Su 08:00-00:00"}}, {"type": "node", "id": 5900078449, "lat": 47.8274454, "lon": 17.3714983, "tags": {"amenity": "pub"}}, {"type": "node", "id": 5900078450, "lat": 47.8295198, "lon": 17.3751891, "tags": {"amenity": "pub", "name": "Hullahopp B\u00fcf\u00e9 Boroz\u00f3", "opening_hours": "Mo-Su 14:00-22:00", "outdoor_seating": "yes", "smoking": "outside"}}, {"type": "node", "id": 6056099737, "lat": 48.0029192, "lon": 17.3719396, "tags": {"amenity": "pub", "name": "Pohostinstvo Pod lipou", "outdoor_seating": "yes", "source": "survey"}}, {"type": "node", "id": 6255883819, "lat": 47.7289207, "lon": 17.4863901, "tags": {"amenity": "pub", "name": "Fekete Bivaly S\u00f6r\u00f6z\u0151", "source": "route4u"}}, {"type": "node", "id": 6512105579, "lat": 47.7383962, "lon": 17.523762, "tags": {"amenity": "pub", "name": "G\u00e9mesk\u00fat Boroz\u00f3", "outdoor_seating": "yes", "smoking": "outside"}}, {"type": "node", "id": 6531349265, "lat": 47.7712138, "lon": 17.5379321, "tags": {"amenity": "pub", "name": "Nemzeti Doh\u00e1nybolt", "shop": "tobacco"}}, {"type": "node", "id": 6640416722, "lat": 47.8269521, "lon": 17.4049814}, {"type": "node", "id": 6640416723, "lat": 47.8269785, "lon": 17.4050895}, {"type": "node", "id": 6640416724, "lat": 47.8268817, "lon": 17.4049415}, {"type": "node", "id": 6640416725, "lat": 47.826925, "lon": 17.4051185}, {"type": "node", "id": 6909459107, "lat": 47.8321901, "lon": 17.3758462, "tags": {"amenity": "pub", "name": "N\u00e1das"}}, {"type": "node", "id": 6909459117, "lat": 47.889086, "lon": 17.3241198, "tags": {"amenity": "pub"}}, {"type": "node", "id": 6909459118, "lat": 47.8878665, "lon": 17.32232, "tags": {"amenity": "pub", "name": "Valentin pressz\u00f3"}}, {"type": "node", "id": 6909459120, "lat": 47.8873233, "lon": 17.3205632, "tags": {"amenity": "pub", "name": "Badacsony"}}, {"type": "node", "id": 6909459121, "lat": 47.8870463, "lon": 17.3233151, "tags": {"amenity": "pub"}}, {"type": "node", "id": 8310565042, "lat": 47.9525544, "lon": 17.4444038, "tags": {"amenity": "pub", "brewery": "yes;various", "outdoor_seating": "yes"}}, {"type": "node", "id": 8908092214, "lat": 47.9978239, "lon": 17.6206259, "tags": {"amenity": "pub", "name": "Park Presso"}}, {"type": "node", "id": 9083597357, "lat": 47.9348474, "lon": 17.3745131, "tags": {"amenity": "pub", "name": "Cikolai Parlament", "outdoor_seating": "yes", "shop": "convenience", "smoking": "outside"}}, {"type": "node", "id": 9084607883, "lat": 47.9387144, "lon": 17.3504953, "tags": {"amenity": "pub", "name": "Part B\u00fcf\u00e9", "outdoor_seating": "yes", "smoking": "outside"}}, {"type": "node", "id": 9264565481, "lat": 47.8698928, "lon": 17.2778107, "tags": {"amenity": "pub"}}, {"type": "node", "id": 9264565483, "lat": 47.8745277, "lon": 17.2776363, "tags": {"amenity": "pub"}}, {"type": "node", "id": 10073892334, "lat": 48.0104113, "lon": 17.5746194, "tags": {"amenity": "pub", "outdoor_seating": "yes"}}, {"type": "node", "id": 10293825824, "lat": 47.7563196, "lon": 17.5663028}, {"type": "node", "id": 10293825825, "lat": 47.7562558, "lon": 17.5662231}, {"type": "node", "id": 10293825826, "lat": 47.7561528, "lon": 17.5663771}, {"type": "node", "id": 10293825827, "lat": 47.7562272, "lon": 17.566478}, {"type": "way", "id": 58504591, "nodes": [725135214, 725131799, 725128578, 725131133, 725135214], "tags": {"addr:city": "Oko\u010d", "addr:conscriptionnumber": "165", "addr:country": "SK", "addr:housenumber": "165", "addr:place": "Oko\u010d", "amenity": "pub", "building": "yes", "import": "budovy201004", "name": "Hostinec N\u00e9meth", "name:hu": "N\u00e9meth vend\u00e9gl\u0151", "source": "kapor2", "source:conscriptionnumber": "kapor2"}}, {"type": "way", "id": 227065166, "nodes": [2357950614, 2357950586, 2357950620, 2357950649, 2357950614], "tags": {"amenity": "pub", "building": "yes", "name": "Danube pub", "source": "kapor2"}}, {"type": "way", "id": 298640461, "nodes": [3025372044, 3025372045, 3025372043, 3025372046, 852460585, 3025372044], "tags": {"addr:city": "Doln\u00fd \u0160t\u00e1l", "addr:postcode": "93010", "amenity": "pub", "building": "yes", "name": "Hostinec Cs\u00edkos", "name:hu": "Cs\u00edkos vend\u00e9gl\u0151"}}, {"type": "way", "id": 322325032, "nodes": [3290991919, 3290991892, 3290991890, 3290991918, 3290991919], "tags": {"addr:city": "Sap", "addr:conscriptionnumber": "93", "addr:country": "SK", "addr:housenumber": "93", "addr:place": "Sap", "addr:postcode": "93006", "amenity": "pub", "building": "yes", "name": "Veter\u00e1n", "source": "Bing", "source:conscriptionnumber": "kapor2"}}, {"type": "way", "id": 343371052, "nodes": [3502231928, 3502231926, 3502231925, 3502231927, 3502231928], "tags": {"amenity": "pub", "building": "yes", "name": "Sport b\u00fcf\u00e9"}}, {"type": "way", "id": 369687317, "nodes": [3734588452, 3734588455, 3734588454, 3734588451, 3734588452], "tags": {"addr:city": "Orechov\u00e1 Pot\u00f4\u0148", "addr:conscriptionnumber": "2004", "addr:country": "SK", "addr:housenumber": "2004", "addr:place": "Orechov\u00e1 Pot\u00f4\u0148", "addr:postcode": "93002", "amenity": "pub", "building": "yes", "source:conscriptionnumber": "kapor2"}}, {"type": "way", "id": 372366344, "nodes": [3759240262, 3759240265, 3759240261, 3759240259, 3759240262], "tags": {"amenity": "pub", "building": "yes", "name": "T\u00f6lgyfa boroz\u00f3", "outdoor_seating": "yes"}}, {"type": "way", "id": 415509846, "nodes": [4165677199, 4165677195, 4165677190, 4165677194, 4165676986, 4165677189, 4165677199], "tags": {"addr:city": "Dunasziget", "addr:housenumber": "11", "addr:postcode": "9226", "addr:street": "Cikola utca", "amenity": "pub", "building": "yes", "name": "Sziget Boroz\u00f3"}}, {"type": "way", "id": 444744907, "nodes": [4422038873, 4422038876, 4422038850, 4422038841, 4422038873], "tags": {"addr:city": "\u00c1sv\u00e1nyr\u00e1r\u00f3", "addr:housenumber": "36", "addr:postcode": "9177", "addr:street": "Gy\u0151ri \u00fat", "amenity": "pub", "building": "yes", "name": "Erd\u00e9ly \u00fczleth\u00e1z"}}, {"type": "way", "id": 454610178, "nodes": [4511550238, 4511550237, 4511550236, 4511550235, 4511550238], "tags": {"amenity": "pub", "building": "yes", "name": "Horv\u00e1th-kert boroz\u00f3", "opening_hours": "Mo-Fr 10:00-22:00; Sa-Su 06:00-22:00", "outdoor_seating": "yes", "toilets:wheelchair": "no", "wheelchair": "no"}}, {"type": "way", "id": 471906297, "nodes": [4660576388, 4660576387, 4660576386, 4660576385, 4660576388], "tags": {"addr:city": "Bod\u00edky", "addr:conscriptionnumber": "95", "addr:country": "SK", "addr:housenumber": "95", "addr:place": "Bod\u00edky", "addr:postcode": "93031", "amenity": "pub", "building": "yes", "name": "G\u00f3\u00f3\u00f3l Presso", "source": "kapor2", "source:conscriptionnumber": "kapor2"}}, {"type": "way", "id": 518669858, "nodes": [5059040373, 5059040371, 5059040370, 5059040372, 5059040373], "tags": {"amenity": "pub", "building": "yes", "name": "\u00d6rd\u00f6g Tanya", "outdoor_seating": "yes", "toilets:wheelchair": "no", "wheelchair": "limited"}}, {"type": "way", "id": 519136249, "nodes": [5062664288, 5062664289, 5062664287, 5062664286, 5062664288], "tags": {"amenity": "pub", "building": "yes", "name": "Alibi Tek\u00e9z\u0151 B\u00fcf\u00e9", "sport": "9pin"}}, {"type": "way", "id": 545430910, "nodes": [5271553800, 5271554070, 5298095351, 5271553964, 5271555508, 5271553800], "tags": {"amenity": "pub", "building": "yes", "source": "kapor2"}}, {"type": "way", "id": 545431010, "nodes": [5271553625, 5271555300, 5271555976, 5271555613, 5271555481, 5271555310, 5271556099, 5271554754, 5271554660, 5271554579, 5271553625], "tags": {"addr:city": "Pata\u0161", "addr:conscriptionnumber": "68", "addr:country": "SK", "addr:housenumber": "68", "addr:place": "Past\u00fachy", "addr:postcode": "92901", "amenity": "pub", "building": "yes", "ref:minvskaddress": "6202062724", "source": "kapor2", "source:addr": "minvskaddress 2021-09"}}, {"type": "way", "id": 706656838, "nodes": [6640416725, 6640416724, 3597084448, 6640416722, 6640416723, 6640416725], "tags": {"amenity": "pub", "building": "yes", "name": "\u00c1f\u00e9sz Italbolt"}}, {"type": "way", "id": 1125686167, "nodes": [10293825824, 10293825825, 10293825826, 10293825827, 10293825824], "tags": {"addr:city": "Gy\u0151rladam\u00e9r", "addr:postcode": "9173", "addr:street": "M\u00e1ty\u00e1s kir\u00e1ly utca", "amenity": "pub", "building": "yes"}}]}