{"version": 0.6, "generator": "Overpass API 0.7.59 e21c39fe", "osm3s": {"timestamp_osm_base": "2023-01-21T09:47:07Z", "copyright": "The data included in this document is from www.openstreetmap.org. The data is made available under ODbL."}, "elements": [{"type": "node", "id": 544730829, "lat": 47.0143272, "lon": 21.1782017, "tags": {"addr:city": "Szeghalom", "addr:housenumber": "22", "addr:postcode": "5520", "addr:street": "Ady Endre utca", "air_conditioning": "yes", "amenity": "fuel", "brand": "MOL", "brand:wikidata": "Q549181", "brand:wikipedia": "hu:MOL Magyar Olaj- \u00e9s G\u00e1zipari Nyrt.", "compressed_air": "yes", "contact:facebook": "https://www.facebook.com/mol.magyarorszag/", "contact:instagram": "https://www.instagram.com/mol.magyarorszag/", "contact:website": "https://www.mol.hu", "contact:youtube": "https://www.youtube.com/user/molgrouptv", "food": "no", "fuel:GTL_diesel": "yes", "fuel:adblue": "no", "fuel:diesel": "yes", "fuel:lpg": "yes", "fuel:octane_100": "yes", "fuel:octane_95": "yes", "name": "MOL", "opening_hours": "06:00-22:00", "operator": "MOL Nyrt.", "operator:addr": "1117 Budapest, Domb\u00f3v\u00e1ri \u00fat 28.", "payment:cash": "yes", "payment:contactless": "yes", "payment:maestro": "yes", "payment:mastercard": "yes", "payment:mastercard_contactless": "yes", "payment:mastercard_electronic": "yes", "payment:visa": "yes", "payment:visa_electron": "yes", "ref:HU:company": "01-10-041683", "ref:HU:vatin": "10625790-4-44", "rent:lpg_bottles": "yes", "source": "website", "source:date": "2022-05-21", "truck": "no"}}, {"type": "node", "id": 2259884745, "lat": 47.3601256, "lon": 21.5776167}, {"type": "node", "id": 2275461977, "lat": 47.3599902, "lon": 21.5776529}, {"type": "node", "id": 2275461980, "lat": 47.3600518, "lon": 21.5775336}, {"type": "node", "id": 2624834892, "lat": 47.3129224, "lon": 21.1315462, "tags": {"addr:city": "P\u00fcsp\u00f6klad\u00e1ny", "addr:housenumber": "17", "addr:postcode": "4150", "addr:street": "Keleti sor", "air_conditioning": "yes", "amenity": "fuel", "brand": "MOL", "brand:wikidata": "Q549181", "brand:wikipedia": "hu:MOL Magyar Olaj- \u00e9s G\u00e1zipari Nyrt.", "compressed_air": "yes", "contact:facebook": "https://www.facebook.com/mol.magyarorszag/", "contact:instagram": "https://www.instagram.com/mol.magyarorszag/", "contact:website": "https://www.mol.hu", "contact:youtube": "https://www.youtube.com/user/molgrouptv", "food": "no", "fuel:GTL_diesel": "yes", "fuel:adblue": "no", "fuel:diesel": "yes", "fuel:lpg": "no", "fuel:octane_100": "yes", "fuel:octane_95": "yes", "name": "MOL", "operator": "MOL Nyrt.", "operator:addr": "1117 Budapest, Domb\u00f3v\u00e1ri \u00fat 28.", "payment:cash": "yes", "payment:contactless": "yes", "payment:maestro": "yes", "payment:mastercard": "yes", "payment:mastercard_contactless": "yes", "payment:mastercard_electronic": "yes", "payment:visa": "yes", "payment:visa_electron": "yes", "ref:HU:company": "01-10-041683", "ref:HU:vatin": "10625790-4-44", "rent:lpg_bottles": "yes", "source": "website", "source:date": "2022-05-21", "truck": "no"}}, {"type": "node", "id": 2624834894, "lat": 47.2353493, "lon": 21.5306259, "tags": {"addr:city": "Beretty\u00f3\u00fajfalu", "addr:housenumber": "49", "addr:postcode": "4100", "addr:street": "F\u00f6ldesi \u00fat", "air_conditioning": "yes", "amenity": "fuel", "brand": "MOL", "brand:wikidata": "Q549181", "brand:wikipedia": "hu:MOL Magyar Olaj- \u00e9s G\u00e1zipari Nyrt.", "compressed_air": "yes", "contact:facebook": "https://www.facebook.com/mol.magyarorszag/", "contact:instagram": "https://www.instagram.com/mol.magyarorszag/", "contact:website": "https://www.mol.hu", "contact:youtube": "https://www.youtube.com/user/molgrouptv", "food": "yes", "fuel:GTL_diesel": "yes", "fuel:adblue": "yes", "fuel:diesel": "yes", "fuel:lpg": "yes", "fuel:octane_100": "yes", "fuel:octane_95": "yes", "name": "MOL", "operator": "MOL Nyrt.", "operator:addr": "1117 Budapest, Domb\u00f3v\u00e1ri \u00fat 28.", "payment:cash": "yes", "payment:contactless": "yes", "payment:maestro": "yes", "payment:mastercard": "yes", "payment:mastercard_contactless": "yes", "payment:mastercard_electronic": "yes", "payment:visa": "yes", "payment:visa_electron": "yes", "ref:HU:company": "01-10-041683", "ref:HU:vatin": "10625790-4-44", "rent:lpg_bottles": "yes", "source": "website", "source:date": "2022-05-21", "truck": "no"}}, {"type": "node", "id": 2903439364, "lat": 47.2013885, "lon": 21.5329585, "tags": {"amenity": "fuel", "name": "Pet\u0151 Benzink\u00fat"}}, {"type": "node", "id": 3280283690, "lat": 47.3647219, "lon": 21.2552642, "tags": {"amenity": "fuel", "name": "Robb Oil", "phone": "+36 54 460 283"}}, {"type": "node", "id": 3456353314, "lat": 47.2006714, "lon": 21.2332393, "tags": {"amenity": "fuel", "name": "Totaline", "source": "turistautak.hu", "source:date": "2012-12-27", "url": "http://turistautak.hu/poi.php?id=67799"}}, {"type": "node", "id": 3456353373, "lat": 47.203038, "lon": 21.33796, "tags": {"amenity": "fuel", "source": "turistautak.hu", "source:date": "2012-08-01", "url": "http://turistautak.hu/poi.php?id=84417"}}, {"type": "node", "id": 3462303744, "lat": 47.082274, "lon": 21.211018, "tags": {"amenity": "fuel", "name": "MOL", "source": "turistautak.hu", "source:date": "2012-08-01", "url": "http://turistautak.hu/poi.php?id=61843"}}, {"type": "node", "id": 3462303745, "lat": 47.122244, "lon": 21.19404, "tags": {"amenity": "fuel", "name": "MOL", "source": "turistautak.hu", "source:date": "2012-08-01", "url": "http://turistautak.hu/poi.php?id=58565"}}, {"type": "node", "id": 4727481404, "lat": 46.9826513, "lon": 21.601003, "tags": {"addr:city": "Biharugra", "addr:housenumber": "21", "addr:postcode": "5538", "addr:street": "Z\u00f6ldfa", "amenity": "fuel", "name": "Ugra Benz", "name:hu": "Ugra Benz", "opening_hours": "Mo-Su 07:00-09:00, 12:30-17:00", "operator": "Bay J\u00e1nos", "phone": "+36 66 498 226"}}, {"type": "node", "id": 5145932294, "lat": 47.1223203, "lon": 21.1940575}, {"type": "node", "id": 5145932295, "lat": 47.1222555, "lon": 21.1942467}, {"type": "node", "id": 5145932296, "lat": 47.1221919, "lon": 21.1941996}, {"type": "node", "id": 5145932297, "lat": 47.1222567, "lon": 21.1940104}, {"type": "node", "id": 5145932312, "lat": 47.1222949, "lon": 21.1940387}, {"type": "node", "id": 5145932313, "lat": 47.1222314, "lon": 21.1942288}, {"type": "node", "id": 5302662107, "lat": 47.1916589, "lon": 21.5418316}, {"type": "node", "id": 5302662108, "lat": 47.1915586, "lon": 21.541824}, {"type": "node", "id": 5302662109, "lat": 47.1915531, "lon": 21.5419813}, {"type": "node", "id": 5302662110, "lat": 47.1916534, "lon": 21.5419889}, {"type": "node", "id": 5869220139, "lat": 47.2348428, "lon": 21.533577}, {"type": "node", "id": 5869220140, "lat": 47.2347399, "lon": 21.5333034}, {"type": "node", "id": 5869220141, "lat": 47.2346526, "lon": 21.5333761}, {"type": "node", "id": 5869220142, "lat": 47.2347555, "lon": 21.5336497}, {"type": "node", "id": 6164365444, "lat": 47.0138576, "lon": 21.4975126}, {"type": "node", "id": 6164365445, "lat": 47.0138201, "lon": 21.4975454}, {"type": "node", "id": 6164365446, "lat": 47.0138526, "lon": 21.4976255}, {"type": "node", "id": 6164365447, "lat": 47.0138902, "lon": 21.4975927}, {"type": "node", "id": 6164365575, "lat": 46.997432, "lon": 21.4917764}, {"type": "node", "id": 6164365576, "lat": 46.9973329, "lon": 21.4918555}, {"type": "node", "id": 6164365577, "lat": 46.9973005, "lon": 21.4917683}, {"type": "node", "id": 6164365578, "lat": 46.9973996, "lon": 21.4916892}, {"type": "node", "id": 6164845849, "lat": 47.0147303, "lon": 21.1499566}, {"type": "node", "id": 6214321081, "lat": 47.3600653, "lon": 21.5777352}, {"type": "node", "id": 7105122115, "lat": 47.2835165, "lon": 21.3585676}, {"type": "node", "id": 7105122116, "lat": 47.2836238, "lon": 21.3586628}, {"type": "node", "id": 7105122117, "lat": 47.2836634, "lon": 21.3585658}, {"type": "node", "id": 7105122118, "lat": 47.283556, "lon": 21.3584706}, {"type": "node", "id": 8704287303, "lat": 47.0148315, "lon": 21.1497642}, {"type": "node", "id": 8704287304, "lat": 47.0147947, "lon": 21.1497155}, {"type": "node", "id": 8704287305, "lat": 47.0147498, "lon": 21.1497321}, {"type": "node", "id": 8704287306, "lat": 47.0147069, "lon": 21.1497207}, {"type": "node", "id": 8704287307, "lat": 47.0146769, "lon": 21.1497495}, {"type": "node", "id": 8704287308, "lat": 47.0146787, "lon": 21.1497846}, {"type": "node", "id": 8704287309, "lat": 47.0146717, "lon": 21.1498432}, {"type": "node", "id": 8704287310, "lat": 47.0146963, "lon": 21.1498946}, {"type": "node", "id": 8704287311, "lat": 47.0147312, "lon": 21.1499338}, {"type": "node", "id": 8704287312, "lat": 47.0147263, "lon": 21.1500542}, {"type": "node", "id": 8704287313, "lat": 47.0146557, "lon": 21.1501041}, {"type": "node", "id": 8704287314, "lat": 47.0146506, "lon": 21.1501687}, {"type": "node", "id": 8704287315, "lat": 47.0146939, "lon": 21.1502079}, {"type": "node", "id": 8704287316, "lat": 47.0147672, "lon": 21.1501567}, {"type": "node", "id": 8704308617, "lat": 47.0148271, "lon": 21.1502261}, {"type": "node", "id": 8704308618, "lat": 47.0148596, "lon": 21.1501949}, {"type": "node", "id": 8704308619, "lat": 47.0148631, "lon": 21.1501253}, {"type": "node", "id": 8704308620, "lat": 47.0148128, "lon": 21.1500629}, {"type": "node", "id": 8704308621, "lat": 47.014816, "lon": 21.1499529}, {"type": "node", "id": 8704308622, "lat": 47.0148601, "lon": 21.149935}, {"type": "node", "id": 8704308623, "lat": 47.0148672, "lon": 21.1498769}, {"type": "node", "id": 8704308624, "lat": 47.0148297, "lon": 21.1498247}, {"type": "node", "id": 9919306768, "lat": 47.3284691, "lon": 21.1405485}, {"type": "node", "id": 9919306769, "lat": 47.3284873, "lon": 21.1406853}, {"type": "node", "id": 9919306770, "lat": 47.3283636, "lon": 21.1407202}, {"type": "node", "id": 9919306771, "lat": 47.3283436, "lon": 21.1405914}, {"type": "node", "id": 9919306772, "lat": 47.3284145, "lon": 21.1406478, "tags": {"amenity": "fuel", "name": "Pirosk\u00fat"}}, {"type": "node", "id": 10570305051, "lat": 47.2951537, "lon": 21.217655, "tags": {"amenity": "fuel", "name": "Mag\u00e1n"}}, {"type": "way", "id": 216597046, "nodes": [6214321081, 2275461977, 2275461980, 2259884745, 6214321081], "tags": {"addr:city": "Derecske", "amenity": "fuel", "brand": "Avia", "brand:wikidata": "Q300147", "brand:wikipedia": "de:Avia International", "building": "retail", "name": "Avia", "website": "https://www.avia.hu/"}}, {"type": "way", "id": 529784087, "nodes": [5145932294, 5145932295, 5145932313, 5145932296, 5145932297, 5145932312, 5145932294], "tags": {"amenity": "fuel", "building": "roof", "fuel:HGV_diesel": "yes", "fuel:diesel": "yes", "fuel:e85": "yes", "fuel:octane_95": "yes", "name": "S\u00e1rr\u00e9ti Min\u0151s\u00e9g Kft."}}, {"type": "way", "id": 548921494, "nodes": [5302662107, 5302662108, 5302662109, 5302662110, 5302662107], "tags": {"addr:city": "Beretty\u00f3\u00fajfalu", "addr:postcode": "4103", "air_conditioning": "yes", "amenity": "fuel", "brand": "MOL", "brand:wikidata": "Q549181", "brand:wikipedia": "hu:MOL Magyar Olaj- \u00e9s G\u00e1zipari Nyrt.", "building": "yes", "compressed_air": "yes", "contact:facebook": "https://www.facebook.com/mol.magyarorszag/", "contact:instagram": "https://www.instagram.com/mol.magyarorszag/", "contact:website": "https://www.mol.hu", "contact:youtube": "https://www.youtube.com/user/molgrouptv", "food": "no", "fuel:GTL_diesel": "yes", "fuel:adblue": "no", "fuel:diesel": "yes", "fuel:lpg": "no", "fuel:octane_100": "yes", "fuel:octane_95": "yes", "name": "MOL", "operator": "MOL Nyrt.", "operator:addr": "1117 Budapest, Domb\u00f3v\u00e1ri \u00fat 28.", "payment:cash": "yes", "payment:contactless": "yes", "payment:maestro": "yes", "payment:mastercard": "yes", "payment:mastercard_contactless": "yes", "payment:mastercard_electronic": "yes", "payment:visa": "yes", "payment:visa_electron": "yes", "ref:HU:company": "01-10-041683", "ref:HU:vatin": "10625790-4-44", "rent:lpg_bottles": "yes", "source": "website", "source:date": "2022-05-21", "truck": "no"}}, {"type": "way", "id": 621295627, "nodes": [5869220142, 5869220141, 5869220140, 5869220139, 5869220142], "tags": {"addr:city": "Beretty\u00f3\u00fajfalu", "addr:housenumber": "2", "addr:postcode": "4100", "addr:street": "Honv\u00e9d utca", "air_conditioning": "yes", "amenity": "fuel", "brand": "MOL", "brand:wikidata": "Q549181", "brand:wikipedia": "hu:MOL Magyar Olaj- \u00e9s G\u00e1zipari Nyrt.", "building": "roof", "compressed_air": "yes", "contact:facebook": "https://www.facebook.com/mol.magyarorszag/", "contact:instagram": "https://www.instagram.com/mol.magyarorszag/", "contact:website": "https://www.mol.hu", "contact:youtube": "https://www.youtube.com/user/molgrouptv", "food": "yes", "fuel:GTL_diesel": "yes", "fuel:adblue": "no", "fuel:diesel": "yes", "fuel:lpg": "yes", "fuel:octane_100": "yes", "fuel:octane_95": "yes", "name": "MOL", "operator": "MOL Nyrt.", "operator:addr": "1117 Budapest, Domb\u00f3v\u00e1ri \u00fat 28.", "payment:cash": "yes", "payment:contactless": "yes", "payment:maestro": "yes", "payment:mastercard": "yes", "payment:mastercard_contactless": "yes", "payment:mastercard_electronic": "yes", "payment:visa": "yes", "payment:visa_electron": "yes", "ref:HU:company": "01-10-041683", "ref:HU:vatin": "10625790-4-44", "rent:lpg_bottles": "yes", "source": "website", "source:date": "2022-05-21", "truck": "no"}}, {"type": "way", "id": 658254748, "nodes": [6164365444, 6164365445, 6164365446, 6164365447, 6164365444], "tags": {"addr:city": "Kom\u00e1di", "amenity": "fuel", "building": "retail"}}, {"type": "way", "id": 658254765, "nodes": [6164365575, 6164365576, 6164365577, 6164365578, 6164365575], "tags": {"addr:city": "Kom\u00e1di", "addr:housenumber": "24", "addr:postcode": "4138", "addr:street": "Szent Istv\u00e1n \u00fatja", "air_conditioning": "yes", "amenity": "fuel", "brand": "MOL", "brand:wikidata": "Q549181", "brand:wikipedia": "hu:MOL Magyar Olaj- \u00e9s G\u00e1zipari Nyrt.", "building": "residential", "compressed_air": "yes", "contact:facebook": "https://www.facebook.com/mol.magyarorszag/", "contact:fax": "+36 54 438 016", "contact:instagram": "https://www.instagram.com/mol.magyarorszag/", "contact:phone": "+36 54 439 321", "contact:website": "https://www.mol.hu", "contact:youtube": "https://www.youtube.com/user/molgrouptv", "food": "no", "fuel:GTL_diesel": "yes", "fuel:adblue": "no", "fuel:diesel": "yes", "fuel:lpg": "no", "fuel:octane_100": "yes", "fuel:octane_95": "yes", "name": "MOL", "opening_hours": "Mo-Su 07:00-19:00", "operator": "MOL Nyrt.", "operator:addr": "1117 Budapest, Domb\u00f3v\u00e1ri \u00fat 28.", "payment:cash": "yes", "payment:contactless": "yes", "payment:maestro": "yes", "payment:mastercard": "yes", "payment:mastercard_contactless": "yes", "payment:mastercard_electronic": "yes", "payment:visa": "yes", "payment:visa_electron": "yes", "ref:HU:company": "01-10-041683", "ref:HU:vatin": "10625790-4-44", "rent:lpg_bottles": "yes", "source": "website", "source:date": "2022-05-21", "truck": "no"}}, {"type": "way", "id": 760570807, "nodes": [7105122118, 7105122117, 7105122116, 7105122115, 7105122118], "tags": {"addr:city": "F\u00f6ldes", "addr:housenumber": "2", "addr:postcode": "4177", "addr:street": "Bem utca", "amenity": "fuel", "contact:phone": "+36 54 531 067", "name": "Benzink\u00fat", "old_name": "Agip", "opening_hours": "06:00-20:00", "roof": "retail", "roof:shape": "flat"}}, {"type": "way", "id": 939691301, "nodes": [8704287303, 8704287304, 8704287305, 8704287306, 8704287307, 8704287308, 8704287309, 8704287310, 8704287311, 6164845849, 8704287312, 8704287313, 8704287314, 8704287315, 8704287316, 8704308617, 8704308618, 8704308619, 8704308620, 8704308621, 8704308622, 8704308623, 8704308624, 8704287303], "tags": {"amenity": "fuel", "brand": "Shell", "brand:wikidata": "Q154950", "brand:wikipedia": "en:Royal Dutch Shell", "name": "Shell benzink\u00fat"}}, {"type": "way", "id": 1082340233, "nodes": [9919306768, 9919306769, 9919306770, 9919306771, 9919306768], "tags": {"amenity": "fuel"}}]}