{"version": 0.6, "generator": "Overpass API 0.7.59 e21c39fe", "osm3s": {"timestamp_osm_base": "2023-01-21T09:47:07Z", "copyright": "The data included in this document is from www.openstreetmap.org. The data is made available under ODbL."}, "elements": [{"type": "node", "id": 1470628369, "lat": 47.4642695, "lon": 20.5893875, "tags": {"amenity": "fuel", "brand": "MOL", "brand:wikidata": "Q549181", "fuel:diesel": "yes", "fuel:octane_95": "yes", "fuel:octane_98": "no", "name": "MOL", "operator": "MOL", "website": "https://mol.hu/"}}, {"type": "node", "id": 2007184587, "lat": 47.7444256, "lon": 20.4052924, "tags": {"amenity": "fuel", "brand": "OIL!", "brand:wikidata": "Q2007561", "name": "OIL!"}}, {"type": "node", "id": 2305544415, "lat": 47.6210911, "lon": 20.7471767}, {"type": "node", "id": 2305544417, "lat": 47.6211003, "lon": 20.7474126}, {"type": "node", "id": 2305544418, "lat": 47.6210998, "lon": 20.7473992}, {"type": "node", "id": 2305544437, "lat": 47.621236, "lon": 20.7471642}, {"type": "node", "id": 2305544438, "lat": 47.6212452, "lon": 20.7474001}, {"type": "node", "id": 2354600766, "lat": 47.6289225, "lon": 20.8982744, "tags": {"amenity": "fuel", "building": "yes", "name": "Benzink\u00fat"}}, {"type": "node", "id": 2360329215, "lat": 47.6172752, "lon": 20.8844275, "tags": {"amenity": "fuel", "building": "yes", "description": "Csak d\u00edzel", "fuel:diesel": "yes"}}, {"type": "node", "id": 2368143278, "lat": 47.6931284, "lon": 21.0008011, "tags": {"addr:city": "Tiszacsege", "addr:housenumber": "33", "addr:postcode": "4066", "addr:street": "Csurg\u00f3 utca", "amenity": "fuel", "building": "yes", "compressed_air": "yes", "name": "Benzink\u00fat"}}, {"type": "node", "id": 2394693182, "lat": 47.6077929, "lon": 20.7642238}, {"type": "node", "id": 2394693183, "lat": 47.6078101, "lon": 20.7641057}, {"type": "node", "id": 2394693184, "lat": 47.607849, "lon": 20.7641181}, {"type": "node", "id": 2394693185, "lat": 47.6078726, "lon": 20.7639552}, {"type": "node", "id": 2394693186, "lat": 47.6079512, "lon": 20.7640569}, {"type": "node", "id": 2394693187, "lat": 47.6079618, "lon": 20.7639836}, {"type": "node", "id": 2394693188, "lat": 47.6079757, "lon": 20.7642821}, {"type": "node", "id": 2394693189, "lat": 47.6080058, "lon": 20.7640744}, {"type": "node", "id": 2698458260, "lat": 47.5671389, "lon": 20.5133587, "tags": {"amenity": "fuel"}}, {"type": "node", "id": 2725038847, "lat": 47.7511025, "lon": 20.4195248, "tags": {"amenity": "fuel"}}, {"type": "node", "id": 2885399948, "lat": 47.4938288, "lon": 20.4989913, "tags": {"amenity": "fuel", "brand": "K\u00f6re tank", "name": "K\u00f6re tank", "operator": "K\u00f6re tank"}}, {"type": "node", "id": 4806562752, "lat": 47.64454, "lon": 20.6363559, "tags": {"amenity": "fuel", "fuel:diesel": "yes", "fuel:octane_95": "yes", "fuel:octane_98": "yes", "name": "Orlen", "operator": "Normbenz Magyarorsz\u00e1g Kft.", "payment:cash": "yes", "payment:maestro": "yes", "payment:mastercard": "yes", "payment:visa": "yes", "website": "https://orlen.hu/"}}, {"type": "node", "id": 5300664157, "lat": 47.4380171, "lon": 20.8049693}, {"type": "node", "id": 5300664158, "lat": 47.4379453, "lon": 20.8050633}, {"type": "node", "id": 5300664159, "lat": 47.438026, "lon": 20.8051981}, {"type": "node", "id": 5300664160, "lat": 47.4380978, "lon": 20.8051041}, {"type": "node", "id": 7774743699, "lat": 47.515362, "lon": 20.8211448}, {"type": "node", "id": 7774743700, "lat": 47.5154094, "lon": 20.8211373}, {"type": "node", "id": 7776578203, "lat": 47.5153541, "lon": 20.8210341}, {"type": "node", "id": 7776578204, "lat": 47.5154015, "lon": 20.8210267}, {"type": "way", "id": 221525582, "nodes": [2305544437, 2305544438, 2305544417, 2305544418, 2305544415, 2305544437], "tags": {"addr:city": "Tiszaf\u00fcred", "addr:postcode": "5350", "addr:street": "Ady Endre utca", "air_conditioning": "yes", "amenity": "fuel", "brand": "MOL", "brand:wikidata": "Q549181", "brand:wikipedia": "hu:MOL Magyar Olaj- \u00e9s G\u00e1zipari Nyrt.", "building": "yes", "compressed_air": "yes", "contact:facebook": "https://www.facebook.com/mol.magyarorszag/", "contact:instagram": "https://www.instagram.com/mol.magyarorszag/", "contact:website": "https://www.mol.hu", "contact:youtube": "https://www.youtube.com/user/molgrouptv", "food": "yes", "fuel:GTL_diesel": "yes", "fuel:adblue": "no", "fuel:diesel": "yes", "fuel:lpg": "yes", "fuel:octane_100": "yes", "fuel:octane_95": "yes", "name": "MOL", "operator": "MOL Nyrt.", "operator:addr": "1117 Budapest, Domb\u00f3v\u00e1ri \u00fat 28.", "payment:cash": "yes", "payment:contactless": "yes", "payment:maestro": "yes", "payment:mastercard": "yes", "payment:mastercard_contactless": "yes", "payment:mastercard_electronic": "yes", "payment:visa": "yes", "payment:visa_electron": "yes", "ref:HU:company": "01-10-041683", "ref:HU:vatin": "10625790-4-44", "rent:lpg_bottles": "yes", "source": "website", "source:date": "2022-05-21", "truck": "no"}}, {"type": "way", "id": 231052031, "nodes": [2394693188, 2394693182, 2394693183, 2394693184, 2394693185, 2394693187, 2394693186, 2394693189, 2394693188], "tags": {"addr:city": "Tiszaf\u00fcred", "addr:housenumber": "2/b", "addr:postcode": "5350", "addr:street": "H\u00fasz\u00f6les \u00fat", "amenity": "fuel", "brand": "Shell", "brand:wikidata": "Q154950", "brand:wikipedia": "en:Royal Dutch Shell", "building": "retail", "fuel:diesel": "yes", "fuel:octane_95": "yes", "name": "Shell", "note": "Snack Bar", "opening_hours": "24/7", "operator": "Shell Hungary Zrt.", "phone": "+36 59 511 104", "website": "https://www.shell.hu/"}}, {"type": "way", "id": 548695497, "nodes": [5300664157, 5300664158, 5300664159, 5300664160, 5300664157], "tags": {"amenity": "fuel", "building": "yes"}}, {"type": "way", "id": 832821816, "nodes": [7776578204, 7776578203, 7774743699, 7774743700, 7776578204], "tags": {"amenity": "fuel", "building": "retail"}}]}