{"version": 0.6, "generator": "Overpass API 0.7.59 e21c39fe", "osm3s": {"timestamp_osm_base": "2023-01-20T17:55:59Z", "copyright": "The data included in this document is from www.openstreetmap.org. The data is made available under ODbL."}, "elements": [{"type": "node", "id": 954724108, "lat": 47.1267415, "lon": 19.4312258}, {"type": "node", "id": 954724111, "lat": 47.1266102, "lon": 19.4311666}, {"type": "node", "id": 954724113, "lat": 47.126515, "lon": 19.4316233}, {"type": "node", "id": 954724114, "lat": 47.1266463, "lon": 19.4316825}, {"type": "node", "id": 2677818821, "lat": 47.1159236, "lon": 19.6952212, "tags": {"amenity": "library", "name": "Csem\u0151 k\u00f6nyvt\u00e1r", "opening_hours": "Tu 13:00-15:00; We,Th 13:00-15:30; Fr[1-3] 09:00-12:00; Fr[-1] 15:00-21:00; Sa 10:00-12:00", "wheelchair": "limited"}}, {"type": "node", "id": 2988086677, "lat": 47.083127, "lon": 19.3720582, "tags": {"amenity": "library"}}, {"type": "node", "id": 3323743342, "lat": 47.3625615, "lon": 19.6864953}, {"type": "node", "id": 3323743343, "lat": 47.3625884, "lon": 19.6863923}, {"type": "node", "id": 3323743348, "lat": 47.3627838, "lon": 19.6866217}, {"type": "node", "id": 3323743350, "lat": 47.3628107, "lon": 19.6865187}, {"type": "node", "id": 3343850892, "lat": 47.2469681, "lon": 19.6125306}, {"type": "node", "id": 3343854293, "lat": 47.2468715, "lon": 19.612698}, {"type": "node", "id": 3343854294, "lat": 47.2467741, "lon": 19.6125761}, {"type": "node", "id": 3343854295, "lat": 47.2467947, "lon": 19.6125405}, {"type": "node", "id": 3343854296, "lat": 47.2467235, "lon": 19.6124514}, {"type": "node", "id": 3343854297, "lat": 47.2467996, "lon": 19.6123195}, {"type": "node", "id": 3459944588, "lat": 47.035157, "lon": 19.451531, "tags": {"amenity": "library", "source": "turistautak.hu", "source:date": "2013-07-16", "url": "http://turistautak.hu/poi.php?id=156342"}}, {"type": "node", "id": 3471930940, "lat": 47.241835, "lon": 19.364812, "tags": {"amenity": "library", "description": "K\u00f6nyvt\u00e1r \u00e9s K\u00f6z\u00f6ss\u00e9gi H\u00e1z", "source": "turistautak.hu", "source:date": "2014-08-17", "url": "http://turistautak.hu/poi.php?id=170921"}}, {"type": "node", "id": 3504564209, "lat": 47.3004353, "lon": 19.2319481}, {"type": "node", "id": 3504564212, "lat": 47.3003456, "lon": 19.2321495}, {"type": "node", "id": 3504564213, "lat": 47.3002395, "lon": 19.2319055}, {"type": "node", "id": 3504564217, "lat": 47.3004187, "lon": 19.2320474}, {"type": "node", "id": 3504564219, "lat": 47.3002638, "lon": 19.2317839}, {"type": "node", "id": 3504564223, "lat": 47.3003241, "lon": 19.2317749}, {"type": "node", "id": 3504564225, "lat": 47.3002128, "lon": 19.2319428}, {"type": "node", "id": 3504564230, "lat": 47.3003929, "lon": 19.2320073}, {"type": "node", "id": 3504564232, "lat": 47.3002098, "lon": 19.2318593}, {"type": "node", "id": 3504564233, "lat": 47.3002892, "lon": 19.2318235}, {"type": "node", "id": 4355754389, "lat": 47.0347058, "lon": 19.7794043, "tags": {"amenity": "library", "name": "Gyermekk\u00f6nyvt\u00e1r", "name:en": "children's library", "name:hu": "Gyermekk\u00f6nyvt\u00e1r"}}, {"type": "node", "id": 6592319641, "lat": 47.3437399, "lon": 19.2365991}, {"type": "node", "id": 6592319642, "lat": 47.3438264, "lon": 19.2367219}, {"type": "node", "id": 6592319643, "lat": 47.3436345, "lon": 19.2370163}, {"type": "node", "id": 6592319644, "lat": 47.343605, "lon": 19.2369744}, {"type": "node", "id": 6592319645, "lat": 47.3436399, "lon": 19.236921}, {"type": "node", "id": 6592319646, "lat": 47.3435828, "lon": 19.23684}, {"type": "node", "id": 8090154078, "lat": 47.3542189, "lon": 19.5414318}, {"type": "node", "id": 8090154079, "lat": 47.3542004, "lon": 19.5414119}, {"type": "node", "id": 8090154080, "lat": 47.3542908, "lon": 19.5412865}, {"type": "node", "id": 8090154081, "lat": 47.3541243, "lon": 19.5415657}, {"type": "node", "id": 8090154082, "lat": 47.3540168, "lon": 19.5414497}, {"type": "node", "id": 8090154083, "lat": 47.3541649, "lon": 19.5411506}, {"type": "node", "id": 8222601026, "lat": 47.1742168, "lon": 19.4987717, "tags": {"addr:city": "Pusztavacs", "addr:housenumber": "5", "addr:postcode": "2378", "addr:street": "B\u00e9ke t\u00e9r", "amenity": "library", "contact:phone": "+36 29/315-215", "name": "K\u00f6zs\u00e9gi K\u00f6nyvt\u00e1r", "opening_hours": "Mo 13:00-16:30; Th,Fr 14:30-16:30", "url": "https://pusztavacs.eoldal.hu/cikkek/cimek.html", "website": "https://pusztavacs.asp.lgov.hu/kulturalis-szinterek"}}, {"type": "node", "id": 8313128789, "lat": 47.2972018, "lon": 19.4288368, "tags": {"amenity": "library", "name": "K\u00f6nyvt\u00e1r"}}, {"type": "way", "id": 81919867, "nodes": [954724108, 954724111, 954724113, 954724114, 954724108], "tags": {"amenity": "library", "building": "yes", "name": "\u00d6rk\u00e9nyi V\u00e1rosi K\u00f6nyvt\u00e1r"}}, {"type": "way", "id": 325763890, "nodes": [3323743350, 3323743343, 3323743342, 3323743348, 3323743350], "tags": {"addr:city": "T\u00e1pi\u00f3bicske", "addr:country": "HU", "addr:housenumber": "89", "addr:postcode": "2764", "addr:street": "R\u00e1k\u00f3czi \u00fat", "amenity": "library", "building": "yes", "name": "K\u00f6zs\u00e9gi k\u00f6nyvt\u00e1r", "opening_hours": "Mo 13:00-17:00; Tu 9:00-12:00, 13:00-17:00; Th 13:00-17:00; Fr 9:00-12:00, 13:00-17:00; We 09:00-12:00 \"szorgalmi id\u0151szakban\"", "phone": "+36 29 421 650", "website": "http://tbicskekonyvtar.atw.hu/"}}, {"type": "way", "id": 327575702, "nodes": [3343850892, 3343854293, 3343854294, 3343854295, 3343854296, 3343854297, 3343850892], "tags": {"addr:city": "Albertirsa", "addr:housenumber": "52", "addr:postcode": "2730", "addr:street": "Pesti \u00fat", "amenity": "library", "building": "yes", "name": "M\u00e1rai S\u00e1ndor V\u00e1rosi K\u00f6nyvt\u00e1r"}}, {"type": "way", "id": 343647977, "nodes": [3504564223, 3504564209, 3504564230, 3504564217, 3504564212, 3504564225, 3504564213, 3504564232, 3504564219, 3504564233, 3504564223], "tags": {"addr:city": "\u00d3csa", "addr:country": "HU", "addr:housenumber": "44", "addr:postcode": "2364", "addr:street": "Falu Tam\u00e1s utca", "amenity": "library", "building": "yes", "name": "Falu Tam\u00e1s V\u00e1rosi K\u00f6nyvt\u00e1r"}}, {"type": "way", "id": 701981325, "nodes": [6592319641, 6592319642, 6592319643, 6592319644, 6592319645, 6592319646, 6592319641], "tags": {"addr:city": "Fels\u0151pakony", "addr:housenumber": "41", "addr:postcode": "2363", "addr:street": "R\u00e1k\u00f3czi utca", "amenity": "library", "building": "yes", "email": "konyvtar@felsopakony.hu", "fax": "+36 29 317 466", "name": "Szab\u00f3 Magda K\u00f6nyvt\u00e1r \u00e9s K\u00f6z\u00f6ss\u00e9gi H\u00e1z", "opening_hours": "Mo 10:00-18:00; Tu-We 08:00-16:00; Th 10:00-18:00; Fr 08:00-16:00", "phone": "+36 20 929 9727", "website": "https://konyvtar.felsopakony.hu/"}}, {"type": "way", "id": 867931729, "nodes": [8090154083, 8090154080, 8090154078, 8090154079, 8090154081, 8090154082, 8090154083], "tags": {"amenity": "library", "building": "yes", "name": "K\u00f6nyvt\u00e1r"}}]}