{"version": 0.6, "generator": "Overpass API 0.7.59 e21c39fe", "osm3s": {"timestamp_osm_base": "2023-01-20T17:55:59Z", "copyright": "The data included in this document is from www.openstreetmap.org. The data is made available under ODbL."}, "elements": [{"type": "node", "id": 1326422943, "lat": 46.6373236, "lon": 18.6942412, "tags": {"amenity": "library"}}, {"type": "node", "id": 3452835528, "lat": 46.6249216, "lon": 18.8621406, "tags": {"historic": "memorial", "memorial": "plaque", "name": "Holocaust-eml\u00e9kt\u00e1bla", "source": "turistautak.hu", "source:date": "2013-12-19", "url": "http://turistautak.hu/poi.php?id=164092"}}, {"type": "node", "id": 3465128469, "lat": 46.884688, "lon": 18.622101, "tags": {"amenity": "library", "description": "MADAR\u00c1SZ J\u00d3ZSEF V\u00c1ROSI K\u00d6NYVT\u00c1R", "name": "S\u00e1rbog\u00e1rdi Madar\u00e1sz J\u00f3zsef V\u00e1rosi K\u00f6nyvt\u00e1r", "phone": "0625508570", "source": "turistautak.hu", "source:date": "2012-05-29", "url": "http://turistautak.hu/poi.php?id=139228", "website": "http://www.mjvkonyvtar.hu/"}}, {"type": "node", "id": 3470101466, "lat": 46.8030828, "lon": 18.9990958, "tags": {"amenity": "library", "source": "turistautak.hu", "source:date": "2011-06-24", "url": "http://turistautak.hu/poi.php?id=114970"}}, {"type": "node", "id": 3686236111, "lat": 46.8808495, "lon": 18.9641479}, {"type": "node", "id": 3686236112, "lat": 46.8807519, "lon": 18.9643688}, {"type": "node", "id": 3686236113, "lat": 46.8806827, "lon": 18.9643033}, {"type": "node", "id": 3686236114, "lat": 46.8807443, "lon": 18.9641638}, {"type": "node", "id": 3686236115, "lat": 46.8807031, "lon": 18.9641247}, {"type": "node", "id": 3686236116, "lat": 46.880739, "lon": 18.9640434}, {"type": "node", "id": 3810820684, "lat": 46.6248893, "lon": 18.8625074, "tags": {"amenity": "library", "fixme": "resurvey", "name": "Kincskeres\u0151 Gyermekk\u00f6nyvt\u00e1r"}}, {"type": "node", "id": 5425393674, "lat": 46.7613277, "lon": 19.0888167, "tags": {"addr:city": "Dunatet\u00e9tlen", "addr:housenumber": "31", "addr:postcode": "6325", "addr:street": "R\u00e1k\u00f3czi Ferenc utca", "amenity": "library", "name": "K\u00f6zs\u00e9gi K\u00f6nyv\u00e1r Dunatet\u00e9tlen"}}, {"type": "node", "id": 8149641656, "lat": 46.6249304, "lon": 18.8622978}, {"type": "node", "id": 8149641657, "lat": 46.6249275, "lon": 18.8622917}, {"type": "node", "id": 8149641658, "lat": 46.6249335, "lon": 18.862284}, {"type": "node", "id": 8149641659, "lat": 46.6247727, "lon": 18.8624295}, {"type": "node", "id": 8149641660, "lat": 46.6247122, "lon": 18.862274}, {"type": "node", "id": 8149641661, "lat": 46.6248758, "lon": 18.8621404}, {"type": "node", "id": 8149641662, "lat": 46.6249344, "lon": 18.8621302}, {"type": "node", "id": 8149641663, "lat": 46.6249679, "lon": 18.8622199}, {"type": "node", "id": 8149641664, "lat": 46.6249078, "lon": 18.8621519}, {"type": "node", "id": 8149641665, "lat": 46.6249398, "lon": 18.8622441}, {"type": "node", "id": 8149641666, "lat": 46.6248778, "lon": 18.8621457}, {"type": "node", "id": 8149641667, "lat": 46.6248842, "lon": 18.8621416}, {"type": "node", "id": 8149641668, "lat": 46.6248916, "lon": 18.8621389}, {"type": "node", "id": 8149641669, "lat": 46.6249006, "lon": 18.8621428}, {"type": "node", "id": 8149641670, "lat": 46.6249415, "lon": 18.8622603}, {"type": "node", "id": 8149641671, "lat": 46.6249389, "lon": 18.8622744}, {"type": "node", "id": 8305094404, "lat": 46.6246101, "lon": 18.6064846}, {"type": "node", "id": 8305094405, "lat": 46.6245843, "lon": 18.6064745}, {"type": "node", "id": 8305094406, "lat": 46.6245797, "lon": 18.606502}, {"type": "node", "id": 8305094407, "lat": 46.6245484, "lon": 18.6064886}, {"type": "node", "id": 8305094408, "lat": 46.6245535, "lon": 18.6064611}, {"type": "node", "id": 8305094409, "lat": 46.6245282, "lon": 18.606451}, {"type": "node", "id": 8305094410, "lat": 46.6245457, "lon": 18.6063571}, {"type": "node", "id": 8305094411, "lat": 46.6246276, "lon": 18.606392}, {"type": "node", "id": 8602141896, "lat": 46.5598489, "lon": 18.6198086, "tags": {"amenity": "library", "name": "Teleh\u00e1z \u00e9s K\u00f6nyvt\u00e1r"}}, {"type": "node", "id": 8881000685, "lat": 46.6262775, "lon": 18.6568286}, {"type": "node", "id": 8881000686, "lat": 46.6262127, "lon": 18.6566815}, {"type": "node", "id": 8881000687, "lat": 46.6261222, "lon": 18.656766}, {"type": "node", "id": 8881000688, "lat": 46.6261869, "lon": 18.6569131}, {"type": "way", "id": 364587031, "nodes": [3686236111, 3686236112, 3686236113, 3686236114, 3686236115, 3686236116, 3686236111], "tags": {"addr:city": "Apostag", "addr:housenumber": "1", "addr:postcode": "6088", "addr:street": "Sz\u00e9chenyi utca", "amenity": "library", "building": "yes", "name": "K\u00f6z\u00f6ss\u00e9gi H\u00e1z \u00e9s K\u00f6nyvt\u00e1r", "opening_hours": "Mo off; Tu-Fr 09:00-13:00,14:00-18:00; Sa 09:00-13:00", "phone": "+36 78 850 450"}}, {"type": "way", "id": 875575022, "nodes": [8149641659, 8149641656, 8149641657, 8149641658, 8149641671, 8149641670, 8149641665, 8149641663, 8149641662, 3452835528, 8149641664, 8149641669, 8149641668, 8149641667, 8149641666, 8149641661, 8149641660, 8149641659], "tags": {"addr:city": "Paks", "addr:housenumber": "1", "addr:postcode": "7030", "addr:street": "Villany utca", "amenity": "library", "building": "civic", "name": "Paksi P\u00e1kolitz Istv\u00e1n V\u00e1rosi K\u00f6nyvt\u00e1r", "opening_hours": "Tu-Fr 08:00-18:00; Sa 08:00-12:00", "wheelchair": "yes"}}, {"type": "way", "id": 893598348, "nodes": [8305094404, 8305094405, 8305094406, 8305094407, 8305094408, 8305094409, 8305094410, 8305094411, 8305094404], "tags": {"amenity": "library", "name": "L\u00e1z\u00e1r Ervin K\u00f6nyvt\u00e1r"}}, {"type": "way", "id": 959867672, "nodes": [8881000685, 8881000686, 8881000687, 8881000688, 8881000685], "tags": {"amenity": "library", "building": "yes", "internet_access": "yes", "internet_access:fee": "no"}}]}