{"version": 0.6, "generator": "Overpass API 0.7.59 e21c39fe", "osm3s": {"timestamp_osm_base": "2023-01-20T17:59:09Z", "copyright": "The data included in this document is from www.openstreetmap.org. The data is made available under ODbL."}, "elements": [{"type": "node", "id": 1348144114, "lat": 47.1657346, "lon": 16.4463153, "tags": {"amenity": "library", "name": "Deutsch Sch\u00fctzen"}}, {"type": "node", "id": 1696400223, "lat": 47.2855195, "lon": 16.597557}, {"type": "node", "id": 1777815329, "lat": 47.062472, "lon": 16.3237315, "tags": {"amenity": "library", "name": "B\u00fccherei", "wheelchair": "yes"}}, {"type": "node", "id": 2382794912, "lat": 47.2319138, "lon": 16.6179683}, {"type": "node", "id": 2382794913, "lat": 47.2319811, "lon": 16.6173031}, {"type": "node", "id": 2382794915, "lat": 47.2319495, "lon": 16.6176916}, {"type": "node", "id": 2382794917, "lat": 47.2319319, "lon": 16.6175789}, {"type": "node", "id": 2382794919, "lat": 47.2320562, "lon": 16.6181194}, {"type": "node", "id": 2382794920, "lat": 47.2319876, "lon": 16.6176787}, {"type": "node", "id": 2382794921, "lat": 47.2317388, "lon": 16.6182254}, {"type": "node", "id": 2382794922, "lat": 47.2316381, "lon": 16.6174284}, {"type": "node", "id": 2382794923, "lat": 47.2320194, "lon": 16.6175493}, {"type": "node", "id": 2382794924, "lat": 47.2318192, "lon": 16.6180012}, {"type": "node", "id": 2382794925, "lat": 47.2317442, "lon": 16.6175342}, {"type": "node", "id": 2382794926, "lat": 47.2318388, "lon": 16.6175013}, {"type": "node", "id": 2384305122, "lat": 47.2217195, "lon": 16.6155636}, {"type": "node", "id": 2384305141, "lat": 47.2214837, "lon": 16.6154304}, {"type": "node", "id": 2384305151, "lat": 47.2216814, "lon": 16.6157099}, {"type": "node", "id": 2384305183, "lat": 47.2214455, "lon": 16.6155767}, {"type": "node", "id": 2390271139, "lat": 47.2353875, "lon": 16.6205431}, {"type": "node", "id": 2390271142, "lat": 47.2354215, "lon": 16.6198149}, {"type": "node", "id": 2390271148, "lat": 47.2352171, "lon": 16.6199402}, {"type": "node", "id": 2390271149, "lat": 47.2355919, "lon": 16.6204177}, {"type": "node", "id": 2908816095, "lat": 46.9338859, "lon": 16.5201728, "tags": {"amenity": "library"}}, {"type": "node", "id": 3090811653, "lat": 47.0085786, "lon": 16.6064867}, {"type": "node", "id": 3090811656, "lat": 47.0086252, "lon": 16.606671}, {"type": "node", "id": 3090811659, "lat": 47.0086842, "lon": 16.6064293}, {"type": "node", "id": 3090811662, "lat": 47.0087307, "lon": 16.6066137}, {"type": "node", "id": 3217476543, "lat": 47.0098659, "lon": 16.6048887}, {"type": "node", "id": 3217476544, "lat": 47.0098696, "lon": 16.6048259}, {"type": "node", "id": 3217476545, "lat": 47.00988, "lon": 16.6048832}, {"type": "node", "id": 3217476546, "lat": 47.0098868, "lon": 16.6050033}, {"type": "node", "id": 3217476547, "lat": 47.0099009, "lon": 16.6049978}, {"type": "node", "id": 3217476548, "lat": 47.0099159, "lon": 16.60508}, {"type": "node", "id": 3217476551, "lat": 47.0099858, "lon": 16.6047804}, {"type": "node", "id": 3217476552, "lat": 47.0100023, "lon": 16.604871}, {"type": "node", "id": 3217476555, "lat": 47.0100444, "lon": 16.6049597}, {"type": "node", "id": 3217476556, "lat": 47.0100502, "lon": 16.6048522}, {"type": "node", "id": 3217476557, "lat": 47.0100563, "lon": 16.605025}, {"type": "node", "id": 3217476558, "lat": 47.0100681, "lon": 16.6049505}, {"type": "node", "id": 3468279231, "lat": 47.0255614, "lon": 16.4162054, "tags": {"amenity": "library"}}, {"type": "node", "id": 3883894758, "lat": 46.9545232, "lon": 16.2733378}, {"type": "node", "id": 3883894759, "lat": 46.9545173, "lon": 16.2735062}, {"type": "node", "id": 3883894760, "lat": 46.9546434, "lon": 16.2735158}, {"type": "node", "id": 3883894761, "lat": 46.9546493, "lon": 16.2733473}, {"type": "node", "id": 3883894762, "lat": 46.9546535, "lon": 16.2730983}, {"type": "node", "id": 3883894764, "lat": 46.9547441, "lon": 16.2735227}, {"type": "node", "id": 3890012988, "lat": 47.2854525, "lon": 16.5974713}, {"type": "node", "id": 3890012998, "lat": 47.2854852, "lon": 16.5975795}, {"type": "node", "id": 3890013013, "lat": 47.2855541, "lon": 16.5974047}, {"type": "node", "id": 3890013017, "lat": 47.2855687, "lon": 16.5974533}, {"type": "node", "id": 3890013018, "lat": 47.2855925, "lon": 16.597799}, {"type": "node", "id": 3890013023, "lat": 47.2856075, "lon": 16.5974279}, {"type": "node", "id": 3890013034, "lat": 47.2856985, "lon": 16.5977295}, {"type": "node", "id": 4028895599, "lat": 47.2161886, "lon": 16.4449235}, {"type": "node", "id": 4028895600, "lat": 47.216195, "lon": 16.4450327}, {"type": "node", "id": 4028895695, "lat": 47.2162285, "lon": 16.444969}, {"type": "node", "id": 4028895703, "lat": 47.2164462, "lon": 16.4453195}, {"type": "node", "id": 4028895705, "lat": 47.2165265, "lon": 16.4452454}, {"type": "node", "id": 4028895706, "lat": 47.2165336, "lon": 16.4451566}, {"type": "node", "id": 4028895707, "lat": 47.2165375, "lon": 16.445258}, {"type": "node", "id": 4028895709, "lat": 47.2165469, "lon": 16.4451314}, {"type": "node", "id": 4028895710, "lat": 47.2165694, "lon": 16.4451974}, {"type": "node", "id": 4028896289, "lat": 47.2162548, "lon": 16.4447979}, {"type": "node", "id": 4028896689, "lat": 47.2164641, "lon": 16.4452855}, {"type": "node", "id": 4028896690, "lat": 47.2164899, "lon": 16.4453149}, {"type": "node", "id": 4298876634, "lat": 46.9546518, "lon": 16.2731825}, {"type": "node", "id": 4298876638, "lat": 46.9547526, "lon": 16.2731026}, {"type": "node", "id": 4352594393, "lat": 47.2392244, "lon": 16.4610762, "tags": {"amenity": "library"}}, {"type": "node", "id": 4441061690, "lat": 47.0906565, "lon": 16.6777065, "tags": {"amenity": "library"}}, {"type": "node", "id": 5020521035, "lat": 46.8963263, "lon": 16.2554806, "tags": {"amenity": "library", "name": "Klubk\u00f6nyvt\u00e1r"}}, {"type": "node", "id": 5843777473, "lat": 46.9477714, "lon": 16.6838531, "tags": {"amenity": "library", "name": "K\u00f6zs\u00e9gi k\u00f6nyvt\u00e1r"}}, {"type": "node", "id": 5924531458, "lat": 47.2316511, "lon": 16.6175211}, {"type": "node", "id": 5924531459, "lat": 47.2316321, "lon": 16.61753}, {"type": "node", "id": 6066723150, "lat": 47.2320101, "lon": 16.6174897}, {"type": "node", "id": 6066723151, "lat": 47.231667, "lon": 16.6177577}, {"type": "node", "id": 6071683216, "lat": 47.010052, "lon": 16.6050015, "tags": {"artist_name": "Lesenyei M\u00e1rta", "description": "Az eml\u00e9kt\u00e1bl\u00e1t Faludi Ferenc sz\u00fclet\u00e9s\u00e9nek 300.\u00e9vfordul\u00f3j\u00e1n \u00e1ll\u00edtott\u00e1k. Az eml\u00e9kt\u00e1bla mint\u00e1j\u00e1ul Toldy Ferenc 1853-ban kiadott Faludi-k\u00f6tet\u00e9ben tal\u00e1lhat\u00f3 ac\u00e9lmetszet szolg\u00e1lt. Ez Faludi Ferencet, aki 1741 \u00e9s 1745 k\u00f6z\u00f6tt a Szent P\u00e9ter-bazilika magyar gy\u00f3ntat", "inscription:url": "https://www.kozterkep.hu/~/18689/Faludi_Ferenc_emlektabla_Kormend_2004.html", "name": "Faludi Ferenc-eml\u00e9kt\u00e1bla", "start_date": "2004"}}, {"type": "node", "id": 6573298497, "lat": 47.0313765, "lon": 16.493517, "tags": {"amenity": "library", "name": "K\u00f6zs\u00e9gi K\u00f6nyvt\u00e1r"}}, {"type": "node", "id": 8348733665, "lat": 47.0387254, "lon": 16.4813586, "tags": {"amenity": "library", "name": "K\u00f6zs\u00e9gi K\u00f6nyvt\u00e1r"}}, {"type": "node", "id": 8354285505, "lat": 47.011048, "lon": 16.5327268, "tags": {"amenity": "library", "name": "K\u00f6zs\u00e9gi K\u00f6nyvt\u00e1r"}}, {"type": "node", "id": 9227810126, "lat": 47.2520911, "lon": 16.6073695}, {"type": "node", "id": 9227810127, "lat": 47.2522047, "lon": 16.6073221}, {"type": "node", "id": 9227810128, "lat": 47.2522352, "lon": 16.607466}, {"type": "node", "id": 9227810129, "lat": 47.2520463, "lon": 16.6075511}, {"type": "node", "id": 9227810130, "lat": 47.252015, "lon": 16.6074067}, {"type": "way", "id": 229721923, "nodes": [2382794924, 2382794925, 2382794926, 2382794912, 2382794924]}, {"type": "way", "id": 229721924, "nodes": [6066723150, 2382794923, 2382794917, 2382794915, 2382794920]}, {"type": "way", "id": 229893355, "nodes": [2384305151, 2384305183, 2384305141, 2384305122, 2384305151], "tags": {"amenity": "library", "building": "yes"}}, {"type": "way", "id": 230527823, "nodes": [2390271139, 2390271148, 2390271142, 2390271149, 2390271139], "tags": {"addr:city": "Szombathely", "addr:housenumber": "1", "addr:postcode": "9700", "addr:street": "Dr. Antall J\u00f3zsef t\u00e9r", "amenity": "library", "building": "yes", "name": "Berzsenyi D\u00e1niel K\u00f6nyvt\u00e1r", "opening_hours": "Mo-Fr 08:00-19:00; Sa 08:00-17:00; Su off"}}, {"type": "way", "id": 304534072, "nodes": [3090811659, 3090811653, 3090811656]}, {"type": "way", "id": 313815079, "nodes": [3090811656, 3090811662, 3090811659]}, {"type": "way", "id": 315618309, "nodes": [3217476544, 3217476551, 3217476552, 3217476556, 3217476558, 3217476555, 6071683216, 3217476557, 3217476548, 3217476547, 3217476546, 3217476543, 3217476545, 3217476544], "tags": {"addr:city": "K\u00f6rmend", "addr:housenumber": "4", "addr:postcode": "9900", "addr:street": "Dr. Batthy\u00e1ny-Strattmann L\u00e1szl\u00f3 utca", "amenity": "library", "building": "public", "fax": "+36 94 412 136", "name": "Faludi Ferenc K\u00f6nyvt\u00e1r", "opening_hours": "Mo-Th 09:30-18:00; Fr 13:00-18:00; Sa 13:00-17:00", "phone": "+36 94 410 105", "website": "http://www.konyvtar.kormend.hu/"}}, {"type": "way", "id": 385036558, "nodes": [3883894758, 3883894759, 3883894760, 3883894761, 3883894758], "tags": {"addr:city": "Szentgotth\u00e1rd", "addr:housenumber": "2", "addr:postcode": "9970", "addr:street": "Sz\u00e9ll K\u00e1lm\u00e1n t\u00e9r", "amenity": "library", "building": "yes", "email": "kolcsonzo@mfvk.hu", "internet_access": "yes", "name": "M\u00f3ra Ferenc V\u00e1rosi K\u00f6nyvt\u00e1r", "opening_hours": "08:00-17:30", "payment:cash": "yes", "payment:credit_cards": "yes", "website": "https://www.mfvk.hu", "wheelchair": "yes"}}, {"type": "way", "id": 385036559, "nodes": [3883894764, 3883894760, 3883894761, 4298876634, 3883894762, 4298876638, 3883894764], "tags": {"addr:city": "Szentgotth\u00e1rd", "addr:housenumber": "2", "addr:postcode": "9970", "addr:street": "Sz\u00e9ll K\u00e1lm\u00e1n t\u00e9r", "amenity": "library", "building": "yes", "email": "kolcsonzo@mfvk.hu", "internet_access": "yes", "name": "M\u00f3ra Ferenc V\u00e1rosi K\u00f6nyvt\u00e1r", "opening_hours": "8:00-17:30", "website": "https://www.mfvk.hu"}}, {"type": "way", "id": 385664780, "nodes": [1696400223, 3890013018, 3890013034, 3890013023, 3890013017, 3890013013, 3890012988, 3890012998, 1696400223], "tags": {"addr:city": "Gencsap\u00e1ti", "addr:housenumber": "5", "addr:postcode": "9721", "addr:street": "Szentegyh\u00e1z utca", "amenity": "library", "name": "Gencsap\u00e1ti M\u0171vel\u0151d\u00e9si h\u00e1z \u00e9s K\u00f6nyvt\u00e1r"}}, {"type": "way", "id": 400310373, "nodes": [4028895710, 4028895706, 4028895709, 4028896289, 4028895599, 4028895695, 4028895600, 4028895703, 4028896689, 4028896690, 4028895705, 4028895707, 4028895710], "tags": {"addr:city": "Fels\u0151csat\u00e1r", "addr:housenumber": "9", "addr:postcode": "9794", "addr:street": "Pet\u0151fi S\u00e1ndor utca", "amenity": "library", "building": "yes", "name": "Kult\u00farotthon"}}, {"type": "way", "id": 645350654, "nodes": [2382794920, 2382794919, 2382794921, 6066723151]}, {"type": "way", "id": 645350655, "nodes": [6066723150, 2382794913, 2382794922, 5924531458, 5924531459, 6066723151]}, {"type": "way", "id": 999603455, "nodes": [9227810126, 9227810127, 9227810128, 9227810129, 9227810130, 9227810126], "tags": {"addr:city": "Szombathely", "addr:housenumber": "84/B", "addr:postcode": "9700", "addr:street": "Szent Imre herceg \u00fatja", "amenity": "library", "building": "yes", "internet_access": "wired", "internet_access:fee": "customers", "name": "BDK K\u00e1moni Fi\u00f3kk\u00f6nyvt\u00e1r", "opening_hours": "Tue 13-18, Wed 13-18, Fri 13-18, Sat 13-18", "operator": "Berzsenyi D\u00e1niel K\u00f6nyvt\u00e1r", "operator:type": "public", "phone": "+36 20 227 4563", "website": "https://www.bdmk.hu/Reszlegek/Fiokkonyvtarak.html", "wheelchair": "yes"}}, {"type": "relation", "id": 3080072, "members": [{"type": "way", "ref": 229721924, "role": "outer"}, {"type": "way", "ref": 645350654, "role": "outer"}, {"type": "way", "ref": 645350655, "role": "outer"}, {"type": "way", "ref": 229721923, "role": "inner"}], "tags": {"addr:city": "Szombathely", "addr:housenumber": "1", "addr:postcode": "9700", "addr:street": "Szily J\u00e1nos utca", "amenity": "library", "building": "yes", "denomination": "roman_catholic", "name": "Szombathelyi Egyh\u00e1zmegyei Koll\u00e9gium", "phone": "+36 94 509 763", "religion": "christian", "type": "multipolygon", "website": "http://www.konyvtar.martinus.hu/"}}, {"type": "relation", "id": 4215114, "members": [{"type": "way", "ref": 304534072, "role": "outer"}, {"type": "way", "ref": 313815079, "role": "outer"}], "tags": {"amenity": "library", "building": "yes", "historic": "building", "name": "Gyermekk\u00f6nyvt\u00e1r (Tiszti lak)", "type": "multipolygon"}}]}