{"version": 0.6, "generator": "Overpass API 0.7.59 e21c39fe", "osm3s": {"timestamp_osm_base": "2023-01-21T09:23:38Z", "copyright": "The data included in this document is from www.openstreetmap.org. The data is made available under ODbL."}, "elements": [{"type": "node", "id": 572506100, "lat": 48.5157391, "lon": 21.6248667, "tags": {"brand": "COOP Jednota", "brand:wikidata": "Q41629254", "brand:wikipedia": "sk:COOP Jednota Slovensko", "name": "COOP Jednota", "shop": "supermarket"}}, {"type": "node", "id": 1413789588, "lat": 48.4155301, "lon": 21.6441811}, {"type": "node", "id": 2386863467, "lat": 48.4133675, "lon": 21.6481072}, {"type": "node", "id": 2386863468, "lat": 48.4134544, "lon": 21.6483042}, {"type": "node", "id": 2386863469, "lat": 48.4134868, "lon": 21.6482717}, {"type": "node", "id": 2386863470, "lat": 48.413533, "lon": 21.6483765}, {"type": "node", "id": 2386863471, "lat": 48.4138714, "lon": 21.647603}, {"type": "node", "id": 2386863472, "lat": 48.4140045, "lon": 21.6479047}, {"type": "node", "id": 2386863477, "lat": 48.41482, "lon": 21.6436984}, {"type": "node", "id": 2386863480, "lat": 48.4151689, "lon": 21.6445265}, {"type": "node", "id": 2386863482, "lat": 48.4153472, "lon": 21.6431941}, {"type": "node", "id": 2386863483, "lat": 48.4156962, "lon": 21.6440222}, {"type": "node", "id": 2392879865, "lat": 48.198756, "lon": 21.529762, "tags": {"name": "Csilla \u00e9lelmiszerbolt", "shop": "supermarket"}}, {"type": "node", "id": 2392885107, "lat": 48.197098, "lon": 21.533327, "tags": {"brand": "Real", "name": "Hunyadi ABC", "shop": "supermarket"}}, {"type": "node", "id": 2393674085, "lat": 48.3126369, "lon": 21.5613836, "tags": {"amenity": "atm", "brand": "OTP Bank", "brand:wikidata": "Q912778", "brand:wikipedia": "en:OTP Bank", "name": "OTP Bank", "operator": "OTP Bank", "operator:wikidata": "Q912778", "operator:wikipedia": "en:OTP Bank", "short_name": "OTP", "website": "https://www.otpbank.hu"}}, {"type": "node", "id": 2793345662, "lat": 48.328264, "lon": 21.5591474}, {"type": "node", "id": 2793345664, "lat": 48.3280839, "lon": 21.5593217}, {"type": "node", "id": 2793345666, "lat": 48.3283603, "lon": 21.5599547}, {"type": "node", "id": 2793345668, "lat": 48.3284352, "lon": 21.559877}, {"type": "node", "id": 2793345670, "lat": 48.3284691, "lon": 21.5599494}, {"type": "node", "id": 2793345672, "lat": 48.3285707, "lon": 21.5598448}, {"type": "node", "id": 2882197534, "lat": 48.3356108, "lon": 21.109577}, {"type": "node", "id": 2882197535, "lat": 48.3353803, "lon": 21.1094111}, {"type": "node", "id": 2882197536, "lat": 48.335237, "lon": 21.1097527}, {"type": "node", "id": 2882197537, "lat": 48.3354419, "lon": 21.1099002}, {"type": "node", "id": 2882197538, "lat": 48.3355205, "lon": 21.1096529}, {"type": "node", "id": 2882197539, "lat": 48.3355743, "lon": 21.1096916}, {"type": "node", "id": 2882197833, "lat": 48.3345127, "lon": 21.1083852}, {"type": "node", "id": 2882197834, "lat": 48.3341884, "lon": 21.1078699}, {"type": "node", "id": 2882197835, "lat": 48.3339949, "lon": 21.1082464}, {"type": "node", "id": 2882197836, "lat": 48.3343612, "lon": 21.108649}, {"type": "node", "id": 2915818497, "lat": 48.3127474, "lon": 21.5614441}, {"type": "node", "id": 2915818498, "lat": 48.3126397, "lon": 21.5618892}, {"type": "node", "id": 2915818499, "lat": 48.3124788, "lon": 21.5618011}, {"type": "node", "id": 2915818500, "lat": 48.3125866, "lon": 21.561356}, {"type": "node", "id": 3006793008, "lat": 48.3282043, "lon": 21.5595974}, {"type": "node", "id": 3308625562, "lat": 48.4856091, "lon": 21.3541683}, {"type": "node", "id": 3308625563, "lat": 48.4855912, "lon": 21.353989}, {"type": "node", "id": 3308625564, "lat": 48.4857364, "lon": 21.353956}, {"type": "node", "id": 3308625565, "lat": 48.4857543, "lon": 21.3541353}, {"type": "node", "id": 3399596086, "lat": 48.323154, "lon": 21.5624656}, {"type": "node", "id": 3399596087, "lat": 48.3228447, "lon": 21.5620756}, {"type": "node", "id": 3399596088, "lat": 48.3226144, "lon": 21.5624888}, {"type": "node", "id": 3399596089, "lat": 48.3229237, "lon": 21.5628787}, {"type": "node", "id": 3501012586, "lat": 48.322871, "lon": 21.5621087}, {"type": "node", "id": 3501012590, "lat": 48.3228173, "lon": 21.5621248}, {"type": "node", "id": 4119861906, "lat": 48.4152756, "lon": 21.6432626}, {"type": "node", "id": 4119861911, "lat": 48.4148406, "lon": 21.6436786}, {"type": "node", "id": 4199015397, "lat": 48.1850888, "lon": 21.458368}, {"type": "node", "id": 4199015398, "lat": 48.1849985, "lon": 21.4582823}, {"type": "node", "id": 4199015399, "lat": 48.1849726, "lon": 21.4583439}, {"type": "node", "id": 4199015400, "lat": 48.1850628, "lon": 21.4584295}, {"type": "node", "id": 4868218838, "lat": 48.4721548, "lon": 21.2774464, "tags": {"name": "Coop", "shop": "supermarket", "source": "survey", "survey:date": "2017-05-20"}}, {"type": "node", "id": 5976970403, "lat": 48.3340601, "lon": 21.1081122}, {"type": "node", "id": 5976970404, "lat": 48.3341207, "lon": 21.1080093}, {"type": "node", "id": 5976970405, "lat": 48.3343391, "lon": 21.1084189}, {"type": "node", "id": 5976970406, "lat": 48.3343928, "lon": 21.1083084}, {"type": "node", "id": 5976970407, "lat": 48.3345531, "lon": 21.1082707}, {"type": "node", "id": 5976970414, "lat": 48.3344213, "lon": 21.1085734}, {"type": "node", "id": 5976970415, "lat": 48.3344061, "lon": 21.1085566}, {"type": "node", "id": 5976970416, "lat": 48.3345028, "lon": 21.1083744}, {"type": "node", "id": 5976970597, "lat": 48.3353079, "lon": 21.109639}, {"type": "node", "id": 5976970598, "lat": 48.3352796, "lon": 21.1096187}, {"type": "node", "id": 6337852558, "lat": 48.1870381, "lon": 21.0578894}, {"type": "node", "id": 6337852559, "lat": 48.1869123, "lon": 21.0583831}, {"type": "node", "id": 6337852560, "lat": 48.1867458, "lon": 21.0582877}, {"type": "node", "id": 6337852561, "lat": 48.1868716, "lon": 21.057794}, {"type": "node", "id": 7531787970, "lat": 48.4139873, "lon": 21.6480075}, {"type": "node", "id": 7531787971, "lat": 48.4139038, "lon": 21.6480911}, {"type": "node", "id": 7531787972, "lat": 48.4138776, "lon": 21.6480316}, {"type": "node", "id": 7531787973, "lat": 48.4139611, "lon": 21.6479481}, {"type": "node", "id": 7572628557, "lat": 48.4150983, "lon": 21.6443588}, {"type": "node", "id": 9878423592, "lat": 48.4713278, "lon": 21.5122104}, {"type": "node", "id": 9878423593, "lat": 48.4717589, "lon": 21.5124378}, {"type": "node", "id": 9878423594, "lat": 48.4717006, "lon": 21.5126674}, {"type": "node", "id": 9878423595, "lat": 48.4712624, "lon": 21.51244}, {"type": "way", "id": 230156910, "nodes": [2386863470, 7531787972, 7531787971, 7531787970, 7531787973, 2386863472, 2386863471, 2386863467, 2386863468, 2386863469, 2386863470], "tags": {"addr:city": "S\u00e1toralja\u00fajhely", "addr:housenumber": "156", "addr:postcode": "3980", "addr:street": "Kazinczy Ferenc utca", "air_conditioning": "yes", "brand": "Aldi", "brand:wikidata": "Q125054", "brand:wikipedia": "hu:Aldi", "building": "yes", "contact:facebook": "https://www.facebook.com/ALDI.Magyarorszag", "contact:instagram": "https://www.instagram.com/aldi.magyarorszag", "contact:phone": "+36 80 088 264", "contact:website": "https://www.aldi.hu", "contact:youtube": "https://www.youtube.com/user/ALDIMagyarorszag", "name": "Aldi", "opening_hours": "Mo-Sa 07:00-20:00; Su 07:00-19:00; PH off", "operator": "ALDI Magyarorsz\u00e1g \u00c9lelmiszer Bt.", "operator:addr": "2051 Biatorb\u00e1gy, M\u00e9sz\u00e1rosok \u00fatja 2.", "payment:cash": "yes", "payment:contactless": "yes", "payment:maestro": "yes", "payment:mastercard": "yes", "payment:mastercard_contactless": "yes", "payment:mastercard_electronic": "yes", "payment:visa": "yes", "payment:visa_electron": "yes", "ref:HU:company": "13 06 058506", "ref:HU:vatin": "22234663-2-44", "ref:vatin": "HU22234663", "shop": "supermarket", "source": "import;website", "source:date": "2022-10-14"}}, {"type": "way", "id": 230156914, "nodes": [1413789588, 2386863483, 2386863482, 4119861906, 4119861911, 2386863477, 7572628557, 2386863480, 1413789588], "tags": {"addr:city": "S\u00e1toralja\u00fajhely", "addr:housenumber": "105", "addr:postcode": "3980", "addr:street": "Kazinczy Ferenc utca", "air_conditioning": "yes", "branch": "S\u00e1toralja\u00fajhely Hipermarket", "brand": "Tesco", "brand:wikidata": "Q487494", "brand:wikipedia": "hu:Tesco", "building": "retail", "contact:facebook": "https://www.facebook.com/tescoaruhazak", "contact:pinterest": "https://www.pinterest.com/tescohungary/", "contact:website": "https://tesco.hu/aruhazak/aruhaz/tesco-satoraljaujhely-hipermarket/", "contact:youtube": "https://www.youtube.com/user/TescoMagyarorszag", "import": "osm_poi_matchmaker", "internet_access": "wlan", "internet_access:fee": "no", "internet_access:ssid": "tesco-internet", "loyalty_card": "yes", "name": "Tesco", "opening_hours": "Mo-Sa 06:00-21:00; Su 08:00-18:00; PH off", "operator": "TESCO-GLOBAL \u00c1ruh\u00e1zak Zrt.", "operator:addr": "2040 Buda\u00f6rs, Kinizsi \u00fat 1-3.", "payment:american_express": "yes", "payment:cash": "yes", "payment:contactless": "yes", "payment:edenred_card": "yes", "payment:edenred_voucher": "yes", "payment:gift_card": "yes", "payment:jcb": "yes", "payment:maestro": "yes", "payment:mastercard": "yes", "payment:mastercard_contactless": "yes", "payment:mastercard_electronic": "yes", "payment:multipay": "yes", "payment:otp_bankpont": "yes", "payment:otp_cafeteria": "yes", "payment:unionpay": "yes", "payment:v_pay": "yes", "payment:visa": "yes", "payment:visa_electron": "yes", "payment:wire_transfer": "yes", "ref:HU:company": "13-10-040628", "ref:HU:vatin": "10307078-2-44", "ref:vatin": "HU10307078", "shop": "supermarket", "source": "website", "source:date": "2020-09-28", "source:wheelchair": "website", "toilets:wheelchair": "yes", "wheelchair": "yes"}}, {"type": "way", "id": 274652356, "nodes": [2793345662, 2793345664, 3006793008, 2793345666, 2793345668, 2793345670, 2793345672, 2793345662], "tags": {"brand": "Penny", "brand:wikidata": "Q284688", "brand:wikipedia": "en:Penny (supermarket)", "building": "retail", "contact:website": "http://www.penny.hu", "name": "Penny", "shop": "supermarket", "website": "http://www.penny.hu"}}, {"type": "way", "id": 284479814, "nodes": [2882197833, 5976970416, 5976970407, 2882197834, 5976970404, 5976970406, 5976970405, 5976970403, 2882197835, 2882197836, 5976970415, 5976970414, 2882197833], "tags": {"addr:city": "Encs", "brand": "Spar", "brand:wikidata": "Q610492", "brand:wikipedia": "en:SPAR (retailer)", "building": "retail", "contact:website": "http://www.spar.hu", "name": "Spar", "shop": "supermarket", "website": "https://www.spar.hu/"}}, {"type": "way", "id": 284480066, "nodes": [2882197534, 2882197535, 5976970597, 5976970598, 2882197536, 2882197537, 2882197538, 2882197539, 2882197534], "tags": {"addr:city": "Encs", "brand": "PENNY", "brand:wikidata": "Q284688", "brand:wikipedia": "en:Profi", "building": "yes", "name": "PENNY", "shop": "supermarket"}}, {"type": "way", "id": 288034544, "nodes": [2915818497, 2915818498, 2915818499, 2915818500, 2393674085, 2915818497], "tags": {"addr:city": "S\u00e1rospatak", "addr:housenumber": "2", "addr:postcode": "3950", "addr:street": "Okt\u00f3ber 23. t\u00e9r", "building": "retail", "name": "M\u00c1RKA ABC", "operator": "Kispatak-2000 Ker. Kft.", "shop": "supermarket", "wheelchair": "yes", "wheelchair:description": "az \u00fczletben nem tal\u00e1lhat\u00f3 vend\u00e9g wc"}}, {"type": "way", "id": 324112158, "nodes": [3308625562, 3308625563, 3308625564, 3308625565, 3308625562], "tags": {"addr:city": "Telkib\u00e1nya", "addr:housenumber": "1", "addr:postcode": "3896", "addr:street": "Szabads\u00e1g utca", "building": "retail", "name": "Coop mini", "shop": "supermarket", "website": "http://coop.hu"}}, {"type": "way", "id": 332851916, "nodes": [3399596086, 3501012586, 3399596087, 3501012590, 3399596088, 3399596089, 3399596086], "tags": {"addr:city": "S\u00e1rospatak", "addr:housenumber": "15", "addr:postcode": "3950", "addr:street": "E\u00f6tv\u00f6s \u00fat", "building": "retail", "name": "Hegyi Szupermarket", "shop": "supermarket", "wheelchair": "yes"}}, {"type": "way", "id": 419912937, "nodes": [4199015397, 4199015398, 4199015399, 4199015400, 4199015397], "tags": {"building": "retail", "name": "ABC", "shop": "supermarket"}}, {"type": "way", "id": 676812362, "nodes": [6337852558, 6337852559, 6337852560, 6337852561, 6337852558], "tags": {"addr:city": "Megyasz\u00f3", "addr:postcode": "3718", "building": "retail", "name": "Coop", "shop": "supermarket"}}, {"type": "way", "id": 1077373690, "nodes": [9878423592, 9878423593, 9878423594, 9878423595, 9878423592], "tags": {"addr:city": "P\u00e1lh\u00e1za", "addr:housenumber": "150", "addr:postcode": "3994", "addr:street": "D\u00f3zsa Gy\u00f6rgy \u00fat", "brand": "Re\u00e1l", "brand:wikidata": "Q100741414", "building": "yes", "name": "Re\u00e1l", "shop": "supermarket", "wheelchair": "yes"}}]}