{"version": 0.6, "generator": "Overpass API 0.7.59 e21c39fe", "osm3s": {"timestamp_osm_base": "2023-01-17T15:17:22Z", "copyright": "The data included in this document is from www.openstreetmap.org. The data is made available under ODbL."}, "elements": [{"type": "node", "id": 842695801, "lat": 46.5207554, "lon": 20.1654488, "tags": {"amenity": "pub"}}, {"type": "node", "id": 842695862, "lat": 46.521131, "lon": 20.1811209, "tags": {"amenity": "pub", "name": "Horv\u00e1th kert"}}, {"type": "node", "id": 1001024744, "lat": 46.281031, "lon": 20.1692131, "tags": {"amenity": "pub", "name": "Tyuk\u00e1sz kocsma"}}, {"type": "node", "id": 1187292814, "lat": 46.2685533, "lon": 20.0621565}, {"type": "node", "id": 1187292871, "lat": 46.2684689, "lon": 20.0619044}, {"type": "node", "id": 1187293027, "lat": 46.2685186, "lon": 20.0619181}, {"type": "node", "id": 1187293304, "lat": 46.2685266, "lon": 20.0618578}, {"type": "node", "id": 1187293391, "lat": 46.2684397, "lon": 20.0621251}, {"type": "node", "id": 1187293466, "lat": 46.2685904, "lon": 20.0618754}, {"type": "node", "id": 1217272946, "lat": 46.2517368, "lon": 20.1492301, "tags": {"addr:city": "Szeged", "addr:housenumber": "6", "addr:postcode": "6720", "addr:street": "Victor Hugo utca", "amenity": "pub", "contact:facebook": "sarkanypub", "contact:mobile": "+36 20 745 5137", "name": "S\u00e1rk\u00e1ny pub", "opening_hours": "Mo-Fr 09:00-24:00; Sa 18:00-02:00; Su 14:00-22:00", "source": "http://szegedikocsmak.blog.hu/2009/03/25/sarkany_pub", "wheelchair": "no"}}, {"type": "node", "id": 1278032909, "lat": 46.2713119, "lon": 20.1385907, "tags": {"amenity": "pub", "name": "H\u00e1rom Musk\u00e9t\u00e1s"}}, {"type": "node", "id": 1309916379, "lat": 46.2678069, "lon": 20.1497898}, {"type": "node", "id": 1309916381, "lat": 46.2677473, "lon": 20.1498324}, {"type": "node", "id": 1309916382, "lat": 46.2677919, "lon": 20.1499632}, {"type": "node", "id": 1309916390, "lat": 46.2678515, "lon": 20.1499206}, {"type": "node", "id": 1700375211, "lat": 46.2648349, "lon": 20.1494479, "tags": {"addr:city": "Szeged", "addr:housenumber": "8", "addr:postcode": "6724", "addr:street": "N\u00e1das utca", "amenity": "pub", "name": "Laczk\u00f3 Boroz\u00f3", "opening_hours": "06:00-22:00", "toilets:wheelchair": "no", "wheelchair": "limited"}}, {"type": "node", "id": 1700375885, "lat": 46.2646173, "lon": 20.1509287, "tags": {"amenity": "pub", "fixme": "resurvey", "name": "HB s\u00f6r\u00f6z\u0151", "note": "Szerintem m\u00e1r bez\u00e1rt"}}, {"type": "node", "id": 1867680149, "lat": 46.4207721, "lon": 20.3048622, "tags": {"amenity": "pub", "name": "Tarj\u00e1n Vend\u00e9gl\u0151"}}, {"type": "node", "id": 1867680151, "lat": 46.4114967, "lon": 20.3211808, "tags": {"amenity": "pub", "name": "Z\u00e1tony", "wheelchair": "yes"}}, {"type": "node", "id": 1867680154, "lat": 46.4108901, "lon": 20.3264809, "tags": {"addr:city": "H\u00f3dmez\u0151v\u00e1s\u00e1rhely", "addr:housenumber": "2", "addr:postcode": "6800", "addr:street": "H\u00f3dt\u00f3 utca", "amenity": "pub", "internet_access": "wlan", "name": "Piros Pressz\u00f3", "opening_hours": "Su-Th 05:00-00:00; Fr-Sa 05:00-02:00", "phone": "+36 20 976 4476", "wheelchair": "no"}}, {"type": "node", "id": 1867692264, "lat": 46.4129169, "lon": 20.3162777, "tags": {"amenity": "pub", "name": "Hord\u00f3 Pizz\u00e9ria \u00e9s Pub", "wheelchair": "no"}}, {"type": "node", "id": 1889713853, "lat": 46.2627048, "lon": 20.164148}, {"type": "node", "id": 1914301477, "lat": 46.4226633, "lon": 20.3150382, "tags": {"amenity": "pub", "name": "Vend\u00e9gl\u0151"}}, {"type": "node", "id": 1918865593, "lat": 46.4168275, "lon": 20.3158983, "tags": {"amenity": "pub", "name": "Feh\u00e9r Ak\u00e1c"}}, {"type": "node", "id": 1920617965, "lat": 46.4291166, "lon": 20.3075651, "tags": {"amenity": "pub", "name": "Kacsa S\u00f6r\u00f6z\u0151"}}, {"type": "node", "id": 1920617982, "lat": 46.4105289, "lon": 20.3561373, "tags": {"amenity": "pub", "name": "M\u00e1mor s\u00f6r\u00f6z\u0151"}}, {"type": "node", "id": 1920618105, "lat": 46.4127224, "lon": 20.3512249, "tags": {"amenity": "pub", "name": "\u00dajv\u00e1rosi s\u00f6r\u00f6z\u0151 \u00e9s j\u00e1t\u00e9kterem"}}, {"type": "node", "id": 1930628593, "lat": 46.4207746, "lon": 20.3219555, "tags": {"amenity": "pub", "name": "D\u00e9mon S\u00f6r\u00f6z\u0151", "wheelchair": "limited"}}, {"type": "node", "id": 1933709120, "lat": 46.4118385, "lon": 20.3524046, "tags": {"amenity": "pub", "name": "Kurta S\u00f6r\u00f6z\u0151", "wheelchair": "no"}}, {"type": "node", "id": 2132523304, "lat": 46.4096313, "lon": 20.340096, "tags": {"amenity": "pub", "name": "Sz\u00e9chenyi S\u00f6r\u00f6z\u0151", "wheelchair": "yes"}}, {"type": "node", "id": 2136474953, "lat": 46.4200124, "lon": 20.3244305, "tags": {"amenity": "pub", "name": "Teleki s\u00f6r\u00f6z\u0151, kisvend\u00e9gl\u0151", "wheelchair": "yes"}}, {"type": "node", "id": 2146710620, "lat": 46.4212611, "lon": 20.3060365, "tags": {"addr:city": "H\u00f3dmez\u0151v\u00e1s\u00e1rhely", "addr:housenumber": "10", "addr:postcode": "6800", "addr:street": "Imre utca", "amenity": "pub", "name": "Piros Alma Kocsma", "wheelchair": "yes"}}, {"type": "node", "id": 2165946873, "lat": 46.4301955, "lon": 20.3215745, "tags": {"amenity": "pub", "name": "Ny\u00e1rfa S\u00f6r\u00f6z\u0151"}}, {"type": "node", "id": 2276132631, "lat": 46.4262996, "lon": 20.3121096, "tags": {"amenity": "pub", "name": "Botond S\u00f6r\u00f6z\u0151"}}, {"type": "node", "id": 2296228259, "lat": 46.5250937, "lon": 20.1826423, "tags": {"amenity": "pub", "name": "Korz\u00f3 s\u00f6r\u00f6z\u0151"}}, {"type": "node", "id": 2351022172, "lat": 46.4100539, "lon": 20.309597, "tags": {"amenity": "pub", "name": "F\u00f3rum S\u00f6r\u00f6z\u0151", "wheelchair": "yes"}}, {"type": "node", "id": 2368631508, "lat": 46.4250919, "lon": 20.3180857, "tags": {"amenity": "pub", "name": "P\u00f6rnye G\u00f6d\u00f6r S\u00f6r\u00f6z\u0151", "wheelchair": "no"}}, {"type": "node", "id": 2370781455, "lat": 46.4207196, "lon": 20.3409713, "tags": {"amenity": "pub", "name": "Kedves S\u00f6r\u00f6z\u0151", "wheelchair": "no"}}, {"type": "node", "id": 2432436977, "lat": 46.2674176, "lon": 20.162252, "tags": {"addr:city": "Szeged", "addr:housenumber": "4", "addr:postcode": "6723", "addr:street": "Szamos utca", "alt_name": "Szamos kocsma", "amenity": "pub", "name": "Szamos s\u00f6rkert", "opening_hours": "Mo-Th 06:00-23:00; Fr-Sa 06:00-24:00; Su 06:00-22:00", "operator": "Pizzatorony", "source": "http://szegedikocsmak.blog.hu/2009/07/22/szamos_kocsma"}}, {"type": "node", "id": 2529351193, "lat": 46.3664365, "lon": 20.1050049, "tags": {"amenity": "pub"}}, {"type": "node", "id": 2537695881, "lat": 46.3665879, "lon": 20.1024884}, {"type": "node", "id": 2537695882, "lat": 46.3666635, "lon": 20.10239}, {"type": "node", "id": 2537695885, "lat": 46.366729, "lon": 20.1027162}, {"type": "node", "id": 2537695887, "lat": 46.3668046, "lon": 20.1026178}, {"type": "node", "id": 2537714441, "lat": 46.3615758, "lon": 20.0995577}, {"type": "node", "id": 2537714446, "lat": 46.3616572, "lon": 20.0994495}, {"type": "node", "id": 2537714448, "lat": 46.3617616, "lon": 20.0998568}, {"type": "node", "id": 2537714450, "lat": 46.3618426, "lon": 20.0997498}, {"type": "node", "id": 2537714452, "lat": 46.3623013, "lon": 20.0982521, "tags": {"amenity": "pub", "name": "Street Kocsma"}}, {"type": "node", "id": 2641346054, "lat": 46.2626824, "lon": 20.1639336}, {"type": "node", "id": 2641346055, "lat": 46.2626624, "lon": 20.1641104}, {"type": "node", "id": 2641346056, "lat": 46.2627208, "lon": 20.1639726}, {"type": "node", "id": 2641346057, "lat": 46.2627163, "lon": 20.1638536}, {"type": "node", "id": 2641346059, "lat": 46.2627225, "lon": 20.1641637}, {"type": "node", "id": 2641346060, "lat": 46.2627635, "lon": 20.1638925}, {"type": "node", "id": 2641346061, "lat": 46.2627952, "lon": 20.1639199}, {"type": "node", "id": 2641346062, "lat": 46.2627906, "lon": 20.1638825}, {"type": "node", "id": 2641346063, "lat": 46.2628195, "lon": 20.1639422}, {"type": "node", "id": 2641346064, "lat": 46.2632422, "lon": 20.1645015}, {"type": "node", "id": 2641346065, "lat": 46.26327, "lon": 20.1644416}, {"type": "node", "id": 2641346066, "lat": 46.2632851, "lon": 20.1645431}, {"type": "node", "id": 2641346067, "lat": 46.2633129, "lon": 20.1644831}, {"type": "node", "id": 2674388286, "lat": 46.2689656, "lon": 20.1500098, "tags": {"amenity": "pub"}}, {"type": "node", "id": 2830393545, "lat": 46.24152, "lon": 20.1392409, "tags": {"amenity": "pub", "cuisine": "hungarian", "name": "M\u00e1ty\u00e1s S\u00f6r\u00f6z\u0151", "opening_hours": "Mo-Su 07:00-22:00", "source": "bing", "toilets:wheelchair": "no", "wheelchair": "no"}}, {"type": "node", "id": 3328656928, "lat": 46.2707252, "lon": 20.1524534, "tags": {"amenity": "pub", "name": "Fl\u00f6rt Pressz\u00f3", "toilets:wheelchair": "no", "wheelchair": "yes"}}, {"type": "node", "id": 3358020698, "lat": 46.270387, "lon": 20.1846148}, {"type": "node", "id": 3373452057, "lat": 46.2708686, "lon": 20.1517694, "tags": {"amenity": "pub", "name": "Pajt\u00e1s B\u00fcf\u00e9", "outdoor_seating": "yes", "toilets:wheelchair": "no", "wheelchair": "yes"}}, {"type": "node", "id": 3401387331, "lat": 46.5366138, "lon": 19.8604082}, {"type": "node", "id": 3401387332, "lat": 46.536638, "lon": 19.8604535}, {"type": "node", "id": 3401387333, "lat": 46.5366459, "lon": 19.8604445}, {"type": "node", "id": 3401387334, "lat": 46.5367046, "lon": 19.8603056}, {"type": "node", "id": 3401387335, "lat": 46.5367126, "lon": 19.8605691}, {"type": "node", "id": 3401387336, "lat": 46.5367397, "lon": 19.8604259}, {"type": "node", "id": 3401387337, "lat": 46.5367579, "lon": 19.8604053}, {"type": "node", "id": 3401387338, "lat": 46.5367772, "lon": 19.8604961}, {"type": "node", "id": 3401387343, "lat": 46.5395638, "lon": 19.865412}, {"type": "node", "id": 3401387344, "lat": 46.539628, "lon": 19.8655178}, {"type": "node", "id": 3401387345, "lat": 46.5397089, "lon": 19.8652259}, {"type": "node", "id": 3401387347, "lat": 46.5397731, "lon": 19.8653317}, {"type": "node", "id": 3437116413, "lat": 46.2515, "lon": 20.161583, "tags": {"amenity": "pub", "name": "Club 69 eszpressz\u00f3", "source": "turistautak.hu", "source:date": "2011-06-24", "url": "http://turistautak.hu/poi.php?id=31947", "wheelchair": "no"}}, {"type": "node", "id": 3437116463, "lat": 46.29705, "lon": 19.99122, "tags": {"amenity": "pub", "name": "Kulipinty\u00f3 cs\u00e1rda", "source": "turistautak.hu", "source:date": "2013-03-12", "toilets:wheelchair": "no", "url": "http://turistautak.hu/poi.php?id=20907", "wheelchair": "limited"}}, {"type": "node", "id": 3437116588, "lat": 46.219332, "lon": 20.079725, "tags": {"amenity": "pub", "name": "Piramis eszpressz\u00f3", "source": "turistautak.hu", "source:date": "2011-06-24", "url": "http://turistautak.hu/poi.php?id=83302"}}, {"type": "node", "id": 3437116620, "lat": 46.2720538, "lon": 20.0155406, "tags": {"amenity": "pub", "name": "Sziki Gy\u00f6ngye pressz\u00f3", "source": "turistautak.hu", "source:date": "2013-03-12", "url": "http://turistautak.hu/poi.php?id=29392"}}, {"type": "node", "id": 3437116624, "lat": 46.2709885, "lon": 20.0878151, "tags": {"amenity": "pub", "name": "Szomjas Krokodil b\u00fcf\u00e9", "source": "turistautak.hu", "source:date": "2013-02-13", "url": "http://turistautak.hu/poi.php?id=29391"}}, {"type": "node", "id": 3437116627, "lat": 46.2658207, "lon": 20.0199866, "tags": {"amenity": "pub", "name": "Sz\u00f6rfh\u00e1z b\u00fcf\u00e9", "source": "turistautak.hu", "source:date": "2013-03-12", "url": "http://turistautak.hu/poi.php?id=20906"}}, {"type": "node", "id": 3437116629, "lat": 46.259415, "lon": 20.181906, "tags": {"amenity": "pub", "name": "S\u00e1ndor s\u00f6r\u00f6z\u0151", "source": "turistautak.hu", "source:date": "2011-06-24", "url": "http://turistautak.hu/poi.php?id=64625", "wheelchair": "no"}}, {"type": "node", "id": 3437116655, "lat": 46.23667, "lon": 20.108972, "tags": {"amenity": "pub", "name": "Z\u00f6ldajt\u00f3s pressz\u00f3", "source": "turistautak.hu", "source:date": "2011-06-24", "url": "http://turistautak.hu/poi.php?id=83305"}}, {"type": "node", "id": 3485206026, "lat": 46.432766, "lon": 20.334468, "tags": {"amenity": "pub", "name": "Csera kocsma", "source": "turistautak.hu", "source:date": "2012-10-15", "url": "http://turistautak.hu/poi.php?id=135059"}}, {"type": "node", "id": 3485206042, "lat": 46.524761, "lon": 20.188687, "tags": {"amenity": "pub", "name": "Kaptafa s\u00f6r\u00f6z\u0151", "source": "turistautak.hu", "source:date": "2011-06-24", "url": "http://turistautak.hu/poi.php?id=83262"}}, {"type": "node", "id": 3485206070, "lat": 46.466031, "lon": 20.24659, "tags": {"amenity": "pub", "fixme": "resurvey (source was old)", "name": "Z\u00f6ld K\u00e1v\u00e9h\u00e1z", "source": "turistautak.hu", "source:date": "2009-01-06", "url": "http://turistautak.hu/poi.php?id=63532"}}, {"type": "node", "id": 3487682938, "lat": 46.365283, "lon": 20.098823, "tags": {"amenity": "pub", "name": "Csongr\u00e1di s\u00f6r\u00f6z\u0151", "source": "turistautak.hu", "source:date": "2011-06-24", "url": "http://turistautak.hu/poi.php?id=33275"}}, {"type": "node", "id": 3487682943, "lat": 46.368442, "lon": 20.1089624, "tags": {"amenity": "pub", "name": "D\u00e1rid\u00f3 kocsma", "source": "turistautak.hu", "source:date": "2011-06-24", "url": "http://turistautak.hu/poi.php?id=81945"}}, {"type": "node", "id": 3487682951, "lat": 46.216718, "lon": 20.35291, "tags": {"amenity": "pub", "name": "Kocsma (az emeleten)", "source": "turistautak.hu", "source:date": "2012-10-15", "url": "http://turistautak.hu/poi.php?id=136027"}}, {"type": "node", "id": 3487682955, "lat": 46.21931, "lon": 20.249731, "tags": {"amenity": "pub", "name": "Ljubo kocsma", "source": "turistautak.hu", "source:date": "2012-10-15", "toilets:wheelchair": "no", "url": "http://turistautak.hu/poi.php?id=136022", "wheelchair": "yes"}}, {"type": "node", "id": 3487682963, "lat": 46.4375705, "lon": 20.1373913}, {"type": "node", "id": 3487682967, "lat": 46.337843, "lon": 20.210981, "tags": {"amenity": "pub", "name": "Plat\u00e1n s\u00f6r\u00f6z\u0151", "source": "turistautak.hu", "source:date": "2012-10-15", "url": "http://turistautak.hu/poi.php?id=136016"}}, {"type": "node", "id": 3487682968, "lat": 46.18054, "lon": 20.02603, "tags": {"amenity": "pub", "name": "Premier s\u00f6r\u00f6z\u0151", "opening_hours:signed": "no", "source": "turistautak.hu", "source:date": "2011-06-24", "url": "http://turistautak.hu/poi.php?id=35213"}}, {"type": "node", "id": 3487682988, "lat": 46.181867, "lon": 20.027454, "tags": {"amenity": "pub", "name": "Viva s\u00f6r\u00f6z\u0151 pizz\u00e9ria", "source": "turistautak.hu", "source:date": "2011-06-24", "url": "http://turistautak.hu/poi.php?id=83297"}}, {"type": "node", "id": 3487683296, "lat": 46.1853, "lon": 20.032883, "tags": {"amenity": "pub", "source": "turistautak.hu", "source:date": "2011-06-24", "url": "http://turistautak.hu/poi.php?id=83299"}}, {"type": "node", "id": 3487683308, "lat": 46.218731, "lon": 20.237997, "tags": {"amenity": "pub", "source": "turistautak.hu", "source:date": "2012-10-15", "toilets:wheelchair": "no", "url": "http://turistautak.hu/poi.php?id=136020", "wheelchair": "yes"}}, {"type": "node", "id": 3487683309, "lat": 46.218999, "lon": 20.324863, "tags": {"amenity": "pub", "source": "turistautak.hu", "source:date": "2012-10-15", "url": "http://turistautak.hu/poi.php?id=136030"}}, {"type": "node", "id": 3487683330, "lat": 46.355374, "lon": 20.117619, "tags": {"amenity": "pub", "source": "turistautak.hu", "source:date": "2011-06-24", "url": "http://turistautak.hu/poi.php?id=81944"}}, {"type": "node", "id": 3488470249, "lat": 46.3174837, "lon": 19.9252798, "tags": {"amenity": "pub", "name": "Alfa s\u00f6r\u00f6z\u0151, j\u00e1t\u00e9kterem", "source": "turistautak.hu", "source:date": "2011-06-24", "url": "http://turistautak.hu/poi.php?id=31768"}}, {"type": "node", "id": 3488470259, "lat": 46.2780952, "lon": 19.8947186, "tags": {"amenity": "pub", "fixme": "resurvey", "name": "Familia s\u00f6r\u00f6z\u0151", "source": "turistautak.hu", "source:date": "2011-06-24", "url": "http://turistautak.hu/poi.php?id=83287"}}, {"type": "node", "id": 3488470261, "lat": 46.3203935, "lon": 19.9194785, "tags": {"amenity": "pub", "name": "Gyuri Kocsm\u00e1ja", "source": "turistautak.hu", "source:date": "2011-06-24", "url": "http://turistautak.hu/poi.php?id=31763"}}, {"type": "node", "id": 3488470271, "lat": 46.3371349, "lon": 19.8505335, "tags": {"amenity": "pub", "name": "LUCKY CLUB sportb\u00e1r, italdiszkont, lott\u00f3z\u00f3", "source:date": "2011-06-24", "url": "http://turistautak.hu/poi.php?id=29951"}}, {"type": "node", "id": 3488474393, "lat": 46.3352533, "lon": 19.8550779, "tags": {"amenity": "pub", "name": "T\u00f6preng\u0151 kocsma", "source": "turistautak.hu", "source:date": "2011-06-24", "url": "http://turistautak.hu/poi.php?id=29963"}}, {"type": "node", "id": 3488474420, "lat": 46.3305298, "lon": 19.9666376, "tags": {"amenity": "pub", "source": "turistautak.hu", "source:date": "2011-04-24", "toilets:wheelchair": "no", "url": "http://turistautak.hu/poi.php?id=4873", "wheelchair": "no"}}, {"type": "node", "id": 3488474424, "lat": 46.3377311, "lon": 19.8483643, "tags": {"amenity": "pub", "source": "turistautak.hu", "source:date": "2011-06-24", "url": "http://turistautak.hu/poi.php?id=29934"}}, {"type": "node", "id": 3490734578, "lat": 46.493183, "lon": 20.071567, "tags": {"amenity": "pub", "name": "Laguna s\u00f6r\u00f6z\u0151", "source": "turistautak.hu", "source:date": "2011-06-24", "toilets:wheelchair": "no", "url": "http://turistautak.hu/poi.php?id=33277", "wheelchair": "no"}}, {"type": "node", "id": 3490739701, "lat": 46.549756, "lon": 19.984405, "tags": {"amenity": "pub", "source": "turistautak.hu", "source:date": "2011-06-24", "url": "http://turistautak.hu/poi.php?id=88340"}}, {"type": "node", "id": 3584241683, "lat": 46.2751126, "lon": 19.8877331, "tags": {"amenity": "pub", "name": "F\u00e9nyes kocsma", "source": "turistautak.hu", "url": "http://turistautak.hu/poi.php?id=83288"}}, {"type": "node", "id": 3584242293, "lat": 46.287932, "lon": 19.855935, "tags": {"amenity": "pub", "name": "Ny\u00e1rf\u00e1s boroz\u00f3", "source": "turistautak.hu", "url": "http://turistautak.hu/poi.php?id=31608"}}, {"type": "node", "id": 3837460534, "lat": 46.263349, "lon": 20.1652844, "tags": {"addr:city": "Szeged", "addr:housenumber": "14", "addr:postcode": "6723", "addr:street": "Fecske utca", "amenity": "pub", "name": "F\u00f6ls\u0151v\u00e1rosi S\u00f6r\u00f6z\u0151", "opening_hours": "Mo-Su 07:00-22:00", "outdoor_seating": "yes", "website": "https://szegedikocsmak.blog.hu/2010/12/17/holstein_felsovarosi_sorozo"}}, {"type": "node", "id": 3898522853, "lat": 46.2528212, "lon": 20.1450035, "tags": {"amenity": "pub", "name": "Borpatika", "wheelchair": "no"}}, {"type": "node", "id": 3903546403, "lat": 46.263631, "lon": 20.2079067, "tags": {"amenity": "pub", "name": "Faluv\u00e9gi Italbolt", "toilets:wheelchair": "no", "wheelchair": "no"}}, {"type": "node", "id": 3938727362, "lat": 46.2684449, "lon": 20.1675799, "tags": {"addr:city": "Szeged", "addr:housenumber": "5", "addr:postcode": "6723", "addr:street": "Budapesti k\u00f6r\u00fat", "amenity": "pub", "check_date": "2022-07-01", "contact:facebook": "https://www.facebook.com/vegaspub", "internet_access": "wlan", "internet_access:fee": "no", "leisure": "pitch", "name": "Vegas Bili\u00e1rd Pub", "opening_hours": "Mo,Su 16:00-23:00; Tu-Th 16:00-24:00; Fr-Sa 16:00-01:00", "phone": "+36 62 743 296", "smoking": "no", "source": "http://vegaspub.hu/site/", "sport": "billiards;snooker;darts", "website": "https://vegaspub.hu/site/", "wheelchair": "yes"}}, {"type": "node", "id": 3949896593, "lat": 46.256741, "lon": 20.1675013}, {"type": "node", "id": 3949896594, "lat": 46.2567978, "lon": 20.1682926}, {"type": "node", "id": 3949896595, "lat": 46.2568798, "lon": 20.1681336}, {"type": "node", "id": 3949896596, "lat": 46.25687, "lon": 20.1679788}, {"type": "node", "id": 3949896597, "lat": 46.2569118, "lon": 20.1679732}, {"type": "node", "id": 3949896598, "lat": 46.2569101, "lon": 20.1679461}, {"type": "node", "id": 3949896599, "lat": 46.256872, "lon": 20.1679511}, {"type": "node", "id": 3949896600, "lat": 46.256868, "lon": 20.1678874}, {"type": "node", "id": 3949988707, "lat": 46.2673937, "lon": 20.0153333, "tags": {"amenity": "pub", "outdoor_seating": "yes"}}, {"type": "node", "id": 3974002097, "lat": 46.2508634, "lon": 20.1676687, "tags": {"addr:city": "Szeged", "addr:housenumber": "4", "addr:postcode": "6726", "addr:street": "D\u00e9ryn\u00e9 utca", "amenity": "pub", "contact:facebook": "https://facebook.com/amigo.presszo/", "fixme": "verify", "name": "Amigo eszpressz\u00f3", "opening_hours": "Mo-Su 08:00-22:00", "source": "http://szegedikocsmak.blog.hu/2011/07/20/amigo_eszpresszo", "toilets:wheelchair": "limited", "wheelchair": "yes"}}, {"type": "node", "id": 3978865929, "lat": 46.246512, "lon": 20.160607, "tags": {"addr:city": "Szeged", "addr:housenumber": "15/B", "addr:postcode": "6726", "addr:street": "Sz\u00e9kely sor", "amenity": "pub", "name": "Gy\u00f6ngy Pressz\u00f3", "opening_hours": "07:00-21:00"}}, {"type": "node", "id": 3978868607, "lat": 46.2457387, "lon": 20.159187, "tags": {"addr:city": "Szeged", "addr:housenumber": "6", "addr:postcode": "6726", "addr:street": "Csan\u00e1di utca", "amenity": "pub", "name": "Vakeg\u00e9r Tudakoz\u00f3-Falatoz\u00f3", "opening_hours": "06:00-22:00", "website": "https://szegedikocsmak.blog.hu/2010/05/05/vakeger_3", "wheelchair": "yes"}}, {"type": "node", "id": 3978885322, "lat": 46.2593111, "lon": 20.1605593, "tags": {"addr:city": "Szeged", "addr:housenumber": "10", "addr:postcode": "6721", "addr:street": "Sajka utca", "amenity": "pub", "name": "G\u00f3lyav\u00e1r Pressz\u00f3", "opening_hours": "Mo-Su 07:00-21:00", "source": "http://szegedikocsmak.blog.hu/2011/07/12/golyavar_presszo", "toilets:wheelchair": "no", "wheelchair": "no"}}, {"type": "node", "id": 3982701879, "lat": 46.2642484, "lon": 20.1579246}, {"type": "node", "id": 3987085901, "lat": 46.2663989, "lon": 20.1570925}, {"type": "node", "id": 3987085902, "lat": 46.2663987, "lon": 20.1572555}, {"type": "node", "id": 3987085903, "lat": 46.2661528, "lon": 20.1572677}, {"type": "node", "id": 3987085906, "lat": 46.2661532, "lon": 20.1571494}, {"type": "node", "id": 3987085907, "lat": 46.2663281, "lon": 20.1571203}, {"type": "node", "id": 3987085908, "lat": 46.2663285, "lon": 20.1570931}, {"type": "node", "id": 3987098790, "lat": 46.2579039, "lon": 20.1497979, "tags": {"addr:city": "Szeged", "addr:housenumber": "14", "addr:postcode": "6721", "addr:street": "Szent Istv\u00e1n t\u00e9r", "amenity": "pub", "name": "Csomi Kocsma", "opening_hours": "Mo-Su 06:30-21:00", "outdoor_seating": "yes", "toilets:wheelchair": "no", "website": "https://szegedikocsmak.blog.hu/2009/04/17/csomi_klub", "wheelchair": "no"}}, {"type": "node", "id": 3987102900, "lat": 46.2588024, "lon": 20.1509513, "tags": {"addr:city": "Szeged", "addr:housenumber": "6", "addr:postcode": "6721", "addr:street": "Szent Istv\u00e1n t\u00e9r", "amenity": "pub", "name": "S\u00f6rfal\u00f3 Faloda", "opening_hours": "Mo-Su 07:00-22:00", "outdoor_seating": "yes", "phone": "+36 62 654 638", "source": "https://hu-hu.facebook.com/SorfaloSzeged", "toilets:wheelchair": "no", "website": "https://szegedikocsmak.blog.hu/2009/03/15/dreher_sorozo_1", "wheelchair": "no"}}, {"type": "node", "id": 3988757149, "lat": 46.2454451, "lon": 20.1595033, "tags": {"addr:city": "Szeged", "addr:housenumber": "8", "addr:postcode": "6726", "addr:street": "Csan\u00e1di utca", "amenity": "pub", "name": "Ibolya Pressz\u00f3", "opening_hours": "Mo-Fr 10:00-23:00; Sa-Su 08:00-23:00", "source": "http://kocsma.helyek.eu/kocsma/ibolya-presszo/116409", "toilets:wheelchair": "no", "website": "https://szegedikocsmak.blog.hu/2010/05/02/ibolya_presszo", "wheelchair": "no"}}, {"type": "node", "id": 3988906758, "lat": 46.2498917, "lon": 20.1595686, "tags": {"addr:city": "Szeged", "addr:housenumber": "1", "addr:postcode": "6726", "addr:street": "N\u00e9pkert sor", "alt_name": "T\u00f3th kocsma", "amenity": "pub", "contact:mobile": "+36 30 647 3295", "facebook": "https://www.facebook.com/riobistroszeged", "name": "Ri\u00f3 Cafe", "opening_hours": "Mo-Su 08:00-22:00", "outdoor_seating": "biergarten", "source": "http://szegedikocsmak.blog.hu/2009/06/25/toth_kocsma_1", "website": "https://etterem.hu/rio-cafe", "wifi": "yes"}}, {"type": "node", "id": 4013191759, "lat": 46.5351817, "lon": 20.2774324, "tags": {"amenity": "pub", "name": "Cseh\u00f3 \u00e9s vegyesbolt", "source": "turistautak.hu", "url": "http://turistautak.hu/poi.php?id=83268"}}, {"type": "node", "id": 4014742914, "lat": 46.2567746, "lon": 20.1674968}, {"type": "node", "id": 4014742915, "lat": 46.2567988, "lon": 20.1678775}, {"type": "node", "id": 4058538975, "lat": 46.2592562, "lon": 20.1501735, "tags": {"amenity": "pub", "name": "Vico Drink B\u00e1r", "toilets:wheelchair": "no", "wheelchair": "no"}}, {"type": "node", "id": 4136916195, "lat": 46.2361172, "lon": 20.129381}, {"type": "node", "id": 4136916211, "lat": 46.2361666, "lon": 20.1293139}, {"type": "node", "id": 4136916214, "lat": 46.2361715, "lon": 20.1295493}, {"type": "node", "id": 4136916230, "lat": 46.2362176, "lon": 20.1294138}, {"type": "node", "id": 4136916238, "lat": 46.236236, "lon": 20.1293693}, {"type": "node", "id": 4136916242, "lat": 46.2362445, "lon": 20.129503}, {"type": "node", "id": 4168444207, "lat": 46.2756654, "lon": 20.1464051}, {"type": "node", "id": 4168444212, "lat": 46.2756895, "lon": 20.1464675}, {"type": "node", "id": 4168444213, "lat": 46.2757215, "lon": 20.1463597}, {"type": "node", "id": 4168444214, "lat": 46.2757456, "lon": 20.1464221}, {"type": "node", "id": 4181976667, "lat": 46.2481583, "lon": 20.1300232}, {"type": "node", "id": 4181976673, "lat": 46.2482107, "lon": 20.129867}, {"type": "node", "id": 4181976677, "lat": 46.2482385, "lon": 20.1300795}, {"type": "node", "id": 4181976684, "lat": 46.2482909, "lon": 20.1299233}, {"type": "node", "id": 4202560768, "lat": 46.4667811, "lon": 20.2236671, "tags": {"amenity": "pub", "name": "H\u00e9di s\u00f6r\u00f6z\u0151", "wheelchair": "yes"}}, {"type": "node", "id": 4336792195, "lat": 46.2531362, "lon": 20.146654, "tags": {"addr:city": "Szeged", "addr:housenumber": "20", "addr:postcode": "6720", "addr:street": "Feketesas utca", "amenity": "pub", "contact:facebook": "https://facebook.com/sorokhaza/", "description": "T\u00f6bb mint 300 f\u00e9le k\u00e9zm\u0171ves \u00e9s k\u00fcl\u00f6nleges s\u00f6r, p\u00e9ld\u00e1ul belga, n\u00e9met, angol, \u00edr, spanyol \u00e9s ap\u00e1ts\u00e1gi s\u00f6r\u00f6k", "name": "S\u00f6r\u00f6k h\u00e1za", "opening_hours": "Mo-We 10:00-21:00; Th 10:00-23:00; Fr-Sa 10:00-01:00"}}, {"type": "node", "id": 4396513717, "lat": 46.2338238, "lon": 20.1330436, "tags": {"amenity": "pub", "name": "Marika Pressz\u00f3", "opening_hours": "Mo-Sa 07:30-22:00; Su 07:30-21:00"}}, {"type": "node", "id": 4403272287, "lat": 46.2735898, "lon": 20.0660886}, {"type": "node", "id": 4403272288, "lat": 46.2736241, "lon": 20.0659809}, {"type": "node", "id": 4403272689, "lat": 46.2736923, "lon": 20.0660115}, {"type": "node", "id": 4403272690, "lat": 46.2737204, "lon": 20.0660451}, {"type": "node", "id": 4403272691, "lat": 46.2737216, "lon": 20.0660893}, {"type": "node", "id": 4403272692, "lat": 46.2736375, "lon": 20.0663254}, {"type": "node", "id": 4403272693, "lat": 46.2735619, "lon": 20.066275}, {"type": "node", "id": 4403272694, "lat": 46.2736157, "lon": 20.0661058}, {"type": "node", "id": 4403280340, "lat": 46.2738911, "lon": 20.0702948}, {"type": "node", "id": 4403280341, "lat": 46.2736794, "lon": 20.0702883}, {"type": "node", "id": 4403280342, "lat": 46.2736746, "lon": 20.0706164}, {"type": "node", "id": 4403280343, "lat": 46.2738951, "lon": 20.0706231}, {"type": "node", "id": 4403280344, "lat": 46.2738963, "lon": 20.0705387}, {"type": "node", "id": 4403280345, "lat": 46.2737909, "lon": 20.0705355}, {"type": "node", "id": 4403280346, "lat": 46.273792, "lon": 20.0704616}, {"type": "node", "id": 4403280347, "lat": 46.2738081, "lon": 20.0704406}, {"type": "node", "id": 4403280348, "lat": 46.2738889, "lon": 20.0704431}, {"type": "node", "id": 4404765492, "lat": 46.2474819, "lon": 20.1426112}, {"type": "node", "id": 4404765497, "lat": 46.247557, "lon": 20.1427064}, {"type": "node", "id": 4404765501, "lat": 46.2475734, "lon": 20.1424601}, {"type": "node", "id": 4404765515, "lat": 46.2476486, "lon": 20.1425553}, {"type": "node", "id": 4404765524, "lat": 46.2476934, "lon": 20.1422722}, {"type": "node", "id": 4404765527, "lat": 46.2477279, "lon": 20.1422133}, {"type": "node", "id": 4404765533, "lat": 46.2477511, "lon": 20.1424341}, {"type": "node", "id": 4404765535, "lat": 46.2477656, "lon": 20.1424519}, {"type": "node", "id": 4404765537, "lat": 46.2477822, "lon": 20.1423812}, {"type": "node", "id": 4404765542, "lat": 46.2478081, "lon": 20.1420638}, {"type": "node", "id": 4404765546, "lat": 46.2478434, "lon": 20.1425475}, {"type": "node", "id": 4404765547, "lat": 46.247848, "lon": 20.1419981}, {"type": "node", "id": 4404765549, "lat": 46.247873, "lon": 20.1422516}, {"type": "node", "id": 4404765557, "lat": 46.2479091, "lon": 20.1424356}, {"type": "node", "id": 4404765558, "lat": 46.2479101, "lon": 20.1421865}, {"type": "node", "id": 4404765563, "lat": 46.2479528, "lon": 20.1421269}, {"type": "node", "id": 4404765564, "lat": 46.2479555, "lon": 20.1423629}, {"type": "node", "id": 4404765578, "lat": 46.2480344, "lon": 20.1422268}, {"type": "node", "id": 4416430308, "lat": 46.2271616, "lon": 20.1116984, "tags": {"amenity": "pub", "name": "H\u00e1rsfa S\u00f6r\u00f6z\u0151", "opening_hours": "Mo-Su 07:00-21:00"}}, {"type": "node", "id": 4423057778, "lat": 46.2525567, "lon": 20.1329486}, {"type": "node", "id": 4423057780, "lat": 46.2525734, "lon": 20.1328628}, {"type": "node", "id": 4423057781, "lat": 46.252591, "lon": 20.1330278}, {"type": "node", "id": 4423057783, "lat": 46.2525966, "lon": 20.1329768}, {"type": "node", "id": 4423057785, "lat": 46.2526481, "lon": 20.1330606}, {"type": "node", "id": 4423057786, "lat": 46.2526689, "lon": 20.1329225}, {"type": "node", "id": 4511255181, "lat": 46.2531038, "lon": 20.1507209, "tags": {"amenity": "pub", "contact:facebook": "https://www.facebook.com/pages/Z%C3%A1por-J%C3%B3zsef-Kocsm%C3%A1ja/214721221887670", "dog": "yes", "name": "Z\u00e1por J\u00f3zsef Kocsm\u00e1ja", "opening_hours": "Mo-Th 17:00-01:00, Fr,Sa 17:00-02:00", "toilets:wheelchair": "no", "wheelchair": "no"}}, {"type": "node", "id": 4511269152, "lat": 46.2599205, "lon": 20.1505344, "tags": {"amenity": "pub", "contact:facebook": "https://facebook.com/pages/2es%20Klub/373621662721447/", "dog": "yes", "name": "2-es Klub", "toilets:wheelchair": "no", "wheelchair": "no"}}, {"type": "node", "id": 4535615139, "lat": 46.464505, "lon": 19.8689365, "tags": {"amenity": "pub", "name": "Kisbety\u00e1r"}}, {"type": "node", "id": 4535615147, "lat": 46.4619092, "lon": 19.8632715, "tags": {"amenity": "pub", "name": "F\u0171zfa"}}, {"type": "node", "id": 4623497110, "lat": 46.3192438, "lon": 19.9256888}, {"type": "node", "id": 4623497111, "lat": 46.319285, "lon": 19.9255091}, {"type": "node", "id": 4623497112, "lat": 46.3193247, "lon": 19.9257277}, {"type": "node", "id": 4623497113, "lat": 46.3193659, "lon": 19.925548}, {"type": "node", "id": 4675820689, "lat": 46.4141339, "lon": 20.3024002, "tags": {"amenity": "pub", "name": "Vid\u00e1m Rizs\u0151r"}}, {"type": "node", "id": 4677638393, "lat": 46.4100322, "lon": 20.3414744, "tags": {"amenity": "pub", "name": "Szivacs", "name:hu": "Szivacs", "toilets:wheelchair": "no", "wheelchair": "no"}}, {"type": "node", "id": 4679373362, "lat": 46.2733057, "lon": 20.1606469}, {"type": "node", "id": 4679373363, "lat": 46.2732925, "lon": 20.1606158}, {"type": "node", "id": 4679373364, "lat": 46.2732708, "lon": 20.1606174}, {"type": "node", "id": 4679373365, "lat": 46.273259, "lon": 20.1605915}, {"type": "node", "id": 4679373366, "lat": 46.2732331, "lon": 20.1605936}, {"type": "node", "id": 4679373367, "lat": 46.2732197, "lon": 20.1606255}, {"type": "node", "id": 4679373368, "lat": 46.273232, "lon": 20.1606529}, {"type": "node", "id": 4679373369, "lat": 46.273223, "lon": 20.1606836}, {"type": "node", "id": 4679373370, "lat": 46.2732345, "lon": 20.1607111}, {"type": "node", "id": 4679373371, "lat": 46.2732615, "lon": 20.1607103}, {"type": "node", "id": 4679373372, "lat": 46.2732713, "lon": 20.1606812}, {"type": "node", "id": 4679373373, "lat": 46.2732928, "lon": 20.1606808}, {"type": "node", "id": 4679389915, "lat": 46.2581634, "lon": 20.1683246}, {"type": "node", "id": 4679389916, "lat": 46.2581725, "lon": 20.1684592}, {"type": "node", "id": 4679389917, "lat": 46.2581192, "lon": 20.1684667}, {"type": "node", "id": 4679389918, "lat": 46.2581102, "lon": 20.1683321}, {"type": "node", "id": 4679389921, "lat": 46.2581177, "lon": 20.1684439}, {"type": "node", "id": 4746854752, "lat": 46.2428023, "lon": 20.1357714, "tags": {"amenity": "pub", "name": "G\u00e9za Tany\u00e1ja", "toilets:wheelchair": "no", "wheelchair": "no"}}, {"type": "node", "id": 4771029056, "lat": 46.2451443, "lon": 20.0028482, "tags": {"amenity": "pub"}}, {"type": "node", "id": 4793806911, "lat": 46.2727295, "lon": 20.1517846}, {"type": "node", "id": 4793806912, "lat": 46.2727128, "lon": 20.1518088}, {"type": "node", "id": 4793806913, "lat": 46.2727146, "lon": 20.151843}, {"type": "node", "id": 4793806914, "lat": 46.2727304, "lon": 20.1518617}, {"type": "node", "id": 4793806915, "lat": 46.27285, "lon": 20.1518517}, {"type": "node", "id": 4793806916, "lat": 46.2728676, "lon": 20.1518329}, {"type": "node", "id": 4793806917, "lat": 46.2728685, "lon": 20.1517974}, {"type": "node", "id": 4793806918, "lat": 46.2728477, "lon": 20.1517759}, {"type": "node", "id": 4841427532, "lat": 46.246676, "lon": 20.140714, "tags": {"amenity": "pub", "name": "Mojo Club", "opening_hours": "Mo-Sa 18:00-24:00", "phone": "+36 62 426 606"}}, {"type": "node", "id": 4933469311, "lat": 46.1708696, "lon": 20.1598565, "tags": {"amenity": "pub", "fixme": "verify", "name": "Fekete S\u00f6r\u00f6z\u0151", "source": "route4u", "toilets:wheelchair": "no", "wheelchair": "no"}}, {"type": "node", "id": 4933469661, "lat": 46.2576496, "lon": 20.1901501, "tags": {"amenity": "pub", "fixme": "verify", "name": "Lott\u00f3s Boroz\u00f3", "source": "route4u", "toilets:wheelchair": "no", "wheelchair": "no"}}, {"type": "node", "id": 4933469745, "lat": 46.2596118, "lon": 20.1653926, "tags": {"addr:city": "Szeged", "addr:housenumber": "7", "addr:postcode": "6723", "addr:street": "Haj\u00f3s utca", "amenity": "pub", "name": "\u00c1gi Pressz\u00f3"}}, {"type": "node", "id": 4933469747, "lat": 46.2580883, "lon": 20.1749164, "tags": {"amenity": "pub", "fixme": "verify", "name": "H2O Music Club", "source": "route4u", "wheelchair": "no"}}, {"type": "node", "id": 4933469855, "lat": 46.2820408, "lon": 20.0629142, "tags": {"amenity": "pub", "fixme": "verify", "name": "Lesz Vigasz Italbolt", "source": "route4u", "toilets:wheelchair": "no", "wheelchair": "limited"}}, {"type": "node", "id": 4933469907, "lat": 46.3596999, "lon": 20.093421, "tags": {"amenity": "pub", "name": "Di\u00f3fa S\u00f6r\u00f6z\u0151", "source": "route4u", "wheelchair": "no"}}, {"type": "node", "id": 4933470143, "lat": 46.4151831, "lon": 20.3390981, "tags": {"amenity": "pub", "name": "\u00daj Kaktusz S\u00f6r\u00f6z\u0151", "wheelchair": "yes"}}, {"type": "node", "id": 4933470145, "lat": 46.4155501, "lon": 19.8442396, "tags": {"amenity": "pub", "name": "P\u00e1los S\u00f6r\u00f6z\u0151", "toilets:wheelchair": "no", "wheelchair": "no"}}, {"type": "node", "id": 4933470186, "lat": 46.4685988, "lon": 19.9807911, "tags": {"amenity": "pub", "name": "Onyx Pub"}}, {"type": "node", "id": 4933470235, "lat": 46.4223573, "lon": 20.3193864, "tags": {"amenity": "pub", "name": "Sasf\u00e9szek S\u00f6r\u00f6z\u0151", "toilets:wheelchair": "limited", "wheelchair": "yes"}}, {"type": "node", "id": 4933470250, "lat": 46.4260831, "lon": 20.0053865, "tags": {"amenity": "pub", "name": "B\u00fafelejt\u0151 S\u00f6r\u00f6z\u0151", "wheelchair": "no"}}, {"type": "node", "id": 4939174872, "lat": 46.2647762, "lon": 20.1686274, "tags": {"amenity": "pub", "fixme": "verify", "name": "Alag\u00fat S\u00f6r\u00f6z\u0151", "source": "route4u", "toilets:wheelchair": "no", "wheelchair": "yes"}}, {"type": "node", "id": 4939175730, "lat": 46.2564043, "lon": 20.1467915, "tags": {"amenity": "pub", "name": "Mignon Pressz\u00f3", "toilets:wheelchair": "no", "wheelchair": "no"}}, {"type": "node", "id": 4939176129, "lat": 46.2587401, "lon": 20.1799664, "tags": {"amenity": "pub", "name": "Sarki Italbolt", "toilets:wheelchair": "no", "wheelchair": "no"}}, {"type": "node", "id": 4939178984, "lat": 46.2774639, "lon": 20.1718903, "tags": {"amenity": "pub", "fixme": "verify", "name": "K\u00f3borl\u00f3 S\u00f6r\u00f6z\u0151", "source": "route4u"}}, {"type": "node", "id": 4940556528, "lat": 46.2426648, "lon": 20.1813638, "tags": {"amenity": "pub", "fixme": "verify", "name": "K\u00f6kors\u00f3 Drinkb\u00e1r", "source": "route4u", "wheelchair": "yes"}}, {"type": "node", "id": 4940562159, "lat": 46.2635852, "lon": 20.129731, "tags": {"amenity": "pub", "fixme": "verify", "name": "Kisbakter Sportb\u00e1r", "source": "route4u"}}, {"type": "node", "id": 4940563884, "lat": 46.4648367, "lon": 20.2443351, "tags": {"amenity": "pub", "name": "\u00c9lm\u00e9ny Sport Pub", "toilets:wheelchair": "yes", "wheelchair": "yes"}}, {"type": "node", "id": 4971065010, "lat": 46.2647756, "lon": 20.1505509}, {"type": "node", "id": 4971065011, "lat": 46.2647722, "lon": 20.1506225}, {"type": "node", "id": 4971065012, "lat": 46.2647421, "lon": 20.1506209}, {"type": "node", "id": 4971065013, "lat": 46.2647326, "lon": 20.1506585}, {"type": "node", "id": 4971065014, "lat": 46.264676, "lon": 20.1506246}, {"type": "node", "id": 4971065015, "lat": 46.2646962, "lon": 20.1505432}, {"type": "node", "id": 4983804605, "lat": 46.2663112, "lon": 20.1571441}, {"type": "node", "id": 4994895718, "lat": 46.264088, "lon": 20.157932}, {"type": "node", "id": 4994895719, "lat": 46.2640935, "lon": 20.1581043}, {"type": "node", "id": 4994895720, "lat": 46.264164, "lon": 20.1581043}, {"type": "node", "id": 4994896721, "lat": 46.2641649, "lon": 20.1581841}, {"type": "node", "id": 4994896722, "lat": 46.2642433, "lon": 20.1581867}, {"type": "node", "id": 5012883876, "lat": 46.2627824, "lon": 20.1640223}, {"type": "node", "id": 5012883877, "lat": 46.2628117, "lon": 20.1640112}, {"type": "node", "id": 5012883878, "lat": 46.2628048, "lon": 20.1639767}, {"type": "node", "id": 5272236658, "lat": 46.4144863, "lon": 20.3375343, "tags": {"amenity": "pub"}}, {"type": "node", "id": 5272268898, "lat": 46.404321, "lon": 20.3135129, "tags": {"amenity": "pub"}}, {"type": "node", "id": 5272268899, "lat": 46.4073172, "lon": 20.3149399, "tags": {"amenity": "pub"}}, {"type": "node", "id": 5272270225, "lat": 46.4164056, "lon": 20.3082826, "tags": {"amenity": "pub"}}, {"type": "node", "id": 5326114651, "lat": 46.2557483, "lon": 20.147643, "tags": {"addr:city": "Szeged", "addr:street": "Tisza Lajos k\u00f6r\u00fat", "amenity": "pub", "name": "P\u00f6cike bisztr\u00f3"}}, {"type": "node", "id": 5359983083, "lat": 46.2627409, "lon": 20.1638755}, {"type": "node", "id": 5359983084, "lat": 46.2627722, "lon": 20.1638018}, {"type": "node", "id": 5359983085, "lat": 46.2627938, "lon": 20.1638209}, {"type": "node", "id": 5386667001, "lat": 46.2763217, "lon": 20.1490888, "tags": {"amenity": "pub", "opening_hours": "Mo-Su 09:00-21:00; PH closed", "wheelchair": "yes"}}, {"type": "node", "id": 5599306783, "lat": 46.2369378, "lon": 20.1376461, "tags": {"addr:city": "Szeged", "addr:housenumber": "7", "addr:postcode": "6725", "addr:street": "Szabad sajt\u00f3 utca", "amenity": "pub", "name": "Cs\u00f6ndes kocsma"}}, {"type": "node", "id": 5624238092, "lat": 46.3568088, "lon": 20.1074174}, {"type": "node", "id": 5624238093, "lat": 46.3568859, "lon": 20.1075426}, {"type": "node", "id": 5624238094, "lat": 46.3569473, "lon": 20.1074634}, {"type": "node", "id": 5624238095, "lat": 46.3568702, "lon": 20.1073381}, {"type": "node", "id": 5647520086, "lat": 46.3658291, "lon": 20.1139565, "tags": {"amenity": "pub", "mapillary": "1788220411358354", "name": "S\u00f6r\u00f6z\u0151"}}, {"type": "node", "id": 5684336973, "lat": 46.2501115, "lon": 20.1453109, "tags": {"amenity": "pub", "level": "-1", "name": "DTK & pub", "opening_hours": "Mo-Fr 14:00-02:00; Sa,Su 16:00-02:00", "wheelchair": "no"}}, {"type": "node", "id": 5684336985, "lat": 46.2501397, "lon": 20.14521, "tags": {"amenity": "pub", "name": "Cs\u00edki S\u00f6r\u00f6z\u0151", "opening_hours": "Mo-Sa 12:00-02:00; Su 12:00-24:00"}}, {"type": "node", "id": 5754192321, "lat": 46.2704644, "lon": 20.184727}, {"type": "node", "id": 5754192324, "lat": 46.2705196, "lon": 20.18469}, {"type": "node", "id": 5754192325, "lat": 46.2704302, "lon": 20.1847499}, {"type": "node", "id": 5754192326, "lat": 46.2704764, "lon": 20.1845549}, {"type": "node", "id": 5757280347, "lat": 46.2547228, "lon": 20.1505693, "tags": {"amenity": "pub", "contact:mobile": "+36 70 503 2426", "fixme": "Bejelent\u00e9s alapj\u00e1n \u00e1talakult, de a netes keres\u00e9s nem seg\u00edt. Valaki n\u00e9zzen r\u00e1 plz!", "free_refill_note": "Nyitvatart\u00e1s: 11.00-22.00", "name": "Delirium Pub", "opening_hours": "Mo 10:00-16:00; Tu-Fr 10:00-19:00; Sa 11:00-16:00", "website": "https://deliriumpub.eatbu.com/"}}, {"type": "node", "id": 5799701058, "lat": 46.4374956, "lon": 20.137337}, {"type": "node", "id": 5799701059, "lat": 46.4375441, "lon": 20.1374678}, {"type": "node", "id": 5799701060, "lat": 46.4376332, "lon": 20.1375324}, {"type": "node", "id": 5799701061, "lat": 46.4376937, "lon": 20.137357}, {"type": "node", "id": 5799701062, "lat": 46.4376386, "lon": 20.137317}, {"type": "node", "id": 5799701063, "lat": 46.437653, "lon": 20.1372752}, {"type": "node", "id": 5799701064, "lat": 46.4375441, "lon": 20.1371962}, {"type": "node", "id": 5830223583, "lat": 46.2699899, "lon": 20.0221663, "tags": {"amenity": "pub", "name": "Fekete P\u00e9ter s\u00f6r\u00f6z\u0151", "outdoor_seating": "yes"}}, {"type": "node", "id": 5836884121, "lat": 46.2471009, "lon": 20.1455791, "tags": {"addr:city": "Szeged", "addr:housenumber": "6", "addr:postcode": "6722", "addr:street": "Szenth\u00e1roms\u00e1g utca", "amenity": "pub", "contact:facebook": "bohemtanyaszeged", "contact:mobile": "+36 30 797 0760", "name": "Boh\u00e9m Tanya", "opening_hours": "Mo 16:00-23:45; Tu-Sa 16:00-02:00", "outdoor_seating": "yes"}}, {"type": "node", "id": 5860225086, "lat": 46.2529936, "lon": 20.1392948, "tags": {"addr:city": "Szeged", "addr:housenumber": "22", "addr:postcode": "6722", "addr:street": "Londoni k\u00f6r\u00fat", "amenity": "pub", "contact:facebook": "https://facebook.com/CoolClubSzeged/", "contact:mobile": "+36 30 822 8913", "name": "Cool club", "opening_hours": "Mo-Su 17:00-03:00"}}, {"type": "node", "id": 5916591012, "lat": 46.3655811, "lon": 20.093447, "tags": {"amenity": "pub", "name": "Gera kocsma"}}, {"type": "node", "id": 6077587566, "lat": 46.5521227, "lon": 20.0186982, "tags": {"amenity": "pub", "name": "Kisf\u00fcst\u00f6s"}}, {"type": "node", "id": 6120061474, "lat": 46.2539801, "lon": 20.1456079, "tags": {"amenity": "pub"}}, {"type": "node", "id": 6239721556, "lat": 46.2562131, "lon": 20.1471354, "tags": {"amenity": "pub", "name": "T\u00f6rpe"}}, {"type": "node", "id": 6349322133, "lat": 46.2581168, "lon": 20.1567907, "tags": {"addr:city": "Szeged", "addr:housenumber": "13", "addr:postcode": "6721", "addr:street": "J\u00f3zsef Attila sug\u00e1r\u00fat", "air_conditioning": "yes", "amenity": "pub", "check_date": "2022-10-22", "contact:facebook": "https://www.facebook.com/fuligjimmypub", "contact:mobile": "+36 70 326 3807", "contact:phone": "+36 62 669 140", "level": "-1", "name": "F\u00fclig Jimmy", "payment:contactless": "yes", "payment:maestro": "yes", "payment:mastercard": "yes", "payment:visa": "yes", "smoking": "outside", "source": "survey;local knowledge", "wheelchair": "no"}}, {"type": "node", "id": 6508383961, "lat": 46.472178, "lon": 20.2343739, "tags": {"amenity": "pub", "name": "Horg\u00e1sz pressz\u00f3", "operator": "Maximpex Bt.", "outdoor_seating": "yes"}}, {"type": "node", "id": 6651448340, "lat": 46.2704465, "lon": 20.021556, "tags": {"amenity": "pub", "name": "Sziki Fr\u00f6ccsterasz", "outdoor_seating": "yes"}}, {"type": "node", "id": 6814627690, "lat": 46.2663493, "lon": 20.1388648, "tags": {"amenity": "pub"}}, {"type": "node", "id": 6869412188, "lat": 46.2519553, "lon": 20.1389877, "tags": {"amenity": "pub", "level": "0", "name": "N\u00e9gyl\u00e9pcs\u0151 S\u00f6r\u00f6z\u0151", "wheelchair": "no"}}, {"type": "node", "id": 6990690943, "lat": 46.5206189, "lon": 20.1938914}, {"type": "node", "id": 6990690944, "lat": 46.520524, "lon": 20.193685}, {"type": "node", "id": 6990690945, "lat": 46.5204486, "lon": 20.1937582}, {"type": "node", "id": 6990690946, "lat": 46.5205435, "lon": 20.1939645}, {"type": "node", "id": 6990690975, "lat": 46.524515, "lon": 20.1796575, "tags": {"amenity": "pub", "name": "M\u00e1mor pressz\u00f3"}}, {"type": "node", "id": 6990690977, "lat": 46.5309957, "lon": 20.1902083}, {"type": "node", "id": 6990690978, "lat": 46.5309801, "lon": 20.190399}, {"type": "node", "id": 6990690979, "lat": 46.5310897, "lon": 20.1904179}, {"type": "node", "id": 6990690980, "lat": 46.5310942, "lon": 20.1903628}, {"type": "node", "id": 6990690981, "lat": 46.5311298, "lon": 20.1903689}, {"type": "node", "id": 6990690982, "lat": 46.5311334, "lon": 20.1903249}, {"type": "node", "id": 6990690983, "lat": 46.5311823, "lon": 20.1903333}, {"type": "node", "id": 6990690984, "lat": 46.5311898, "lon": 20.1902418}, {"type": "node", "id": 6990690985, "lat": 46.5310306, "lon": 20.1903058, "tags": {"amenity": "pub", "name": "Ak\u00e1c S\u00f6r\u00f6z\u0151"}}, {"type": "node", "id": 7781993799, "lat": 46.2635072, "lon": 20.1419041, "tags": {"amenity": "pub"}}, {"type": "node", "id": 7922813540, "lat": 46.1740066, "lon": 20.1627138, "tags": {"amenity": "pub", "name": "O\u00e1zis B\u00fcf\u00e9", "opening_hours": "Mo-Sa 06:00-20:00; Su 07:00-20:00", "outdoor_seating": "yes"}}, {"type": "node", "id": 7941549363, "lat": 46.2567931, "lon": 20.1682199}, {"type": "node", "id": 7941549364, "lat": 46.2567868, "lon": 20.1682207}, {"type": "node", "id": 7941549365, "lat": 46.2568369, "lon": 20.1682874}, {"type": "node", "id": 7941549366, "lat": 46.2568317, "lon": 20.1682065}, {"type": "node", "id": 7941549367, "lat": 46.256841, "lon": 20.1682052}, {"type": "node", "id": 7941549368, "lat": 46.2568368, "lon": 20.1681393}, {"type": "node", "id": 7941549369, "lat": 46.2568175, "lon": 20.167875}, {"type": "node", "id": 7941549370, "lat": 46.2568187, "lon": 20.167894}, {"type": "node", "id": 7943088478, "lat": 46.2540509, "lon": 20.1523729, "tags": {"addr:city": "Szeged", "addr:housenumber": "6", "addr:postcode": "6720", "addr:street": "Stef\u00e1nia", "amenity": "pub", "name": "V\u00e1rosi Rock Klub", "opening_hours": "Mo-Su 12:00-24:00", "payment:cash": "yes", "website": "http://vrk.hu"}}, {"type": "node", "id": 8300409385, "lat": 46.2627099, "lon": 20.1638688}, {"type": "node", "id": 8538794744, "lat": 46.2644848, "lon": 20.1542258, "tags": {"amenity": "pub"}}, {"type": "node", "id": 8883006639, "lat": 46.2523817, "lon": 20.1510346, "tags": {"addr:city": "Szeged", "addr:housenumber": "1", "addr:postcode": "6720", "addr:street": "Stef\u00e1nia", "amenity": "pub", "contact:facebook": "https://facebook.com/borkapolnaszeged/", "contact:mobile": "+36 30 792 4146;+36 30 996 9610", "name": "Humb\u00e1k Bork\u00e1polna", "opening_hours": "Mo-Su 16:00-24:00", "outdoor_seating": "yes", "start_date": "2021-04-30", "website": "https://www.facebook.com/borkapolnaszeged/"}}, {"type": "node", "id": 9319192527, "lat": 46.3292727, "lon": 20.2094054, "tags": {"amenity": "pub", "name": "Makk7 s\u00f6r\u00f6z\u0151"}}, {"type": "node", "id": 9319192550, "lat": 46.438246, "lon": 20.1372755, "tags": {"amenity": "pub", "name": "L\u00e1z\u00e1r pressz\u00f3"}}, {"type": "node", "id": 9804492567, "lat": 46.2570648, "lon": 20.1384586, "tags": {"amenity": "pub", "name": "Csillag s\u00f6r\u00f6z\u0151"}}, {"type": "node", "id": 10554317719, "lat": 46.2523847, "lon": 20.150475, "tags": {"amenity": "pub", "contact:email": "varsorozoszeged@gmail.com", "contact:facebook": "VarSorozoSzeged", "contact:mobile": "+36 30 490 5273", "name": "V\u00e1r S\u00f6r\u00f6z\u0151", "opening_hours": "Mo-Th 09:00-02:00; Fr 09:00-03:00; Sa 13:00-03:00; Su 15:00-23:00; PH off", "outdoor_seating": "yes"}}, {"type": "way", "id": 102813411, "nodes": [1187293466, 1187293304, 1187293027, 1187292871, 1187293391, 1187292814, 1187293466], "tags": {"amenity": "pub", "building": "yes", "name": "Sak\u00e1l tanya"}}, {"type": "way", "id": 116073215, "nodes": [1309916379, 1309916381, 1309916382, 1309916390, 1309916379], "tags": {"amenity": "pub", "building": "yes", "name": "\u00c9szak b\u00fcf\u00e9", "outdoor_seating": "yes"}}, {"type": "way", "id": 246770304, "nodes": [2537695881, 2537695885, 2537695887, 2537695882, 2537695881], "tags": {"amenity": "pub", "building": "yes", "fixme": "verify", "name": "Plat\u00e1n S\u00f6r\u00f6z\u0151", "source": "route4u"}}, {"type": "way", "id": 246771772, "nodes": [2537714446, 2537714441, 2537714448, 2537714450, 2537714446], "tags": {"amenity": "pub", "building": "yes", "name": "CMH Zene H\u00e1za", "wheelchair": "yes"}}, {"type": "way", "id": 258817669, "nodes": [2641346059, 5012883876, 5012883877, 5012883878, 2641346063, 2641346061, 2641346062, 2641346060, 5359983085, 5359983084, 5359983083, 2641346057, 8300409385, 2641346054, 2641346056, 2641346055, 1889713853, 2641346059], "tags": {"addr:city": "Szeged", "addr:housenumber": "25", "addr:postcode": "6723", "addr:street": "Szill\u00e9ri sug\u00e1r\u00fat", "amenity": "pub", "building": "yes", "contact:facebook": "https://facebook.com/rolling.stones.szeged/", "contact:mobile": "+36 20 217 7507", "contact:website": "http://etterem.hu/rolling-stones", "name": "Rolling Stones s\u00f6r\u00f6z\u0151", "opening_hours": "Mo-Th 10:00-24:00; Fr-Sa 10:00-02:00; Su 10:00-24:00", "outdoor_seating": "yes"}}, {"type": "way", "id": 258817670, "nodes": [2641346067, 2641346065, 2641346064, 2641346066, 2641346067], "tags": {"addr:city": "Szeged", "addr:housenumber": "29", "addr:postcode": "6723", "addr:street": "Szill\u00e9ri sug\u00e1r\u00fat", "amenity": "pub", "breakfast": "yes", "building": "yes", "name": "Talpon\u00e1ll\u00f3, L\u00e1ngos", "opening_hours": "Mo-Su 05:00-22:00", "smoking": "outside"}}, {"type": "way", "id": 333026416, "nodes": [3401387334, 3401387331, 3401387332, 3401387333, 3401387335, 3401387338, 3401387336, 3401387337, 3401387334], "tags": {"amenity": "pub", "building": "yes", "name": "G\u00f3l s\u00f6r\u00f6z\u0151", "source": "bing"}}, {"type": "way", "id": 333026418, "nodes": [3401387345, 3401387347, 3401387344, 3401387343, 3401387345], "tags": {"amenity": "pub", "building": "yes", "name": "V\u00e9nusz Pressz\u00f3", "toilets:wheelchair": "no", "wheelchair": "limited"}}, {"type": "way", "id": 391737010, "nodes": [3949896593, 7941549364, 7941549363, 3949896594, 7941549365, 7941549366, 7941549367, 7941549368, 3949896595, 3949896596, 3949896597, 3949896598, 3949896599, 3949896600, 7941549370, 7941549369, 4014742915, 4014742914, 3949896593], "tags": {"addr:city": "Szeged", "addr:street": "Fels\u0151 Tisza part", "amenity": "pub", "building": "boat", "contact:facebook": "https://www.facebook.com/pages/Horthy-%C3%9Asz%C3%B3h%C3%A1z/351782478217390", "contact:mobile": "+36 70 599 7444", "name": "Horthy Mikl\u00f3s \u00fasz\u00f3h\u00e1z", "outdoor_seating": "yes"}}, {"type": "way", "id": 395908685, "nodes": [3987085901, 3987085902, 3987085903, 3987085906, 4983804605, 3987085907, 3987085908, 3987085901], "tags": {"amenity": "pub", "building": "yes", "name": "R\u00f3zsafa S\u00f6r\u00f6z\u0151", "opening_hours": "Mo-Su 06:00-22:00", "source": "https://www.facebook.com/pages/R%C3%B3zsafa-S%C3%B6r%C3%B6z%C5%91/243348362434281", "website": "https://szegedikocsmak.blog.hu/2009/06/21/rozsafa_sorozo", "wheelchair": "no"}}, {"type": "way", "id": 412167651, "nodes": [4136916211, 4136916195, 4136916214, 4136916242, 4136916230, 4136916238, 4136916211], "tags": {"amenity": "pub", "building": "retail", "level": "0", "name": "Kis Csik\u00f3", "wheelchair": "no"}}, {"type": "way", "id": 415930323, "nodes": [4168444213, 4168444214, 4168444212, 4168444207, 4168444213], "tags": {"amenity": "pub", "building": "yes", "name": "K\u0151b\u00f6lcs\u0151", "toilets:wheelchair": "no", "wheelchair": "yes"}}, {"type": "way", "id": 417698735, "nodes": [4181976684, 4181976677, 4181976667, 4181976673, 4181976684], "tags": {"addr:city": "Szeged", "addr:housenumber": "20", "addr:postcode": "6725", "addr:street": "Farkas utca", "amenity": "pub", "building": "yes", "name": "Farkastanya S\u00f6r\u00f6z\u0151", "outdoor_seating": "yes", "smoking": "outside"}}, {"type": "way", "id": 442653724, "nodes": [4403272287, 4403272288, 4403272689, 4403272690, 4403272691, 4403272692, 4403272693, 4403272694, 4403272287], "tags": {"addr:city": "Szeged", "addr:housenumber": "112", "addr:postcode": "6791", "addr:street": "Dorozsmai \u00fat", "addr:suburb": "Kiskundorozsma", "amenity": "pub", "building": "yes", "description": "Egy igazi \u201emel\u00f3s-falusi\u201d kocsma helyi \u00f6reg t\u00f6rzsvend\u00e9gekkel \u2013 kiosztott helyeikkel .A pult szemben a bej\u00e1rattal el\u0151tte 4 szem\u00e9lyes kerek asztalok.", "name": "R\u00f3zsa Kocsma", "opening_hours": "06:00-21:00", "toilets:wheelchair": "no", "website": "https://szegedikocsmak.blog.hu/2013/04/11/dorozsma_rozsa_kocsma", "wheelchair": "no"}}, {"type": "way", "id": 442654893, "nodes": [4403280340, 4403280341, 4403280342, 4403280343, 4403280344, 4403280345, 4403280346, 4403280347, 4403280348, 4403280340], "tags": {"addr:city": "Szeged", "addr:housenumber": "147", "addr:postcode": "6791", "addr:street": "Dorozsmai \u00fat", "addr:suburb": "Kiskundorozsma", "amenity": "pub", "building": "yes", "name": "Beton S\u00f6rb\u00e1r", "opening_hours": "Mo-Sa 06:00-21:00; Su 06:00-14:00", "toilets:wheelchair": "no", "website": "https://szegedikocsmak.blog.hu/2013/02/10/beton_sorbar_dorozsma", "wheelchair": "no"}}, {"type": "way", "id": 442825080, "nodes": [4404765563, 4404765547, 4404765542, 4404765558, 4404765549, 4404765564, 4404765578, 4404765563], "tags": {"addr:city": "Szeged", "addr:housenumber": "28", "addr:postcode": "6722", "addr:street": "Vit\u00e9z utca", "amenity": "pub", "building": "yes", "contact:facebook": "szegedikocsma", "contact:mobile": "+36 30 825 1595", "name": "Nyugi Kert", "opening_hours": "Mo-Fr 09:00-01:00; Sa 12:00-01:00", "outdoor_seating": "yes", "smoking": "outside"}}, {"type": "way", "id": 442825081, "nodes": [4404765527, 4404765557, 4404765546, 4404765535, 4404765533, 4404765537, 4404765524, 4404765527], "tags": {"addr:city": "Szeged", "addr:housenumber": "26", "addr:postcode": "6722", "addr:street": "Vit\u00e9z utca", "amenity": "pub", "building": "yes", "contact:facebook": "pivoszeged", "name": "Pivo Bar", "opening_hours": "Mo 11:00-24:00; Tu-Th 11:00-01:00; Fr 15:00-01:00; Sa 16:00-01:00", "operator": "D\u00e9l\u00fajszeged Szoci\u00e1lis Sz\u00f6vetkezet", "outdoor_seating": "yes", "smoking": "separated"}}, {"type": "way", "id": 442825089, "nodes": [4404765501, 4404765515, 4404765497, 4404765492, 4404765501], "tags": {"addr:city": "Szeged", "addr:housenumber": "24", "addr:postcode": "6722", "addr:street": "Vit\u00e9z utca", "amenity": "pub", "building": "yes", "contact:facebook": "campusszeged", "contact:mobile": "+36 20 972 2978", "contact:website": "https://campusszeged.hu/", "delivery": "yes", "internet_access": "wlan", "internet_access:fee": "no", "name": "Campus Beer&More", "opening_hours": "Mo-We 09:00-01:00; Th-Fr 09:00-02:00; Sa 17:00-02:00", "outdoor_seating": "yes", "smoking": "outside", "takeaway": "yes"}}, {"type": "way", "id": 444841339, "nodes": [4423057780, 4423057778, 4423057783, 4423057781, 4423057785, 4423057786, 4423057780], "tags": {"addr:city": "Szeged", "addr:housenumber": "29", "addr:postcode": "6725", "addr:street": "K\u00e1lv\u00e1ria t\u00e9r", "amenity": "pub", "building": "yes", "name": "Havanna S\u00f6r\u00f6z\u0151", "phone": "+36 62 253 414"}}, {"type": "way", "id": 467753778, "nodes": [4623497110, 4623497111, 4623497113, 4623497112, 4623497110], "tags": {"amenity": "pub", "building": "yes", "name": "Viking s\u00f6r\u00f6z\u0151", "source": "turistautak.hu", "source:date": "2011-06-24", "url": "http://turistautak.hu/poi.php?id=4870"}}, {"type": "way", "id": 473905796, "nodes": [4679373362, 4679373363, 4679373364, 4679373365, 4679373366, 4679373367, 4679373368, 4679373369, 4679373370, 4679373371, 4679373372, 4679373373, 4679373362], "tags": {"amenity": "pub", "building": "yes", "name": "Cs\u00e1sz\u00e1r gyors\u00e9tkezde", "opening_hours": "Mo 05:00-21:00; Tu-Sa 05:30-22:00; Su 06:00-21:00", "outdoor_seating": "yes"}}, {"type": "way", "id": 473908214, "nodes": [4679389915, 4679389916, 4679389917, 4679389921, 4679389918, 4679389915], "tags": {"addr:city": "Szeged", "addr:housenumber": "1", "addr:postcode": "6721", "addr:street": "Fels\u0151 Tisza part", "amenity": "pub", "building": "yes", "contact:facebook": "https://www.facebook.com/betyaroktanyaja/", "contact:mobile": "+36 70 599 7444", "description": "http://szegedikocsmak.blog.hu/2011/08/01/sziszi_poharazo", "name": "Bety\u00e1rok Tany\u00e1ja", "opening_hours": "Mo-Th 12:00-20:00; Fr-Sa 12:00-24:00; Su 12:00-21:00", "outdoor_seating": "yes"}}, {"type": "way", "id": 486828995, "nodes": [4793806918, 4793806917, 4793806916, 4793806915, 4793806914, 4793806913, 4793806912, 4793806911, 4793806918], "tags": {"amenity": "pub", "building": "retail", "name": "S\u00f6rszanat\u00f3rium", "opening_hours": "24/7", "wheelchair": "yes"}}, {"type": "way", "id": 507638186, "nodes": [4971065015, 4971065014, 4971065013, 4971065012, 4971065011, 4971065010, 4971065015], "tags": {"addr:city": "Szeged", "addr:housenumber": "1", "addr:postcode": "6724", "addr:street": "N\u00e1das utca", "amenity": "pub", "building": "yes", "name": "Koccint\u00f3 Pub"}}, {"type": "way", "id": 510491932, "nodes": [4994896722, 4994896721, 4994895720, 4994895719, 4994895718, 3982701879, 4994896722], "tags": {"addr:city": "Szeged", "addr:housenumber": "63", "addr:postcode": "6723", "addr:street": "J\u00f3zsef Attila sug\u00e1r\u00fat", "amenity": "pub", "building": "yes", "name": "Kedves Pressz\u00f3", "opening_hours": "Mo-Th 08:00-22:00; Fr 08:00-01:00; Sa 11:00-01:00; Su 11:00-22:00", "smoking": "outside", "wheelchair": "no"}}, {"type": "way", "id": 588946721, "nodes": [5624238095, 5624238094, 5624238093, 5624238092, 5624238095], "tags": {"amenity": "pub", "building": "yes", "name": "K.O. s\u00f6r\u00f6z\u0151", "source": "turistautak.hu", "source:date": "2011-06-24", "toilets:wheelchair": "yes", "url": "http://turistautak.hu/poi.php?id=13941", "wheelchair": "yes"}}, {"type": "way", "id": 607086722, "nodes": [5754192326, 3358020698, 5754192325, 5754192321, 5754192324, 5754192326], "tags": {"amenity": "pub", "building": "yes", "name": "Sarok B\u00fcf\u00e9"}}, {"type": "way", "id": 612753948, "nodes": [5799701064, 5799701063, 5799701062, 5799701061, 5799701060, 5799701059, 3487682963, 5799701058, 5799701064], "tags": {"amenity": "pub", "building": "yes", "name": "Ny\u00e1rf\u00e1s vend\u00e9gl\u0151", "source": "turistautak.hu", "source:date": "2011-06-24", "url": "http://turistautak.hu/poi.php?id=14635"}}, {"type": "way", "id": 747102561, "nodes": [6990690943, 6990690944, 6990690945, 6990690946, 6990690943], "tags": {"amenity": "pub", "building": "yes", "name": "Vad\u00e1sz"}}, {"type": "way", "id": 747102567, "nodes": [6990690977, 6990690978, 6990690979, 6990690980, 6990690981, 6990690982, 6990690983, 6990690984, 6990690977], "tags": {"amenity": "pub", "building": "yes"}}]}