{"version": 0.6, "generator": "Overpass API 0.7.59 e21c39fe", "osm3s": {"timestamp_osm_base": "2023-01-21T09:46:07Z", "copyright": "The data included in this document is from www.openstreetmap.org. The data is made available under ODbL."}, "elements": [{"type": "node", "id": 34149302, "lat": 48.1723898, "lon": 18.8817706, "tags": {"amenity": "fuel", "brand": "Slovnaft", "brand:wikidata": "Q1587563", "brand:wikipedia": "en:Slovnaft", "fuel:diesel": "yes", "fuel:octane_95": "yes", "import_ref": "sk_fuel_2", "name": "Slovnaft", "note": "K. Braxatorisa", "operator": "Slovnaft"}}, {"type": "node", "id": 34149408, "lat": 48.2123987, "lon": 18.5829053, "tags": {"amenity": "fuel", "brand": "Slovnaft", "import_ref": "sk_fuel_2", "name": "Slovnaft", "note": "K\u00e1lnick\u00e1 cesta 7", "operator": "Slovnaft"}}, {"type": "node", "id": 34149414, "lat": 48.2236272, "lon": 18.617362, "tags": {"amenity": "fuel", "brand": "Slovnaft", "import_ref": "sk_fuel_2", "name": "Slovnaft", "note": "Dru\u017estevn\u00edcka", "operator": "Slovnaft"}}, {"type": "node", "id": 347459064, "lat": 48.2030416, "lon": 18.5192329, "tags": {"amenity": "fuel", "brand": "Slovnaft", "name": "Slovnaft", "operator": "Slovnaft"}}, {"type": "node", "id": 472282038, "lat": 48.2113057, "lon": 18.5807486, "tags": {"amenity": "fuel", "brand": "OMV", "brand:wikidata": "Q168238", "brand:wikipedia": "en:OMV", "name": "OMV", "opening_hours": "24/7", "operator": "OMV", "phone": "+421 36 6336410", "wheelchair": "yes"}}, {"type": "node", "id": 523031982, "lat": 48.2226111, "lon": 18.5983824, "tags": {"amenity": "fuel", "brand": "Tesco", "name": "Tesco", "opening_hours": "24/7", "operator": "Tesco"}}, {"type": "node", "id": 582938409, "lat": 48.1765257, "lon": 18.564654, "tags": {"addr:city": "Doln\u00e1 Se\u010d", "addr:country": "SK", "addr:postcode": "935 31", "amenity": "fuel", "brand": "Jurki", "fixme": "check localy", "fuel:octane_100": "yes", "fuel:octane_95": "yes", "name": "\u010cS JURKI Doln\u00e1 Se\u010d", "opening_hours": "Mo-Fr 07:00-19:00", "operator": "Jurki", "phone": "+421 36 6396060"}}, {"type": "node", "id": 583272906, "lat": 48.1938633, "lon": 18.5125279, "tags": {"addr:city": "Kaln\u00e1 nad Hronom", "addr:country": "SK", "addr:postcode": "935 32", "amenity": "fuel", "brand": "Jurki", "fuel:lpg": "yes", "fuel:octane_100": "yes", "fuel:octane_95": "yes", "name": "\u010cS JURKI Kaln\u00e1 nad Hronom A", "opening_hours": "24/7", "operator": "Jurki", "phone": "+421 36 6395100"}}, {"type": "node", "id": 724061799, "lat": 48.2041333, "lon": 18.6148122}, {"type": "node", "id": 724065288, "lat": 48.2041978, "lon": 18.6147323}, {"type": "node", "id": 746685070, "lat": 48.2068459, "lon": 18.6026795, "tags": {"amenity": "fuel", "brand": "Slovnaft", "name": "Slovnaft"}}, {"type": "node", "id": 1377672691, "lat": 48.2242605, "lon": 18.5996422, "tags": {"amenity": "fuel", "brand": "Shell", "compressed_air": "yes", "name": "Shell", "opening_hours": "24/7", "operator": "Shell", "wheelchair": "yes"}}, {"type": "node", "id": 2626433245, "lat": 48.2822316, "lon": 18.9882063}, {"type": "node", "id": 2626433246, "lat": 48.2822691, "lon": 18.9883654}, {"type": "node", "id": 2626433248, "lat": 48.2823006, "lon": 18.988167}, {"type": "node", "id": 2626433250, "lat": 48.2823382, "lon": 18.9883284}, {"type": "node", "id": 2876843547, "lat": 48.209868, "lon": 18.5837753, "tags": {"amenity": "fuel", "fuel:lpg": "yes", "name": "J.I.D GAS"}}, {"type": "node", "id": 2989821212, "lat": 48.2041843, "lon": 18.6149048}, {"type": "node", "id": 2989821214, "lat": 48.2042188, "lon": 18.6147062}, {"type": "node", "id": 2989821215, "lat": 48.2042698, "lon": 18.6147989}, {"type": "node", "id": 3901564321, "lat": 48.1746443, "lon": 18.5665264, "tags": {"amenity": "fuel", "brand": "Jurki", "operator": "Jurki"}}, {"type": "way", "id": 257030208, "nodes": [2626433246, 2626433245, 2626433248, 2626433250, 2626433246], "tags": {"amenity": "fuel", "brand": "JS Auto-\u0160port", "building": "yes", "source": "kapor2"}}, {"type": "way", "id": 295278760, "nodes": [724061799, 2989821212, 2989821215, 2989821214, 724065288, 724061799], "tags": {"amenity": "fuel", "building": "roof", "layer": "1", "name": "Jurki", "source": "survey"}}]}