{"version": 0.6, "generator": "Overpass API 0.7.59 e21c39fe", "osm3s": {"timestamp_osm_base": "2023-01-21T09:23:38Z", "copyright": "The data included in this document is from www.openstreetmap.org. The data is made available under ODbL."}, "elements": [{"type": "node", "id": 1750893722, "lat": 47.9457984, "lon": 22.3233162}, {"type": "node", "id": 1750893725, "lat": 47.9459265, "lon": 22.3245266}, {"type": "node", "id": 1750893727, "lat": 47.9465572, "lon": 22.3231371}, {"type": "node", "id": 1750893732, "lat": 47.9466854, "lon": 22.3243475}, {"type": "node", "id": 1930503326, "lat": 47.8352205, "lon": 22.6821252}, {"type": "node", "id": 1930503346, "lat": 47.8349907, "lon": 22.6818053}, {"type": "node", "id": 1930503360, "lat": 47.8353812, "lon": 22.6821237}, {"type": "node", "id": 1930503384, "lat": 47.8352299, "lon": 22.6823591}, {"type": "node", "id": 1930503385, "lat": 47.8349161, "lon": 22.6819153}, {"type": "node", "id": 1930503386, "lat": 47.8352991, "lon": 22.6820006}, {"type": "node", "id": 2453977418, "lat": 47.9529934, "lon": 22.3215036}, {"type": "node", "id": 2453977421, "lat": 47.9533033, "lon": 22.3213337}, {"type": "node", "id": 2453977425, "lat": 47.9571702, "lon": 22.3248475}, {"type": "node", "id": 2453977428, "lat": 47.9572789, "lon": 22.3252818}, {"type": "node", "id": 2453977430, "lat": 47.9575508, "lon": 22.3246352}, {"type": "node", "id": 2453977432, "lat": 47.9576594, "lon": 22.3250695}, {"type": "node", "id": 3047635303, "lat": 48.1270736, "lon": 22.3208716}, {"type": "node", "id": 3047635304, "lat": 48.1266947, "lon": 22.3209483}, {"type": "node", "id": 3047635305, "lat": 48.1265755, "lon": 22.3211342}, {"type": "node", "id": 3047635306, "lat": 48.1264996, "lon": 22.3211495}, {"type": "node", "id": 3047635307, "lat": 48.1265116, "lon": 22.3212827}, {"type": "node", "id": 3047635308, "lat": 48.1265887, "lon": 22.3212671}, {"type": "node", "id": 3047635309, "lat": 48.1265991, "lon": 22.3213817}, {"type": "node", "id": 3047635310, "lat": 48.1271103, "lon": 22.3212783}, {"type": "node", "id": 3047635312, "lat": 48.1270938, "lon": 22.3189876}, {"type": "node", "id": 3047635313, "lat": 48.1271643, "lon": 22.3195171}, {"type": "node", "id": 3047635314, "lat": 48.1273567, "lon": 22.3191562}, {"type": "node", "id": 3047638191, "lat": 48.1247215, "lon": 22.3188176}, {"type": "node", "id": 3047638192, "lat": 48.1249079, "lon": 22.3187444}, {"type": "node", "id": 3047638193, "lat": 48.125047, "lon": 22.3195393}, {"type": "node", "id": 3047638194, "lat": 48.1249728, "lon": 22.3195685}, {"type": "node", "id": 3047638195, "lat": 48.1249598, "lon": 22.3194942}, {"type": "node", "id": 3047638196, "lat": 48.1248476, "lon": 22.3195383}, {"type": "node", "id": 3105406008, "lat": 48.126936, "lon": 22.3208995}, {"type": "node", "id": 3395271055, "lat": 48.1300102, "lon": 22.3180316}, {"type": "node", "id": 3395271056, "lat": 48.1301767, "lon": 22.3185574}, {"type": "node", "id": 3395271057, "lat": 48.1304282, "lon": 22.3183787}, {"type": "node", "id": 3395271058, "lat": 48.1302617, "lon": 22.3178529}, {"type": "node", "id": 3395285463, "lat": 48.1281895, "lon": 22.3133196}, {"type": "node", "id": 3395285464, "lat": 48.1282849, "lon": 22.3136103}, {"type": "node", "id": 3395285465, "lat": 48.1284673, "lon": 22.313476}, {"type": "node", "id": 3395285466, "lat": 48.128372, "lon": 22.3131853}, {"type": "node", "id": 4067214389, "lat": 47.9955364, "lon": 22.5114637, "tags": {"name": "Coop", "shop": "supermarket"}}, {"type": "node", "id": 4110104856, "lat": 47.9576703, "lon": 22.3055074}, {"type": "node", "id": 4110106339, "lat": 47.9574639, "lon": 22.3055013}, {"type": "node", "id": 4110124919, "lat": 47.9574664, "lon": 22.30531}, {"type": "node", "id": 4110125254, "lat": 47.9576728, "lon": 22.3053161}, {"type": "node", "id": 4110125599, "lat": 47.9575968, "lon": 22.3055052}, {"type": "node", "id": 4441621378, "lat": 47.9533534, "lon": 22.3215058}, {"type": "node", "id": 4441621379, "lat": 47.9533304, "lon": 22.3215211}, {"type": "node", "id": 4441621380, "lat": 47.9534148, "lon": 22.3218757}, {"type": "node", "id": 4441621381, "lat": 47.9529843, "lon": 22.3216996}, {"type": "node", "id": 4441621382, "lat": 47.9530279, "lon": 22.3216802}, {"type": "node", "id": 4441621383, "lat": 47.9533839, "lon": 22.3217458}, {"type": "node", "id": 4441621387, "lat": 47.9531166, "lon": 22.3220316}, {"type": "node", "id": 4939177069, "lat": 47.953073, "lon": 22.3220544}, {"type": "node", "id": 5130044826, "lat": 47.9841114, "lon": 22.5149802}, {"type": "node", "id": 5130044834, "lat": 47.9842163, "lon": 22.5149118}, {"type": "node", "id": 5130044835, "lat": 47.9840461, "lon": 22.5150229}, {"type": "node", "id": 5130044836, "lat": 47.9840343, "lon": 22.5149825}, {"type": "node", "id": 5130044837, "lat": 47.9838707, "lon": 22.5150892}, {"type": "node", "id": 5130044838, "lat": 47.9838427, "lon": 22.5149933}, {"type": "node", "id": 5130044839, "lat": 47.983719, "lon": 22.5150741}, {"type": "node", "id": 5130044840, "lat": 47.9836645, "lon": 22.5148876}, {"type": "node", "id": 5130044841, "lat": 47.9841219, "lon": 22.5145891}, {"type": "node", "id": 5130044842, "lat": 47.9841489, "lon": 22.5146812}, {"type": "node", "id": 5130044843, "lat": 47.9841217, "lon": 22.5146989}, {"type": "node", "id": 5130044844, "lat": 47.9841458, "lon": 22.5147814}, {"type": "node", "id": 5130044845, "lat": 47.9841731, "lon": 22.5147637}, {"type": "node", "id": 5131531243, "lat": 47.9894201, "lon": 22.5144893}, {"type": "node", "id": 5131531244, "lat": 47.98973, "lon": 22.5143157}, {"type": "node", "id": 5131531245, "lat": 47.9897179, "lon": 22.5142675}, {"type": "node", "id": 5131531246, "lat": 47.9896388, "lon": 22.5139521}, {"type": "node", "id": 5131531247, "lat": 47.9893289, "lon": 22.5141257}, {"type": "node", "id": 5176924927, "lat": 48.1627933, "lon": 22.5646199, "tags": {"name": "Duty Free", "opening_hours": "24/7", "shop": "supermarket"}}, {"type": "node", "id": 5642290436, "lat": 47.9396234, "lon": 22.3926571, "tags": {"name": "Privat Max Kastely ABC", "opening_hours": "Mo-Fr 06:00-18:00; Sa 06:00-14:00; Su 06:30-12:00", "shop": "supermarket"}}, {"type": "node", "id": 6821974229, "lat": 48.1062571, "lon": 22.8347726}, {"type": "node", "id": 6821974230, "lat": 48.1060529, "lon": 22.8347404}, {"type": "node", "id": 6821974231, "lat": 48.106035, "lon": 22.8353681}, {"type": "node", "id": 6821974232, "lat": 48.1062535, "lon": 22.8353788}, {"type": "node", "id": 9233854547, "lat": 47.9841389, "lon": 22.5148246, "tags": {"brand": "PENNY", "brand:wikidata": "Q284688", "brand:wikipedia": "en:Penny (supermarket)", "name": "PENNY", "shop": "supermarket"}}, {"type": "node", "id": 10040844105, "lat": 48.1273251, "lon": 22.3189186}, {"type": "node", "id": 10040844107, "lat": 48.1273987, "lon": 22.3191437}, {"type": "node", "id": 10040844108, "lat": 48.1274375, "lon": 22.3194355}, {"type": "node", "id": 10040844118, "lat": 48.1265611, "lon": 22.3209754}, {"type": "way", "id": 163383605, "nodes": [1750893727, 1750893732, 1750893725, 1750893722, 1750893727], "tags": {"addr:city": "M\u00e1t\u00e9szalka", "addr:housenumber": "1/A", "addr:postcode": "4700", "addr:street": "Alkotm\u00e1ny \u00fat", "air_conditioning": "yes", "branch": "M\u00e1t\u00e9szalka Hipermarket", "brand": "Tesco", "brand:wikidata": "Q487494", "brand:wikipedia": "en:Tesco", "building": "retail", "contact:facebook": "https://www.facebook.com/tescoaruhazak", "contact:pinterest": "https://www.pinterest.com/tescohungary/", "contact:website": "https://tesco.hu/aruhazak/aruhaz/tesco-mateszalka-hipermarket/", "contact:youtube": "https://www.youtube.com/user/TescoMagyarorszag", "import": "osm_poi_matchmaker", "internet_access": "wlan", "internet_access:fee": "no", "internet_access:ssid": "tesco-internet", "loyalty_card": "yes", "name": "Tesco", "opening_hours": "Mo-Sa 06:00-22:00; Su 07:00-20:00; PH off", "operator": "TESCO-GLOBAL \u00c1ruh\u00e1zak Zrt.", "operator:addr": "2040 Buda\u00f6rs, Kinizsi \u00fat 1-3.", "payment:american_express": "yes", "payment:cash": "yes", "payment:contactless": "yes", "payment:edenred_card": "yes", "payment:edenred_voucher": "yes", "payment:gift_card": "yes", "payment:jcb": "yes", "payment:maestro": "yes", "payment:mastercard": "yes", "payment:mastercard_contactless": "yes", "payment:mastercard_electronic": "yes", "payment:multipay": "yes", "payment:otp_bankpont": "yes", "payment:otp_cafeteria": "yes", "payment:unionpay": "yes", "payment:v_pay": "yes", "payment:visa": "yes", "payment:visa_electron": "yes", "payment:wire_transfer": "yes", "ref:HU:company": "13-10-040628", "ref:HU:vatin": "10307078-2-44", "ref:vatin": "HU10307078", "shop": "supermarket", "source": "website", "source:date": "2020-09-28", "source:wheelchair": "website", "toilets:wheelchair": "no", "wheelchair": "yes"}}, {"type": "way", "id": 182692436, "nodes": [1930503386, 1930503326, 1930503346, 1930503385, 1930503384, 1930503360, 1930503386], "tags": {"brand": "Coop Szuper", "brand:wikidata": "Q868980", "building": "retail", "name": "Coop Szuper", "shop": "supermarket"}}, {"type": "way", "id": 237505991, "nodes": [2453977430, 2453977432, 2453977428, 2453977425, 2453977430], "tags": {"brand": "PENNY", "brand:wikidata": "Q284688", "brand:wikipedia": "en:Penny (supermarket)", "building": "retail", "contact:website": "http://www.penny.hu", "name": "PENNY", "shop": "supermarket", "website": "http://www.penny.hu"}}, {"type": "way", "id": 237505992, "nodes": [2453977421, 4441621378, 4441621379, 4441621383, 4441621380, 4441621387, 4939177069, 4441621381, 4441621382, 2453977418, 2453977421], "tags": {"brand": "Spar", "brand:wikidata": "Q610492", "brand:wikipedia": "en:Spar (retailer)", "building": "retail", "contact:website": "http://www.spar.hu", "name": "Spar", "shop": "supermarket", "website": "http://www.spar.hu", "wheelchair": "yes"}}, {"type": "way", "id": 300664504, "nodes": [3047635303, 3105406008, 3047635304, 10040844118, 3047635305, 3047635306, 3047635307, 3047635308, 3047635309, 3047635310, 3047635303], "tags": {"addr:city": "V\u00e1s\u00e1rosnam\u00e9ny", "addr:housenumber": "1/B", "addr:postcode": "4800", "addr:street": "Beregsz\u00e1szi \u00fat", "air_conditioning": "yes", "branch": "V\u00e1s\u00e1rosnam\u00e9ny Szupermarket", "brand": "Tesco", "brand:wikidata": "Q487494", "brand:wikipedia": "en:Tesco", "building": "retail", "contact:facebook": "https://www.facebook.com/tescoaruhazak", "contact:phone": "+36 20 827 0000", "contact:pinterest": "https://www.pinterest.com/tescohungary/", "contact:website": "https://tesco.hu/aruhazak/aruhaz/tesco-vasarosnameny-szupermarket/", "contact:youtube": "https://www.youtube.com/user/TescoMagyarorszag", "import": "osm_poi_matchmaker", "internet_access": "wlan", "internet_access:fee": "no", "internet_access:ssid": "tesco-internet", "loyalty_card": "yes", "name": "Tesco", "opening_hours": "Mo-Sa 06:00-21:00; Su 08:00-18:00; PH off", "operator": "TESCO-GLOBAL \u00c1ruh\u00e1zak Zrt.", "operator:addr": "2040 Buda\u00f6rs, Kinizsi \u00fat 1-3.", "payment:american_express": "yes", "payment:cash": "yes", "payment:contactless": "yes", "payment:edenred_card": "yes", "payment:edenred_voucher": "yes", "payment:gift_card": "yes", "payment:jcb": "yes", "payment:maestro": "yes", "payment:mastercard": "yes", "payment:mastercard_contactless": "yes", "payment:mastercard_electronic": "yes", "payment:multipay": "yes", "payment:otp_bankpont": "yes", "payment:otp_cafeteria": "yes", "payment:unionpay": "yes", "payment:v_pay": "yes", "payment:visa": "yes", "payment:visa_electron": "yes", "payment:wire_transfer": "yes", "ref:HU:company": "13-10-040628", "ref:HU:vatin": "10307078-2-44", "ref:vatin": "HU10307078", "shop": "supermarket", "source": "website", "source:date": "2020-09-28", "source:wheelchair": "website", "wheelchair": "yes"}}, {"type": "way", "id": 300664505, "nodes": [10040844105, 3047635312, 3047635313, 10040844108, 10040844107, 3047635314, 10040844105], "tags": {"addr:city": "V\u00e1s\u00e1rosnam\u00e9ny", "addr:housenumber": "8", "addr:postcode": "4800", "addr:street": "J\u00f3kai \u00fat", "brand": "Spar", "brand:wikidata": "Q610492", "brand:wikipedia": "en:SPAR (retailer)", "building": "retail", "contact:website": "http://www.spar.hu", "name": "Spar", "opening_hours": "06:30-19:00", "operator": "Spar", "shop": "supermarket", "website": "http://www.spar.hu", "wheelchair": "yes"}}, {"type": "way", "id": 300664556, "nodes": [3047638191, 3047638192, 3047638193, 3047638194, 3047638195, 3047638196, 3047638191], "tags": {"addr:city": "V\u00e1s\u00e1rosnam\u00e9ny", "addr:housenumber": "36", "addr:postcode": "4800", "addr:street": "J\u00f3kai \u00fat", "alt_name": "Penny Market", "brand": "PENNY", "brand:wikidata": "Q284688", "brand:wikipedia": "en:Penny (supermarket)", "building": "retail", "building:levels": "1", "name": "PENNY", "opening_hours": "Mo-Sa 07:00-20:30; Su 07:00-18:00; PH off", "shop": "supermarket", "website": "https://www.penny.hu"}}, {"type": "way", "id": 332404635, "nodes": [3395271055, 3395271056, 3395271057, 3395271058, 3395271055], "tags": {"addr:city": "V\u00e1s\u00e1rosnam\u00e9ny", "addr:housenumber": "22", "addr:postcode": "4800", "addr:street": "Szabads\u00e1g t\u00e9r", "brand": "Real", "brand:wikidata": "Q698473", "brand:wikipedia": "en:Real (hypermarket)", "building": "retail", "name": "Alfi-Ker Bittner Real", "opening_hours": "06:00-18:00", "shop": "supermarket", "wheelchair": "yes"}}, {"type": "way", "id": 332406401, "nodes": [3395285463, 3395285464, 3395285465, 3395285466, 3395285463], "tags": {"addr:city": "V\u00e1s\u00e1rosnam\u00e9ny", "addr:housenumber": "17", "addr:postcode": "4800", "addr:street": "R\u00e1k\u00f3czi \u00fat", "building": "retail", "name": "Coop", "opening_hours": "06:00-18:00", "shop": "supermarket", "website": "http://coop.hu", "wheelchair": "yes"}}, {"type": "way", "id": 409119545, "nodes": [4110125599, 4110106339, 4110124919, 4110125254, 4110104856, 4110125599], "tags": {"building": "retail", "shop": "supermarket", "source": "survey;F\u00d6MI ortofot\u00f3 2005", "wheelchair": "yes"}}, {"type": "way", "id": 527735083, "nodes": [5130044834, 5130044826, 5130044835, 5130044836, 5130044837, 5130044838, 5130044839, 5130044840, 5130044841, 5130044842, 5130044843, 5130044844, 5130044845, 5130044834], "tags": {"addr:city": "Feh\u00e9rgyarmat", "brand": "Penny Market", "building": "retail", "shop": "supermarket"}}, {"type": "way", "id": 527931362, "nodes": [5131531243, 5131531244, 5131531245, 5131531246, 5131531247, 5131531243], "tags": {"addr:city": "Feh\u00e9rgyarmat", "addr:housenumber": "2", "addr:postcode": "4900", "addr:street": "M\u00f3ricz Zsigmond utca", "building": "retail", "name": "Nagy ABC \u00c1ruh\u00e1z", "operator": "Coop", "shop": "supermarket", "toilets:wheelchair": "no", "wheelchair": "yes"}}, {"type": "way", "id": 727979856, "nodes": [6821974229, 6821974230, 6821974231, 6821974232, 6821974229], "tags": {"building": "yes", "name": "Gera", "shop": "supermarket"}}]}