{"version": 0.6, "generator": "Overpass API 0.7.59 e21c39fe", "osm3s": {"timestamp_osm_base": "2023-01-21T09:46:07Z", "copyright": "The data included in this document is from www.openstreetmap.org. The data is made available under ODbL."}, "elements": [{"type": "node", "id": 343445301, "lat": 46.0716119, "lon": 18.2420681, "tags": {"amenity": "fuel", "name": "Club Petrol"}}, {"type": "node", "id": 360341812, "lat": 46.0649836, "lon": 18.1799018, "tags": {"amenity": "fuel", "email": "info@normbenz.hu", "name": "Orlen", "operator": "Normbenz Magyarorsz\u00e1g Kft.", "website": "https://orlen.hu/"}}, {"type": "node", "id": 1023053444, "lat": 45.7603085, "lon": 18.183352}, {"type": "node", "id": 1023053505, "lat": 45.7602826, "lon": 18.1834337}, {"type": "node", "id": 1023054610, "lat": 45.7601949, "lon": 18.1833768}, {"type": "node", "id": 1023056153, "lat": 45.7602208, "lon": 18.1832951}, {"type": "node", "id": 1119774028, "lat": 46.0731214, "lon": 18.2098743, "tags": {"addr:city": "P\u00e9cs", "addr:postcode": "7624", "addr:street": "Szigeti \u00fat", "air_conditioning": "yes", "amenity": "fuel", "brand": "MOL", "brand:wikidata": "Q549181", "brand:wikipedia": "hu:MOL Magyar Olaj- \u00e9s G\u00e1zipari Nyrt.", "compressed_air": "yes", "contact:facebook": "https://www.facebook.com/mol.magyarorszag/", "contact:instagram": "https://www.instagram.com/mol.magyarorszag/", "contact:website": "https://www.mol.hu", "contact:youtube": "https://www.youtube.com/user/molgrouptv", "food": "yes", "fuel:GTL_diesel": "yes", "fuel:adblue": "no", "fuel:diesel": "yes", "fuel:lpg": "no", "fuel:octane_100": "yes", "fuel:octane_95": "yes", "name": "MOL", "opening_hours": "06:00-21:00", "operator": "MOL Nyrt.", "operator:addr": "1117 Budapest, Domb\u00f3v\u00e1ri \u00fat 28.", "payment:cash": "yes", "payment:contactless": "yes", "payment:maestro": "yes", "payment:mastercard": "yes", "payment:mastercard_contactless": "yes", "payment:mastercard_electronic": "yes", "payment:visa": "yes", "payment:visa_electron": "yes", "ref:HU:company": "01-10-041683", "ref:HU:vatin": "10625790-4-44", "rent:lpg_bottles": "yes", "source": "website", "source:date": "2022-05-21", "truck": "no"}}, {"type": "node", "id": 1119775554, "lat": 46.0646643, "lon": 18.1608056, "tags": {"addr:city": "P\u00e9cs", "addr:postcode": "7634", "addr:street": "6. sz\u00e1m\u00fa f\u0151k\u00f6zleked\u00e9si \u00fat", "air_conditioning": "yes", "amenity": "fuel", "brand": "MOL", "brand:wikidata": "Q549181", "brand:wikipedia": "hu:MOL Magyar Olaj- \u00e9s G\u00e1zipari Nyrt.", "compressed_air": "yes", "contact:facebook": "https://www.facebook.com/mol.magyarorszag/", "contact:instagram": "https://www.instagram.com/mol.magyarorszag/", "contact:website": "https://www.mol.hu", "contact:youtube": "https://www.youtube.com/user/molgrouptv", "food": "yes", "fuel:GTL_diesel": "yes", "fuel:adblue": "no", "fuel:diesel": "yes", "fuel:lpg": "yes", "fuel:octane_100": "yes", "fuel:octane_95": "yes", "name": "MOL", "opening_hours": "06:00-21:00", "operator": "MOL Nyrt.", "operator:addr": "1117 Budapest, Domb\u00f3v\u00e1ri \u00fat 28.", "payment:cash": "yes", "payment:contactless": "yes", "payment:maestro": "yes", "payment:mastercard": "yes", "payment:mastercard_contactless": "yes", "payment:mastercard_electronic": "yes", "payment:visa": "yes", "payment:visa_electron": "yes", "ref:HU:company": "01-10-041683", "ref:HU:vatin": "10625790-4-44", "rent:lpg_bottles": "yes", "source": "website", "source:date": "2022-05-21", "truck": "no"}}, {"type": "node", "id": 1119815948, "lat": 46.0750287, "lon": 18.2416075, "tags": {"amenity": "fuel", "brand": "Shell", "name": "Shell", "operator": "Shell", "toilets:wheelchair": "yes", "website": "https://www.shell.hu/", "wheelchair": "yes"}}, {"type": "node", "id": 1119863882, "lat": 46.0796109, "lon": 18.2538144, "tags": {"amenity": "fuel", "brand": "Shell", "brand:wikidata": "Q154950", "brand:wikipedia": "en:Royal Dutch Shell", "name": "Shell", "operator": "Shell", "website": "https://www.shell.hu/", "wheelchair": "yes"}}, {"type": "node", "id": 1119864311, "lat": 46.0800128, "lon": 18.256282, "tags": {"addr:city": "P\u00e9cs", "addr:housenumber": "50", "addr:postcode": "7630", "addr:street": "Zsolnay Vilmos utca", "air_conditioning": "yes", "amenity": "fuel", "brand": "OMV", "brand:wikidata": "Q168238", "brand:wikipedia": "en:OMV", "compressed_air": "yes", "contact:email": "info.hungary@omv.com", "contact:facebook": "https://www.facebook.com/omvmagyarorszag", "contact:fax": "+36 1 381 9899", "contact:instagram": "https://www.instagram.com/omv/", "contact:linkedin": "https://www.linkedin.com/company/omv", "contact:phone": "+36 72 212 880", "contact:twitter": "omv", "contact:website": "https://www.omv.hu", "contact:youtube": "https://www.youtube.com/user/omvofficial", "fuel:GTL_diesel": "yes", "fuel:diesel": "yes", "fuel:octane_100": "yes", "fuel:octane_95": "yes", "name": "OMV", "opening_hours": "24/7", "opening_hours:covid19": "same", "operator": "OMV Hung\u00e1ria Kft.", "operator:addr": "1117 Budapest, Okt\u00f3ber huszonharmadika utca 6-10 5. emelet 5/A.", "payment:cash": "yes", "payment:contactless": "yes", "payment:maestro": "yes", "payment:mastercard": "yes", "payment:mastercard_contactless": "yes", "payment:mastercard_electronic": "yes", "payment:visa": "yes", "payment:visa_electron": "yes", "ref:HU:company": "01-09-071584", "ref:HU:vatin": "10542925-2-44", "ref:vatin": "HU10542925", "source": "website", "source:date": "2020-10-03"}}, {"type": "node", "id": 1761960993, "lat": 45.8722842, "lon": 18.4632102, "tags": {"addr:city": "Vill\u00e1ny", "addr:postcode": "7773", "addr:street": "Vir\u00e1gos utca", "air_conditioning": "yes", "amenity": "fuel", "brand": "MOL", "brand:wikidata": "Q549181", "brand:wikipedia": "hu:MOL Magyar Olaj- \u00e9s G\u00e1zipari Nyrt.", "compressed_air": "yes", "contact:facebook": "https://www.facebook.com/mol.magyarorszag/", "contact:instagram": "https://www.instagram.com/mol.magyarorszag/", "contact:website": "https://www.mol.hu", "contact:youtube": "https://www.youtube.com/user/molgrouptv", "food": "no", "fuel:GTL_diesel": "yes", "fuel:adblue": "no", "fuel:diesel": "yes", "fuel:lpg": "no", "fuel:octane_100": "yes", "fuel:octane_95": "yes", "fuel:octane_98": "yes", "name": "MOL", "opening_hours": "06:00-20:00", "operator": "MOL Nyrt.", "operator:addr": "1117 Budapest, Domb\u00f3v\u00e1ri \u00fat 28.", "payment:cash": "yes", "payment:contactless": "yes", "payment:maestro": "yes", "payment:mastercard": "yes", "payment:mastercard_contactless": "yes", "payment:mastercard_electronic": "yes", "payment:visa": "yes", "payment:visa_electron": "yes", "ref:HU:company": "01-10-041683", "ref:HU:vatin": "10625790-4-44", "rent:lpg_bottles": "yes", "shop": "yes", "source": "website", "source:date": "2022-05-21", "truck": "no"}}, {"type": "node", "id": 2140334902, "lat": 46.0559588, "lon": 18.2114772}, {"type": "node", "id": 2140334903, "lat": 46.0560069, "lon": 18.2116786}, {"type": "node", "id": 2140334906, "lat": 46.05611, "lon": 18.2114023}, {"type": "node", "id": 2140334907, "lat": 46.0561581, "lon": 18.2116036}, {"type": "node", "id": 2295419682, "lat": 45.9611647, "lon": 18.2327504}, {"type": "node", "id": 2295419683, "lat": 45.9610725, "lon": 18.2329227}, {"type": "node", "id": 2295419684, "lat": 45.9609052, "lon": 18.2329514}, {"type": "node", "id": 2295419685, "lat": 45.9609973, "lon": 18.2327813}, {"type": "node", "id": 2376252026, "lat": 46.1201956, "lon": 18.2616568, "tags": {"addr:city": "P\u00e9cs", "addr:postcode": "7628", "addr:street": "Koml\u00f3i \u00fat", "air_conditioning": "yes", "amenity": "fuel", "brand": "MOL", "brand:wikidata": "Q549181", "brand:wikipedia": "hu:MOL Magyar Olaj- \u00e9s G\u00e1zipari Nyrt.", "building": "yes", "compressed_air": "yes", "contact:facebook": "https://www.facebook.com/mol.magyarorszag/", "contact:instagram": "https://www.instagram.com/mol.magyarorszag/", "contact:website": "https://www.mol.hu", "contact:youtube": "https://www.youtube.com/user/molgrouptv", "food": "no", "fuel:GTL_diesel": "yes", "fuel:adblue": "no", "fuel:diesel": "yes", "fuel:lpg": "yes", "fuel:octane_100": "yes", "fuel:octane_95": "yes", "name": "MOL", "opening_hours": "06:00-20:00", "operator": "MOL Nyrt.", "operator:addr": "1117 Budapest, Domb\u00f3v\u00e1ri \u00fat 28.", "payment:cash": "yes", "payment:contactless": "yes", "payment:maestro": "yes", "payment:mastercard": "yes", "payment:mastercard_contactless": "yes", "payment:mastercard_electronic": "yes", "payment:visa": "yes", "payment:visa_electron": "yes", "ref:HU:company": "01-10-041683", "ref:HU:vatin": "10625790-4-44", "rent:lpg_bottles": "yes", "source": "website", "source:date": "2022-05-21", "truck": "yes"}}, {"type": "node", "id": 2376254232, "lat": 46.0843784, "lon": 18.2685477, "tags": {"amenity": "fuel", "brand": "Shell", "building": "yes", "name": "Shell", "operator": "Shell", "website": "https://www.shell.hu/"}}, {"type": "node", "id": 3165062834, "lat": 46.0418601, "lon": 18.2140706}, {"type": "node", "id": 3165062835, "lat": 46.0417047, "lon": 18.2141198}, {"type": "node", "id": 3165062836, "lat": 46.041675, "lon": 18.2139249}, {"type": "node", "id": 3165062837, "lat": 46.0417154, "lon": 18.2139121}, {"type": "node", "id": 3165062838, "lat": 46.0416975, "lon": 18.2137951}, {"type": "node", "id": 3165062839, "lat": 46.0417779, "lon": 18.2137696}, {"type": "node", "id": 3165062840, "lat": 46.0417965, "lon": 18.2138915}, {"type": "node", "id": 3165062841, "lat": 46.0418311, "lon": 18.2138805}, {"type": "node", "id": 3212009443, "lat": 46.0600813, "lon": 18.2308054}, {"type": "node", "id": 3212009444, "lat": 46.0598699, "lon": 18.2308302}, {"type": "node", "id": 3212009445, "lat": 46.0598778, "lon": 18.2309696}, {"type": "node", "id": 3212009446, "lat": 46.0599472, "lon": 18.2309615}, {"type": "node", "id": 3212009447, "lat": 46.0599596, "lon": 18.2311815}, {"type": "node", "id": 3212009448, "lat": 46.0600712, "lon": 18.2311684}, {"type": "node", "id": 3212009449, "lat": 46.0600634, "lon": 18.2310307}, {"type": "node", "id": 3212009450, "lat": 46.0600399, "lon": 18.2310334}, {"type": "node", "id": 3212009451, "lat": 46.0600352, "lon": 18.2309499}, {"type": "node", "id": 3212009452, "lat": 46.0600891, "lon": 18.2309436}, {"type": "node", "id": 3311859121, "lat": 46.0683099, "lon": 18.1996341}, {"type": "node", "id": 3311859122, "lat": 46.0681847, "lon": 18.1997118}, {"type": "node", "id": 3311859123, "lat": 46.0682392, "lon": 18.1998942}, {"type": "node", "id": 3311859124, "lat": 46.0683643, "lon": 18.1998166}, {"type": "node", "id": 3311859126, "lat": 46.0683174, "lon": 18.1996596}, {"type": "node", "id": 3313893206, "lat": 45.7679292, "lon": 18.5862646}, {"type": "node", "id": 3313893207, "lat": 45.7679342, "lon": 18.5863491}, {"type": "node", "id": 3313893209, "lat": 45.7679717, "lon": 18.5862594}, {"type": "node", "id": 3313893210, "lat": 45.7679768, "lon": 18.5863439}, {"type": "node", "id": 3317377316, "lat": 45.7597938, "lon": 18.1832315}, {"type": "node", "id": 3317377317, "lat": 45.7598155, "lon": 18.1831688}, {"type": "node", "id": 3317377318, "lat": 45.7598622, "lon": 18.1832803}, {"type": "node", "id": 3317377319, "lat": 45.759884, "lon": 18.1832176}, {"type": "node", "id": 3423782514, "lat": 46.044865, "lon": 18.2326625}, {"type": "node", "id": 3423782515, "lat": 46.0447569, "lon": 18.2327939}, {"type": "node", "id": 3423782516, "lat": 46.044679, "lon": 18.2326608}, {"type": "node", "id": 3423782517, "lat": 46.0447871, "lon": 18.2325294}, {"type": "node", "id": 3440812596, "lat": 45.976864, "lon": 18.141797, "tags": {"amenity": "fuel", "name": "G2 benzink\u00fat", "source": "turistautak.hu", "source:date": "2010-07-05", "url": "http://turistautak.hu/poi.php?id=96607"}}, {"type": "node", "id": 3440859611, "lat": 46.061114, "lon": 18.281821, "tags": {"amenity": "fuel", "description": "A volt \u00e1llami gazdas\u00e1gi g\u00e9p\u00e1llom\u00e1son k\u00e9t k\u00fatfej.", "source": "turistautak.hu", "source:date": "2015-01-12", "url": "http://turistautak.hu/poi.php?id=118095"}}, {"type": "node", "id": 3442815964, "lat": 46.0645243, "lon": 18.2377207, "tags": {"amenity": "fuel", "fuel:diesel": "yes", "fuel:e85": "yes", "fuel:octane_95": "yes", "name": "Diesel k\u00fat", "opening_hours": "Mo-Fr 06:00-18:00"}}, {"type": "node", "id": 3445424947, "lat": 45.943472, "lon": 18.362057, "tags": {"amenity": "fuel", "name": "Ujpetrol", "source": "turistautak.hu", "source:date": "2011-09-08", "url": "http://turistautak.hu/poi.php?id=29254"}}, {"type": "node", "id": 3464278650, "lat": 46.10813, "lon": 18.519041, "tags": {"amenity": "fuel", "name": "Mobil Petrol benzink\u00fat", "source": "turistautak.hu", "source:date": "2013-11-24", "url": "http://turistautak.hu/poi.php?id=121306"}}, {"type": "node", "id": 3772943561, "lat": 46.054495, "lon": 18.2768407}, {"type": "node", "id": 3772943562, "lat": 46.0542919, "lon": 18.2767447}, {"type": "node", "id": 3772943563, "lat": 46.0543351, "lon": 18.2766136}, {"type": "node", "id": 3772943564, "lat": 46.0545264, "lon": 18.2767213}, {"type": "node", "id": 3901691332, "lat": 46.0538549, "lon": 18.2307714}, {"type": "node", "id": 3901691334, "lat": 46.0538807, "lon": 18.2305749}, {"type": "node", "id": 3901691337, "lat": 46.0539456, "lon": 18.2307961}, {"type": "node", "id": 3901691338, "lat": 46.0539714, "lon": 18.2305996}, {"type": "node", "id": 4268082092, "lat": 45.9691492, "lon": 18.5161556, "tags": {"amenity": "fuel"}}, {"type": "node", "id": 4423998711, "lat": 45.9759399, "lon": 18.500258}, {"type": "node", "id": 4423998712, "lat": 45.9759597, "lon": 18.5002467}, {"type": "node", "id": 4423998713, "lat": 45.9759425, "lon": 18.5002404}, {"type": "node", "id": 4423998714, "lat": 45.9759074, "lon": 18.5003875}, {"type": "node", "id": 4423998715, "lat": 45.9760897, "lon": 18.5003052}, {"type": "node", "id": 4423998716, "lat": 45.9760457, "lon": 18.5004687}, {"type": "node", "id": 4939176953, "lat": 45.9612805, "lon": 18.2326863, "tags": {"amenity": "fuel", "fixme": "verify", "name": "Hermann \u00e9s T\u00e1rsa Kft.", "source": "route4u"}}, {"type": "node", "id": 5547629855, "lat": 46.0543374, "lon": 18.2767729}, {"type": "node", "id": 5547629856, "lat": 46.0542792, "lon": 18.2769894}, {"type": "node", "id": 5547629857, "lat": 46.0543755, "lon": 18.2770306}, {"type": "node", "id": 5547629858, "lat": 46.0544381, "lon": 18.2768106}, {"type": "node", "id": 6433048570, "lat": 45.9942128, "lon": 18.4177152}, {"type": "node", "id": 6433048571, "lat": 45.9940793, "lon": 18.4177677}, {"type": "node", "id": 6433048572, "lat": 45.9940959, "lon": 18.4178547}, {"type": "node", "id": 6433048573, "lat": 45.9942293, "lon": 18.4178022}, {"type": "node", "id": 6476693121, "lat": 45.8568245, "lon": 18.2931376}, {"type": "node", "id": 6476693123, "lat": 45.8567447, "lon": 18.292819}, {"type": "node", "id": 6476693263, "lat": 45.858026, "lon": 18.2785052}, {"type": "node", "id": 6476693264, "lat": 45.8580224, "lon": 18.2785986}, {"type": "node", "id": 6476693265, "lat": 45.8579254, "lon": 18.2785911}, {"type": "node", "id": 6476693266, "lat": 45.857929, "lon": 18.2784976}, {"type": "node", "id": 6535517164, "lat": 45.8599259, "lon": 18.2331963}, {"type": "node", "id": 6535517165, "lat": 45.8597918, "lon": 18.2331959}, {"type": "node", "id": 6535517166, "lat": 45.8597915, "lon": 18.2334287}, {"type": "node", "id": 6535517167, "lat": 45.8599256, "lon": 18.2334291}, {"type": "node", "id": 6952088886, "lat": 46.0889647, "lon": 18.2795383, "tags": {"addr:city": "P\u00e9cs", "addr:housenumber": "12", "addr:postcode": "7630", "addr:street": "P\u00e9csv\u00e1radi \u00fat", "air_conditioning": "yes", "amenity": "fuel", "brand": "MOL", "brand:wikidata": "Q549181", "brand:wikipedia": "hu:MOL Magyar Olaj- \u00e9s G\u00e1zipari Nyrt.", "compressed_air": "yes", "contact:facebook": "https://www.facebook.com/mol.magyarorszag/", "contact:instagram": "https://www.instagram.com/mol.magyarorszag/", "contact:website": "https://www.mol.hu", "contact:youtube": "https://www.youtube.com/user/molgrouptv", "food": "yes", "fuel:GTL_diesel": "yes", "fuel:adblue": "no", "fuel:diesel": "yes", "fuel:lpg": "yes", "fuel:octane_100": "yes", "fuel:octane_95": "yes", "name": "MOL", "opening_hours": "06:00-20:00", "operator": "MOL Nyrt.", "operator:addr": "1117 Budapest, Domb\u00f3v\u00e1ri \u00fat 28.", "payment:cash": "yes", "payment:contactless": "yes", "payment:maestro": "yes", "payment:mastercard": "yes", "payment:mastercard_contactless": "yes", "payment:mastercard_electronic": "yes", "payment:visa": "yes", "payment:visa_electron": "yes", "ref:HU:company": "01-10-041683", "ref:HU:vatin": "10625790-4-44", "rent:lpg_bottles": "yes", "source": "website", "source:date": "2022-05-21", "truck": "no"}}, {"type": "node", "id": 6952088887, "lat": 46.0666467, "lon": 18.2312589, "tags": {"addr:city": "P\u00e9cs", "addr:housenumber": "2", "addr:postcode": "7622", "addr:street": "Sikl\u00f3si \u00fat", "air_conditioning": "yes", "amenity": "fuel", "brand": "MOL", "brand:wikidata": "Q549181", "brand:wikipedia": "hu:MOL Magyar Olaj- \u00e9s G\u00e1zipari Nyrt.", "compressed_air": "yes", "contact:facebook": "https://www.facebook.com/mol.magyarorszag/", "contact:instagram": "https://www.instagram.com/mol.magyarorszag/", "contact:website": "https://www.mol.hu", "contact:youtube": "https://www.youtube.com/user/molgrouptv", "food": "no", "fuel:GTL_diesel": "yes", "fuel:adblue": "no", "fuel:diesel": "yes", "fuel:lpg": "yes", "fuel:octane_100": "yes", "fuel:octane_95": "yes", "name": "MOL", "opening_hours": "06:00-22:00", "operator": "MOL Nyrt.", "operator:addr": "1117 Budapest, Domb\u00f3v\u00e1ri \u00fat 28.", "payment:cash": "yes", "payment:contactless": "yes", "payment:maestro": "yes", "payment:mastercard": "yes", "payment:mastercard_contactless": "yes", "payment:mastercard_electronic": "yes", "payment:visa": "yes", "payment:visa_electron": "yes", "ref:HU:company": "01-10-041683", "ref:HU:vatin": "10625790-4-44", "rent:lpg_bottles": "no", "source": "website", "source:date": "2022-05-21", "truck": "no"}}, {"type": "node", "id": 10032187674, "lat": 45.8567224, "lon": 18.2930851}, {"type": "node", "id": 10230847680, "lat": 45.8567049, "lon": 18.2929791}, {"type": "node", "id": 10230847681, "lat": 45.8567438, "lon": 18.2929991}, {"type": "node", "id": 10230847682, "lat": 45.8568858, "lon": 18.2928914}, {"type": "way", "id": 88013961, "nodes": [1023053444, 1023053505, 1023054610, 1023056153, 1023053444], "tags": {"addr:city": "Donji Miholjac", "addr:country": "HR", "addr:housenumber": "97a", "addr:postcode": "31540", "addr:street": "Vukovarska ulica", "amenity": "fuel", "brand": "INA", "building": "yes", "fuel:diesel": "yes", "fuel:octane_95": "yes", "name": "INA Donji Miholjac-sjever", "opening_hours": "Mo-Sa 07:00-19:00", "operator": "INA", "phone": "+385 91 4971 088", "shop": "yes"}}, {"type": "way", "id": 204023239, "nodes": [2140334906, 2140334907, 2140334903, 2140334902, 2140334906], "tags": {"addr:city": "P\u00e9cs", "addr:housenumber": "65", "addr:postcode": "7623", "addr:street": "Megyeri \u00fat", "amenity": "fuel", "building": "yes", "internet_access": "wlan", "name": "Orlen", "opening_hours": "24/7", "operator": "Normbenz Magyarorsz\u00e1g Kft.", "website": "https://orlen.hu/"}}, {"type": "way", "id": 220418011, "nodes": [2295419682, 2295419683, 2295419684, 2295419685, 2295419682], "tags": {"addr:city": "Szal\u00e1nta", "addr:postcode": "7811", "addr:street": "58. sz\u00e1m\u00fa f\u0151k\u00f6zleked\u00e9si \u00fat", "air_conditioning": "yes", "amenity": "fuel", "brand": "MOL", "brand:wikidata": "Q549181", "brand:wikipedia": "hu:MOL Magyar Olaj- \u00e9s G\u00e1zipari Nyrt.", "building": "roof", "compressed_air": "yes", "contact:facebook": "https://www.facebook.com/mol.magyarorszag/", "contact:instagram": "https://www.instagram.com/mol.magyarorszag/", "contact:website": "https://www.mol.hu", "contact:youtube": "https://www.youtube.com/user/molgrouptv", "food": "no", "fuel:GTL_diesel": "yes", "fuel:adblue": "no", "fuel:diesel": "yes", "fuel:lpg": "yes", "fuel:octane_100": "yes", "fuel:octane_95": "yes", "layer": "1", "name": "MOL", "operator": "MOL Nyrt.", "operator:addr": "1117 Budapest, Domb\u00f3v\u00e1ri \u00fat 28.", "payment:cash": "yes", "payment:contactless": "yes", "payment:maestro": "yes", "payment:mastercard": "yes", "payment:mastercard_contactless": "yes", "payment:mastercard_electronic": "yes", "payment:visa": "yes", "payment:visa_electron": "yes", "ref:HU:company": "01-10-041683", "ref:HU:vatin": "10625790-4-44", "rent:lpg_bottles": "yes", "source": "website", "source:date": "2022-05-21", "truck": "no"}}, {"type": "way", "id": 310991896, "nodes": [3165062834, 3165062835, 3165062836, 3165062837, 3165062838, 3165062839, 3165062840, 3165062841, 3165062834], "tags": {"addr:city": "P\u00e9cs", "addr:postcode": "7632", "addr:street": "Nyugati Ipari \u00fat", "air_conditioning": "yes", "amenity": "fuel", "brand": "MOL", "brand:wikidata": "Q549181", "brand:wikipedia": "hu:MOL Magyar Olaj- \u00e9s G\u00e1zipari Nyrt.", "building": "yes", "compressed_air": "yes", "contact:facebook": "https://www.facebook.com/mol.magyarorszag/", "contact:instagram": "https://www.instagram.com/mol.magyarorszag/", "contact:website": "https://www.mol.hu", "contact:youtube": "https://www.youtube.com/user/molgrouptv", "food": "yes", "fuel:GTL_diesel": "yes", "fuel:adblue": "no", "fuel:diesel": "yes", "fuel:lpg": "no", "fuel:octane_100": "yes", "fuel:octane_95": "yes", "name": "MOL", "operator": "MOL Nyrt.", "operator:addr": "1117 Budapest, Domb\u00f3v\u00e1ri \u00fat 28.", "payment:cash": "yes", "payment:contactless": "yes", "payment:maestro": "yes", "payment:mastercard": "yes", "payment:mastercard_contactless": "yes", "payment:mastercard_electronic": "yes", "payment:visa": "yes", "payment:visa_electron": "yes", "ref:HU:company": "01-10-041683", "ref:HU:vatin": "10625790-4-44", "rent:lpg_bottles": "yes", "source": "website", "source:date": "2022-05-21", "truck": "no"}}, {"type": "way", "id": 315106004, "nodes": [3212009443, 3212009444, 3212009445, 3212009446, 3212009447, 3212009448, 3212009449, 3212009450, 3212009451, 3212009452, 3212009443], "tags": {"addr:city": "P\u00e9cs", "addr:housenumber": "9", "addr:postcode": "7632", "addr:street": "Sikl\u00f3si \u00fat", "air_conditioning": "yes", "amenity": "fuel", "brand": "MOL", "brand:wikidata": "Q549181", "brand:wikipedia": "hu:MOL Magyar Olaj- \u00e9s G\u00e1zipari Nyrt.", "building": "yes", "compressed_air": "yes", "contact:facebook": "https://www.facebook.com/mol.magyarorszag/", "contact:instagram": "https://www.instagram.com/mol.magyarorszag/", "contact:website": "https://www.mol.hu", "contact:youtube": "https://www.youtube.com/user/molgrouptv", "food": "yes", "fuel:GTL_diesel": "yes", "fuel:adblue": "no", "fuel:diesel": "yes", "fuel:lpg": "no", "fuel:octane_100": "yes", "fuel:octane_95": "yes", "name": "MOL", "opening_hours": "Mo-Su 00:00-24:00", "operator": "MOL Nyrt.", "operator:addr": "1117 Budapest, Domb\u00f3v\u00e1ri \u00fat 28.", "payment:cash": "yes", "payment:contactless": "yes", "payment:maestro": "yes", "payment:mastercard": "yes", "payment:mastercard_contactless": "yes", "payment:mastercard_electronic": "yes", "payment:visa": "yes", "payment:visa_electron": "yes", "ref:HU:company": "01-10-041683", "ref:HU:vatin": "10625790-4-44", "rent:lpg_bottles": "yes", "source": "website", "source:date": "2022-05-21", "truck": "no"}}, {"type": "way", "id": 324471813, "nodes": [3311859121, 3311859122, 3311859123, 3311859124, 3311859126, 3311859121], "tags": {"addr:city": "P\u00e9cs", "addr:postcode": "7633", "addr:street": "Endresz Gy\u00f6rgy utca", "air_conditioning": "yes", "amenity": "fuel", "brand": "MOL", "brand:wikidata": "Q549181", "brand:wikipedia": "hu:MOL Magyar Olaj- \u00e9s G\u00e1zipari Nyrt.", "building": "roof", "compressed_air": "yes", "contact:facebook": "https://www.facebook.com/mol.magyarorszag/", "contact:instagram": "https://www.instagram.com/mol.magyarorszag/", "contact:website": "https://www.mol.hu", "contact:youtube": "https://www.youtube.com/user/molgrouptv", "food": "yes", "fuel:GTL_diesel": "yes", "fuel:adblue": "no", "fuel:diesel": "yes", "fuel:lpg": "no", "fuel:octane_100": "yes", "fuel:octane_95": "yes", "layer": "1", "name": "MOL", "opening_hours": "24/7", "operator": "MOL Nyrt.", "operator:addr": "1117 Budapest, Domb\u00f3v\u00e1ri \u00fat 28.", "payment:cash": "yes", "payment:contactless": "yes", "payment:maestro": "yes", "payment:mastercard": "yes", "payment:mastercard_contactless": "yes", "payment:mastercard_electronic": "yes", "payment:visa": "yes", "payment:visa_electron": "yes", "ref:HU:company": "01-10-041683", "ref:HU:vatin": "10625790-4-44", "rent:lpg_bottles": "yes", "source": "website", "source:date": "2022-05-21", "truck": "no"}}, {"type": "way", "id": 324702838, "nodes": [3313893209, 3313893210, 3313893207, 3313893206, 3313893209], "tags": {"addr:city": "Beli Manastir", "addr:country": "HR", "addr:housenumber": "26", "addr:postcode": "31300", "addr:street": "Ulica Bartoka Bele", "amenity": "fuel", "brand": "INA", "building": "yes", "contact:phone": "+385 91 4971 082", "fuel:HGV_diesel": "yes", "fuel:diesel": "yes", "fuel:octane_95": "yes", "name": "INA Beli Manastir-Bele Bartoka", "opening_hours": "Mo-Sa 07:00-19:00", "operator": "INA", "shop": "yes"}}, {"type": "way", "id": 325062940, "nodes": [3317377317, 3317377319, 3317377318, 3317377316, 3317377317], "tags": {"addr:city": "Donji Miholjac", "addr:country": "HR", "addr:housenumber": "138", "addr:postcode": "31540", "addr:street": "Vukovarska ulica", "amenity": "fuel", "brand": "INA", "building": "yes", "fuel:diesel": "yes", "fuel:octane_95": "yes", "name": "INA Donji Miholjac-jug", "opening_hours": "24/7", "operator": "INA", "phone": "+385 91 4971 087", "shop": "yes"}}, {"type": "way", "id": 335264149, "nodes": [3423782514, 3423782515, 3423782516, 3423782517, 3423782514], "tags": {"addr:city": "P\u00e9cs", "addr:housenumber": "45", "addr:postcode": "7632", "addr:street": "Sikl\u00f3si \u00fat", "air_conditioning": "yes", "amenity": "fuel", "brand": "OMV", "brand:wikidata": "Q168238", "brand:wikipedia": "en:OMV", "building": "yes", "compressed_air": "yes", "contact:email": "info.hungary@omv.com", "contact:facebook": "https://www.facebook.com/omvmagyarorszag", "contact:fax": "+36 1 381 9899", "contact:instagram": "https://www.instagram.com/omv/", "contact:linkedin": "https://www.linkedin.com/company/omv", "contact:phone": "+36 72 440 459", "contact:twitter": "omv", "contact:website": "https://www.omv.hu", "contact:youtube": "https://www.youtube.com/user/omvofficial", "fuel:GTL_diesel": "yes", "fuel:diesel": "yes", "fuel:octane_100": "yes", "fuel:octane_95": "yes", "name": "OMV", "opening_hours": "24/7", "operator": "OMV Hung\u00e1ria Kft.", "operator:addr": "1117 Budapest, Okt\u00f3ber huszonharmadika utca 6-10 5. emelet 5/A.", "payment:cash": "yes", "payment:contactless": "yes", "payment:maestro": "yes", "payment:mastercard": "yes", "payment:mastercard_contactless": "yes", "payment:mastercard_electronic": "yes", "payment:visa": "yes", "payment:visa_electron": "yes", "ref:HU:company": "01-09-071584", "ref:HU:vatin": "10542925-2-44", "ref:vatin": "HU10542925", "source:www.omv.hu:date": "2020-10-03"}}, {"type": "way", "id": 373864385, "nodes": [3772943563, 3772943562, 5547629855, 5547629856, 5547629857, 5547629858, 3772943561, 3772943564, 3772943563], "tags": {"amenity": "fuel", "building": "yes"}}, {"type": "way", "id": 386818927, "nodes": [3901691334, 3901691332, 3901691337, 3901691338, 3901691334], "tags": {"amenity": "fuel", "brand": "Shell", "building": "industrial"}}, {"type": "way", "id": 444942335, "nodes": [4423998715, 4423998716, 4423998714, 4423998711, 4423998713, 4423998712, 4423998715], "tags": {"addr:city": "B\u00f3ly", "addr:conscriptionnumber": "0184/158", "addr:postcode": "7754", "air_conditioning": "yes", "amenity": "fuel", "brand": "MOL", "brand:wikidata": "Q549181", "brand:wikipedia": "hu:MOL Magyar Olaj- \u00e9s G\u00e1zipari Nyrt.", "building": "yes", "compressed_air": "yes", "contact:facebook": "https://www.facebook.com/mol.magyarorszag/", "contact:instagram": "https://www.instagram.com/mol.magyarorszag/", "contact:website": "https://www.mol.hu", "contact:youtube": "https://www.youtube.com/user/molgrouptv", "food": "no", "fuel:GTL_diesel": "yes", "fuel:adblue": "no", "fuel:diesel": "yes", "fuel:lpg": "no", "fuel:octane_100": "yes", "fuel:octane_95": "yes", "name": "MOL", "opening_hours": "Mo-Su 06:00-20:00", "operator": "MOL Nyrt.", "operator:addr": "1117 Budapest, Domb\u00f3v\u00e1ri \u00fat 28.", "payment:cash": "yes", "payment:contactless": "yes", "payment:maestro": "yes", "payment:mastercard": "yes", "payment:mastercard_contactless": "yes", "payment:mastercard_electronic": "yes", "payment:visa": "yes", "payment:visa_electron": "yes", "ref:HU:company": "01-10-041683", "ref:HU:vatin": "10625790-4-44", "rent:lpg_bottles": "no", "source": "website", "source:date": "2022-05-21", "truck": "no"}}, {"type": "way", "id": 686337642, "nodes": [6433048570, 6433048571, 6433048572, 6433048573, 6433048570], "tags": {"addr:city": "Belv\u00e1rdgyula", "addr:conscriptionnumber": "322", "addr:postcode": "7747", "addr:street": "Ady Endre utca", "amenity": "fuel", "branch": "Branau Kft Belv\u00e1rdi K\u00fat", "brand": "MOL", "building": "retail", "name": "MOL", "opening_hours": "Mo-Su 06:00-20:00", "operator": "MOL"}}, {"type": "way", "id": 690338782, "nodes": [6476693121, 10032187674, 10230847681, 10230847680, 6476693123, 10230847682, 6476693121], "tags": {"addr:city": "Sikl\u00f3s", "addr:housenumber": "1", "addr:postcode": "7800", "addr:street": "Felszabadul\u00e1s utca", "air_conditioning": "yes", "amenity": "fuel", "brand": "MOL", "brand:wikidata": "Q549181", "brand:wikipedia": "hu:MOL Magyar Olaj- \u00e9s G\u00e1zipari Nyrt.", "building": "retail", "compressed_air": "yes", "contact:facebook": "https://www.facebook.com/mol.magyarorszag/", "contact:instagram": "https://www.instagram.com/mol.magyarorszag/", "contact:website": "https://www.mol.hu", "contact:youtube": "https://www.youtube.com/user/molgrouptv", "food": "yes", "fuel:GTL_diesel": "yes", "fuel:adblue": "no", "fuel:diesel": "yes", "fuel:lpg": "no", "fuel:octane_100": "yes", "fuel:octane_95": "yes", "fuel:octane_98": "yes", "name": "MOL", "operator": "MOL Nyrt.", "operator:addr": "1117 Budapest, Domb\u00f3v\u00e1ri \u00fat 28.", "payment:cash": "yes", "payment:contactless": "yes", "payment:maestro": "yes", "payment:mastercard": "yes", "payment:mastercard_contactless": "yes", "payment:mastercard_electronic": "yes", "payment:visa": "yes", "payment:visa_electron": "yes", "ref:HU:company": "01-10-041683", "ref:HU:vatin": "10625790-4-44", "rent:lpg_bottles": "yes", "source": "website", "source:date": "2022-05-21", "truck": "no"}}, {"type": "way", "id": 690338800, "nodes": [6476693263, 6476693264, 6476693265, 6476693266, 6476693263], "tags": {"addr:city": "Sikl\u00f3s", "addr:housenumber": "55", "addr:postcode": "7800", "addr:street": "Hark\u00e1nyi \u00fat", "amenity": "fuel", "brand": "Avia", "brand:wikidata": "Q300147", "building": "retail", "compressed_air": "no", "contact:email": "avia@avia.hu", "contact:facebook": "https://www.facebook.com/AVIAHungary", "contact:phone": "+36 72 579 008", "contact:website": "https://www.avia.hu/toltoallomas/?id=106", "contact:youtube": "https://www.youtube.com/channel/UCjvjkjf2RgmKBuTnKSXk-Rg", "food": "no", "fuel:diesel": "yes", "fuel:e85": "no", "fuel:lpg": "no", "fuel:octane_95": "yes", "fuel:octane_98": "no", "name": "Avia", "operator": "AVIA Hung\u00e1ria Kft.", "payment:cash": "yes", "payment:contactless": "yes", "payment:maestro": "yes", "payment:mastercard": "yes", "payment:mastercard_contactless": "yes", "payment:mastercard_electronic": "yes", "payment:visa": "yes", "payment:visa_electron": "yes", "rent:lpg_bottles": "no", "restaurant": "no", "source:www.avia.hu:date": "2021-12-17", "truck": "no"}}, {"type": "way", "id": 695992730, "nodes": [6535517164, 6535517165, 6535517166, 6535517167, 6535517164], "tags": {"addr:city": "Hark\u00e1ny", "addr:housenumber": "105", "addr:postcode": "7815", "addr:street": "Kossuth Lajos utca", "air_conditioning": "yes", "amenity": "fuel", "brand": "MOL", "brand:wikidata": "Q549181", "brand:wikipedia": "hu:MOL Magyar Olaj- \u00e9s G\u00e1zipari Nyrt.", "building": "retail", "compressed_air": "yes", "contact:facebook": "https://www.facebook.com/mol.magyarorszag/", "contact:instagram": "https://www.instagram.com/mol.magyarorszag/", "contact:website": "https://www.mol.hu", "contact:youtube": "https://www.youtube.com/user/molgrouptv", "food": "no", "fuel:GTL_diesel": "yes", "fuel:adblue": "no", "fuel:diesel": "yes", "fuel:lpg": "no", "fuel:octane_100": "yes", "fuel:octane_95": "yes", "name": "MOL", "opening_hours": "Mo-Sa 06:00-22:00", "operator": "MOL Nyrt.", "operator:addr": "1117 Budapest, Domb\u00f3v\u00e1ri \u00fat 28.", "payment:cash": "yes", "payment:contactless": "yes", "payment:maestro": "yes", "payment:mastercard": "yes", "payment:mastercard_contactless": "yes", "payment:mastercard_electronic": "yes", "payment:visa": "yes", "payment:visa_electron": "yes", "ref:HU:company": "01-10-041683", "ref:HU:vatin": "10625790-4-44", "rent:lpg_bottles": "yes", "self_service": "yes", "shop": "yes", "source": "website", "source:date": "2022-05-21", "truck": "no", "wheelchair": "yes"}}]}