{"version": 0.6, "generator": "Overpass API 0.7.59 e21c39fe", "osm3s": {"timestamp_osm_base": "2023-01-17T15:17:22Z", "copyright": "The data included in this document is from www.openstreetmap.org. The data is made available under ODbL."}, "elements": [{"type": "node", "id": 282692127, "lat": 46.4236657, "lon": 17.9078422, "tags": {"amenity": "pub", "created_by": "Potlatch 0.10b", "name": "K\u00e9ri"}}, {"type": "node", "id": 290202975, "lat": 46.3056522, "lon": 17.7835884, "tags": {"addr:city": "Kaposv\u00e1r", "addr:country": "HU", "addr:housenumber": "68/c", "addr:postcode": "7400", "addr:street": "Fenyves utca", "addr:suburb": "T\u00f6r\u00f6cske", "amenity": "pub", "name": "Hangol\u00f3"}}, {"type": "node", "id": 514137993, "lat": 46.3189309, "lon": 17.8955956, "tags": {"amenity": "pub", "note": "Old user replaced."}}, {"type": "node", "id": 893901509, "lat": 46.5065103, "lon": 17.8193091, "tags": {"amenity": "pub"}}, {"type": "node", "id": 1366729171, "lat": 46.1507623, "lon": 17.3924409, "tags": {"amenity": "pub", "name": "Kocsma"}}, {"type": "node", "id": 1805130846, "lat": 46.2033879, "lon": 17.4516958, "tags": {"amenity": "pub"}}, {"type": "node", "id": 1805154739, "lat": 46.2064125, "lon": 17.4538188, "tags": {"amenity": "pub"}}, {"type": "node", "id": 1805179321, "lat": 46.3257512, "lon": 17.4528183, "tags": {"amenity": "pub", "name": "Palma"}}, {"type": "node", "id": 1805237390, "lat": 46.4095449, "lon": 17.3855272, "tags": {"amenity": "pub", "name": "Aut\u00f3s Pressz\u00f3"}}, {"type": "node", "id": 1828531323, "lat": 46.3559626, "lon": 17.7946141, "tags": {"amenity": "pub", "name": "MoziVil\u00e1g"}}, {"type": "node", "id": 2384509111, "lat": 46.3912582, "lon": 17.8278039, "tags": {"amenity": "pub", "name": "Musk\u00e1tli S\u00f6r\u00f6z\u0151"}}, {"type": "node", "id": 2505362830, "lat": 46.3551131, "lon": 17.7884086, "tags": {"addr:city": "Kaposv\u00e1r", "addr:housenumber": "8", "addr:postcode": "7400", "addr:street": "Noszlopy G\u00e1sp\u00e1r utca", "amenity": "pub"}}, {"type": "node", "id": 2505362831, "lat": 46.3550437, "lon": 17.7884153, "tags": {"addr:city": "Kaposv\u00e1r", "addr:housenumber": "10", "addr:postcode": "7400", "addr:street": "Noszlopy G\u00e1sp\u00e1r utca", "amenity": "pub", "name": "Popeye Stella"}}, {"type": "node", "id": 2971678813, "lat": 46.4953174, "lon": 17.4227199}, {"type": "node", "id": 2971678814, "lat": 46.4953203, "lon": 17.422813}, {"type": "node", "id": 2971678815, "lat": 46.4953281, "lon": 17.4228648}, {"type": "node", "id": 2971678816, "lat": 46.4953309, "lon": 17.4228097}, {"type": "node", "id": 2971678817, "lat": 46.4953413, "lon": 17.4228607}, {"type": "node", "id": 2971678818, "lat": 46.4953462, "lon": 17.4228935}, {"type": "node", "id": 2971678819, "lat": 46.4953681, "lon": 17.4227038}, {"type": "node", "id": 2971678820, "lat": 46.4953944, "lon": 17.4228782}, {"type": "node", "id": 2972045058, "lat": 46.5062451, "lon": 17.4323357}, {"type": "node", "id": 2972045059, "lat": 46.5062542, "lon": 17.4324402}, {"type": "node", "id": 2972045060, "lat": 46.5062628, "lon": 17.4322431}, {"type": "node", "id": 2972045061, "lat": 46.5062704, "lon": 17.432331}, {"type": "node", "id": 2972045062, "lat": 46.5063222, "lon": 17.4322321}, {"type": "node", "id": 2972045063, "lat": 46.506339, "lon": 17.4324246}, {"type": "node", "id": 3400230824, "lat": 46.348272, "lon": 17.769355, "tags": {"amenity": "pub", "name": "Erdei Music Pub", "source": "turistautak.hu", "url": "http://turistautak.hu/poi.php?id=25806"}}, {"type": "node", "id": 3400230836, "lat": 46.323522, "lon": 17.758253, "tags": {"amenity": "pub", "source": "turistautak.hu", "url": "http://turistautak.hu/poi.php?id=112323"}}, {"type": "node", "id": 3400230837, "lat": 46.346499, "lon": 17.796163, "tags": {"amenity": "pub", "source": "turistautak.hu", "url": "http://turistautak.hu/poi.php?id=70390"}}, {"type": "node", "id": 3400230838, "lat": 46.3544561, "lon": 17.7910855, "tags": {"amenity": "pub", "source": "turistautak.hu", "url": "http://turistautak.hu/poi.php?id=69944"}}, {"type": "node", "id": 3400230853, "lat": 46.3526903, "lon": 17.7920831, "tags": {"amenity": "pub", "name": "Tenkes Boroz\u00f3", "source": "turistautak.hu", "url": "http://turistautak.hu/poi.php?id=168966"}}, {"type": "node", "id": 3400710347, "lat": 46.27092, "lon": 17.722769, "tags": {"amenity": "pub", "name": "Bal\u00e1zs s\u00f6r\u00f6z\u0151", "url": "http://turistautak.hu/poi.php?id=70188"}}, {"type": "node", "id": 3400710383, "lat": 46.3048324, "lon": 17.7260945, "tags": {"amenity": "pub", "name": "Vad\u00e1sz pressz\u00f3", "opening_hours": "Mo-Su,PH 07:00-13:00, 15:00-21:00", "source": "turistautak.hu", "url": "http://turistautak.hu/poi.php?id=145023"}}, {"type": "node", "id": 3402570879, "lat": 46.2732924, "lon": 17.734136, "tags": {"amenity": "pub", "source": "turistautak.hu", "url": "http://turistautak.hu/poi.php?id=70189"}}, {"type": "node", "id": 3404328434, "lat": 46.282331, "lon": 17.824551, "tags": {"amenity": "pub", "source": "turistautak.hu", "url": "http://turistautak.hu/poi.php?id=72963"}}, {"type": "node", "id": 3404328435, "lat": 46.2835, "lon": 17.822333, "tags": {"amenity": "pub", "source": "turistautak.hu", "url": "http://turistautak.hu/poi.php?id=57717"}}, {"type": "node", "id": 3406112846, "lat": 46.254377, "lon": 17.88583, "tags": {"amenity": "pub", "source": "turistautak.hu", "url": "http://turistautak.hu/poi.php?id=72968"}}, {"type": "node", "id": 3406112847, "lat": 46.255333, "lon": 17.884567, "tags": {"amenity": "pub", "source": "turistautak.hu", "url": "http://turistautak.hu/poi.php?id=100107"}}, {"type": "node", "id": 3425068963, "lat": 46.494724, "lon": 17.423495, "tags": {"amenity": "pub", "name": "Kocsma", "source": "turistautak.hu", "url": "http://turistautak.hu/poi.php?id=92176"}}, {"type": "node", "id": 3429099345, "lat": 46.41196, "lon": 17.59791, "tags": {"amenity": "pub", "source": "turistautak.hu", "url": "http://turistautak.hu/poi.php?id=69810"}}, {"type": "node", "id": 3438328003, "lat": 46.510331, "lon": 17.748806, "tags": {"amenity": "pub", "name": "Borosty\u00e1n pressz\u00f3", "source": "turistautak.hu", "source:date": "2012-10-14", "url": "http://turistautak.hu/poi.php?id=139141"}}, {"type": "node", "id": 3438328393, "lat": 46.505974, "lon": 17.819033, "tags": {"amenity": "pub", "name": "Gomba pressz\u00f3", "source": "turistautak.hu", "source:date": "2012-10-14", "url": "http://turistautak.hu/poi.php?id=121977"}}, {"type": "node", "id": 3438328452, "lat": 46.306033, "lon": 17.881532, "tags": {"amenity": "pub", "name": "Italbolt", "source": "turistautak.hu", "source:date": "2011-09-08", "url": "http://turistautak.hu/poi.php?id=20442"}}, {"type": "node", "id": 3438328453, "lat": 46.4855, "lon": 17.654761, "tags": {"amenity": "pub", "name": "Italbolt", "source": "turistautak.hu", "source:date": "2013-06-20", "url": "http://turistautak.hu/poi.php?id=155173"}}, {"type": "node", "id": 3438328454, "lat": 46.521661, "lon": 17.717962, "tags": {"amenity": "pub", "name": "Italbolt", "source": "turistautak.hu", "source:date": "2012-10-14", "url": "http://turistautak.hu/poi.php?id=139147"}}, {"type": "node", "id": 3438328468, "lat": 46.394988, "lon": 17.500049, "tags": {"amenity": "pub", "name": "Kaiser vend\u00e9gl\u0151", "source": "turistautak.hu", "source:date": "2012-10-14", "url": "http://turistautak.hu/poi.php?id=72340"}}, {"type": "node", "id": 3438328719, "lat": 46.503488, "lon": 17.881833, "tags": {"amenity": "pub", "name": "Kocsma udva", "source": "turistautak.hu", "source:date": "2013-01-06", "url": "http://turistautak.hu/poi.php?id=149387"}}, {"type": "node", "id": 3438328785, "lat": 46.311688, "lon": 17.799187, "tags": {"amenity": "pub", "name": "Nono Fater Kocsm\u00e1ja", "source": "turistautak.hu", "source:date": "2011-09-08", "url": "http://turistautak.hu/poi.php?id=51643"}}, {"type": "node", "id": 3438330509, "lat": 46.298745, "lon": 17.553628, "tags": {"amenity": "pub", "name": "Szent Hubertus eszpressz\u00f3", "source": "turistautak.hu", "source:date": "2013-07-19", "url": "http://turistautak.hu/poi.php?id=156572"}}, {"type": "node", "id": 3438330540, "lat": 46.4588, "lon": 17.72743, "tags": {"amenity": "pub", "name": "S\u00f6rpatika", "source": "turistautak.hu", "source:date": "2012-10-14", "toilets:wheelchair": "no", "url": "http://turistautak.hu/poi.php?id=126435", "wheelchair": "no"}}, {"type": "node", "id": 3438330694, "lat": 46.198519, "lon": 17.6230002, "tags": {"amenity": "pub", "source": "turistautak.hu", "source:date": "2011-09-08", "toilets:wheelchair": "limited", "url": "http://turistautak.hu/poi.php?id=55409", "wheelchair": "limited"}}, {"type": "node", "id": 3438330728, "lat": 46.238222, "lon": 17.850723, "tags": {"amenity": "pub", "source": "turistautak.hu", "source:date": "2011-09-08", "url": "http://turistautak.hu/poi.php?id=34064"}}, {"type": "node", "id": 3438330731, "lat": 46.24, "lon": 17.530467, "tags": {"amenity": "pub", "description": "kocsma a buszmeg\u00e1ll\u00f3 k\u00f6zel\u00e9ben", "source": "turistautak.hu", "source:date": "2010-12-01", "toilets:wheelchair": "limited", "url": "http://turistautak.hu/poi.php?id=76432", "wheelchair": "limited"}}, {"type": "node", "id": 3438330834, "lat": 46.278789, "lon": 17.912965, "tags": {"amenity": "pub", "source": "turistautak.hu", "source:date": "2011-09-08", "url": "http://turistautak.hu/poi.php?id=121879"}}, {"type": "node", "id": 3438330835, "lat": 46.279069, "lon": 17.883779, "tags": {"amenity": "pub", "source": "turistautak.hu", "source:date": "2011-09-08", "url": "http://turistautak.hu/poi.php?id=121873"}}, {"type": "node", "id": 3438331106, "lat": 46.333434, "lon": 17.680373, "tags": {"amenity": "pub", "source": "turistautak.hu", "source:date": "2011-09-16", "url": "http://turistautak.hu/poi.php?id=124725"}}, {"type": "node", "id": 3438331155, "lat": 46.346583, "lon": 17.88307, "tags": {"amenity": "pub", "source": "turistautak.hu", "source:date": "2011-09-08", "url": "http://turistautak.hu/poi.php?id=121863"}}, {"type": "node", "id": 3438331171, "lat": 46.352967, "lon": 17.882948, "tags": {"amenity": "pub", "source": "turistautak.hu", "source:date": "2011-09-08", "url": "http://turistautak.hu/poi.php?id=121859"}}, {"type": "node", "id": 3438331183, "lat": 46.355617, "lon": 17.968888, "tags": {"amenity": "pub", "source": "turistautak.hu", "source:date": "2012-10-14", "url": "http://turistautak.hu/poi.php?id=125895"}}, {"type": "node", "id": 3438331188, "lat": 46.356741, "lon": 17.681999, "tags": {"amenity": "pub", "source": "turistautak.hu", "source:date": "2011-09-08", "url": "http://turistautak.hu/poi.php?id=69936"}}, {"type": "node", "id": 3438331196, "lat": 46.3598823, "lon": 17.6573887, "tags": {"amenity": "pub", "source": "turistautak.hu", "source:date": "2011-09-08", "url": "http://turistautak.hu/poi.php?id=69932"}}, {"type": "node", "id": 3438331214, "lat": 46.3651, "lon": 17.60097, "tags": {"amenity": "pub", "source": "turistautak.hu", "source:date": "2012-10-14", "url": "http://turistautak.hu/poi.php?id=72350"}}, {"type": "node", "id": 3438331218, "lat": 46.36642, "lon": 17.593907, "tags": {"amenity": "pub", "source": "turistautak.hu", "source:date": "2012-10-14", "url": "http://turistautak.hu/poi.php?id=72349"}}, {"type": "node", "id": 3438331263, "lat": 46.391994, "lon": 17.510472, "tags": {"amenity": "pub", "source": "turistautak.hu", "source:date": "2012-10-14", "url": "http://turistautak.hu/poi.php?id=72343"}}, {"type": "node", "id": 3438331452, "lat": 46.456972, "lon": 17.835523, "tags": {"amenity": "pub", "source": "turistautak.hu", "source:date": "2012-10-14", "url": "http://turistautak.hu/poi.php?id=37098"}}, {"type": "node", "id": 3438331461, "lat": 46.4582247, "lon": 17.7729532, "tags": {"amenity": "pub", "source": "turistautak.hu", "source:date": "2012-10-14", "url": "http://turistautak.hu/poi.php?id=37090"}}, {"type": "node", "id": 3438331809, "lat": 46.485133, "lon": 17.6528, "tags": {"amenity": "pub", "description": "olahtamas", "source": "turistautak.hu", "source:date": "2012-10-14", "url": "http://turistautak.hu/poi.php?id=51853"}}, {"type": "node", "id": 3438331825, "lat": 46.4920004, "lon": 17.7154323, "tags": {"amenity": "pub", "source": "turistautak.hu", "source:date": "2012-10-14", "url": "http://turistautak.hu/poi.php?id=93570"}}, {"type": "node", "id": 3461960784, "lat": 46.160864, "lon": 17.772539, "tags": {"amenity": "pub", "source": "turistautak.hu", "source:date": "2012-07-29", "url": "http://turistautak.hu/poi.php?id=142286"}}, {"type": "node", "id": 3463111068, "lat": 46.348633, "lon": 17.762885, "tags": {"amenity": "pub", "name": "M\u00e1rv\u00e1ny pressz\u00f3", "source": "turistautak.hu", "source:date": "2011-09-08", "url": "http://turistautak.hu/poi.php?id=25805"}}, {"type": "node", "id": 3463111208, "lat": 46.356617, "lon": 17.816198, "tags": {"amenity": "pub", "name": "S\u00f6r\u00f6z\u0151", "source": "turistautak.hu", "source:date": "2013-08-27", "url": "http://turistautak.hu/poi.php?id=158424"}}, {"type": "node", "id": 3463111209, "lat": 46.3577712, "lon": 17.8089463, "tags": {"amenity": "pub", "name": "S\u00f6r\u00f6z\u0151", "source": "turistautak.hu", "source:date": "2012-04-22", "url": "http://turistautak.hu/poi.php?id=137589"}}, {"type": "node", "id": 3463111345, "lat": 46.418453, "lon": 17.776685, "tags": {"amenity": "pub", "source": "turistautak.hu", "source:date": "2012-10-14", "url": "http://turistautak.hu/poi.php?id=69820"}}, {"type": "node", "id": 3465769519, "lat": 46.296728, "lon": 17.974077, "tags": {"amenity": "pub", "source": "turistautak.hu", "source:date": "2011-09-08", "url": "http://turistautak.hu/poi.php?id=37861"}}, {"type": "node", "id": 3468119999, "lat": 46.139749, "lon": 17.645474, "tags": {"amenity": "pub", "name": "J\u00f3bar\u00e1t s\u00f6r\u00f6z\u0151", "source": "turistautak.hu", "source:date": "2011-09-20", "toilets:wheelchair": "yes", "url": "http://turistautak.hu/poi.php?id=124931", "wheelchair": "yes"}}, {"type": "node", "id": 4250469550, "lat": 46.3635379, "lon": 17.7936548}, {"type": "node", "id": 4250469551, "lat": 46.3635407, "lon": 17.7933926}, {"type": "node", "id": 4250469552, "lat": 46.3633273, "lon": 17.7933915}, {"type": "node", "id": 4250469553, "lat": 46.3633279, "lon": 17.793653}, {"type": "node", "id": 4361284189, "lat": 46.154618, "lon": 17.9164957, "tags": {"addr:city": "Ibafa", "addr:housenumber": "5", "addr:postcode": "7935", "addr:street": "Zr\u00ednyi Mikl\u00f3s utca", "amenity": "pub", "internet_access": "wlan", "operator": "Hallgat\u00f3 Norbert"}}, {"type": "node", "id": 4859425498, "lat": 46.3652844, "lon": 17.7872936, "tags": {"amenity": "pub", "cuisine": "bistro", "dispensing": "yes", "name": "Volga Bisztr\u00f3", "opening_hours": "Mo-Su 08:00-24:00", "wheelchair": "yes"}}, {"type": "node", "id": 4864896490, "lat": 46.3726084, "lon": 17.7793251}, {"type": "node", "id": 4864896491, "lat": 46.3724867, "lon": 17.7793408}, {"type": "node", "id": 4864896492, "lat": 46.3724904, "lon": 17.7794163}, {"type": "node", "id": 4864896493, "lat": 46.3726141, "lon": 17.7793992}, {"type": "node", "id": 4933470131, "lat": 46.3760515, "lon": 17.7788315, "tags": {"amenity": "pub", "name": "B\u00fazavir\u00e1g Pressz\u00f3", "source": "route4u"}}, {"type": "node", "id": 5260415423, "lat": 46.3595807, "lon": 17.6574527, "tags": {"amenity": "pub", "name": "Bal\u00e1zs boroz\u00f3"}}, {"type": "node", "id": 8126223840, "lat": 46.3704625, "lon": 17.9037551}, {"type": "node", "id": 8126223841, "lat": 46.3703659, "lon": 17.9038005}, {"type": "node", "id": 8126223842, "lat": 46.3703482, "lon": 17.9037112}, {"type": "node", "id": 8126223843, "lat": 46.3703953, "lon": 17.9036885}, {"type": "node", "id": 8126223844, "lat": 46.3703524, "lon": 17.9034761}, {"type": "node", "id": 8126223845, "lat": 46.3704027, "lon": 17.9034442}, {"type": "node", "id": 8542004080, "lat": 46.3725811, "lon": 17.779456}, {"type": "node", "id": 8542004081, "lat": 46.3725283, "lon": 17.7794635}, {"type": "node", "id": 8542004082, "lat": 46.3725674, "lon": 17.7792782}, {"type": "node", "id": 8542004083, "lat": 46.3725131, "lon": 17.7792879}, {"type": "node", "id": 8566115795, "lat": 46.3701888, "lon": 17.7808052, "tags": {"amenity": "pub", "name": "Te+\u00e9n"}}, {"type": "node", "id": 8785687742, "lat": 46.3620965, "lon": 17.7040281, "tags": {"amenity": "pub", "name": "Piccol\u00f3 S\u00f6r\u00f6z\u0151", "opening_hours": "Mo-Fr 06:00-21:00; Sa 07:00-00:00; Su 07:00-21:00"}}, {"type": "node", "id": 9006620618, "lat": 46.3209629, "lon": 17.7539431, "tags": {"amenity": "pub", "name": "Nevenincs kocsma"}}, {"type": "way", "id": 293560347, "nodes": [2971678820, 2971678818, 2971678817, 2971678815, 2971678814, 2971678816, 2971678813, 2971678819, 2971678820], "tags": {"amenity": "pub", "building": "yes", "name": "S\u00f6r\u00f6z\u0151", "source": "Bing"}}, {"type": "way", "id": 293590144, "nodes": [2972045062, 2972045060, 2972045061, 2972045058, 2972045059, 2972045063, 2972045062], "tags": {"amenity": "pub", "brewery": "o", "building": "yes", "name": "S\u00f6rkert", "source": "Bing"}}, {"type": "way", "id": 425743699, "nodes": [4250469550, 4250469551, 4250469552, 4250469553, 4250469550], "tags": {"addr:city": "Kaposv\u00e1r", "addr:housenumber": "29", "addr:postcode": "7400", "addr:street": "Szent Imre utca", "amenity": "pub", "building": "yes", "name": "Park Garden Fr\u00f6ccskert", "opening_hours": "Mo-Sa 16:00-24:00", "phone": "+36 30 517 1722", "website": "http://parkgarden.hu/froccskert"}}, {"type": "way", "id": 494748959, "nodes": [4864896490, 8542004082, 8542004083, 4864896491, 4864896492, 8542004081, 8542004080, 4864896493, 4864896490], "tags": {"addr:city": "Kaposv\u00e1r", "addr:housenumber": "20", "addr:postcode": "7400", "addr:street": "Kinizsi lak\u00f3telep", "amenity": "pub", "building": "yes", "building:levels": "0", "name": "Krist\u00e1ly pressz\u00f3", "smoking": "outside"}}, {"type": "way", "id": 872605642, "nodes": [8126223840, 8126223841, 8126223842, 8126223843, 8126223844, 8126223845, 8126223840], "tags": {"addr:city": "Tasz\u00e1r", "addr:housenumber": "12", "addr:postcode": "7261", "addr:street": "Kinizsi P\u00e1l utca", "amenity": "pub", "building": "yes", "name": "Tasz\u00e1ri kocsma / T\u00f6r\u00f6k Pizza Cetin"}}]}