{"version": 0.6, "generator": "Overpass API 0.7.59 e21c39fe", "osm3s": {"timestamp_osm_base": "2023-01-20T17:55:59Z", "copyright": "The data included in this document is from www.openstreetmap.org. The data is made available under ODbL."}, "elements": [{"type": "node", "id": 493570424, "lat": 47.3812006, "lon": 19.215516, "tags": {"amenity": "library", "name": "Arany J\u00e1nos k\u00f6z\u00f6ss\u00e9gi h\u00e1z", "wheelchair": "yes"}}, {"type": "node", "id": 1191082651, "lat": 47.5247339, "lon": 19.2817035, "tags": {"amenity": "library", "name": "K\u00f6nyvt\u00e1r"}}, {"type": "node", "id": 1223104215, "lat": 47.3847997, "lon": 19.345926, "tags": {"amenity": "library", "name": "Vargha Gyula V\u00e1rosi K\u00f6nyvt\u00e1r", "wheelchair": "no"}}, {"type": "node", "id": 1683873437, "lat": 47.5453321, "lon": 19.2601456, "tags": {"amenity": "library", "name": "Kistarcsa V\u00e1rosi K\u00f6nyvt\u00e1r"}}, {"type": "node", "id": 2124180890, "lat": 47.5091939, "lon": 19.1813939, "tags": {"addr:city": "Budapest", "addr:housenumber": "53", "addr:postcode": "1163", "addr:street": "Veres P\u00e9ter \u00fat", "amenity": "library", "email": "fszek1602@fszek.hu", "name": "Sashalmi K\u00f6nyvt\u00e1r", "opening_hours": "Mo,We,Fr 13:00-19:00; Tu,Th 10:00-16:00", "operator": "F\u0151v\u00e1rosi Szab\u00f3 Ervin K\u00f6nyvt\u00e1r", "operator:type": "public", "phone": "+36 1 403 0813"}}, {"type": "node", "id": 2197723032, "lat": 47.5211009, "lon": 19.1677931}, {"type": "node", "id": 2197723338, "lat": 47.5211981, "lon": 19.1674431}, {"type": "node", "id": 2197723632, "lat": 47.5212773, "lon": 19.1676191}, {"type": "node", "id": 2197723947, "lat": 47.5210217, "lon": 19.167617}, {"type": "node", "id": 2330700471, "lat": 47.6922542, "lon": 19.387595, "tags": {"amenity": "library", "name": "K\u00f6zs\u00e9gi K\u00f6nyvt\u00e1r Galgam\u00e1csa"}}, {"type": "node", "id": 2352339605, "lat": 47.5994936, "lon": 19.3464708}, {"type": "node", "id": 2352339607, "lat": 47.599567, "lon": 19.3471097}, {"type": "node", "id": 2352339608, "lat": 47.5996938, "lon": 19.346924}, {"type": "node", "id": 2385481260, "lat": 47.4512529, "lon": 19.5960283, "tags": {"amenity": "library", "name": "T\u00e1pi\u00f3szecs\u0151 Nagyk\u00f6zs\u00e9gi K\u00f6nyvt\u00e1r"}}, {"type": "node", "id": 2424076707, "lat": 47.7618516, "lon": 19.5417835, "tags": {"amenity": "library", "name": "K\u00f6zs\u00e9gi K\u00f6nyvt\u00e1r"}}, {"type": "node", "id": 2510671958, "lat": 47.4044933, "lon": 19.1859558, "tags": {"addr:city": "Budapest", "addr:housenumber": "48", "addr:postcode": "1188", "addr:street": "Vas\u00fat utca", "amenity": "library", "email": "fszek1801@fszek.hu", "internet_access": "yes", "name": "F\u0151v\u00e1rosi Szab\u00f3 Ervin K\u00f6nyvt\u00e1r - Pestszentimrei K\u00f6nyvt\u00e1r", "note": "Szolg\u00e1ltat\u00e1s: CD-k\u00f6lcs\u00f6nz\u00e9s, CD-ROM-k\u00f6lcs\u00f6nz\u00e9s, DVD-k\u00f6lcs\u00f6nz\u00e9s, foly\u00f3irat-k\u00f6lcs\u00f6nz\u00e9s, hangosk\u00f6nyv-k\u00f6lcs\u00f6nz\u00e9s, h\u00e1zhozsz\u00e1ll\u00edt\u00e1s, internethaszn\u00e1lat, kerekessz\u00e9kkel megk\u00f6zel\u00edthet\u0151, ker\u00e9kp\u00e1rt\u00e1rol\u00f3, k\u00f6nyv-k\u00f6lcs\u00f6nz\u00e9s, NAVA, vide\u00f3k\u00f6lcs\u00f6nz\u00e9s", "opening_hours": "Mo, We, Fr 13:00-19:00; Th 10:00-16:00", "operator": "F\u0151v\u00e1rosi Szab\u00f3 Ervin K\u00f6nyvt\u00e1r", "operator:type": "public", "phone": "+36 1 291 2392", "website": "http://www.fszek.hu/konyvtaraink/vasut_u__48_", "wikidata": "Q620968", "wikipedia": "hu:F\u0151v\u00e1rosi Szab\u00f3 Ervin K\u00f6nyvt\u00e1r"}}, {"type": "node", "id": 2933330124, "lat": 47.5993115, "lon": 19.3467259}, {"type": "node", "id": 2933330125, "lat": 47.5997423, "lon": 19.346853}, {"type": "node", "id": 2933330126, "lat": 47.5996057, "lon": 19.3466477}, {"type": "node", "id": 2933330127, "lat": 47.5994883, "lon": 19.346697}, {"type": "node", "id": 2933330128, "lat": 47.5996175, "lon": 19.346896}, {"type": "node", "id": 2933330129, "lat": 47.5995415, "lon": 19.3470044}, {"type": "node", "id": 2933330130, "lat": 47.5994124, "lon": 19.3468054}, {"type": "node", "id": 3210868285, "lat": 47.4707455, "lon": 19.1631421, "tags": {"addr:city": "Budapest", "addr:housenumber": "16", "addr:postcode": "1108", "addr:street": "\u00dajhegyi s\u00e9t\u00e1ny", "amenity": "library", "name": "\u00dajhegyi k\u00f6nyvt\u00e1r", "operator": "F\u0151v\u00e1rosi Szab\u00f3 Ervin K\u00f6nyvt\u00e1r", "operator:type": "public"}}, {"type": "node", "id": 3373156066, "lat": 47.6671038, "lon": 19.6852703}, {"type": "node", "id": 3373156067, "lat": 47.6671235, "lon": 19.6853748}, {"type": "node", "id": 3373156068, "lat": 47.6671489, "lon": 19.6853369}, {"type": "node", "id": 3373156069, "lat": 47.6671677, "lon": 19.6854399}, {"type": "node", "id": 3373156070, "lat": 47.6671947, "lon": 19.6853996}, {"type": "node", "id": 3373156071, "lat": 47.6672629, "lon": 19.6855003}, {"type": "node", "id": 3373156072, "lat": 47.6672953, "lon": 19.6849842}, {"type": "node", "id": 3373156073, "lat": 47.6673308, "lon": 19.6850366}, {"type": "node", "id": 3373156074, "lat": 47.6673583, "lon": 19.6849955}, {"type": "node", "id": 3373156075, "lat": 47.6674205, "lon": 19.685183}, {"type": "node", "id": 3373156076, "lat": 47.6674481, "lon": 19.6852237}, {"type": "node", "id": 3373156077, "lat": 47.6674527, "lon": 19.6851349}, {"type": "node", "id": 3376949835, "lat": 47.4790471, "lon": 19.2545996}, {"type": "node", "id": 3376949836, "lat": 47.4790834, "lon": 19.2544425}, {"type": "node", "id": 3376949837, "lat": 47.4791428, "lon": 19.2544725}, {"type": "node", "id": 3376949838, "lat": 47.4791539, "lon": 19.2544245}, {"type": "node", "id": 3376949839, "lat": 47.4792028, "lon": 19.2544492}, {"type": "node", "id": 3376949840, "lat": 47.4792093, "lon": 19.2544211}, {"type": "node", "id": 3376949841, "lat": 47.4792429, "lon": 19.2546985}, {"type": "node", "id": 3376949842, "lat": 47.4792615, "lon": 19.2546178}, {"type": "node", "id": 3376949843, "lat": 47.4792812, "lon": 19.2546278}, {"type": "node", "id": 3376949844, "lat": 47.4792822, "lon": 19.2545281}, {"type": "node", "id": 3376949845, "lat": 47.4792967, "lon": 19.2544653}, {"type": "node", "id": 3376949846, "lat": 47.4793019, "lon": 19.2545381}, {"type": "node", "id": 3490385762, "lat": 47.5186889, "lon": 19.7532655}, {"type": "node", "id": 3490385763, "lat": 47.5186317, "lon": 19.7533802}, {"type": "node", "id": 3490385764, "lat": 47.5185011, "lon": 19.7532377}, {"type": "node", "id": 3490385765, "lat": 47.5185583, "lon": 19.7531229}, {"type": "node", "id": 3699861069, "lat": 47.7100068, "lon": 19.2334807}, {"type": "node", "id": 3699861071, "lat": 47.710176, "lon": 19.2336998}, {"type": "node", "id": 3699861072, "lat": 47.7101474, "lon": 19.2336149}, {"type": "node", "id": 3699861073, "lat": 47.71017, "lon": 19.2335972}, {"type": "node", "id": 3699861074, "lat": 47.7101355, "lon": 19.2334981}, {"type": "node", "id": 3699861075, "lat": 47.7101129, "lon": 19.2335176}, {"type": "node", "id": 3699861076, "lat": 47.7100764, "lon": 19.233424}, {"type": "node", "id": 3741969929, "lat": 47.53187, "lon": 19.2809837, "tags": {"addr:city": "Nagytarcsa", "addr:housenumber": "19", "addr:postcode": "2142", "addr:street": "Tompa Mih\u00e1ly utca", "amenity": "library", "email": "nagytarcsa@patriatakarek.hu", "fax": "+36 28 546 581", "internet_access": "wlan", "name": "Nagytarcsai k\u00f6nyvt\u00e1r", "name:en": "Nagytarcsa library", "opening_hours": "Mo 08:00-17:30; Tu-Th 07:30-16:00; Fr 07:30-14:30", "phone": "+36 28 546 580", "website": "https://www.patriatakarek.hu/"}}, {"type": "node", "id": 3835713338, "lat": 47.5505833, "lon": 19.2280623, "tags": {"addr:city": "Cs\u00f6m\u00f6r", "addr:housenumber": "1", "addr:postcode": "2141", "addr:street": "Tompa Mih\u00e1ly utca", "amenity": "library", "contact:email": "konyvtar@csomor.hu", "contact:phone": "+36 28 744 443", "contact:website": "http://www.csomor.hu/oldal/a-konyvtar-nyitvatartasi-rendje", "internet_access": "terminal", "name": "Sinka Istv\u00e1n K\u00f6z\u00f6ss\u00e9gi K\u00f6nyvt\u00e1r", "opening_hours": "Mo,Fr 08:00-18:00; Tu 14:00-18:00; Th,Sa 08:00-12:00", "wheelchair": "no"}}, {"type": "node", "id": 3931425310, "lat": 47.6921273, "lon": 19.3875545}, {"type": "node", "id": 3931425314, "lat": 47.6922061, "lon": 19.3873965}, {"type": "node", "id": 3931425317, "lat": 47.692219, "lon": 19.3874107}, {"type": "node", "id": 3931425323, "lat": 47.6922838, "lon": 19.3877267}, {"type": "node", "id": 3931425324, "lat": 47.6923177, "lon": 19.3875235}, {"type": "node", "id": 3931425328, "lat": 47.6923398, "lon": 19.3871683}, {"type": "node", "id": 3931425331, "lat": 47.6923612, "lon": 19.3875714}, {"type": "node", "id": 3931425337, "lat": 47.6923942, "lon": 19.3873701}, {"type": "node", "id": 3931425346, "lat": 47.6924435, "lon": 19.3874244}, {"type": "node", "id": 3931425347, "lat": 47.6924338, "lon": 19.3874438}, {"type": "node", "id": 3931425355, "lat": 47.6925059, "lon": 19.3875232}, {"type": "node", "id": 3931425361, "lat": 47.6925613, "lon": 19.3874121}, {"type": "node", "id": 3950305906, "lat": 47.7101004, "lon": 19.233759, "tags": {"addr:city": "V\u00e1cr\u00e1t\u00f3t", "addr:housenumber": "7", "addr:postcode": "2163", "addr:street": "Pet\u0151fi S\u00e1ndor t\u00e9r"}}, {"type": "node", "id": 4139858499, "lat": 47.4440043, "lon": 19.1817766}, {"type": "node", "id": 4139870392, "lat": 47.4441663, "lon": 19.1819249}, {"type": "node", "id": 4139874689, "lat": 47.4440964, "lon": 19.1815539}, {"type": "node", "id": 4139874789, "lat": 47.4442588, "lon": 19.181703}, {"type": "node", "id": 4544749812, "lat": 47.4433305, "lon": 19.349402, "tags": {"amenity": "library", "name": "V\u00e1rosi K\u00f6nyvt\u00e1r"}}, {"type": "node", "id": 4716408733, "lat": 47.5995793, "lon": 19.3468372}, {"type": "node", "id": 4716408734, "lat": 47.599465, "lon": 19.3469566}, {"type": "node", "id": 4716408735, "lat": 47.5994901, "lon": 19.3469251}, {"type": "node", "id": 4716408736, "lat": 47.599658, "lon": 19.3467262}, {"type": "node", "id": 5141510503, "lat": 47.5638858, "lon": 19.5116431, "tags": {"addr:city": "Valk\u00f3", "addr:housenumber": "43-45", "addr:postcode": "2114", "addr:street": "Szabads\u00e1g \u00fat", "amenity": "library", "description": "Valk\u00f3 Nagyk\u00f6zs\u00e9g k\u00f6nyvt\u00e1ra a telep\u00fcl\u00e9s k\u00f6zpontj\u00e1ban a Valk\u00f3i M\u00f3ra Ferenc \u00c1ltal\u00e1nos Iskola \u00e9p\u00fclet\u00e9ben tal\u00e1lhat\u00f3. Ha szeretne k\u00f6nyvet k\u00f6lcs\u00f6n\u00f6zni vagy az aktu\u00e1lis \u00fajs\u00e1gokat v\u00e9gigolvasni, l\u00e1togasson el hozz\u00e1nk!", "email": "valko.konyvtar@gmail.com", "internet_access": "yes", "internet_access:fee": "no", "level": "0", "name": "Valk\u00f3 K\u00f6nyvt\u00e1ri, Inform\u00e1ci\u00f3s \u00e9s K\u00f6z\u00f6ss\u00e9gi hely", "note": "NYITVATART\u00c1SUNK H\u00e9tf\u0151: 8 \u2013 12 Kedd: 13-17 Szerda: 8 \u2013 12 Cs\u00fct\u00f6rt\u00f6k: 13-17 P\u00e9ntekig: 8 \u2013 12", "phone": "+36 28 483 142", "website": "https://www.valkoi-konyvtar.tk", "wheelchair": "yes"}}, {"type": "node", "id": 5268445494, "lat": 47.3982015, "lon": 19.6194573, "tags": {"addr:city": "T\u00e1pi\u00f3s\u00e1g", "addr:housenumber": "10", "addr:postcode": "2253", "addr:street": "Szabads\u00e1g utca", "amenity": "library", "name": "K\u00f6nyvt\u00e1r"}}, {"type": "node", "id": 5436520144, "lat": 47.3849188, "lon": 19.3457956}, {"type": "node", "id": 5436520145, "lat": 47.3847826, "lon": 19.3456265}, {"type": "node", "id": 5436520146, "lat": 47.3847248, "lon": 19.3457232}, {"type": "node", "id": 5436520147, "lat": 47.3847967, "lon": 19.3458202}, {"type": "node", "id": 5436520148, "lat": 47.384707, "lon": 19.3460082}, {"type": "node", "id": 5436520149, "lat": 47.3847759, "lon": 19.3460867}, {"type": "node", "id": 5567745287, "lat": 47.384787, "lon": 19.3458405, "tags": {"entrance": "main"}}, {"type": "node", "id": 5857154765, "lat": 47.707377, "lon": 19.6342657, "tags": {"addr:city": "Her\u00e9d", "addr:housenumber": "1", "addr:postcode": "3011", "addr:street": "V\u00f6r\u00f6smarty Mih\u00e1ly t\u00e9r", "amenity": "library", "name": "M\u0171vel\u0151d\u00e9si H\u00e1z \u00e9s K\u00f6zs\u00e9gi K\u00f6nyvt\u00e1r", "source": "local knowledge"}}, {"type": "node", "id": 6611690510, "lat": 47.4153954, "lon": 19.7387207}, {"type": "node", "id": 6611690511, "lat": 47.4152339, "lon": 19.7386026}, {"type": "node", "id": 6611690512, "lat": 47.4153582, "lon": 19.738262}, {"type": "node", "id": 6611690513, "lat": 47.415429, "lon": 19.7383438}, {"type": "node", "id": 6611690514, "lat": 47.415478, "lon": 19.7382392}, {"type": "node", "id": 6611690515, "lat": 47.4155257, "lon": 19.7383038}, {"type": "node", "id": 6611690516, "lat": 47.415478, "lon": 19.7384109}, {"type": "node", "id": 6611690517, "lat": 47.415497, "lon": 19.7384323}, {"type": "node", "id": 6709137632, "lat": 47.5934285, "lon": 19.3627569, "tags": {"amenity": "library", "description": "Egyetemi k\u00f6nyvt\u00e1r", "level": "0", "name": "MATE Kos\u00e1ry Domokos K\u00f6nyvt\u00e1r \u00e9s Lev\u00e9lt\u00e1r"}}, {"type": "node", "id": 6800537385, "lat": 47.4900516, "lon": 19.2902204, "tags": {"addr:city": "Budapest", "addr:housenumber": "232", "addr:postcode": "1171", "addr:street": "P\u00e9celi \u00fat", "amenity": "library", "fixme": "Pontos\u00edtand\u00f3 a helye", "name": "R\u00e1koscsabai K\u00f6nyvt\u00e1r", "operator": "F\u0151v\u00e1rosi Szab\u00f3 Ervin K\u00f6nyvt\u00e1r", "operator:type": "public"}}, {"type": "node", "id": 6800537386, "lat": 47.4374377, "lon": 19.1690345, "tags": {"addr:city": "Budapest", "addr:housenumber": "32", "addr:postcode": "1181", "addr:street": "Csontv\u00e1ry Kosztka Tivadar utca", "amenity": "library", "name": "Havanna-lak\u00f3telepi K\u00f6nyvt\u00e1r", "operator": "F\u0151v\u00e1rosi Szab\u00f3 Ervin K\u00f6nyvt\u00e1r", "operator:type": "public"}}, {"type": "node", "id": 6821941669, "lat": 47.6346071, "lon": 19.4815362}, {"type": "node", "id": 6821941670, "lat": 47.6345158, "lon": 19.4815454}, {"type": "node", "id": 6821941671, "lat": 47.6346171, "lon": 19.4815397}, {"type": "node", "id": 6821941672, "lat": 47.6346223, "lon": 19.4816845}, {"type": "node", "id": 6821941673, "lat": 47.6345242, "lon": 19.4816948}, {"type": "node", "id": 6968893641, "lat": 47.4062224, "lon": 19.2642274, "tags": {"addr:city": "Vecs\u00e9s", "addr:housenumber": "43", "addr:postcode": "2220", "addr:street": "Telepi \u00fat", "amenity": "library", "name": "R\u00f3der Imre V\u00e1rosi K\u00f6nyvt\u00e1r", "operator": "Vecs\u00e9s V\u00e1ros \u00d6nkorm\u00e1nyzata", "operator:type": "community", "ref:isil": "HU-IL-002536-4"}}, {"type": "node", "id": 7041414126, "lat": 47.562913, "lon": 19.28893}, {"type": "node", "id": 7041414127, "lat": 47.5629309, "lon": 19.2888999}, {"type": "node", "id": 7041414128, "lat": 47.5628158, "lon": 19.2888037}, {"type": "node", "id": 7041414129, "lat": 47.5629657, "lon": 19.2889452}, {"type": "node", "id": 7041414130, "lat": 47.563003, "lon": 19.2888822}, {"type": "node", "id": 7041414131, "lat": 47.5628709, "lon": 19.2887105}, {"type": "node", "id": 8578975756, "lat": 47.5997239, "lon": 19.3468253}, {"type": "node", "id": 8931170355, "lat": 47.6547595, "lon": 19.286503, "tags": {"amenity": "library"}}, {"type": "node", "id": 9182884417, "lat": 47.5319069, "lon": 19.2809636, "tags": {"amenity": "library", "name": "Nagytarcsa k\u00f6nyvt\u00e1r", "name:en": "Nagytarcsa Library"}}, {"type": "way", "id": 209566980, "nodes": [2197723032, 2197723632, 2197723338, 2197723947, 2197723032], "tags": {"addr:city": "Budapest", "addr:housenumber": "119", "addr:postcode": "1161", "addr:street": "R\u00e1kosi \u00fat", "addr:suburb": "R\u00e1kosszentmih\u00e1ly", "amenity": "library", "building": "yes", "name": "R\u00e1kosi K\u00f6nyvt\u00e1r", "operator": "F\u0151v\u00e1rosi Szab\u00f3 Ervin K\u00f6nyvt\u00e1r", "operator:type": "public"}}, {"type": "way", "id": 289792307, "nodes": [2352339605, 2933330124, 4716408734, 2352339607, 2352339608, 2933330125, 8578975756, 4716408736, 2933330126, 2352339605]}, {"type": "way", "id": 289792308, "nodes": [2933330127, 4716408733, 2933330128, 2933330129, 4716408735, 2933330130, 2933330127]}, {"type": "way", "id": 330352662, "nodes": [3373156074, 3373156073, 3373156072, 3373156066, 3373156068, 3373156067, 3373156069, 3373156070, 3373156071, 3373156076, 3373156075, 3373156077, 3373156074], "tags": {"addr:city": "Hatvan", "addr:country": "HU", "addr:housenumber": "3", "addr:postcode": "3000", "addr:street": "Kossuth t\u00e9r", "amenity": "library", "building": "yes", "email": "konyvtar@vk-hatvan.bibl.hu", "fax": "+36 37 341 275", "name": "Ady Endre K\u00f6nyvt\u00e1r", "opening_hours": "Mo-We 09:00-19:00; Fr 09:00-19:00; Sa 08:00-13:00", "operator": "Hatvan V\u00e1ros \u00d6nkorm\u00e1nyzata", "phone": "+36 37 542 110", "website": "http://konyvtarhatvan.hu/"}}, {"type": "way", "id": 330700717, "nodes": [3376949835, 3376949836, 3376949837, 3376949838, 3376949839, 3376949840, 3376949845, 3376949844, 3376949846, 3376949843, 3376949842, 3376949841, 3376949835], "tags": {"addr:city": "Budapest", "addr:housenumber": "167", "addr:postcode": "1173", "addr:street": "Pesti \u00fat", "amenity": "library", "building": "yes", "name": "R\u00e1koskereszt\u00fari K\u00f6nyvt\u00e1r", "opening_hours": "Mo,We,Fr 13:00-19:00; Tu,Th 10:00-16:00; Sa 09:00-14:00", "operator": "F\u0151v\u00e1rosi Szab\u00f3 Ervin K\u00f6nyvt\u00e1r", "operator:type": "public"}}, {"type": "way", "id": 341984783, "nodes": [3490385762, 3490385763, 3490385764, 3490385765, 3490385762], "tags": {"amenity": "library", "building": "yes"}}, {"type": "way", "id": 365992315, "nodes": [3699861069, 3950305906, 3699861071, 3699861072, 3699861073, 3699861074, 3699861075, 3699861076, 3699861069], "tags": {"addr:city": "V\u00e1cr\u00e1t\u00f3t", "addr:housenumber": "6", "addr:postcode": "2163", "addr:street": "Pet\u0151fi S\u00e1ndor t\u00e9r", "amenity": "library", "building": "public", "name": "K\u00f6zs\u00e9gi k\u00f6nyvt\u00e1r", "opening_hours": "Mo 12:00-17:00; Tu, Fr 08:00-13:00; We-Th 11:00-16:00", "website": "http://vacratot.hu/intezmenyek/kultura/konyvtar"}}, {"type": "way", "id": 389984855, "nodes": [3931425361, 3931425328, 3931425317, 3931425314, 3931425310, 3931425323, 3931425331, 3931425324, 3931425337, 3931425346, 3931425347, 3931425355, 3931425361], "tags": {"amenity": "library", "building": "yes"}}, {"type": "way", "id": 412598596, "nodes": [4139874689, 4139858499, 4139870392, 4139874789, 4139874689], "tags": {"addr:city": "Budapest", "addr:housenumber": "5", "addr:postcode": "1183", "addr:street": "Th\u00f6k\u00f6ly \u00fat", "air_conditioning": "no", "amenity": "library", "building": "yes", "name": "L\u0151rinci Nagyk\u00f6nyvt\u00e1r", "opening_hours": "Mo,We-Fr 09:00-19:00; Tu,Sa 09:00-14:00", "operator": "F\u0151v\u00e1rosi Szab\u00f3 Ervin K\u00f6nyvt\u00e1r", "operator:type": "public"}}, {"type": "way", "id": 564175320, "nodes": [5436520144, 5436520145, 5436520146, 5436520147, 5567745287, 5436520148, 5436520149, 5436520144], "tags": {"addr:city": "\u00dcll\u0151", "addr:housenumber": "1", "addr:postcode": "2225", "addr:street": "Vasadi utca", "amenity": "library", "building": "yes", "internet_access": "yes", "internet_access:fee": "yes", "name": "Vargha Gyula V\u00e1rosi K\u00f6nyvt\u00e1r"}}, {"type": "way", "id": 704144167, "nodes": [6611690510, 6611690511, 6611690512, 6611690513, 6611690514, 6611690515, 6611690516, 6611690517, 6611690510], "tags": {"amenity": "library", "building": "yes", "name": "V\u00e1rosi k\u00f6nyvt\u00e1r"}}, {"type": "way", "id": 727977588, "nodes": [6821941669, 6821941671, 6821941672, 6821941673, 6821941670, 6821941669], "tags": {"amenity": "library", "building": "yes", "name": "K\u00f6nyvt\u00e1r"}}, {"type": "way", "id": 753637134, "nodes": [7041414131, 7041414130, 7041414129, 7041414127, 7041414126, 7041414128, 7041414131], "tags": {"addr:city": "Kerepes", "addr:housenumber": "242", "addr:postcode": "2144", "addr:street": "Szabads\u00e1g \u00fatja", "amenity": "library", "building": "yes", "name": "Szab\u00f3 Magda Nagyk\u00f6zs\u00e9gi \u00e9s Iskolai K\u00f6nyvt\u00e1r"}}, {"type": "relation", "id": 3849259, "members": [{"type": "way", "ref": 289792307, "role": "outer"}, {"type": "way", "ref": 289792308, "role": "inner"}], "tags": {"addr:city": "G\u00f6d\u00f6ll\u0151", "addr:housenumber": "8", "addr:postcode": "2100", "addr:street": "D\u00f3zsa Gy\u00f6rgy \u00fat", "amenity": "library", "building": "yes", "description": "A jelenlegi \u00e9p\u00fclet 2002-ben \u00e9p\u00fclt.", "name": "G\u00f6d\u00f6ll\u0151i V\u00e1rosi K\u00f6nyvt\u00e1r \u00e9s Inform\u00e1ci\u00f3s k\u00f6zpont", "name:en": "Municipal Library and Information Centre of G\u00f6d\u00f6ll\u0151", "opening_hours": "Mo 09:00-19:00; Tu 09:00-18:00; Th 09:00-18:00; Fr 09:00-19:00; Sa 09:00-13:00", "short_name": "GVKIK", "start_date": "1953", "type": "multipolygon", "website": "http://www.gvkik.hu/"}}]}