{"version": 0.6, "generator": "Overpass API 0.7.59 e21c39fe", "osm3s": {"timestamp_osm_base": "2023-01-21T09:22:38Z", "copyright": "The data included in this document is from www.openstreetmap.org. The data is made available under ODbL."}, "elements": [{"type": "node", "id": 319710042, "lat": 46.6117347, "lon": 18.851697, "tags": {"brand": "Lidl", "brand:wikidata": "Q151954", "brand:wikipedia": "en:Lidl", "name": "Lidl", "shop": "supermarket", "website": "https://www.lidl.hu/"}}, {"type": "node", "id": 319942872, "lat": 46.6149934, "lon": 18.8431891, "tags": {"brand": "Spar", "brand:wikidata": "Q610492", "brand:wikipedia": "en:Spar (retailer)", "name": "Spar", "shop": "supermarket", "website": "http://www.spar.hu", "wheelchair": "yes"}}, {"type": "node", "id": 1020286997, "lat": 46.8099248, "lon": 18.9107768}, {"type": "node", "id": 1020287045, "lat": 46.8099467, "lon": 18.9112136}, {"type": "node", "id": 1020287056, "lat": 46.8098805, "lon": 18.9106495}, {"type": "node", "id": 1020287064, "lat": 46.809579, "lon": 18.9108737}, {"type": "node", "id": 1020287069, "lat": 46.8101533, "lon": 18.9106069}, {"type": "node", "id": 1020287085, "lat": 46.8099298, "lon": 18.9111652}, {"type": "node", "id": 1020287088, "lat": 46.8102618, "lon": 18.9109183}, {"type": "node", "id": 1020287094, "lat": 46.8097488, "lon": 18.9113608}, {"type": "node", "id": 1343022296, "lat": 46.8340016, "lon": 18.8184731, "tags": {"name": "Bal\u00e1zs ABC", "shop": "supermarket", "wheelchair": "no"}}, {"type": "node", "id": 1343022309, "lat": 46.8325634, "lon": 18.8308133, "tags": {"name": "Vincze ABC", "shop": "supermarket", "wheelchair": "yes"}}, {"type": "node", "id": 1343044067, "lat": 46.6243651, "lon": 18.8586245, "tags": {"brand": "Spar", "brand:wikidata": "Q610492", "brand:wikipedia": "en:Spar (retailer)", "contact:website": "http://www.spar.hu", "name": "Spar", "shop": "supermarket", "website": "http://www.spar.hu", "wheelchair": "yes", "wheelchair:description": "nincs mell\u00e9khelys\u00e9g"}}, {"type": "node", "id": 1343044071, "lat": 46.7378348, "lon": 18.9688564, "tags": {"brand": "CBA", "brand:wikidata": "Q779845", "brand:wikipedia": "en:CBA (food retail)", "name": "CBA", "shop": "supermarket"}}, {"type": "node", "id": 1788530126, "lat": 46.9114878, "lon": 18.9719575, "tags": {"name": "Mini Market", "shop": "supermarket"}}, {"type": "node", "id": 2305270499, "lat": 46.8943256, "lon": 18.6140849}, {"type": "node", "id": 2305270501, "lat": 46.8946654, "lon": 18.6148679}, {"type": "node", "id": 2305270510, "lat": 46.8950153, "lon": 18.613521}, {"type": "node", "id": 2305270531, "lat": 46.8951885, "lon": 18.6143817}, {"type": "node", "id": 2393259849, "lat": 46.8826446, "lon": 18.6222028}, {"type": "node", "id": 2393259850, "lat": 46.8823027, "lon": 18.6224127}, {"type": "node", "id": 2393259851, "lat": 46.8823909, "lon": 18.6227314}, {"type": "node", "id": 2393259852, "lat": 46.8827239, "lon": 18.6225827}, {"type": "node", "id": 2393259853, "lat": 46.882334, "lon": 18.6223987}, {"type": "node", "id": 2393263618, "lat": 46.8775317, "lon": 18.6249909}, {"type": "node", "id": 2393263619, "lat": 46.8772846, "lon": 18.6252524}, {"type": "node", "id": 2393263620, "lat": 46.8776421, "lon": 18.6260293}, {"type": "node", "id": 2393263621, "lat": 46.8778472, "lon": 18.6258101}, {"type": "node", "id": 2393263622, "lat": 46.8776237, "lon": 18.6253216}, {"type": "node", "id": 2393263623, "lat": 46.8776711, "lon": 18.6252755}, {"type": "node", "id": 2396618736, "lat": 46.8064106, "lon": 19.0035754}, {"type": "node", "id": 2396618737, "lat": 46.8058785, "lon": 19.0035731}, {"type": "node", "id": 2396618738, "lat": 46.8058782, "lon": 19.0037136}, {"type": "node", "id": 2396618739, "lat": 46.8059273, "lon": 19.0037138}, {"type": "node", "id": 2396618740, "lat": 46.8059268, "lon": 19.0039669}, {"type": "node", "id": 2396618741, "lat": 46.8062058, "lon": 19.0039682}, {"type": "node", "id": 2396618742, "lat": 46.8062057, "lon": 19.0040217}, {"type": "node", "id": 2396618743, "lat": 46.8064097, "lon": 19.0040225}, {"type": "node", "id": 2396618745, "lat": 46.8064101, "lon": 19.0038347}, {"type": "node", "id": 2396618751, "lat": 46.8072411, "lon": 19.0062736}, {"type": "node", "id": 2396618752, "lat": 46.8071845, "lon": 19.0058296}, {"type": "node", "id": 2396618753, "lat": 46.8068164, "lon": 19.0059289}, {"type": "node", "id": 2396618754, "lat": 46.8068655, "lon": 19.0063122}, {"type": "node", "id": 2396618755, "lat": 46.8071373, "lon": 19.006235}, {"type": "node", "id": 2396618756, "lat": 46.8071467, "lon": 19.0062984}, {"type": "node", "id": 2396618761, "lat": 46.8068574, "lon": 19.0062489}, {"type": "node", "id": 2752886725, "lat": 46.6182589, "lon": 18.8560504}, {"type": "node", "id": 2752886726, "lat": 46.6173861, "lon": 18.8558597}, {"type": "node", "id": 2752886727, "lat": 46.6174078, "lon": 18.8569076}, {"type": "node", "id": 2752886728, "lat": 46.6181469, "lon": 18.8570508}, {"type": "node", "id": 2827171163, "lat": 46.8033218, "lon": 18.9175471}, {"type": "node", "id": 2827171164, "lat": 46.8035963, "lon": 18.9172856}, {"type": "node", "id": 2827171165, "lat": 46.8035752, "lon": 18.9172333}, {"type": "node", "id": 2827171166, "lat": 46.8036983, "lon": 18.9171289}, {"type": "node", "id": 2827171167, "lat": 46.8037147, "lon": 18.9171689}, {"type": "node", "id": 2827171168, "lat": 46.803734, "lon": 18.9171569}, {"type": "node", "id": 2827171169, "lat": 46.8038276, "lon": 18.9173701}, {"type": "node", "id": 2827171170, "lat": 46.8035329, "lon": 18.9176477}, {"type": "node", "id": 2827171171, "lat": 46.8035614, "lon": 18.9177148}, {"type": "node", "id": 2827171172, "lat": 46.8034375, "lon": 18.9178207}, {"type": "node", "id": 3032130407, "lat": 46.6440415, "lon": 18.9999065, "tags": {"name": "Coop", "opening_hours": "Mo-Fr 05:30-18:00; Sa 06:00-13:00; Su 07:00-11:00", "operator": "COOP", "shop": "supermarket", "website": "http://coop.hu"}}, {"type": "node", "id": 3438076154, "lat": 46.6172856, "lon": 18.856781}, {"type": "node", "id": 3438076156, "lat": 46.6175172, "lon": 18.855885}, {"type": "node", "id": 3438076158, "lat": 46.6191044, "lon": 18.8571809}, {"type": "node", "id": 3452835292, "lat": 46.805333, "lon": 18.923833, "tags": {"brand": "Spar", "brand:wikidata": "Q610492", "name": "Spar", "opening_hours": "Mo-Fr 6:30-20:00; Sa 6:30-17:00; Su 7:00-13:00", "shop": "supermarket", "source": "turistautak.hu", "source:date": "2012-01-01", "url": "http://turistautak.hu/poi.php?id=129711", "wheelchair": "yes"}}, {"type": "node", "id": 3457908973, "lat": 46.6414321, "lon": 19.0010325}, {"type": "node", "id": 3457908975, "lat": 46.6415113, "lon": 19.0014176}, {"type": "node", "id": 3457908976, "lat": 46.641528, "lon": 19.0009906}, {"type": "node", "id": 3457908977, "lat": 46.6415867, "lon": 19.0012762}, {"type": "node", "id": 3457908978, "lat": 46.6416072, "lon": 19.0013758}, {"type": "node", "id": 3749251791, "lat": 46.6195304, "lon": 18.8573061}, {"type": "node", "id": 3749251792, "lat": 46.6194466, "lon": 18.85706}, {"type": "node", "id": 3749251793, "lat": 46.6193574, "lon": 18.8571243}, {"type": "node", "id": 3749251794, "lat": 46.6193364, "lon": 18.8570626}, {"type": "node", "id": 3749251795, "lat": 46.6191178, "lon": 18.8572203}, {"type": "node", "id": 3749251796, "lat": 46.6189852, "lon": 18.857267}, {"type": "node", "id": 3749251797, "lat": 46.6191026, "lon": 18.857612}, {"type": "node", "id": 3749251798, "lat": 46.6192985, "lon": 18.8574707}, {"type": "node", "id": 3749251799, "lat": 46.6193096, "lon": 18.8575034}, {"type": "node", "id": 3749251800, "lat": 46.6194902, "lon": 18.8573731}, {"type": "node", "id": 3749251801, "lat": 46.6194798, "lon": 18.8573426}, {"type": "node", "id": 4745091203, "lat": 46.8855042, "lon": 18.9755852}, {"type": "node", "id": 4745091204, "lat": 46.8855262, "lon": 18.9757363}, {"type": "node", "id": 4745091205, "lat": 46.8854092, "lon": 18.9757729}, {"type": "node", "id": 4745091206, "lat": 46.8853871, "lon": 18.9756219}, {"type": "node", "id": 5202804727, "lat": 46.6100274, "lon": 18.852336}, {"type": "node", "id": 5202804728, "lat": 46.6098121, "lon": 18.852336}, {"type": "node", "id": 5202804729, "lat": 46.6098121, "lon": 18.8524087}, {"type": "node", "id": 5202804730, "lat": 46.6096936, "lon": 18.8524177}, {"type": "node", "id": 5202804731, "lat": 46.6096998, "lon": 18.8523496}, {"type": "node", "id": 5202804732, "lat": 46.6094283, "lon": 18.852336}, {"type": "node", "id": 5202804733, "lat": 46.6094346, "lon": 18.8519817}, {"type": "node", "id": 5202804734, "lat": 46.6098121, "lon": 18.8519862}, {"type": "node", "id": 5202804735, "lat": 46.6100274, "lon": 18.8519817}, {"type": "node", "id": 6072491978, "lat": 46.8402074, "lon": 18.9641325, "tags": {"name": "\u00dajtelepi Re\u00e1l Abc", "shop": "supermarket"}}, {"type": "node", "id": 9500786108, "lat": 46.8824981, "lon": 18.6222682}, {"type": "node", "id": 9500786109, "lat": 46.8825091, "lon": 18.6223205}, {"type": "node", "id": 9500786110, "lat": 46.8823377, "lon": 18.6225803}, {"type": "node", "id": 9500786111, "lat": 46.882283, "lon": 18.6226048}, {"type": "node", "id": 9500786112, "lat": 46.8823233, "lon": 18.6227983}, {"type": "node", "id": 9500786113, "lat": 46.8823979, "lon": 18.622765}, {"type": "node", "id": 9583645911, "lat": 46.8948725, "lon": 18.6136536}, {"type": "node", "id": 9583645912, "lat": 46.8946986, "lon": 18.6137383}, {"type": "node", "id": 9583645913, "lat": 46.894968, "lon": 18.6134119}, {"type": "node", "id": 9583645914, "lat": 46.894675, "lon": 18.613684}, {"type": "node", "id": 9583645916, "lat": 46.894994, "lon": 18.6139335}, {"type": "way", "id": 87751269, "nodes": [1020287069, 1020287088, 1020287085, 1020287045, 1020287094, 1020287064, 1020287056, 1020286997, 1020287069], "tags": {"addr:city": "Dunaf\u00f6ldv\u00e1r", "addr:housenumber": "2", "addr:postcode": "7020", "addr:street": "F\u00fczes sor", "air_conditioning": "yes", "brand": "Aldi", "brand:wikidata": "Q125054", "brand:wikipedia": "hu:Aldi", "building": "retail", "contact:facebook": "https://www.facebook.com/ALDI.Magyarorszag", "contact:instagram": "https://www.instagram.com/aldi.magyarorszag", "contact:phone": "+36 80 088 264", "contact:website": "https://www.aldi.hu", "contact:youtube": "https://www.youtube.com/user/ALDIMagyarorszag", "name": "Aldi", "name:fa": "\u0622\u0644\u062f\u06cc", "opening_hours": "Mo-Sa 07:00-20:00; Su 07:00-19:00; PH off", "operator": "ALDI Magyarorsz\u00e1g \u00c9lelmiszer Bt.", "operator:addr": "2051 Biatorb\u00e1gy, M\u00e9sz\u00e1rosok \u00fatja 2.", "payment:cash": "yes", "payment:contactless": "yes", "payment:maestro": "yes", "payment:mastercard": "yes", "payment:mastercard_contactless": "yes", "payment:mastercard_electronic": "yes", "payment:visa": "yes", "payment:visa_electron": "yes", "ref:HU:company": "13 06 058506", "ref:HU:vatin": "22234663-2-44", "ref:vatin": "HU22234663", "shop": "supermarket", "source": "Bing;import;website", "source:date": "2022-10-14"}}, {"type": "way", "id": 221500373, "nodes": [2305270531, 9583645916, 9583645911, 2305270510, 9583645913, 9583645914, 9583645912, 2305270499, 2305270501, 2305270531], "tags": {"addr:city": "S\u00e1rbog\u00e1rd", "addr:housenumber": "19", "addr:postcode": "7000", "addr:street": "Ady Endre \u00fat", "air_conditioning": "yes", "branch": "S\u00e1rbog\u00e1rd Hipermarket", "brand": "Tesco", "brand:wikidata": "Q487494", "brand:wikipedia": "en:Tesco", "building": "retail", "contact:facebook": "https://www.facebook.com/tescoaruhazak", "contact:pinterest": "https://www.pinterest.com/tescohungary/", "contact:website": "https://tesco.hu/aruhazak/aruhaz/tesco-sarbogard-hipermarket/", "contact:youtube": "https://www.youtube.com/user/TescoMagyarorszag", "import": "osm_poi_matchmaker", "internet_access": "wlan", "internet_access:fee": "no", "internet_access:ssid": "tesco-internet", "loyalty_card": "yes", "name": "Tesco", "opening_hours": "Mo-Sa 06:00-21:00; Su 08:00-18:00; PH off", "operator": "TESCO-GLOBAL \u00c1ruh\u00e1zak Zrt.", "operator:addr": "2040 Buda\u00f6rs, Kinizsi \u00fat 1-3.", "payment:american_express": "yes", "payment:cash": "yes", "payment:contactless": "yes", "payment:edenred_card": "yes", "payment:edenred_voucher": "yes", "payment:gift_card": "yes", "payment:jcb": "yes", "payment:maestro": "yes", "payment:mastercard": "yes", "payment:mastercard_contactless": "yes", "payment:mastercard_electronic": "yes", "payment:multipay": "yes", "payment:otp_bankpont": "yes", "payment:otp_cafeteria": "yes", "payment:unionpay": "yes", "payment:v_pay": "yes", "payment:visa": "yes", "payment:visa_electron": "yes", "payment:wire_transfer": "yes", "ref:HU:company": "13-10-040628", "ref:HU:vatin": "10307078-2-44", "ref:vatin": "HU10307078", "shop": "supermarket", "source": "website", "source:date": "2020-09-28", "source:wheelchair": "website", "toilets:wheelchair": "yes", "wheelchair": "yes"}}, {"type": "way", "id": 230893689, "nodes": [2393259849, 9500786108, 9500786109, 2393259853, 2393259850, 9500786110, 9500786111, 9500786112, 9500786113, 2393259851, 2393259852, 2393259849], "tags": {"addr:city": "S\u00e1rbog\u00e1rd", "addr:country": "HU", "addr:housenumber": "184-192", "addr:postcode": "7000", "addr:street": "Ady Endre utca", "alt_name": "Penny Market", "brand": "PENNY", "brand:wikidata": "Q284688", "brand:wikipedia": "en:Penny (supermarket)", "building": "retail", "building:levels": "1", "name": "PENNY", "opening_hours": "Mo-Sa 07:00-20:00; Su 07:00-18:00; PH off", "shop": "supermarket", "website": "https://www.penny.hu", "wheelchair": "yes"}}, {"type": "way", "id": 230894180, "nodes": [2393263618, 2393263619, 2393263620, 2393263621, 2393263622, 2393263623, 2393263618], "tags": {"brand": "Lidl", "brand:wikidata": "Q151954", "brand:wikipedia": "en:Lidl", "building": "retail", "name": "Lidl", "operator": "Lidl", "shop": "supermarket", "website": "https://www.lidl.hu/"}}, {"type": "way", "id": 231256056, "nodes": [2396618736, 2396618737, 2396618738, 2396618739, 2396618740, 2396618741, 2396618742, 2396618743, 2396618745, 2396618736], "tags": {"brand": "Lidl", "brand:wikidata": "Q151954", "brand:wikipedia": "en:Lidl", "building": "retail", "name": "Lidl", "opening_hours": "Mo-Sa 07:00-21:00; Su 07:00-17:00; PH closed", "shop": "supermarket", "website": "https://www.lidl.hu/"}}, {"type": "way", "id": 231256060, "nodes": [2396618751, 2396618752, 2396618753, 2396618761, 2396618754, 2396618755, 2396618756, 2396618751], "tags": {"brand": "Spar", "brand:wikidata": "Q610492", "brand:wikipedia": "en:Spar (retailer)", "building": "retail", "contact:website": "http://www.spar.hu", "name": "Spar", "shop": "supermarket", "website": "http://www.spar.hu", "wheelchair": "yes"}}, {"type": "way", "id": 270246914, "nodes": [2752886725, 3438076156, 2752886726, 3438076154, 2752886727, 2752886728, 2752886725], "tags": {"addr:city": "Paks", "addr:housenumber": "2", "addr:postcode": "7030", "addr:street": "Tolnai \u00fat", "air_conditioning": "yes", "branch": "Paks Hipermarket", "brand": "Tesco", "brand:wikidata": "Q487494", "brand:wikipedia": "en:Tesco", "building": "retail", "building:levels": "1", "contact:facebook": "https://www.facebook.com/tescoaruhazak", "contact:pinterest": "https://www.pinterest.com/tescohungary/", "contact:website": "https://tesco.hu/aruhazak/aruhaz/tesco-paks-hipermarket/", "contact:youtube": "https://www.youtube.com/user/TescoMagyarorszag", "import": "osm_poi_matchmaker", "internet_access": "wlan", "internet_access:fee": "no", "internet_access:ssid": "tesco-internet", "loyalty_card": "yes", "name": "Tesco", "opening_hours": "Mo-Sa 06:00-19:00; Su 08:00-18:00; PH off", "operator": "TESCO-GLOBAL \u00c1ruh\u00e1zak Zrt.", "operator:addr": "2040 Buda\u00f6rs, Kinizsi \u00fat 1-3.", "payment:american_express": "yes", "payment:cash": "yes", "payment:contactless": "yes", "payment:edenred_card": "yes", "payment:edenred_voucher": "yes", "payment:gift_card": "yes", "payment:jcb": "yes", "payment:maestro": "yes", "payment:mastercard": "yes", "payment:mastercard_contactless": "yes", "payment:mastercard_electronic": "yes", "payment:multipay": "yes", "payment:otp_bankpont": "yes", "payment:otp_cafeteria": "yes", "payment:unionpay": "yes", "payment:v_pay": "yes", "payment:visa": "yes", "payment:visa_electron": "yes", "payment:wire_transfer": "yes", "ref:HU:company": "13-10-040628", "ref:HU:vatin": "10307078-2-44", "ref:vatin": "HU10307078", "roof:shape": "flat", "shop": "supermarket", "source": "website", "source:date": "2020-09-28", "source:wheelchair": "website", "wheelchair": "yes"}}, {"type": "way", "id": 278328655, "nodes": [2827171166, 2827171167, 2827171168, 2827171169, 2827171170, 2827171171, 2827171172, 2827171163, 2827171164, 2827171165, 2827171166], "tags": {"alt_name": "Penny Market", "brand": "Penny", "brand:wikidata": "Q284688", "brand:wikipedia": "en:Penny (supermarket)", "building": "retail", "building:levels": "1", "contact:website": "http://www.penny.hu", "name": "Penny", "opening_hours": "Mo-Sa 06:30-20:00; Su 07:00-18:00; PH off", "shop": "supermarket", "website": "http://www.penny.hu"}}, {"type": "way", "id": 338672000, "nodes": [3457908978, 3457908977, 3457908976, 3457908973, 3457908975, 3457908978], "tags": {"brand": "Real", "brand:wikidata": "Q698473", "brand:wikipedia": "en:Real (hypermarket)", "building": "retail", "name": "Real", "shop": "supermarket", "source": "survey;Bing", "wheelchair": "no"}}, {"type": "way", "id": 371351622, "nodes": [3749251791, 3749251792, 3749251793, 3749251794, 3749251795, 3438076158, 3749251796, 3749251797, 3749251798, 3749251799, 3749251800, 3749251801, 3749251791], "tags": {"addr:city": "Paks", "addr:housenumber": "11", "addr:postcode": "7030", "addr:street": "T\u00e1ncsics Mih\u00e1ly utca", "brand": "Penny", "brand:wikidata": "Q284688", "brand:wikipedia": "en:Penny (supermarket)", "building": "retail", "name": "Penny", "opening_hours": "Mo-Sa 06:00-19:00; Su 07:00-18:00; PH off", "shop": "supermarket"}}, {"type": "way", "id": 481594860, "nodes": [4745091203, 4745091204, 4745091205, 4745091206, 4745091203], "tags": {"addr:city": "Apostag", "addr:housenumber": "46", "addr:postcode": "6088", "addr:street": "Vas\u00fat utca", "building": "retail", "shop": "supermarket"}}, {"type": "way", "id": 537231350, "nodes": [5202804727, 5202804728, 5202804729, 5202804730, 5202804731, 5202804732, 5202804733, 5202804734, 5202804735, 5202804727], "tags": {"addr:city": "Paks", "addr:housenumber": "4", "addr:postcode": "7030", "addr:street": "Vas\u00fat utca", "air_conditioning": "yes", "brand": "Aldi", "brand:wikidata": "Q125054", "brand:wikipedia": "hu:Aldi", "building": "yes", "contact:facebook": "https://www.facebook.com/ALDI.Magyarorszag", "contact:instagram": "https://www.instagram.com/aldi.magyarorszag", "contact:phone": "+36 80 088 264", "contact:website": "https://www.aldi.hu", "contact:youtube": "https://www.youtube.com/user/ALDIMagyarorszag", "name": "Aldi", "name:fa": "\u0622\u0644\u062f\u06cc", "opening_hours": "Mo-Sa 07:00-20:00; Su 07:00-19:00; PH off", "operator": "ALDI Magyarorsz\u00e1g \u00c9lelmiszer Bt.", "operator:addr": "2051 Biatorb\u00e1gy, M\u00e9sz\u00e1rosok \u00fatja 2.", "payment:cash": "yes", "payment:contactless": "yes", "payment:maestro": "yes", "payment:mastercard": "yes", "payment:mastercard_contactless": "yes", "payment:mastercard_electronic": "yes", "payment:visa": "yes", "payment:visa_electron": "yes", "ref:HU:company": "13 06 058506", "ref:HU:vatin": "22234663-2-44", "ref:vatin": "HU22234663", "shop": "supermarket", "source": "import;website", "source:date": "2022-10-14"}}]}