{"version": 0.6, "generator": "Overpass API 0.7.59 e21c39fe", "osm3s": {"timestamp_osm_base": "2023-01-20T17:54:54Z", "copyright": "The data included in this document is from www.openstreetmap.org. The data is made available under ODbL."}, "elements": [{"type": "node", "id": 258101743, "lat": 47.8687899, "lon": 18.2724451, "tags": {"addr:city": "Dulovce", "addr:housenumber": "33", "addr:postcode": "946 56", "addr:street": "Hlavn\u00e1", "addr:streetnumber": "33", "amenity": "library", "contact:email": "sekretariat@dulovce.eu", "contact:phone": "+421 904 659 822", "name": "Obecn\u00e1 kni\u017enica Dulovce"}}, {"type": "node", "id": 721571079, "lat": 47.7617013, "lon": 18.1187409}, {"type": "node", "id": 721582200, "lat": 47.7614354, "lon": 18.1189969}, {"type": "node", "id": 721584908, "lat": 47.7616221, "lon": 18.1189667}, {"type": "node", "id": 721588100, "lat": 47.7613576, "lon": 18.1186551}, {"type": "node", "id": 721594863, "lat": 47.7614539, "lon": 18.118548}, {"type": "node", "id": 721599329, "lat": 47.761282, "lon": 18.1188834}, {"type": "node", "id": 721602473, "lat": 47.7614834, "lon": 18.1188542}, {"type": "node", "id": 721605036, "lat": 47.761406, "lon": 18.118691}, {"type": "node", "id": 727400757, "lat": 47.7572263, "lon": 18.1274879, "tags": {"addr:city": "Kom\u00e1rno", "addr:housenumber": "35", "addr:postcode": "945 33", "addr:street": "E\u00f6tv\u00f6sa", "addr:streetnumber": "35", "amenity": "library", "contact:email": "riaditel@kniznicakomarno.sk", "contact:phone": "+421 35 771 3552", "contact:website": "http://www.kjszkom.sk", "name": "Kni\u017enica J\u00f3zsefa Szinnyeiho v Kom\u00e1rne", "name:hu": "Szinnyei J\u00f3zsef K\u00f6nyvt\u00e1r Kom\u00e1rom"}}, {"type": "node", "id": 1718407673, "lat": 47.9943939, "lon": 18.2643247, "tags": {"amenity": "library", "name": "Obecn\u00e1 kni\u017enica"}}, {"type": "node", "id": 2145550463, "lat": 47.927401, "lon": 18.1279734, "tags": {"amenity": "library", "contact:email": "mks.nesvady@post.sk", "contact:phone": "+421 35 769 2289", "name": "Kni\u017enica Nesvady", "opening_hours": "Mo-Fr 13:00-17:00"}}, {"type": "node", "id": 2193079569, "lat": 48.1096825, "lon": 18.1839866, "tags": {"amenity": "library"}}, {"type": "node", "id": 2222263946, "lat": 48.1031693, "lon": 18.2656483, "tags": {"amenity": "library", "name": "Kni\u017enica"}}, {"type": "node", "id": 2263167134, "lat": 48.0884962, "lon": 18.1846082, "tags": {"addr:city": "\u0160urany", "addr:housenumber": "16", "addr:street": "SNP", "addr:streetnumber": "16", "amenity": "library", "contact:email": "msks-surany@szm.sk", "name": "Mestsk\u00e1 kni\u017enica Michala Matun\u00e1ka", "opening_hours": "Mo,Sa 08:00-12:00; Tu-Fr 09:00-12:00,12:30-17:00; We 08:00-12:00,12:30-17:00", "source": "local knowledge", "website": "https://www.surany.sk/organizacie/mestske-kulturne-stredisko/mestska-kniznica-michala-matunaka-surany"}}, {"type": "node", "id": 2385554588, "lat": 47.7718112, "lon": 17.9730693, "tags": {"amenity": "library", "source": "survey"}}, {"type": "node", "id": 3085754236, "lat": 48.1045094, "lon": 18.3439468, "tags": {"amenity": "library"}}, {"type": "node", "id": 4515915022, "lat": 47.9199314, "lon": 18.2097401, "tags": {"addr:city": "Baj\u010d", "addr:conscriptionnumber": "130", "addr:housenumber": "130", "addr:place": "Baj\u010d", "addr:postcode": "946 54", "amenity": "library", "contact:email": "ocubajc@stonline.sk", "contact:phone": "+421 35 768 1124", "name": "Obecn\u00e1 kni\u017enica Baj\u010d"}}, {"type": "node", "id": 4515915023, "lat": 47.859282, "lon": 18.1289802, "tags": {"addr:city": "Martovce", "addr:conscriptionnumber": "14", "addr:housenumber": "14", "addr:place": "Martovce", "addr:postcode": "947 01", "amenity": "library", "contact:email": "martovce@pnet.sk", "contact:phone": "+421 905 859 201", "name": "Obecn\u00e1 kni\u017enica Martovce"}}, {"type": "node", "id": 4515915024, "lat": 47.8874907, "lon": 17.8968787, "tags": {"addr:city": "Bodzianske L\u00faky", "addr:conscriptionnumber": "1", "addr:housenumber": "1", "addr:place": "Bodzianske L\u00faky", "addr:postcode": "946 14", "amenity": "library", "contact:email": "bodzianskeluky@gutanet.sk", "contact:phone": "+421 35 778 0490", "name": "Obecn\u00e1 kni\u017enica Bodzianske L\u00faky"}}, {"type": "node", "id": 4515915025, "lat": 47.8526705, "lon": 18.0516169, "tags": {"addr:city": "Vrbov\u00e1 nad V\u00e1hom", "addr:conscriptionnumber": "91", "addr:housenumber": "91", "addr:place": "Vrbov\u00e1 nad V\u00e1hom", "addr:postcode": "946 65", "amenity": "library", "contact:email": "vrbova@pnet.sk", "contact:phone": "+421 908 715 780", "name": "Obecn\u00e1 kni\u017enica Vrbov\u00e1 nad V\u00e1hom"}}, {"type": "node", "id": 4515915026, "lat": 47.8329618, "lon": 18.3185133, "tags": {"addr:city": "Mudro\u0148ovo", "addr:conscriptionnumber": "65", "addr:housenumber": "65", "addr:place": "Mudro\u0148ovo", "addr:postcode": "946 32", "amenity": "library", "contact:email": "obecmudronovo@azet.sk", "contact:phone": "+421 35 778 8116", "name": "Obecn\u00e1 kni\u017enica Mudro\u0148ovo"}}, {"type": "node", "id": 4515915027, "lat": 47.8175311, "lon": 18.0401867, "tags": {"addr:city": "Kameni\u010dn\u00e1", "addr:conscriptionnumber": "790", "addr:housenumber": "790", "addr:place": "Kameni\u010dn\u00e1", "addr:postcode": "946 01", "amenity": "library", "contact:email": "starosta@kamenicna.eu", "contact:phone": "+421 35 779 2166", "name": "Obecn\u00e1 kni\u017enica Kameni\u010dn\u00e1"}}, {"type": "node", "id": 4515924636, "lat": 47.7705395, "lon": 17.9712528, "tags": {"addr:city": "Zlatn\u00e1 na Ostrove", "addr:conscriptionnumber": "184", "addr:housenumber": "184", "addr:place": "Zlatn\u00e1 na Ostrove", "addr:postcode": "946 12", "amenity": "library", "contact:email": "aranyoskh@stonline.sk", "contact:phone": "+421 35 778 1169", "name": "Obecn\u00e1 kni\u017enica Zlatn\u00e1 na Ostrove"}}, {"type": "node", "id": 4518831817, "lat": 48.0063566, "lon": 18.5114347, "tags": {"addr:city": "Farn\u00e1", "addr:conscriptionnumber": "159", "addr:housenumber": "159", "addr:place": "Farn\u00e1", "addr:postcode": "935 66", "amenity": "library", "contact:email": "kniznicafarna@azet.sk", "contact:phone": "+421 907 348 518", "name": "Miestna kni\u017enica Farn\u00e1"}}, {"type": "node", "id": 4532186126, "lat": 48.0739182, "lon": 17.8839913, "tags": {"addr:city": "\u017dih\u00e1rec", "addr:conscriptionnumber": "182", "addr:housenumber": "182", "addr:place": "\u017dih\u00e1rec", "addr:postcode": "925 83", "amenity": "library", "contact:email": "obecziharec@mail.t-com.sk", "contact:phone": "+421 31 779 8201", "name": "Obecn\u00e1 kni\u017enica \u017dih\u00e1rec"}}, {"type": "node", "id": 5417992377, "lat": 48.0420771, "lon": 18.2626518, "tags": {"addr:city": "Be\u0161e\u0148ov", "addr:conscriptionnumber": "33", "addr:housenumber": "33", "addr:place": "Be\u0161e\u0148ov", "addr:postcode": "941 41", "amenity": "library", "contact:email": "obec.besenov@stonline.sk", "contact:phone": "+421 35 648 7121", "name": "Obecn\u00e1 kni\u017enica Be\u0161e\u0148ov"}}, {"type": "node", "id": 5417992382, "lat": 48.0178717, "lon": 18.4141247, "tags": {"addr:city": "Kolta", "addr:conscriptionnumber": "1", "addr:housenumber": "1", "addr:place": "Kolta", "addr:postcode": "94133", "amenity": "library", "contact:email": "obeckolta@stonline.sk", "contact:phone": "+421 903 526 460", "name": "Obecn\u00e1 kni\u017enica Kolta"}}, {"type": "node", "id": 5417992383, "lat": 48.1145546, "lon": 18.3875865, "tags": {"addr:city": "Pozba", "addr:conscriptionnumber": "162", "addr:housenumber": "162", "addr:place": "Pozba", "addr:postcode": "941 51", "amenity": "library", "contact:email": "ocupozba@gmail.com", "contact:phone": "+421 35 651 5122", "name": "Obecn\u00e1 kni\u017enica Pozba"}}, {"type": "node", "id": 5417992384, "lat": 47.9584883, "lon": 18.4106232, "tags": {"addr:city": "Dubn\u00edk", "addr:conscriptionnumber": "244", "addr:housenumber": "244", "addr:place": "Dubn\u00edk", "addr:postcode": "941 35", "amenity": "library", "contact:email": "sekretariat@obec-dubnik.sk", "contact:phone": "+421 35 649 5301", "name": "Obecn\u00e1 kni\u017enica Dubn\u00edk"}}, {"type": "node", "id": 5417992385, "lat": 48.0942213, "lon": 18.302575, "tags": {"amenity": "library", "contact:phone": "+421 35 658 2331", "name": "Obecn\u00e1 kni\u017enica Radava"}}, {"type": "node", "id": 5417992386, "lat": 47.9849445, "lon": 17.9919044, "tags": {"addr:city": "Zemn\u00e9", "addr:conscriptionnumber": "1", "addr:housenumber": "1", "addr:place": "Zemn\u00e9", "addr:postcode": "941 22", "amenity": "library", "contact:email": "obecny.urad@zemne.sk", "contact:phone": "+421 35 647 6116", "name": "Obecn\u00e1 kni\u017enica A. Jedlika Zemn\u00e9"}}, {"type": "node", "id": 5417992389, "lat": 48.0568005, "lon": 18.3346395, "tags": {"addr:city": "Ve\u013ek\u00e9 Lovce", "addr:conscriptionnumber": "40", "addr:housenumber": "40", "addr:place": "Ve\u013ek\u00e9 Lovce", "addr:postcode": "941 42", "amenity": "library", "contact:email": "obecnyurad@velkelovce.sk", "contact:phone": "+421 905 196 749", "name": "Obecn\u00e1 kni\u017enica Ve\u013ek\u00e9 Lovce"}}, {"type": "node", "id": 5417992390, "lat": 47.9293275, "lon": 18.3988464, "tags": {"addr:city": "R\u00faba\u0148", "addr:conscriptionnumber": "28", "addr:housenumber": "28", "addr:place": "R\u00faba\u0148", "addr:postcode": "941 36", "amenity": "library", "contact:email": "starosta@obecruban.sk", "contact:phone": "+421 35 649 9003", "name": "Obecn\u00e1 kni\u017enica R\u00faba\u0148", "opening_hours": "Th 16:00-18:00", "website": "https://www.obecruban.sk/obec-242/obecna-kniznica/"}}, {"type": "node", "id": 5417992391, "lat": 48.0105224, "lon": 18.3590156, "tags": {"addr:city": "Semerovo", "addr:conscriptionnumber": "345", "addr:housenumber": "345", "addr:place": "Semerovo", "addr:postcode": "941 32", "amenity": "library", "contact:email": "obec.semerovo@stonline.sk", "contact:phone": "+421 915 043 014", "name": "Obecn\u00e1 kni\u017enica Semerovo"}}, {"type": "node", "id": 5417992392, "lat": 47.9891121, "lon": 18.3980105, "tags": {"addr:city": "Jasov\u00e1", "addr:conscriptionnumber": "303", "addr:housenumber": "303", "addr:place": "Jasov\u00e1", "addr:postcode": "94134", "amenity": "library", "contact:email": "starosta@jasovaobec.sk", "contact:phone": "+421 35 647 7121", "name": "Obecn\u00e1 kni\u017enica Jasov\u00e1"}}, {"type": "node", "id": 5417992394, "lat": 48.0323405, "lon": 18.3731269, "tags": {"addr:city": "\u010cechy", "addr:conscriptionnumber": "135", "addr:housenumber": "135", "addr:place": "\u010cechy", "addr:postcode": "941 32", "amenity": "library", "contact:email": "obec.cechy@komnet.sk", "contact:phone": "+421 35 647 0125", "name": "Obecn\u00e1 kni\u017enica \u010cechy"}}, {"type": "node", "id": 5417992395, "lat": 47.9929994, "lon": 18.1046903, "tags": {"amenity": "library", "email": "kniznicaandovce@gmail.com", "name": "Kni\u017enica Gergelya Czuczora, Andovce", "opening_hours": "Tu,Th 15:00-18:00"}}, {"type": "node", "id": 5491871944, "lat": 47.761341, "lon": 18.1189271, "tags": {"entrance": "yes"}}, {"type": "node", "id": 8544547235, "lat": 47.8969543, "lon": 18.4133837, "tags": {"amenity": "library", "name": "Kni\u017enica Villebalda Dancziho", "website": "http://www.strekov.sk/obec-2/institucie/kniznica-villebalda-dancziho/"}}, {"type": "node", "id": 9588575257, "lat": 48.1371014, "lon": 18.075074, "tags": {"amenity": "library", "level": "1", "name": "Gorazdova \u010dit\u00e1re\u0148", "opening_hours": "We 15:00-17:00; PH off", "operator": "Mgr. M\u00e1ria Der\u010fakov\u00e1", "phone": "+421 917 857 814"}}, {"type": "way", "id": 58176385, "nodes": [721584908, 721602473, 721582200, 5491871944, 721599329, 721588100, 721605036, 721594863, 721571079, 721584908], "tags": {"amenity": "library", "building": "yes", "import": "budovy201004", "name": "Kni\u017enica J\u00f3zsefa Szinnyeiho", "name:hu": "Szinnyei J\u00f3zsef K\u00f6nyvt\u00e1r", "source": "kapor2", "website": "http://www.kjszkom.sk/index.php"}}]}