{"version": 0.6, "generator": "Overpass API 0.7.59 e21c39fe", "osm3s": {"timestamp_osm_base": "2023-01-21T09:46:07Z", "copyright": "The data included in this document is from www.openstreetmap.org. The data is made available under ODbL."}, "elements": [{"type": "node", "id": 31929767, "lat": 47.529812, "lon": 19.2358335, "tags": {"addr:city": "Budapest", "addr:housenumber": "81", "addr:postcode": "1164", "addr:street": "Szabadf\u00f6ld \u00fat", "air_conditioning": "yes", "amenity": "fuel", "brand": "MOL", "brand:wikidata": "Q549181", "brand:wikipedia": "hu:MOL Magyar Olaj- \u00e9s G\u00e1zipari Nyrt.", "compressed_air": "yes", "contact:facebook": "https://www.facebook.com/mol.magyarorszag/", "contact:instagram": "https://www.instagram.com/mol.magyarorszag/", "contact:website": "https://www.mol.hu", "contact:youtube": "https://www.youtube.com/user/molgrouptv", "food": "no", "fuel:GTL_diesel": "yes", "fuel:adblue": "no", "fuel:diesel": "yes", "fuel:lpg": "no", "fuel:octane_100": "yes", "fuel:octane_95": "yes", "name": "MOL", "operator": "MOL Nyrt.", "operator:addr": "1117 Budapest, Domb\u00f3v\u00e1ri \u00fat 28.", "payment:cash": "yes", "payment:contactless": "yes", "payment:maestro": "yes", "payment:mastercard": "yes", "payment:mastercard_contactless": "yes", "payment:mastercard_electronic": "yes", "payment:visa": "yes", "payment:visa_electron": "yes", "ref:HU:company": "01-10-041683", "ref:HU:vatin": "10625790-4-44", "rent:lpg_bottles": "yes", "source": "website", "source:date": "2022-05-21", "truck": "no"}}, {"type": "node", "id": 255308589, "lat": 47.6691047, "lon": 19.6258792, "tags": {"addr:city": "Hatvan", "addr:postcode": "3009", "air_conditioning": "yes", "amenity": "fuel", "brand": "MOL", "brand:wikidata": "Q549181", "brand:wikipedia": "hu:MOL Magyar Olaj- \u00e9s G\u00e1zipari Nyrt.", "compressed_air": "yes", "contact:facebook": "https://www.facebook.com/mol.magyarorszag/", "contact:instagram": "https://www.instagram.com/mol.magyarorszag/", "contact:website": "https://www.mol.hu", "contact:youtube": "https://www.youtube.com/user/molgrouptv", "food": "yes", "fuel:GTL_diesel": "yes", "fuel:adblue": "yes", "fuel:diesel": "yes", "fuel:lpg": "no", "fuel:octane_100": "yes", "fuel:octane_95": "yes", "name": "MOL", "operator": "MOL Nyrt.", "operator:addr": "1117 Budapest, Domb\u00f3v\u00e1ri \u00fat 28.", "payment:cash": "yes", "payment:contactless": "yes", "payment:maestro": "yes", "payment:mastercard": "yes", "payment:mastercard_contactless": "yes", "payment:mastercard_electronic": "yes", "payment:visa": "yes", "payment:visa_electron": "yes", "ref:HU:company": "01-10-041683", "ref:HU:vatin": "10625790-4-44", "rent:lpg_bottles": "no", "source": "website", "source:date": "2022-05-21", "truck": "no"}}, {"type": "node", "id": 255308663, "lat": 47.6675254, "lon": 19.6245538, "tags": {"amenity": "fuel", "brand": "MOL", "name": "MOL", "website": "https://mol.hu/"}}, {"type": "node", "id": 279755229, "lat": 47.6557924, "lon": 19.1589304}, {"type": "node", "id": 279755361, "lat": 47.6548559, "lon": 19.1603262}, {"type": "node", "id": 324396461, "lat": 47.6624817, "lon": 19.6468579, "tags": {"addr:city": "Hatvan", "addr:housenumber": "101", "addr:postcode": "3000", "addr:street": "R\u00e1k\u00f3czi \u00fat", "air_conditioning": "yes", "amenity": "fuel", "brand": "MOL", "brand:wikidata": "Q549181", "brand:wikipedia": "hu:MOL Magyar Olaj- \u00e9s G\u00e1zipari Nyrt.", "compressed_air": "yes", "contact:facebook": "https://www.facebook.com/mol.magyarorszag/", "contact:instagram": "https://www.instagram.com/mol.magyarorszag/", "contact:phone": "+36 37 349 236", "contact:website": "https://www.mol.hu", "contact:youtube": "https://www.youtube.com/user/molgrouptv", "food": "no", "fuel:GTL_diesel": "yes", "fuel:adblue": "no", "fuel:diesel": "yes", "fuel:lpg": "no", "fuel:octane_100": "yes", "fuel:octane_95": "yes", "name": "MOL", "operator": "MOL Nyrt.", "operator:addr": "1117 Budapest, Domb\u00f3v\u00e1ri \u00fat 28.", "payment:cash": "yes", "payment:contactless": "yes", "payment:maestro": "yes", "payment:mastercard": "yes", "payment:mastercard_contactless": "yes", "payment:mastercard_electronic": "yes", "payment:visa": "yes", "payment:visa_electron": "yes", "ref:HU:company": "01-10-041683", "ref:HU:vatin": "10625790-4-44", "rent:lpg_bottles": "yes", "source": "website", "source:date": "2022-05-21", "truck": "no"}}, {"type": "node", "id": 483032413, "lat": 47.6542537, "lon": 19.2882145, "tags": {"addr:city": "Veresegyh\u00e1z", "addr:postcode": "2112", "addr:street": "F\u0151 \u00fat", "air_conditioning": "yes", "amenity": "fuel", "brand": "MOL", "brand:wikidata": "Q549181", "brand:wikipedia": "hu:MOL Magyar Olaj- \u00e9s G\u00e1zipari Nyrt.", "compressed_air": "yes", "contact:facebook": "https://www.facebook.com/mol.magyarorszag/", "contact:instagram": "https://www.instagram.com/mol.magyarorszag/", "contact:website": "https://www.mol.hu", "contact:youtube": "https://www.youtube.com/user/molgrouptv", "food": "no", "fuel:GTL_diesel": "yes", "fuel:adblue": "no", "fuel:diesel": "yes", "fuel:lpg": "no", "fuel:octane_100": "yes", "fuel:octane_95": "yes", "name": "MOL", "opening_hours": "Mo-Su 06:00-20:00", "operator": "MOL Nyrt.", "operator:addr": "1117 Budapest, Domb\u00f3v\u00e1ri \u00fat 28.", "payment:cash": "yes", "payment:contactless": "yes", "payment:maestro": "yes", "payment:mastercard": "yes", "payment:mastercard_contactless": "yes", "payment:mastercard_electronic": "yes", "payment:visa": "yes", "payment:visa_electron": "yes", "ref:HU:company": "01-10-041683", "ref:HU:vatin": "10625790-4-44", "rent:lpg_bottles": "no", "source": "website", "source:date": "2022-05-21", "truck": "no", "wheelchair": "no"}}, {"type": "node", "id": 483032414, "lat": 47.6476939, "lon": 19.2945081, "tags": {"addr:city": "Veresegyh\u00e1z", "addr:housenumber": "2", "addr:postcode": "2112", "addr:street": "F\u00e1y utca", "air_conditioning": "yes", "amenity": "fuel", "brand": "OMV", "brand:wikidata": "Q168238", "brand:wikipedia": "en:OMV", "compressed_air": "yes", "contact:email": "info.hungary@omv.com", "contact:facebook": "https://www.facebook.com/omvmagyarorszag", "contact:fax": "+36 1 381 9899", "contact:instagram": "https://www.instagram.com/omv/", "contact:linkedin": "https://www.linkedin.com/company/omv", "contact:phone": "+36 28 586 971", "contact:twitter": "omv", "contact:website": "https://www.omv.hu", "contact:youtube": "https://www.youtube.com/user/omvofficial", "fuel:GTL_diesel": "yes", "fuel:diesel": "yes", "fuel:octane_100": "yes", "fuel:octane_95": "yes", "name": "OMV", "opening_hours": "24/7", "opening_hours:covid19": "same", "operator": "OMV Hung\u00e1ria Kft.", "operator:addr": "1117 Budapest, Okt\u00f3ber huszonharmadika utca 6-10 5. emelet 5/A.", "payment:cash": "yes", "payment:contactless": "yes", "payment:maestro": "yes", "payment:mastercard": "yes", "payment:mastercard_contactless": "yes", "payment:mastercard_electronic": "yes", "payment:visa": "yes", "payment:visa_electron": "yes", "ref:HU:company": "01-09-071584", "ref:HU:vatin": "10542925-2-44", "ref:vatin": "HU10542925", "source": "website", "source:date": "2020-10-03", "wheelchair": "yes"}}, {"type": "node", "id": 496234145, "lat": 47.4166765, "lon": 19.2069459}, {"type": "node", "id": 496234146, "lat": 47.4165535, "lon": 19.2069223}, {"type": "node", "id": 496234147, "lat": 47.4165533, "lon": 19.2066695}, {"type": "node", "id": 496234148, "lat": 47.4166554, "lon": 19.20668}, {"type": "node", "id": 516431827, "lat": 47.4191382, "lon": 19.2461706, "tags": {"addr:city": "Vecs\u00e9s", "addr:postcode": "2220", "addr:street": "F\u0151 \u00fat", "air_conditioning": "yes", "amenity": "fuel", "brand": "MOL", "brand:wikidata": "Q549181", "brand:wikipedia": "hu:MOL Magyar Olaj- \u00e9s G\u00e1zipari Nyrt.", "compressed_air": "yes", "contact:facebook": "https://www.facebook.com/mol.magyarorszag/", "contact:instagram": "https://www.instagram.com/mol.magyarorszag/", "contact:website": "https://www.mol.hu", "contact:youtube": "https://www.youtube.com/user/molgrouptv", "food": "yes", "fuel:GTL_diesel": "yes", "fuel:adblue": "no", "fuel:diesel": "yes", "fuel:lpg": "yes", "fuel:octane_100": "yes", "fuel:octane_95": "yes", "name": "MOL", "old_name": "Agip", "operator": "MOL Nyrt.", "operator:addr": "1117 Budapest, Domb\u00f3v\u00e1ri \u00fat 28.", "payment:cash": "yes", "payment:contactless": "yes", "payment:maestro": "yes", "payment:mastercard": "yes", "payment:mastercard_contactless": "yes", "payment:mastercard_electronic": "yes", "payment:visa": "yes", "payment:visa_electron": "yes", "ref:HU:company": "01-10-041683", "ref:HU:vatin": "10625790-4-44", "rent:lpg_bottles": "yes", "source": "website", "source:date": "2022-05-21", "truck": "no", "wheelchair": "yes"}}, {"type": "node", "id": 549761467, "lat": 47.3838924, "lon": 19.2833415, "tags": {"addr:city": "Vecs\u00e9s", "addr:postcode": "2220", "air_conditioning": "yes", "amenity": "fuel", "brand": "MOL", "brand:wikidata": "Q549181", "brand:wikipedia": "en:MOL (company)", "contact:facebook": "https://www.facebook.com/mol.magyarorszag/", "contact:instagram": "https://www.instagram.com/mol.magyarorszag/", "contact:website": "https://www.mol.hu", "contact:youtube": "https://www.youtube.com/user/molgrouptv", "fuel:diesel": "yes", "fuel:octane_95": "yes", "name": "MOL", "operator": "MOL Nyrt.", "operator:addr": "1117 Budapest, Domb\u00f3v\u00e1ri \u00fat 28.", "payment:cash": "yes", "payment:contactless": "yes", "payment:maestro": "yes", "payment:mastercard": "yes", "payment:mastercard_contactless": "yes", "payment:mastercard_electronic": "yes", "payment:visa": "yes", "payment:visa_electron": "yes", "ref:HU:company": "01-10-041683", "ref:HU:vatin": "10625790-4-44", "source": "website", "source:date": "2019-11-06"}}, {"type": "node", "id": 703392678, "lat": 47.4228089, "lon": 19.2371116, "tags": {"addr:city": "Vecs\u00e9s", "addr:housenumber": "812", "addr:postcode": "2220", "addr:street": "\u00dcll\u0151i \u00fat", "amenity": "fuel", "brand": "Avia", "brand:wikidata": "Q300147", "brand:wikipedia": "de:Avia International", "compressed_air": "yes", "contact:email": "avia@avia.hu", "contact:facebook": "https://www.facebook.com/AVIAHungary", "contact:fax": "+36 1 460 9623", "contact:phone": "+36 29 552 530;+36 20 979 1880", "contact:website": "https://www.avia.hu/toltoallomas/?id=13", "contact:youtube": "https://www.youtube.com/channel/UCjvjkjf2RgmKBuTnKSXk-Rg", "food": "no", "fuel:cng": "yes", "fuel:diesel": "yes", "fuel:e85": "no", "fuel:lpg": "yes", "fuel:octane_95": "yes", "fuel:octane_98": "no", "name": "Avia", "operator": "AVIA Hung\u00e1ria Kft.", "payment:cash": "yes", "payment:contactless": "yes", "payment:maestro": "yes", "payment:mastercard": "yes", "payment:mastercard_contactless": "yes", "payment:mastercard_electronic": "yes", "payment:visa": "yes", "payment:visa_electron": "yes", "rent:lpg_bottles": "yes", "restaurant": "no", "source:www.avia.hu:date": "2021-12-17", "truck": "no"}}, {"type": "node", "id": 770083289, "lat": 47.6491983, "lon": 19.4702021}, {"type": "node", "id": 895788164, "lat": 47.6906792, "lon": 19.2560831, "tags": {"addr:city": "\u0150rbotty\u00e1n", "addr:conscriptionnumber": "9733/2", "addr:postcode": "2162", "addr:street": "F\u0151 \u00fat", "amenity": "fuel", "brand": "Avia", "brand:wikidata": "Q300147", "brand:wikipedia": "de:Avia International", "compressed_air": "yes", "contact:email": "avia@avia.hu", "contact:facebook": "https://www.facebook.com/AVIAHungary", "contact:phone": "+36 20 979 2560", "contact:website": "https://www.avia.hu/toltoallomas/?id=113", "contact:youtube": "https://www.youtube.com/channel/UCjvjkjf2RgmKBuTnKSXk-Rg", "food": "yes", "fuel:diesel": "yes", "fuel:e85": "no", "fuel:lpg": "yes", "fuel:octane_95": "yes", "fuel:octane_98": "no", "name": "Avia", "operator": "AVIA Hung\u00e1ria Kft.", "payment:cash": "yes", "payment:contactless": "yes", "payment:maestro": "yes", "payment:mastercard": "yes", "payment:mastercard_contactless": "yes", "payment:mastercard_electronic": "yes", "payment:visa": "yes", "payment:visa_electron": "yes", "rent:lpg_bottles": "yes", "restaurant": "no", "source:www.avia.hu:date": "2021-12-17", "truck": "no", "wheelchair": "limited"}}, {"type": "node", "id": 923952240, "lat": 47.6164436, "lon": 19.1975439}, {"type": "node", "id": 928445624, "lat": 47.6149506, "lon": 19.1757445, "tags": {"addr:city": "F\u00f3t", "addr:housenumber": "7/A", "addr:postcode": "2151", "addr:street": "Keleti M\u00e1rton utca", "amenity": "fuel", "brand": "OIL!", "name": "OIL!", "opening_hours": "Mo-Fr 06:00-20:30; Sa 06:00-20:00", "phone": "+36 30 914 2509", "website": "http://www.oil-benzinkutak.hu"}}, {"type": "node", "id": 955779465, "lat": 47.4477334, "lon": 19.3627135, "tags": {"addr:city": "Magl\u00f3d", "addr:conscriptionnumber": "1528/1", "addr:postcode": "2234", "addr:street": "J\u00e1szber\u00e9nyi \u00fat", "air_conditioning": "yes", "amenity": "fuel", "brand": "OMV", "brand:wikidata": "Q168238", "brand:wikipedia": "en:OMV", "compressed_air": "yes", "contact:email": "info.hungary@omv.com", "contact:facebook": "https://www.facebook.com/omvmagyarorszag", "contact:fax": "+36 1 381 9899", "contact:instagram": "https://www.instagram.com/omv/", "contact:linkedin": "https://www.linkedin.com/company/omv", "contact:phone": "+36 29 325 704", "contact:twitter": "omv", "contact:website": "https://www.omv.hu", "contact:youtube": "https://www.youtube.com/user/omvofficial", "fuel:GTL_diesel": "yes", "fuel:diesel": "yes", "fuel:octane_100": "yes", "fuel:octane_95": "yes", "internet_access": "wlan", "name": "OMV", "opening_hours": "24/7", "opening_hours:covid19": "same", "operator": "OMV Hung\u00e1ria Kft.", "operator:addr": "1117 Budapest, Okt\u00f3ber huszonharmadika utca 6-10 5. emelet 5/A.", "payment:cash": "yes", "payment:contactless": "yes", "payment:maestro": "yes", "payment:mastercard": "yes", "payment:mastercard_contactless": "yes", "payment:mastercard_electronic": "yes", "payment:visa": "yes", "payment:visa_electron": "yes", "ref:HU:company": "01-09-071584", "ref:HU:vatin": "10542925-2-44", "ref:vatin": "HU10542925", "source": "website", "source:date": "2020-10-03"}}, {"type": "node", "id": 1043047247, "lat": 47.5396668, "lon": 19.2466549}, {"type": "node", "id": 1043047264, "lat": 47.5393275, "lon": 19.2465711}, {"type": "node", "id": 1043047317, "lat": 47.539635, "lon": 19.2467654}, {"type": "node", "id": 1043047334, "lat": 47.5393594, "lon": 19.2464606}, {"type": "node", "id": 1058733587, "lat": 47.4403232, "lon": 19.3478663, "tags": {"addr:city": "Magl\u00f3d", "addr:country": "HU", "addr:housenumber": "6/A", "addr:postcode": "2234", "addr:street": "Liszt Ferenc utca", "amenity": "fuel", "brand": "OIL!", "brand:wikidata": "Q2007561", "fuel:biodiesel": "no", "fuel:diesel": "no", "fuel:ethanol": "no", "fuel:lpg": "no", "fuel:octane_100": "no", "fuel:octane_95": "yes", "fuel:octane_98": "no", "name": "OIL!", "source": "local knowledge"}}, {"type": "node", "id": 1190960309, "lat": 47.417526, "lon": 19.2551405, "tags": {"amenity": "fuel", "brand": "Shell", "brand:wikidata": "Q110716465", "brand:wikipedia": "en:Royal Dutch Shell", "fuel:diesel": "yes", "fuel:lpg": "no", "fuel:octane_100": "no", "fuel:octane_95": "yes", "fuel:octane_98": "yes", "name": "Shell", "opening_hours": "24/7", "wheelchair": "yes"}}, {"type": "node", "id": 1214495520, "lat": 47.3845706, "lon": 19.2820627, "tags": {"addr:city": "Vecs\u00e9s", "addr:postcode": "2220", "air_conditioning": "yes", "amenity": "fuel", "brand": "MOL", "brand:wikidata": "Q549181", "brand:wikipedia": "hu:MOL Magyar Olaj- \u00e9s G\u00e1zipari Nyrt.", "compressed_air": "yes", "contact:facebook": "https://www.facebook.com/mol.magyarorszag/", "contact:instagram": "https://www.instagram.com/mol.magyarorszag/", "contact:website": "https://www.mol.hu", "contact:youtube": "https://www.youtube.com/user/molgrouptv", "food": "no", "fuel:GTL_diesel": "yes", "fuel:adblue": "yes", "fuel:diesel": "yes", "fuel:lpg": "no", "fuel:octane_100": "yes", "fuel:octane_95": "yes", "name": "MOL", "operator": "MOL Nyrt.", "operator:addr": "1117 Budapest, Domb\u00f3v\u00e1ri \u00fat 28.", "payment:cash": "yes", "payment:contactless": "yes", "payment:maestro": "yes", "payment:mastercard": "yes", "payment:mastercard_contactless": "yes", "payment:mastercard_electronic": "yes", "payment:visa": "yes", "payment:visa_electron": "yes", "ref:HU:company": "01-10-041683", "ref:HU:vatin": "10625790-4-44", "rent:lpg_bottles": "no", "source": "website", "source:date": "2022-05-21", "truck": "no"}}, {"type": "node", "id": 1223104223, "lat": 47.4400657, "lon": 19.319528, "tags": {"amenity": "fuel", "brand": "Agip", "brand:wikidata": "Q377915", "brand:wikipedia": "en:Agip", "name": "Agip"}}, {"type": "node", "id": 1304796602, "lat": 47.4187978, "lon": 19.4088946, "tags": {"addr:city": "Gy\u00f6mr\u0151", "addr:housenumber": "23", "addr:postcode": "2230", "addr:street": "Mendei \u00fat", "air_conditioning": "yes", "amenity": "fuel", "brand": "MOL", "brand:wikidata": "Q549181", "brand:wikipedia": "hu:MOL Magyar Olaj- \u00e9s G\u00e1zipari Nyrt.", "compressed_air": "yes", "contact:facebook": "https://www.facebook.com/mol.magyarorszag/", "contact:instagram": "https://www.instagram.com/mol.magyarorszag/", "contact:website": "https://www.mol.hu", "contact:youtube": "https://www.youtube.com/user/molgrouptv", "ethanol": "no", "food": "no", "fuel:GTL_diesel": "yes", "fuel:adblue": "no", "fuel:biodiesel": "no", "fuel:diesel": "yes", "fuel:lpg": "yes", "fuel:octane_100": "yes", "fuel:octane_95": "yes", "name": "MOL", "opening_hours": "24/7", "operator": "MOL Nyrt.", "operator:addr": "1117 Budapest, Domb\u00f3v\u00e1ri \u00fat 28.", "payment:cash": "yes", "payment:contactless": "yes", "payment:maestro": "yes", "payment:mastercard": "yes", "payment:mastercard_contactless": "yes", "payment:mastercard_electronic": "yes", "payment:visa": "yes", "payment:visa_electron": "yes", "ref:HU:company": "01-10-041683", "ref:HU:vatin": "10625790-4-44", "rent:lpg_bottles": "yes", "source": "website", "source:date": "2022-05-21", "truck": "no"}}, {"type": "node", "id": 1305236226, "lat": 47.4610421, "lon": 19.3362672}, {"type": "node", "id": 1305236246, "lat": 47.4609996, "lon": 19.336358}, {"type": "node", "id": 1305236251, "lat": 47.4607304, "lon": 19.3360822}, {"type": "node", "id": 1404498109, "lat": 47.6691273, "lon": 19.6745017, "tags": {"amenity": "fuel", "brand": "Shell", "fuel:diesel": "yes", "fuel:lpg": "yes", "fuel:octane_95": "yes", "name": "Shell", "operator": "Shell", "website": "https://www.shell.hu/"}}, {"type": "node", "id": 1404502919, "lat": 47.6779743, "lon": 19.6676922, "tags": {"amenity": "fuel", "brand": "Shell", "name": "Shell", "operator": "Shell", "website": "https://www.shell.hu/"}}, {"type": "node", "id": 1446022329, "lat": 47.6666386, "lon": 19.5247597, "tags": {"addr:city": "Kartal", "addr:housenumber": "1", "addr:postcode": "2173", "addr:street": "R\u00e1k\u00f3czi \u00fat", "air_conditioning": "yes", "amenity": "fuel", "brand": "MOL", "brand:wikidata": "Q549181", "brand:wikipedia": "hu:MOL Magyar Olaj- \u00e9s G\u00e1zipari Nyrt.", "compressed_air": "yes", "contact:facebook": "https://www.facebook.com/mol.magyarorszag/", "contact:instagram": "https://www.instagram.com/mol.magyarorszag/", "contact:website": "https://www.mol.hu", "contact:youtube": "https://www.youtube.com/user/molgrouptv", "food": "no", "fuel:GTL_diesel": "yes", "fuel:adblue": "no", "fuel:diesel": "yes", "fuel:lpg": "no", "fuel:octane_100": "yes", "fuel:octane_95": "yes", "name": "MOL", "operator": "MOL Nyrt.", "operator:addr": "1117 Budapest, Domb\u00f3v\u00e1ri \u00fat 28.", "payment:cash": "yes", "payment:contactless": "yes", "payment:maestro": "yes", "payment:mastercard": "yes", "payment:mastercard_contactless": "yes", "payment:mastercard_electronic": "yes", "payment:visa": "yes", "payment:visa_electron": "yes", "ref:HU:company": "01-10-041683", "ref:HU:vatin": "10625790-4-44", "rent:lpg_bottles": "no", "source": "website", "source:date": "2022-05-21", "truck": "no"}}, {"type": "node", "id": 1458535294, "lat": 47.6695578, "lon": 19.4268186, "tags": {"addr:city": "Iklad", "addr:conscriptionnumber": "057/59", "addr:postcode": "2181", "amenity": "fuel", "brand": "Avia", "compressed_air": "yes", "contact:email": "avia@avia.hu", "contact:facebook": "https://www.facebook.com/AVIAHungary", "contact:phone": "+36 20 276 9846", "contact:website": "https://www.avia.hu/toltoallomas/?id=130", "contact:youtube": "https://www.youtube.com/channel/UCjvjkjf2RgmKBuTnKSXk-Rg", "food": "no", "fuel:diesel": "yes", "fuel:e85": "no", "fuel:lpg": "no", "fuel:octane_95": "yes", "fuel:octane_98": "no", "name": "Avia", "operator": "AVIA Hung\u00e1ria Kft.", "payment:cash": "yes", "payment:contactless": "yes", "payment:maestro": "yes", "payment:mastercard": "yes", "payment:mastercard_contactless": "yes", "payment:mastercard_electronic": "yes", "payment:visa": "yes", "payment:visa_electron": "yes", "rent:lpg_bottles": "no", "restaurant": "no", "source:www.avia.hu:date": "2021-12-17", "truck": "no"}}, {"type": "node", "id": 1523356395, "lat": 47.3908551, "lon": 19.3228212, "tags": {"amenity": "fuel", "brand": "LUKOIL", "email": "info.HU@eu.lukoil.com", "name": "LUKOIL", "operator": "LUKOIL Magyarorsz\u00e1g Kft.", "website": "http://www.lukoil.hu", "wheelchair": "limited"}}, {"type": "node", "id": 1673398287, "lat": 47.6056229, "lon": 19.196786, "tags": {"amenity": "fuel", "brand": "Shell", "brand:wikidata": "Q154950", "brand:wikipedia": "en:Royal Dutch Shell", "name": "Shell", "operator": "Shell", "website": "https://www.shell.hu/"}}, {"type": "node", "id": 1683873515, "lat": 47.5494092, "lon": 19.2667224, "tags": {"addr:city": "Kistarcsa", "addr:housenumber": "56", "addr:postcode": "2143", "addr:street": "Szabads\u00e1g \u00fatja", "air_conditioning": "yes", "amenity": "fuel", "brand": "OMV", "brand:wikidata": "Q168238", "brand:wikipedia": "en:OMV", "compressed_air": "yes", "contact:email": "info.hungary@omv.com", "contact:facebook": "https://www.facebook.com/omvmagyarorszag", "contact:fax": "+36 1 381 9899", "contact:instagram": "https://www.instagram.com/omv/", "contact:linkedin": "https://www.linkedin.com/company/omv", "contact:phone": "+36 28 470 098", "contact:twitter": "omv", "contact:website": "https://www.omv.hu", "contact:youtube": "https://www.youtube.com/user/omvofficial", "fuel:GTL_diesel": "yes", "fuel:diesel": "yes", "fuel:octane_100": "yes", "fuel:octane_95": "yes", "fuel:octane_98": "yes", "name": "OMV", "opening_hours": "24/7", "opening_hours:covid19": "same", "operator": "OMV Hung\u00e1ria Kft.", "operator:addr": "1117 Budapest, Okt\u00f3ber huszonharmadika utca 6-10 5. emelet 5/A.", "payment:cash": "yes", "payment:contactless": "yes", "payment:maestro": "yes", "payment:mastercard": "yes", "payment:mastercard_contactless": "yes", "payment:mastercard_electronic": "yes", "payment:visa": "yes", "payment:visa_electron": "yes", "phone": "+36 628 470 098", "ref:HU:company": "01-09-071584", "ref:HU:vatin": "10542925-2-44", "ref:vatin": "HU10542925", "source": "website", "source:date": "2020-10-03"}}, {"type": "node", "id": 1691296973, "lat": 47.484694, "lon": 19.2316036}, {"type": "node", "id": 1691296976, "lat": 47.4852807, "lon": 19.2234162}, {"type": "node", "id": 1702464654, "lat": 47.6226228, "lon": 19.5348292, "tags": {"amenity": "fuel"}}, {"type": "node", "id": 1704152398, "lat": 47.5438994, "lon": 19.2165849, "tags": {"alt_name": "BSS Oil Benzink\u00fat", "amenity": "fuel", "fixme": "position, can this be Major utca 1?", "fuel:diesel": "yes", "fuel:octane_95": "yes", "fuel:octane_98": "yes", "name": "\u00dczemanyagt\u00f6lt\u0151 \u00e1llom\u00e1s", "operator": "K\u00fat 97 Bt."}}, {"type": "node", "id": 1704158900, "lat": 47.5349346, "lon": 19.1806942, "tags": {"addr:city": "Budapest", "addr:postcode": "1162", "addr:street": "Szlov\u00e1k \u00fat", "air_conditioning": "yes", "amenity": "fuel", "brand": "OMV", "brand:wikidata": "Q168238", "brand:wikipedia": "en:OMV", "compressed_air": "yes", "contact:email": "info.hungary@omv.com", "contact:facebook": "https://www.facebook.com/omvmagyarorszag", "contact:fax": "+36 1 381 9899", "contact:instagram": "https://www.instagram.com/omv/", "contact:linkedin": "https://www.linkedin.com/company/omv", "contact:phone": "+36 1 409 5172", "contact:twitter": "omv", "contact:website": "https://www.omv.hu", "contact:youtube": "https://www.youtube.com/user/omvofficial", "fuel:GTL_diesel": "yes", "fuel:diesel": "yes", "fuel:octane_100": "yes", "fuel:octane_95": "yes", "name": "OMV", "opening_hours": "Mo-Su 06:00-22:00; PH off", "opening_hours:covid19": "same", "operator": "OMV Hung\u00e1ria Kft.", "operator:addr": "1117 Budapest, Okt\u00f3ber huszonharmadika utca 6-10 5. emelet 5/A.", "payment:cash": "yes", "payment:contactless": "yes", "payment:maestro": "yes", "payment:mastercard": "yes", "payment:mastercard_contactless": "yes", "payment:mastercard_electronic": "yes", "payment:visa": "yes", "payment:visa_electron": "yes", "ref:HU:company": "01-09-071584", "ref:HU:vatin": "10542925-2-44", "ref:vatin": "HU10542925", "source": "website", "source:date": "2020-10-03"}}, {"type": "node", "id": 1718424656, "lat": 47.407916, "lon": 19.7430011, "tags": {"addr:city": "Nagyk\u00e1ta", "addr:housenumber": "61/A", "addr:postcode": "2760", "addr:street": "J\u00e1szber\u00e9nyi \u00fat", "amenity": "fuel", "brand": "Avia", "brand:wikidata": "Q300147", "brand:wikipedia": "de:Avia International", "compressed_air": "yes", "contact:email": "avia@avia.hu", "contact:facebook": "https://www.facebook.com/AVIAHungary", "contact:phone": "+36 20 551 3285", "contact:website": "https://www.avia.hu/toltoallomas/?id=110", "contact:youtube": "https://www.youtube.com/channel/UCjvjkjf2RgmKBuTnKSXk-Rg", "food": "no", "fuel:diesel": "yes", "fuel:e85": "no", "fuel:lpg": "no", "fuel:octane_95": "yes", "fuel:octane_98": "no", "name": "Avia", "opening_hours": "Mo-Su 04:30-22:00", "operator": "AVIA Hung\u00e1ria Kft.", "payment:cash": "yes", "payment:contactless": "yes", "payment:maestro": "yes", "payment:mastercard": "yes", "payment:mastercard_contactless": "yes", "payment:mastercard_electronic": "yes", "payment:visa": "yes", "payment:visa_electron": "yes", "rent:lpg_bottles": "yes", "restaurant": "no", "source:www.avia.hu:date": "2021-12-17", "truck": "no"}}, {"type": "node", "id": 1806069617, "lat": 47.6696009, "lon": 19.3294698, "tags": {"addr:city": "Erd\u0151kertes", "addr:housenumber": "234", "addr:postcode": "2113", "addr:street": "F\u0151 \u00fat", "amenity": "fuel", "brand": "Independent", "fuel:diesel": "yes", "fuel:e85": "yes", "fuel:octane_95": "yes", "name": "Fixoil Benzink\u00fat", "opening_hours": "Mo-Su 06:00-20:00", "operator": "Fixoil Kft.", "self_service": "yes", "shop": "convenience"}}, {"type": "node", "id": 2006361221, "lat": 47.4843818, "lon": 19.2355734}, {"type": "node", "id": 2006361224, "lat": 47.4842865, "lon": 19.2355279}, {"type": "node", "id": 2007148965, "lat": 47.3745703, "lon": 19.3630593, "tags": {"amenity": "fuel", "brand": "Dragon Benz", "fuel:diesel": "yes", "fuel:octane_95": "yes", "fuel:octane_98": "yes", "name": "Dragon Benz", "opening_hours": "24/7", "operator": "Dragon-Benz Kft.", "shop": "kiosk", "wheelchair": "yes"}}, {"type": "node", "id": 2007174049, "lat": 47.694949, "lon": 19.6929205, "tags": {"amenity": "fuel"}}, {"type": "node", "id": 2124110691, "lat": 47.5108928, "lon": 19.1919995, "tags": {"addr:city": "Budapest", "addr:housenumber": "105-107", "addr:postcode": "1165", "addr:street": "Veres P\u00e9ter \u00fat", "air_conditioning": "yes", "amenity": "fuel", "brand": "MOL", "brand:wikidata": "Q549181", "brand:wikipedia": "hu:MOL Magyar Olaj- \u00e9s G\u00e1zipari Nyrt.", "compressed_air": "yes", "contact:facebook": "https://www.facebook.com/mol.magyarorszag/", "contact:instagram": "https://www.instagram.com/mol.magyarorszag/", "contact:website": "https://www.mol.hu", "contact:youtube": "https://www.youtube.com/user/molgrouptv", "food": "no", "fuel:GTL_diesel": "yes", "fuel:adblue": "no", "fuel:diesel": "yes", "fuel:lpg": "no", "fuel:octane_100": "yes", "fuel:octane_95": "yes", "fuel:octane_98": "yes", "name": "MOL", "operator": "MOL Nyrt.", "operator:addr": "1117 Budapest, Domb\u00f3v\u00e1ri \u00fat 28.", "payment:cash": "yes", "payment:contactless": "yes", "payment:maestro": "yes", "payment:mastercard": "yes", "payment:mastercard_contactless": "yes", "payment:mastercard_electronic": "yes", "payment:visa": "yes", "payment:visa_electron": "yes", "ref:HU:company": "01-10-041683", "ref:HU:vatin": "10625790-4-44", "rent:lpg_bottles": "no", "source": "website", "source:date": "2022-05-21", "truck": "no"}}, {"type": "node", "id": 2136091649, "lat": 47.501702, "lon": 19.2167284}, {"type": "node", "id": 2136091684, "lat": 47.5015931, "lon": 19.2168418}, {"type": "node", "id": 2136762478, "lat": 47.5220517, "lon": 19.1851255}, {"type": "node", "id": 2136762493, "lat": 47.5221489, "lon": 19.1853121}, {"type": "node", "id": 2136762574, "lat": 47.5219425, "lon": 19.1852504}, {"type": "node", "id": 2136762640, "lat": 47.5220398, "lon": 19.1854369}, {"type": "node", "id": 2163015170, "lat": 47.4527642, "lon": 19.197782}, {"type": "node", "id": 2178482267, "lat": 47.5174508, "lon": 19.2142976}, {"type": "node", "id": 2178482272, "lat": 47.517564, "lon": 19.2146481}, {"type": "node", "id": 2178482286, "lat": 47.5177023, "lon": 19.2145502}, {"type": "node", "id": 2178482318, "lat": 47.5177158, "lon": 19.2142597}, {"type": "node", "id": 2178482340, "lat": 47.5176285, "lon": 19.2143215}, {"type": "node", "id": 2178482344, "lat": 47.5176765, "lon": 19.2141379}, {"type": "node", "id": 2313702318, "lat": 47.4325791, "lon": 19.4611531, "tags": {"addr:city": "Mende", "addr:housenumber": "24", "addr:postcode": "2235", "addr:street": "Orsz\u00e1g \u00fat", "amenity": "fuel", "brand": "Avia", "compressed_air": "yes", "contact:email": "avia@avia.hu", "contact:facebook": "https://www.facebook.com/AVIAHungary", "contact:phone": "+36 20 550 4776;+36 20 290 7990", "contact:website": "https://www.avia.hu/toltoallomas/?id=108", "contact:youtube": "https://www.youtube.com/channel/UCjvjkjf2RgmKBuTnKSXk-Rg", "food": "no", "fuel:diesel": "yes", "fuel:e85": "no", "fuel:lpg": "yes", "fuel:octane_95": "yes", "fuel:octane_98": "no", "name": "Avia", "operator": "AVIA Hung\u00e1ria Kft.", "payment:cash": "yes", "payment:contactless": "yes", "payment:maestro": "yes", "payment:mastercard": "yes", "payment:mastercard_contactless": "yes", "payment:mastercard_electronic": "yes", "payment:visa": "yes", "payment:visa_electron": "yes", "rent:lpg_bottles": "yes", "restaurant": "no", "source:www.avia.hu:date": "2021-12-17", "truck": "no", "wheelchair": "yes"}}, {"type": "node", "id": 2313702325, "lat": 47.4195769, "lon": 19.7417336, "tags": {"addr:city": "Nagyk\u00e1ta", "addr:postcode": "2760", "addr:street": "Ady Endre \u00fat", "air_conditioning": "yes", "amenity": "fuel", "brand": "MOL", "brand:wikidata": "Q549181", "brand:wikipedia": "hu:MOL Magyar Olaj- \u00e9s G\u00e1zipari Nyrt.", "compressed_air": "yes", "contact:facebook": "https://www.facebook.com/mol.magyarorszag/", "contact:instagram": "https://www.instagram.com/mol.magyarorszag/", "contact:website": "https://www.mol.hu", "contact:youtube": "https://www.youtube.com/user/molgrouptv", "food": "no", "fuel:GTL_diesel": "yes", "fuel:adblue": "no", "fuel:diesel": "yes", "fuel:lpg": "no", "fuel:octane_100": "yes", "fuel:octane_95": "yes", "name": "MOL", "operator": "MOL Nyrt.", "operator:addr": "1117 Budapest, Domb\u00f3v\u00e1ri \u00fat 28.", "payment:cash": "yes", "payment:contactless": "yes", "payment:maestro": "yes", "payment:mastercard": "yes", "payment:mastercard_contactless": "yes", "payment:mastercard_electronic": "yes", "payment:visa": "yes", "payment:visa_electron": "yes", "ref:HU:company": "01-10-041683", "ref:HU:vatin": "10625790-4-44", "rent:lpg_bottles": "no", "source": "website", "source:date": "2022-05-21", "truck": "no"}}, {"type": "node", "id": 2313702332, "lat": 47.4488025, "lon": 19.532229, "tags": {"amenity": "fuel", "brand": "Shell", "name": "Shell", "operator": "Shell", "website": "https://www.shell.hu/"}}, {"type": "node", "id": 2321939640, "lat": 47.6624427, "lon": 19.7163313, "tags": {"addr:city": "Hatvan", "addr:postcode": "3000", "addr:street": "Cs\u00e1nyi \u00fat", "amenity": "fuel", "brand": "Benzink\u00fat", "fuel:diesel": "yes", "fuel:lpg": "yes", "fuel:octane_95": "yes", "name": "Benzink\u00fat Hatvan", "operator": "Benzink\u00fat"}}, {"type": "node", "id": 2321994312, "lat": 47.6589154, "lon": 19.7226572, "tags": {"addr:city": "Hatvan", "addr:postcode": "3000", "addr:street": "Cs\u00e1nyi \u00fat", "air_conditioning": "yes", "amenity": "fuel", "brand": "MOL", "brand:wikidata": "Q549181", "brand:wikipedia": "hu:MOL Magyar Olaj- \u00e9s G\u00e1zipari Nyrt.", "compressed_air": "yes", "contact:facebook": "https://www.facebook.com/mol.magyarorszag/", "contact:instagram": "https://www.instagram.com/mol.magyarorszag/", "contact:website": "https://www.mol.hu", "contact:youtube": "https://www.youtube.com/user/molgrouptv", "food": "no", "fuel:GTL_diesel": "yes", "fuel:adblue": "no", "fuel:diesel": "yes", "fuel:lpg": "yes", "fuel:octane_100": "yes", "fuel:octane_95": "yes", "name": "MOL", "operator": "MOL Nyrt.", "operator:addr": "1117 Budapest, Domb\u00f3v\u00e1ri \u00fat 28.", "payment:cash": "yes", "payment:contactless": "yes", "payment:maestro": "yes", "payment:mastercard": "yes", "payment:mastercard_contactless": "yes", "payment:mastercard_electronic": "yes", "payment:visa": "yes", "payment:visa_electron": "yes", "ref:HU:company": "01-10-041683", "ref:HU:vatin": "10625790-4-44", "rent:lpg_bottles": "yes", "source": "website", "source:date": "2022-05-21", "truck": "yes"}}, {"type": "node", "id": 2325435960, "lat": 47.4269548, "lon": 19.16202}, {"type": "node", "id": 2325435961, "lat": 47.427033, "lon": 19.1621767}, {"type": "node", "id": 2325435968, "lat": 47.4270767, "lon": 19.1618871}, {"type": "node", "id": 2325435976, "lat": 47.4271549, "lon": 19.1620438}, {"type": "node", "id": 2439730904, "lat": 47.3967188, "lon": 19.762001, "tags": {"amenity": "fuel", "brand": "Agip", "shop": "yes"}}, {"type": "node", "id": 2510947917, "lat": 47.4325848, "lon": 19.174875}, {"type": "node", "id": 2510947918, "lat": 47.4323238, "lon": 19.1749021}, {"type": "node", "id": 2510947919, "lat": 47.4323308, "lon": 19.1750495}, {"type": "node", "id": 2510947920, "lat": 47.4324701, "lon": 19.175035}, {"type": "node", "id": 2510947921, "lat": 47.4324763, "lon": 19.1751667}, {"type": "node", "id": 2510947922, "lat": 47.4324096, "lon": 19.1751737}, {"type": "node", "id": 2510947923, "lat": 47.4324205, "lon": 19.1754042}, {"type": "node", "id": 2510947924, "lat": 47.4325723, "lon": 19.1753885}, {"type": "node", "id": 2510947925, "lat": 47.432555, "lon": 19.1750262}, {"type": "node", "id": 2510947926, "lat": 47.4325915, "lon": 19.1750149}, {"type": "node", "id": 2510947929, "lat": 47.4325363, "lon": 19.17488}, {"type": "node", "id": 2510965201, "lat": 47.432561, "lon": 19.1751519}, {"type": "node", "id": 2579721220, "lat": 47.4633298, "lon": 19.1644853}, {"type": "node", "id": 2579721223, "lat": 47.4633845, "lon": 19.1645604}, {"type": "node", "id": 2579721224, "lat": 47.4633861, "lon": 19.1643956}, {"type": "node", "id": 2579721230, "lat": 47.4634329, "lon": 19.1643209}, {"type": "node", "id": 2579721233, "lat": 47.4634442, "lon": 19.1644652}, {"type": "node", "id": 2579721238, "lat": 47.4634876, "lon": 19.164396}, {"type": "node", "id": 2638521291, "lat": 47.5994078, "lon": 19.35499}, {"type": "node", "id": 2638521293, "lat": 47.5992128, "lon": 19.3550828}, {"type": "node", "id": 2638521295, "lat": 47.5992537, "lon": 19.3552743}, {"type": "node", "id": 2638521296, "lat": 47.5994128, "lon": 19.3552071}, {"type": "node", "id": 2638521297, "lat": 47.599437, "lon": 19.3551462}, {"type": "node", "id": 2770810545, "lat": 47.6076619, "lon": 19.3367353}, {"type": "node", "id": 2770810546, "lat": 47.6075038, "lon": 19.3368625}, {"type": "node", "id": 2770810547, "lat": 47.6075672, "lon": 19.3370357}, {"type": "node", "id": 2770810548, "lat": 47.6077252, "lon": 19.3369085}, {"type": "node", "id": 2774712818, "lat": 47.5913354, "lon": 19.3284015}, {"type": "node", "id": 2774712819, "lat": 47.5912302, "lon": 19.3283519}, {"type": "node", "id": 2779327005, "lat": 47.6054743, "lon": 19.5952625}, {"type": "node", "id": 2779327008, "lat": 47.6053999, "lon": 19.595183}, {"type": "node", "id": 2779327012, "lat": 47.6053603, "lon": 19.5952644}, {"type": "node", "id": 2779327014, "lat": 47.6054347, "lon": 19.5953439}, {"type": "node", "id": 2796445599, "lat": 47.6492847, "lon": 19.4701077}, {"type": "node", "id": 2796445601, "lat": 47.6491415, "lon": 19.4700876}, {"type": "node", "id": 2796445602, "lat": 47.6492279, "lon": 19.4699932}, {"type": "node", "id": 2877359564, "lat": 47.607461, "lon": 19.3387234}, {"type": "node", "id": 2877359566, "lat": 47.607542, "lon": 19.3386605}, {"type": "node", "id": 2877359567, "lat": 47.6074765, "lon": 19.3384747}, {"type": "node", "id": 2877359576, "lat": 47.6076265, "lon": 19.294713}, {"type": "node", "id": 2877359577, "lat": 47.6074347, "lon": 19.2949113}, {"type": "node", "id": 2877359578, "lat": 47.6075118, "lon": 19.2950754}, {"type": "node", "id": 2877359579, "lat": 47.6075493, "lon": 19.2950367}, {"type": "node", "id": 2877359580, "lat": 47.6075667, "lon": 19.2950737}, {"type": "node", "id": 2877359581, "lat": 47.6076277, "lon": 19.2950106}, {"type": "node", "id": 2877359582, "lat": 47.6076177, "lon": 19.2949893}, {"type": "node", "id": 2877359583, "lat": 47.607711, "lon": 19.2948929}, {"type": "node", "id": 2877359584, "lat": 47.6062795, "lon": 19.295039}, {"type": "node", "id": 2877359585, "lat": 47.6061919, "lon": 19.2948414}, {"type": "node", "id": 2877359586, "lat": 47.6061493, "lon": 19.2948831}, {"type": "node", "id": 2877359587, "lat": 47.6061377, "lon": 19.2948571}, {"type": "node", "id": 2877359588, "lat": 47.6060758, "lon": 19.2949173}, {"type": "node", "id": 2877359589, "lat": 47.6060865, "lon": 19.2949413}, {"type": "node", "id": 2878157803, "lat": 47.5993859, "lon": 19.3552148}, {"type": "node", "id": 2909974650, "lat": 47.5210864, "lon": 19.1873444, "tags": {"amenity": "fuel", "brand": "Hamarosan!", "name": "Benzink\u00fat"}}, {"type": "node", "id": 2956185253, "lat": 47.5104704, "lon": 19.523385, "tags": {"amenity": "fuel", "fuel:diesel": "yes", "fuel:octane_95": "yes"}}, {"type": "node", "id": 2970571638, "lat": 47.5496508, "lon": 19.5991071}, {"type": "node", "id": 2970571639, "lat": 47.5495994, "lon": 19.5989994}, {"type": "node", "id": 2970571640, "lat": 47.5493954, "lon": 19.5992126}, {"type": "node", "id": 2970571641, "lat": 47.5494468, "lon": 19.5993204}, {"type": "node", "id": 2992190159, "lat": 47.5833556, "lon": 19.2410214}, {"type": "node", "id": 2992190160, "lat": 47.5832872, "lon": 19.2410298}, {"type": "node", "id": 2992190161, "lat": 47.5832945, "lon": 19.2411608}, {"type": "node", "id": 2992190162, "lat": 47.583363, "lon": 19.2411524}, {"type": "node", "id": 3053513636, "lat": 47.5277796, "lon": 19.389703, "tags": {"addr:city": "Isaszeg", "addr:conscriptionnumber": "455", "addr:postcode": "2117", "addr:street": "R\u00e1k\u00f3czi \u00fat", "air_conditioning": "yes", "amenity": "fuel", "brand": "MOL", "brand:wikidata": "Q549181", "brand:wikipedia": "hu:MOL Magyar Olaj- \u00e9s G\u00e1zipari Nyrt.", "compressed_air": "yes", "contact:facebook": "https://www.facebook.com/mol.magyarorszag/", "contact:instagram": "https://www.instagram.com/mol.magyarorszag/", "contact:website": "https://www.mol.hu", "contact:youtube": "https://www.youtube.com/user/molgrouptv", "food": "no", "fuel:GTL_diesel": "yes", "fuel:adblue": "no", "fuel:diesel": "yes", "fuel:lpg": "no", "fuel:octane_100": "yes", "fuel:octane_95": "yes", "name": "MOL", "operator": "MOL Nyrt.", "operator:addr": "1117 Budapest, Domb\u00f3v\u00e1ri \u00fat 28.", "payment:cash": "yes", "payment:contactless": "yes", "payment:maestro": "yes", "payment:mastercard": "yes", "payment:mastercard_contactless": "yes", "payment:mastercard_electronic": "yes", "payment:visa": "yes", "payment:visa_electron": "yes", "ref:HU:company": "01-10-041683", "ref:HU:vatin": "10625790-4-44", "rent:lpg_bottles": "yes", "source": "website", "source:date": "2022-05-21", "truck": "no", "wheelchair": "yes"}}, {"type": "node", "id": 3053712682, "lat": 47.6558267, "lon": 19.1587484}, {"type": "node", "id": 3053715848, "lat": 47.6549039, "lon": 19.1599995}, {"type": "node", "id": 3053715861, "lat": 47.6557095, "lon": 19.159048}, {"type": "node", "id": 3053715862, "lat": 47.6557375, "lon": 19.1589072}, {"type": "node", "id": 3053715864, "lat": 47.6557607, "lon": 19.1590984}, {"type": "node", "id": 3053715865, "lat": 47.6557657, "lon": 19.1590715}, {"type": "node", "id": 3053715867, "lat": 47.6558419, "lon": 19.1591321}, {"type": "node", "id": 3053715869, "lat": 47.6559087, "lon": 19.1587825}, {"type": "node", "id": 3053715945, "lat": 47.6549101, "lon": 19.1601602}, {"type": "node", "id": 3053715946, "lat": 47.6549084, "lon": 19.1599687}, {"type": "node", "id": 3053715947, "lat": 47.6549341, "lon": 19.1600083}, {"type": "node", "id": 3053715950, "lat": 47.6549504, "lon": 19.1601719}, {"type": "node", "id": 3053715951, "lat": 47.6549705, "lon": 19.1600189}, {"type": "node", "id": 3053716073, "lat": 47.6547897, "lon": 19.1601459}, {"type": "node", "id": 3053716074, "lat": 47.6547672, "lon": 19.1602971}, {"type": "node", "id": 3053716075, "lat": 47.6548203, "lon": 19.1599398}, {"type": "node", "id": 3053716077, "lat": 47.6548815, "lon": 19.1601519}, {"type": "node", "id": 3066918586, "lat": 47.6060705, "lon": 19.2952432}, {"type": "node", "id": 3066919541, "lat": 47.6059819, "lon": 19.2950435}, {"type": "node", "id": 3070897438, "lat": 47.4165943, "lon": 19.206675}, {"type": "node", "id": 3070897442, "lat": 47.4167299, "lon": 19.2069032}, {"type": "node", "id": 3070897443, "lat": 47.4167398, "lon": 19.2066893}, {"type": "node", "id": 3154168326, "lat": 47.587087, "lon": 19.3447719}, {"type": "node", "id": 3154168328, "lat": 47.58714, "lon": 19.3448611}, {"type": "node", "id": 3154168330, "lat": 47.5871848, "lon": 19.3446441}, {"type": "node", "id": 3154168337, "lat": 47.5872379, "lon": 19.3447333}, {"type": "node", "id": 3207652564, "lat": 47.475059, "lon": 19.267089}, {"type": "node", "id": 3292179986, "lat": 47.4942035, "lon": 19.2415062}, {"type": "node", "id": 3292179989, "lat": 47.4942521, "lon": 19.2416923}, {"type": "node", "id": 3292179996, "lat": 47.4943722, "lon": 19.2414097}, {"type": "node", "id": 3292179998, "lat": 47.4944208, "lon": 19.2415958}, {"type": "node", "id": 3292198541, "lat": 47.4923523, "lon": 19.2414766}, {"type": "node", "id": 3292198542, "lat": 47.4923827, "lon": 19.2414587}, {"type": "node", "id": 3292198543, "lat": 47.4923897, "lon": 19.241485}, {"type": "node", "id": 3292198544, "lat": 47.4924327, "lon": 19.2417754}, {"type": "node", "id": 3292198548, "lat": 47.4924689, "lon": 19.2414383}, {"type": "node", "id": 3292198551, "lat": 47.4925423, "lon": 19.2417108}, {"type": "node", "id": 3297671193, "lat": 47.5833206, "lon": 19.2410248}, {"type": "node", "id": 3297671195, "lat": 47.583328, "lon": 19.2411563}, {"type": "node", "id": 3337875343, "lat": 47.5015329, "lon": 19.216715}, {"type": "node", "id": 3337875344, "lat": 47.5015582, "lon": 19.2166889}, {"type": "node", "id": 3337875345, "lat": 47.5016144, "lon": 19.2166326}, {"type": "node", "id": 3337875346, "lat": 47.501642, "lon": 19.2166022}, {"type": "node", "id": 3377822945, "lat": 47.4943493, "lon": 19.2414228}, {"type": "node", "id": 3377822946, "lat": 47.4943979, "lon": 19.2416089}, {"type": "node", "id": 3462241032, "lat": 47.617058, "lon": 19.575396, "tags": {"amenity": "fuel", "name": "MOL", "source": "turistautak.hu", "source:date": "2013-02-04", "url": "http://turistautak.hu/poi.php?id=142074"}}, {"type": "node", "id": 3471889579, "lat": 47.610945, "lon": 19.332506, "tags": {"amenity": "fuel", "name": "LPG", "source": "turistautak.hu", "source:date": "2013-02-03", "url": "http://turistautak.hu/poi.php?id=66139"}}, {"type": "node", "id": 3479961270, "lat": 47.766146, "lon": 19.69794, "tags": {"amenity": "fuel", "source": "turistautak.hu", "source:date": "2013-06-22", "url": "http://turistautak.hu/poi.php?id=82073"}}, {"type": "node", "id": 3550615817, "lat": 47.4749923, "lon": 19.2671609}, {"type": "node", "id": 3550615818, "lat": 47.4750733, "lon": 19.2673255}, {"type": "node", "id": 3550615820, "lat": 47.4750773, "lon": 19.2671262}, {"type": "node", "id": 3550615824, "lat": 47.47514, "lon": 19.2672536}, {"type": "node", "id": 3605080039, "lat": 47.723111, "lon": 19.2614509}, {"type": "node", "id": 3605080040, "lat": 47.7230611, "lon": 19.2613835}, {"type": "node", "id": 3605080041, "lat": 47.7230097, "lon": 19.2614676}, {"type": "node", "id": 3605080042, "lat": 47.7230595, "lon": 19.261535}, {"type": "node", "id": 3691477639, "lat": 47.4729938, "lon": 19.273286}, {"type": "node", "id": 3691477642, "lat": 47.4730783, "lon": 19.2733702}, {"type": "node", "id": 3691477644, "lat": 47.4731047, "lon": 19.2730425}, {"type": "node", "id": 3691477651, "lat": 47.4731892, "lon": 19.2731266}, {"type": "node", "id": 3763155334, "lat": 47.4526904, "lon": 19.197878}, {"type": "node", "id": 3763155335, "lat": 47.4527289, "lon": 19.1977574}, {"type": "node", "id": 3763155336, "lat": 47.4527732, "lon": 19.1977883}, {"type": "node", "id": 3763155337, "lat": 47.4528132, "lon": 19.1976695}, {"type": "node", "id": 3763155338, "lat": 47.4528683, "lon": 19.198002}, {"type": "node", "id": 3763155339, "lat": 47.4528766, "lon": 19.1978546}, {"type": "node", "id": 3763155340, "lat": 47.4529082, "lon": 19.1978767}, {"type": "node", "id": 3763155341, "lat": 47.4529145, "lon": 19.1977416}, {"type": "node", "id": 4061793237, "lat": 47.6060028, "lon": 19.2950906, "tags": {"amenity": "compressed_air", "fee": "no"}}, {"type": "node", "id": 4120610449, "lat": 47.60598, "lon": 19.2949006, "tags": {"amenity": "fuel"}}, {"type": "node", "id": 4127795894, "lat": 47.4150456, "lon": 19.2437079}, {"type": "node", "id": 4127795895, "lat": 47.4148436, "lon": 19.2440281}, {"type": "node", "id": 4127795896, "lat": 47.4147064, "lon": 19.2438392}, {"type": "node", "id": 4127795897, "lat": 47.4149084, "lon": 19.243519}, {"type": "node", "id": 4127799323, "lat": 47.4149047, "lon": 19.2437745, "tags": {"addr:city": "Vecs\u00e9s", "addr:housenumber": "130/B", "addr:postcode": "2220", "addr:street": "L\u0151rinci utca", "amenity": "fuel", "description": "Automata benzink\u00fat", "fuel:adblue": "yes", "fuel:diesel": "yes", "fuel:octane_95": "yes", "name": "EcoPont", "opening_hours": "24/7", "operator": "Mson Hungary Kft.", "phone": "+36 30 371 6903", "self_service": "yes"}}, {"type": "node", "id": 4275257092, "lat": 47.4853057, "lon": 19.223243}, {"type": "node", "id": 4275257106, "lat": 47.4854646, "lon": 19.2234744}, {"type": "node", "id": 4275257109, "lat": 47.4854896, "lon": 19.2233012}, {"type": "node", "id": 4314688291, "lat": 47.5211896, "lon": 19.2626294, "tags": {"addr:city": "Nagytarcsa", "addr:postcode": "2142", "addr:street": "Napl\u00e1s \u00fat", "amenity": "fuel", "architect": "Hild Gy\u00f6rgy okl.\u00e9p\u00edt\u00e9szm\u00e9rn\u00f6k; 4. Csoport \u00c9p\u00edt\u00e9szm\u0171terem Kft.", "architect:en": "Gy\u00f6rgy Hild; 4. Csoport \u00c9p\u00edt\u00e9szm\u0171terem LTD", "brand": "BGW", "check_date:opening_hours": "2021-11-06", "fuel:adblue": "yes", "fuel:cng": "yes", "fuel:diesel": "yes", "fuel:lpg": "yes", "fuel:octane_95": "yes", "fuel:octane_98": "yes", "name": "BGW", "opening_hours": "Mo-Su 00:00-22:00", "operator": "BGW", "website": "https://www.bgw.hu/hu/a-bgw-vilaga/galeria/event/nagytarcsa_toltoallomas", "wheelchair": "yes"}}, {"type": "node", "id": 4377400311, "lat": 47.4503614, "lon": 19.6784187}, {"type": "node", "id": 4377400312, "lat": 47.450378, "lon": 19.6786242}, {"type": "node", "id": 4377400313, "lat": 47.4504364, "lon": 19.6784054}, {"type": "node", "id": 4377400314, "lat": 47.4504531, "lon": 19.6786109}, {"type": "node", "id": 4386767289, "lat": 47.5220971, "lon": 19.2631576, "tags": {"addr:city": "Nagytarcsa", "addr:conscriptionnumber": "0135/50", "addr:postcode": "2142", "amenity": "fuel", "brand": "Avia", "compressed_air": "no", "contact:email": "avia@avia.hu", "contact:facebook": "https://www.facebook.com/AVIAHungary", "contact:phone": "+36 20 508 9009", "contact:website": "https://www.avia.hu/toltoallomas/?id=68", "contact:youtube": "https://www.youtube.com/channel/UCjvjkjf2RgmKBuTnKSXk-Rg", "food": "yes", "fuel:diesel": "yes", "fuel:e85": "no", "fuel:lpg": "no", "fuel:octane_95": "yes", "fuel:octane_98": "no", "name": "Avia", "operator": "AVIA Hung\u00e1ria Kft.", "payment:cash": "yes", "payment:contactless": "yes", "payment:maestro": "yes", "payment:mastercard": "yes", "payment:mastercard_contactless": "yes", "payment:mastercard_electronic": "yes", "payment:visa": "yes", "payment:visa_electron": "yes", "rent:lpg_bottles": "yes", "restaurant": "yes", "source:www.avia.hu:date": "2021-12-17", "truck": "no"}}, {"type": "node", "id": 4851150134, "lat": 47.4530225, "lon": 19.1741248, "tags": {"amenity": "fuel"}}, {"type": "node", "id": 4853270860, "lat": 47.5912627, "lon": 19.3282008}, {"type": "node", "id": 4855835829, "lat": 47.6585917, "lon": 19.5015477, "tags": {"addr:city": "Asz\u00f3d", "addr:housenumber": "44", "addr:postcode": "2170", "addr:street": "Faluj\u00e1r\u00f3k \u00fatja", "amenity": "fuel", "brand": "Avia", "brand:wikidata": "Q300147", "brand:wikipedia": "de:Avia International", "compressed_air": "no", "contact:email": "avia@avia.hu", "contact:facebook": "https://www.facebook.com/AVIAHungary", "contact:phone": "+36 20 200 4000", "contact:website": "https://www.avia.hu/toltoallomas/?id=88", "contact:youtube": "https://www.youtube.com/channel/UCjvjkjf2RgmKBuTnKSXk-Rg", "food": "no", "fuel:diesel": "yes", "fuel:e85": "no", "fuel:lpg": "no", "fuel:octane_95": "no", "fuel:octane_98": "yes", "name": "Avia", "opening_hours": "05:00-22:00", "operator": "AVIA Hung\u00e1ria Kft.", "payment:cash": "yes", "payment:contactless": "yes", "payment:maestro": "yes", "payment:mastercard": "yes", "payment:mastercard_contactless": "yes", "payment:mastercard_electronic": "yes", "payment:visa": "yes", "payment:visa_electron": "yes", "rent:lpg_bottles": "no", "restaurant": "no", "source:www.avia.hu:date": "2021-12-17", "truck": "no"}}, {"type": "node", "id": 4862270990, "lat": 47.374525, "lon": 19.3626646}, {"type": "node", "id": 4862270991, "lat": 47.3745639, "lon": 19.3627071}, {"type": "node", "id": 4862270992, "lat": 47.3747147, "lon": 19.3629912}, {"type": "node", "id": 4862270993, "lat": 47.3746909, "lon": 19.3629653}, {"type": "node", "id": 4862270994, "lat": 47.374471, "lon": 19.3630317}, {"type": "node", "id": 4862270995, "lat": 47.3745678, "lon": 19.3628383}, {"type": "node", "id": 4862270996, "lat": 47.3746068, "lon": 19.3626215}, {"type": "node", "id": 4862270997, "lat": 47.3744839, "lon": 19.3627468}, {"type": "node", "id": 4862270998, "lat": 47.3746155, "lon": 19.3631894}, {"type": "node", "id": 4862270999, "lat": 47.3747725, "lon": 19.3628024}, {"type": "node", "id": 4910845133, "lat": 47.6371184, "lon": 19.471334, "tags": {"amenity": "fuel", "brand": "M. Petrol", "name": "M. Petrol", "opening_hours": "24/7", "shop": "yes", "wheelchair": "yes"}}, {"type": "node", "id": 5063690505, "lat": 47.618389, "lon": 19.3010141}, {"type": "node", "id": 5063690506, "lat": 47.6184584, "lon": 19.300899}, {"type": "node", "id": 5063690507, "lat": 47.618388, "lon": 19.3008055}, {"type": "node", "id": 5063690508, "lat": 47.6183185, "lon": 19.3009206}, {"type": "node", "id": 5064177363, "lat": 47.4841172, "lon": 19.2278978}, {"type": "node", "id": 5064177366, "lat": 47.4842965, "lon": 19.2279271}, {"type": "node", "id": 5198890998, "lat": 47.6158796, "lon": 19.1709148}, {"type": "node", "id": 5198891003, "lat": 47.6159461, "lon": 19.1709845}, {"type": "node", "id": 5198891004, "lat": 47.6158356, "lon": 19.1708687}, {"type": "node", "id": 5198891005, "lat": 47.6157739, "lon": 19.1709983}, {"type": "node", "id": 5198891006, "lat": 47.6158843, "lon": 19.1711141}, {"type": "node", "id": 5316108742, "lat": 47.4608015, "lon": 19.1695426}, {"type": "node", "id": 5316108743, "lat": 47.4610001, "lon": 19.169737}, {"type": "node", "id": 5316108744, "lat": 47.4608702, "lon": 19.1700274}, {"type": "node", "id": 5316108745, "lat": 47.4606716, "lon": 19.169833}, {"type": "node", "id": 5316108746, "lat": 47.4607807, "lon": 19.1700755}, {"type": "node", "id": 5316108747, "lat": 47.4608272, "lon": 19.1699624}, {"type": "node", "id": 5316108748, "lat": 47.4607137, "lon": 19.1698602}, {"type": "node", "id": 5316108749, "lat": 47.4606671, "lon": 19.1699734}, {"type": "node", "id": 5317813306, "lat": 47.4457833, "lon": 19.1904177}, {"type": "node", "id": 5317813307, "lat": 47.44567, "lon": 19.190335}, {"type": "node", "id": 5317813308, "lat": 47.4456014, "lon": 19.1905408}, {"type": "node", "id": 5317813309, "lat": 47.4457147, "lon": 19.1906235}, {"type": "node", "id": 5337689420, "lat": 47.4340858, "lon": 19.20237}, {"type": "node", "id": 5337690921, "lat": 47.433987, "lon": 19.2022359}, {"type": "node", "id": 5337690922, "lat": 47.4339139, "lon": 19.202464}, {"type": "node", "id": 5337690923, "lat": 47.4340282, "lon": 19.2025441}, {"type": "node", "id": 5350684431, "lat": 47.3990998, "lon": 19.24805}, {"type": "node", "id": 5350684432, "lat": 47.3991991, "lon": 19.2481716}, {"type": "node", "id": 5350684433, "lat": 47.3990902, "lon": 19.2483386}, {"type": "node", "id": 5350684434, "lat": 47.398998, "lon": 19.2482187}, {"type": "node", "id": 5350685448, "lat": 47.399147, "lon": 19.2481059}, {"type": "node", "id": 5350688789, "lat": 47.3991809, "lon": 19.2481995}, {"type": "node", "id": 5350688796, "lat": 47.3990978, "lon": 19.248327}, {"type": "node", "id": 5422355286, "lat": 47.7241947, "lon": 19.6667709}, {"type": "node", "id": 5422355287, "lat": 47.7241394, "lon": 19.666769}, {"type": "node", "id": 5422355288, "lat": 47.7241383, "lon": 19.6669187}, {"type": "node", "id": 5422355289, "lat": 47.724374, "lon": 19.6669209}, {"type": "node", "id": 5422355290, "lat": 47.7243746, "lon": 19.6667771}, {"type": "node", "id": 5422355291, "lat": 47.7243174, "lon": 19.6667766}, {"type": "node", "id": 5436346842, "lat": 47.3810966, "lon": 19.3532306}, {"type": "node", "id": 5436346843, "lat": 47.3809342, "lon": 19.3530395}, {"type": "node", "id": 5436346844, "lat": 47.3808736, "lon": 19.3531493}, {"type": "node", "id": 5436346845, "lat": 47.3809227, "lon": 19.3532818}, {"type": "node", "id": 5436346846, "lat": 47.3809163, "lon": 19.3533322}, {"type": "node", "id": 5436346847, "lat": 47.3809947, "lon": 19.3534217}, {"type": "node", "id": 5487207933, "lat": 47.6681624, "lon": 19.7200995}, {"type": "node", "id": 5487207934, "lat": 47.6680793, "lon": 19.7201627}, {"type": "node", "id": 5487207935, "lat": 47.6681399, "lon": 19.7203385}, {"type": "node", "id": 5487207936, "lat": 47.6682231, "lon": 19.7202752}, {"type": "node", "id": 5606889057, "lat": 47.4844412, "lon": 19.2353006}, {"type": "node", "id": 5606889059, "lat": 47.4843458, "lon": 19.2352558}, {"type": "node", "id": 5607092127, "lat": 47.4841786, "lon": 19.2277491}, {"type": "node", "id": 5607092140, "lat": 47.4846955, "lon": 19.2315845}, {"type": "node", "id": 5607092141, "lat": 47.4847027, "lon": 19.2314881}, {"type": "node", "id": 5607092148, "lat": 47.4847473, "lon": 19.2316123}, {"type": "node", "id": 5607092149, "lat": 47.4847083, "lon": 19.2314132}, {"type": "node", "id": 5607092150, "lat": 47.4847616, "lon": 19.2314219}, {"type": "node", "id": 5607092166, "lat": 47.4841426, "lon": 19.227902}, {"type": "node", "id": 5607092167, "lat": 47.4841543, "lon": 19.2277452}, {"type": "node", "id": 5607092170, "lat": 47.4841289, "lon": 19.227741}, {"type": "node", "id": 5607092171, "lat": 47.4843082, "lon": 19.2277703}, {"type": "node", "id": 5686059602, "lat": 47.4117673, "lon": 19.2790521}, {"type": "node", "id": 5686059603, "lat": 47.4117361, "lon": 19.279115}, {"type": "node", "id": 5686059604, "lat": 47.4117586, "lon": 19.2791393}, {"type": "node", "id": 5686059605, "lat": 47.4117898, "lon": 19.2790763}, {"type": "node", "id": 5743799761, "lat": 47.5055908, "lon": 19.1604349}, {"type": "node", "id": 5743799762, "lat": 47.5056194, "lon": 19.1604888}, {"type": "node", "id": 5952277834, "lat": 47.4527241, "lon": 19.1979015}, {"type": "node", "id": 6330410877, "lat": 47.5798829, "lon": 19.1607977}, {"type": "node", "id": 6330410878, "lat": 47.5798571, "lon": 19.1607732}, {"type": "node", "id": 6330410879, "lat": 47.5798424, "lon": 19.1608073}, {"type": "node", "id": 6330410880, "lat": 47.5798683, "lon": 19.1608317}, {"type": "node", "id": 6330410881, "lat": 47.5799204, "lon": 19.1608219}, {"type": "node", "id": 6330410882, "lat": 47.5799658, "lon": 19.1608659}, {"type": "node", "id": 6330410883, "lat": 47.5799488, "lon": 19.1609046}, {"type": "node", "id": 6330410884, "lat": 47.5799033, "lon": 19.1608606}, {"type": "node", "id": 6445247860, "lat": 47.5510464, "lon": 19.2680469}, {"type": "node", "id": 6445247861, "lat": 47.5509623, "lon": 19.2679361}, {"type": "node", "id": 6445247862, "lat": 47.5509913, "lon": 19.267898}, {"type": "node", "id": 6445247863, "lat": 47.5509192, "lon": 19.267864}, {"type": "node", "id": 6445247864, "lat": 47.5510654, "lon": 19.268022}, {"type": "node", "id": 6445247865, "lat": 47.5509707, "lon": 19.2681462}, {"type": "node", "id": 6445247866, "lat": 47.5508535, "lon": 19.2679502}, {"type": "node", "id": 6541229732, "lat": 47.3775615, "lon": 19.2200268}, {"type": "node", "id": 6541229733, "lat": 47.3776532, "lon": 19.2198875}, {"type": "node", "id": 6541229734, "lat": 47.3775413, "lon": 19.219711}, {"type": "node", "id": 6541229735, "lat": 47.3774419, "lon": 19.2198465}, {"type": "node", "id": 6571390973, "lat": 47.5056431, "lon": 19.1604612}, {"type": "node", "id": 6571390974, "lat": 47.5056145, "lon": 19.1604073}, {"type": "node", "id": 6816087675, "lat": 47.4607729, "lon": 19.3359914}, {"type": "node", "id": 6833275946, "lat": 47.6558825, "lon": 19.1589193}, {"type": "node", "id": 6833275947, "lat": 47.6558007, "lon": 19.158886}, {"type": "node", "id": 6833275948, "lat": 47.6557727, "lon": 19.1589221}, {"type": "node", "id": 6833275949, "lat": 47.6557463, "lon": 19.1590633}, {"type": "node", "id": 6850895979, "lat": 47.6376196, "lon": 19.4738451}, {"type": "node", "id": 6850895980, "lat": 47.6375481, "lon": 19.4739975}, {"type": "node", "id": 6850895981, "lat": 47.6373857, "lon": 19.4738392}, {"type": "node", "id": 6850895982, "lat": 47.6374635, "lon": 19.4736702}, {"type": "node", "id": 6952088917, "lat": 47.4899522, "lon": 19.3356326, "tags": {"addr:city": "P\u00e9cel", "addr:postcode": "2119", "addr:street": "K\u00f6zt\u00e1rsas\u00e1g t\u00e9r", "air_conditioning": "yes", "amenity": "fuel", "brand": "MOL", "brand:wikidata": "Q549181", "brand:wikipedia": "hu:MOL Magyar Olaj- \u00e9s G\u00e1zipari Nyrt.", "compressed_air": "yes", "contact:facebook": "https://www.facebook.com/mol.magyarorszag/", "contact:instagram": "https://www.instagram.com/mol.magyarorszag/", "contact:website": "https://www.mol.hu", "contact:youtube": "https://www.youtube.com/user/molgrouptv", "food": "no", "fuel:GTL_diesel": "yes", "fuel:adblue": "no", "fuel:diesel": "yes", "fuel:lpg": "no", "fuel:octane_100": "yes", "fuel:octane_95": "yes", "name": "MOL", "operator": "MOL Nyrt.", "operator:addr": "1117 Budapest, Domb\u00f3v\u00e1ri \u00fat 28.", "payment:cash": "yes", "payment:contactless": "yes", "payment:maestro": "yes", "payment:mastercard": "yes", "payment:mastercard_contactless": "yes", "payment:mastercard_electronic": "yes", "payment:visa": "yes", "payment:visa_electron": "yes", "ref:HU:company": "01-10-041683", "ref:HU:vatin": "10625790-4-44", "rent:lpg_bottles": "no", "source": "website", "source:date": "2022-05-21", "truck": "no"}}, {"type": "node", "id": 6952088922, "lat": 47.427402, "lon": 19.2236565}, {"type": "node", "id": 7110505125, "lat": 47.578773, "lon": 19.736515, "tags": {"addr:city": "J\u00e1szf\u00e9nyszaru", "addr:conscriptionnumber": "05/150", "addr:postcode": "5126", "amenity": "fuel", "brand": "Avia", "compressed_air": "no", "contact:email": "avia@avia.hu", "contact:facebook": "https://www.facebook.com/AVIAHungary", "contact:phone": "+36 20 399 3559", "contact:website": "https://www.avia.hu/toltoallomas/?id=43", "contact:youtube": "https://www.youtube.com/channel/UCjvjkjf2RgmKBuTnKSXk-Rg", "fixme": "verify import", "food": "no", "fuel:diesel": "yes", "fuel:e85": "no", "fuel:lpg": "no", "fuel:octane_95": "yes", "fuel:octane_98": "no", "name": "Avia", "operator": "AVIA Hung\u00e1ria Kft.", "payment:cash": "yes", "payment:contactless": "yes", "payment:maestro": "yes", "payment:mastercard": "yes", "payment:mastercard_contactless": "yes", "payment:mastercard_electronic": "yes", "payment:visa": "yes", "payment:visa_electron": "yes", "rent:lpg_bottles": "yes", "restaurant": "no", "source:www.avia.hu:date": "2021-12-17", "truck": "no"}}, {"type": "node", "id": 7110505130, "lat": 47.436245, "lon": 19.383544, "tags": {"addr:city": "Gy\u00f6mr\u0151", "addr:conscriptionnumber": "5823", "addr:postcode": "2230", "addr:street": "K\u00f3cz\u00e1n \u00fat", "amenity": "fuel", "brand": "Avia", "brand:wikidata": "Q300147", "brand:wikipedia": "de:Avia International", "compressed_air": "yes", "contact:email": "avia@avia.hu", "contact:facebook": "https://www.facebook.com/AVIAHungary", "contact:phone": "+36 30 996 4591", "contact:website": "https://www.avia.hu/toltoallomas/?id=138", "contact:youtube": "https://www.youtube.com/channel/UCjvjkjf2RgmKBuTnKSXk-Rg", "food": "no", "fuel:diesel": "yes", "fuel:e85": "no", "fuel:lpg": "no", "fuel:octane_95": "yes", "fuel:octane_98": "no", "name": "Avia", "operator": "AVIA Hung\u00e1ria Kft.", "payment:cash": "yes", "payment:contactless": "yes", "payment:maestro": "yes", "payment:mastercard": "yes", "payment:mastercard_contactless": "yes", "payment:mastercard_electronic": "yes", "payment:visa": "yes", "payment:visa_electron": "yes", "rent:lpg_bottles": "yes", "restaurant": "no", "source": "website", "source:date": "2020-01-04", "source:www.avia.hu:date": "2021-12-17", "truck": "no"}}, {"type": "node", "id": 7110505131, "lat": 47.4906585, "lon": 19.1707465, "tags": {"addr:city": "Budapest", "addr:housenumber": "108/A", "addr:postcode": "1106", "addr:street": "Kereszt\u00fari \u00fat", "amenity": "fuel", "brand": "Avia", "brand:wikidata": "Q300147", "brand:wikipedia": "de:Avia International", "compressed_air": "yes", "contact:email": "avia@avia.hu", "contact:facebook": "https://www.facebook.com/AVIAHungary", "contact:phone": "+36 70 778 3502", "contact:website": "https://www.avia.hu/toltoallomas/?id=132", "contact:youtube": "https://www.youtube.com/channel/UCjvjkjf2RgmKBuTnKSXk-Rg", "fixme": "verify import", "food": "no", "fuel:diesel": "yes", "fuel:e85": "no", "fuel:lpg": "no", "fuel:octane_95": "yes", "fuel:octane_98": "no", "name": "Avia", "operator": "AVIA Hung\u00e1ria Kft.", "payment:cash": "yes", "payment:contactless": "yes", "payment:maestro": "yes", "payment:mastercard": "yes", "payment:mastercard_contactless": "yes", "payment:mastercard_electronic": "yes", "payment:visa": "yes", "payment:visa_electron": "yes", "rent:lpg_bottles": "no", "restaurant": "no", "source:www.avia.hu:date": "2021-12-17", "truck": "no"}}, {"type": "node", "id": 7531935616, "lat": 47.7290064, "lon": 19.2409233}, {"type": "node", "id": 7531935617, "lat": 47.7291003, "lon": 19.2409502}, {"type": "node", "id": 7531935618, "lat": 47.7290172, "lon": 19.2408398}, {"type": "node", "id": 7531935619, "lat": 47.7291111, "lon": 19.2408666}, {"type": "node", "id": 7954651058, "lat": 47.66642, "lon": 19.70552, "tags": {"addr:city": "Hatvan", "addr:postcode": "3000", "addr:street": "Elker\u00fcl\u0151 \u00fat", "air_conditioning": "yes", "amenity": "fuel", "brand": "MOL", "brand:wikidata": "Q549181", "brand:wikipedia": "hu:MOL Magyar Olaj- \u00e9s G\u00e1zipari Nyrt.", "compressed_air": "yes", "contact:facebook": "https://www.facebook.com/mol.magyarorszag/", "contact:instagram": "https://www.instagram.com/mol.magyarorszag/", "contact:website": "https://www.mol.hu", "contact:youtube": "https://www.youtube.com/user/molgrouptv", "fixme": "verify import", "food": "no", "fuel:GTL_diesel": "yes", "fuel:adblue": "no", "fuel:diesel": "yes", "fuel:lpg": "no", "fuel:octane_100": "yes", "fuel:octane_95": "yes", "name": "MOL", "operator": "MOL Nyrt.", "operator:addr": "1117 Budapest, Domb\u00f3v\u00e1ri \u00fat 28.", "payment:cash": "yes", "payment:contactless": "yes", "payment:maestro": "yes", "payment:mastercard": "yes", "payment:mastercard_contactless": "yes", "payment:mastercard_electronic": "yes", "payment:visa": "yes", "payment:visa_electron": "yes", "ref:HU:company": "01-10-041683", "ref:HU:vatin": "10625790-4-44", "rent:lpg_bottles": "no", "source": "website", "source:date": "2022-05-21", "truck": "no"}}, {"type": "node", "id": 8151693690, "lat": 47.4272479, "lon": 19.2235347}, {"type": "node", "id": 8151693691, "lat": 47.4273009, "lon": 19.2233883}, {"type": "node", "id": 8151693692, "lat": 47.427455, "lon": 19.2235102}, {"type": "node", "id": 8151693694, "lat": 47.4273663, "lon": 19.2236282}, {"type": "node", "id": 8306216057, "lat": 47.6162152, "lon": 19.1974258}, {"type": "node", "id": 8306216058, "lat": 47.6161445, "lon": 19.197399}, {"type": "node", "id": 8306216059, "lat": 47.6160964, "lon": 19.1976532}, {"type": "node", "id": 8306216060, "lat": 47.6161625, "lon": 19.1976821}, {"type": "node", "id": 8306216062, "lat": 47.6163068, "lon": 19.1974837}, {"type": "node", "id": 8306216063, "lat": 47.6162678, "lon": 19.1976955}, {"type": "node", "id": 8306216064, "lat": 47.616406, "lon": 19.1977557}, {"type": "node", "id": 8547575281, "lat": 47.3809463, "lon": 19.3532376}, {"type": "node", "id": 8547575282, "lat": 47.3809347, "lon": 19.3532979}, {"type": "node", "id": 8589224914, "lat": 47.6074453, "lon": 19.3386787}, {"type": "node", "id": 8589224996, "lat": 47.6073955, "lon": 19.3385376}, {"type": "node", "id": 8608123444, "lat": 47.5913672, "lon": 19.3282501}, {"type": "node", "id": 8608123445, "lat": 47.5913444, "lon": 19.3283595}, {"type": "node", "id": 8626816548, "lat": 47.591222, "lon": 19.2384293}, {"type": "node", "id": 8626816549, "lat": 47.5911356, "lon": 19.2384158}, {"type": "node", "id": 8626816550, "lat": 47.5911401, "lon": 19.238472}, {"type": "node", "id": 8626816551, "lat": 47.5910992, "lon": 19.2384833}, {"type": "node", "id": 8626816552, "lat": 47.5911128, "lon": 19.2385395}, {"type": "node", "id": 8626816553, "lat": 47.5911462, "lon": 19.2385215}, {"type": "node", "id": 8626816554, "lat": 47.5911659, "lon": 19.2385822}, {"type": "node", "id": 8626816555, "lat": 47.5912417, "lon": 19.2385057}, {"type": "node", "id": 8874121836, "lat": 47.4862282, "lon": 19.1845877}, {"type": "node", "id": 8874121837, "lat": 47.486211, "lon": 19.1847607}, {"type": "node", "id": 8874121838, "lat": 47.4861346, "lon": 19.1847441}, {"type": "node", "id": 8874121839, "lat": 47.4861518, "lon": 19.1845711}, {"type": "node", "id": 9090885163, "lat": 47.7243741, "lon": 19.666472, "tags": {"amenity": "fuel", "name": "mol"}}, {"type": "node", "id": 9347246593, "lat": 47.58455, "lon": 19.74552, "tags": {"addr:city": "J\u00e1szf\u00e9nyszaru", "addr:housenumber": "1", "addr:postcode": "5126", "addr:street": "Trianon t\u00e9r", "air_conditioning": "yes", "amenity": "fuel", "brand": "MOL", "brand:wikidata": "Q549181", "brand:wikipedia": "hu:MOL Magyar Olaj- \u00e9s G\u00e1zipari Nyrt.", "compressed_air": "yes", "contact:facebook": "https://www.facebook.com/mol.magyarorszag/", "contact:instagram": "https://www.instagram.com/mol.magyarorszag/", "contact:website": "https://www.mol.hu", "contact:youtube": "https://www.youtube.com/user/molgrouptv", "fixme": "verify import", "food": "no", "fuel:GTL_diesel": "yes", "fuel:adblue": "no", "fuel:diesel": "yes", "fuel:lpg": "no", "fuel:octane_100": "yes", "fuel:octane_95": "yes", "name": "MOL", "operator": "MOL Nyrt.", "operator:addr": "1117 Budapest, Domb\u00f3v\u00e1ri \u00fat 28.", "payment:cash": "yes", "payment:contactless": "yes", "payment:maestro": "yes", "payment:mastercard": "yes", "payment:mastercard_contactless": "yes", "payment:mastercard_electronic": "yes", "payment:visa": "yes", "payment:visa_electron": "yes", "ref:HU:company": "01-10-041683", "ref:HU:vatin": "10625790-4-44", "rent:lpg_bottles": "no", "source": "website", "source:date": "2021-12-17", "truck": "no"}}, {"type": "node", "id": 9388103549, "lat": 47.6461072, "lon": 19.2949701, "tags": {"amenity": "fuel", "fuel:diesel": "no", "fuel:lpg": "yes", "fuel:octane_80": "no", "fuel:octane_91": "no", "fuel:octane_95": "no", "name": "Well-Gas LPG Aut\u00f3g\u00e1z", "opening_hours": "Mo-Fr 06:00-20:00; Sa 06:00-17:00"}}, {"type": "node", "id": 9436479160, "lat": 47.4272957, "lon": 19.1624757, "tags": {"amenity": "fuel", "brand": "MOL", "brand:wikidata": "Q549181", "brand:wikipedia": "en:MOL (company)", "name": "Aut\u00f3g\u00e1z-t\u00f6lt\u0151", "operator": "MOL", "self_service": "no"}}, {"type": "node", "id": 9448069615, "lat": 47.599389, "lon": 19.3549987}, {"type": "node", "id": 9448069616, "lat": 47.5994253, "lon": 19.3551755}, {"type": "node", "id": 9448076924, "lat": 47.5993127, "lon": 19.3552481}, {"type": "node", "id": 9448076925, "lat": 47.5992688, "lon": 19.3552671}, {"type": "node", "id": 9448076926, "lat": 47.5993373, "lon": 19.3550227}, {"type": "node", "id": 9448076927, "lat": 47.5992789, "lon": 19.3550454}, {"type": "node", "id": 9448076928, "lat": 47.5992324, "lon": 19.3550703}, {"type": "node", "id": 10271429443, "lat": 47.4341013, "lon": 19.202316}, {"type": "way", "id": 40813409, "nodes": [496234145, 496234146, 496234147, 3070897438, 496234148, 3070897443, 3070897442, 496234145], "tags": {"addr:city": "Budapest", "addr:housenumber": "1", "addr:postcode": "1188", "addr:street": "Alacskai \u00fat", "air_conditioning": "yes", "amenity": "fuel", "brand": "OMV", "brand:wikidata": "Q168238", "brand:wikipedia": "en:OMV", "building": "yes", "compressed_air": "yes", "contact:email": "info.hungary@omv.com", "contact:facebook": "https://www.facebook.com/omvmagyarorszag", "contact:fax": "+36 1 381 9899", "contact:instagram": "https://www.instagram.com/omv/", "contact:linkedin": "https://www.linkedin.com/company/omv", "contact:twitter": "omv", "contact:website": "https://www.omv.hu", "contact:youtube": "https://www.youtube.com/user/omvofficial", "fuel:GTL_diesel": "yes", "fuel:diesel": "yes", "fuel:octane_100": "yes", "fuel:octane_95": "yes", "name": "OMV", "opening_hours": "24/7", "operator": "OMV Hung\u00e1ria Kft.", "operator:addr": "1117 Budapest, Okt\u00f3ber huszonharmadika utca 6-10 5. emelet 5/A.", "payment:cash": "yes", "payment:contactless": "yes", "payment:maestro": "yes", "payment:mastercard": "yes", "payment:mastercard_contactless": "yes", "payment:mastercard_electronic": "yes", "payment:visa": "yes", "payment:visa_electron": "yes", "ref:HU:company": "01-09-071584", "ref:HU:vatin": "10542925-2-44", "ref:vatin": "HU10542925", "source:www.omv.hu:date": "2020-10-03", "wheelchair": "yes"}}, {"type": "way", "id": 89979526, "nodes": [1043047247, 1043047317, 1043047264, 1043047334, 1043047247], "tags": {"amenity": "fuel", "brand": "Auchan", "building": "roof", "layer": "1", "operator": "Auchan"}}, {"type": "way", "id": 115563405, "nodes": [1305236226, 1305236246, 1305236251, 6816087675, 1305236226], "tags": {"addr:city": "Magl\u00f3d", "addr:country": "HU", "addr:housenumber": "1", "addr:postcode": "2234", "addr:street": "Eszterh\u00e1zy J\u00e1nos utca", "amenity": "fuel", "building": "roof", "diesel": "no", "ethanol": "yes", "fuel:biodiesel": "no", "fuel:diesel": "yes", "fuel:ethanol": "no", "fuel:lpg": "no", "fuel:octane_100": "no", "fuel:octane_95": "yes", "fuel:octane_98": "yes", "layer": "1", "name": "Auchan", "operator": "Auchan Magyarorsz\u00e1g KFT", "source": "local knowledge"}}, {"type": "way", "id": 207595145, "nodes": [2178482344, 2178482318, 2178482340, 2178482286, 2178482272, 2178482267, 2178482344], "tags": {"addr:city": "Budapest", "addr:housenumber": "1", "addr:postcode": "1164", "addr:street": "Szabadf\u00f6ld \u00fat", "air_conditioning": "yes", "amenity": "fuel", "brand": "OMV", "brand:wikidata": "Q168238", "brand:wikipedia": "en:OMV", "building": "roof", "compressed_air": "yes", "contact:email": "info.hungary@omv.com", "contact:facebook": "https://www.facebook.com/omvmagyarorszag", "contact:fax": "+36 1 381 9899", "contact:instagram": "https://www.instagram.com/omv/", "contact:linkedin": "https://www.linkedin.com/company/omv", "contact:phone": "+36 1 381 9700", "contact:twitter": "omv", "contact:website": "https://www.omv.hu", "contact:youtube": "https://www.youtube.com/user/omvofficial", "fuel:GTL_diesel": "yes", "fuel:diesel": "yes", "fuel:octane_100": "yes", "fuel:octane_95": "yes", "name": "OMV", "opening_hours": "24/7", "operator": "OMV Hung\u00e1ria Kft.", "operator:addr": "1117 Budapest, Okt\u00f3ber huszonharmadika utca 6-10 5. emelet 5/A.", "payment:cash": "yes", "payment:contactless": "yes", "payment:debit_cards": "yes", "payment:maestro": "yes", "payment:mastercard": "yes", "payment:mastercard_contactless": "yes", "payment:mastercard_electronic": "yes", "payment:visa": "yes", "payment:visa_electron": "yes", "ref:HU:company": "01-09-071584", "ref:HU:vatin": "10542925-2-44", "ref:vatin": "HU10542925", "source:www.omv.hu:date": "2020-10-03", "wheelchair": "yes"}}, {"type": "way", "id": 223674158, "nodes": [2325435976, 2325435968, 2325435960, 2325435961, 2325435976], "tags": {"addr:city": "Budapest", "addr:postcode": "1194", "addr:street": "M\u00e9ta utca", "air_conditioning": "yes", "amenity": "fuel", "brand": "MOL", "brand:wikidata": "Q549181", "brand:wikipedia": "hu:MOL Magyar Olaj- \u00e9s G\u00e1zipari Nyrt.", "building": "yes", "compressed_air": "yes", "contact:facebook": "https://www.facebook.com/mol.magyarorszag/", "contact:instagram": "https://www.instagram.com/mol.magyarorszag/", "contact:phone": "+36 1 280 4778", "contact:website": "https://www.mol.hu", "contact:youtube": "https://www.youtube.com/user/molgrouptv", "food": "yes", "fuel:GTL_diesel": "yes", "fuel:adblue": "no", "fuel:diesel": "yes", "fuel:lpg": "yes", "fuel:octane_100": "yes", "fuel:octane_95": "yes", "name": "MOL", "opening_hours": "Mo-Su 06:00-22:00", "operator": "MOL Nyrt.", "operator:addr": "1117 Budapest, Domb\u00f3v\u00e1ri \u00fat 28.", "payment:cash": "yes", "payment:contactless": "yes", "payment:maestro": "yes", "payment:mastercard": "yes", "payment:mastercard_contactless": "yes", "payment:mastercard_electronic": "yes", "payment:visa": "yes", "payment:visa_electron": "yes", "ref:HU:company": "01-10-041683", "ref:HU:vatin": "10625790-4-44", "rent:lpg_bottles": "no", "source": "website", "source:date": "2022-05-21", "truck": "no"}}, {"type": "way", "id": 243721859, "nodes": [2510947917, 2510947929, 2510947918, 2510947919, 2510947920, 2510947921, 2510947922, 2510947923, 2510947924, 2510965201, 2510947925, 2510947926, 2510947917], "tags": {"amenity": "fuel", "brand": "Shell", "brand:wikidata": "Q154950", "brand:wikipedia": "en:Royal Dutch Shell", "building": "yes", "name": "Shell", "operator": "Shell", "website": "https://www.shell.hu/"}}, {"type": "way", "id": 251801024, "nodes": [2579721220, 2579721224, 2579721230, 2579721238, 2579721233, 2579721223, 2579721220], "tags": {"amenity": "fuel", "brand": "Nil", "building": "roof", "fuel:HGV_diesel": "yes", "fuel:octane_95": "yes", "opening_hours": "Mo-Su 06:00-22:00"}}, {"type": "way", "id": 258507921, "nodes": [2638521291, 9448069615, 9448076926, 9448076927, 9448076928, 2638521293, 2638521295, 9448076925, 9448076924, 2878157803, 2638521296, 9448069616, 2638521297, 2638521291], "tags": {"addr:city": "G\u00f6d\u00f6ll\u0151", "addr:housenumber": "12", "addr:postcode": "2100", "addr:street": "Szabads\u00e1g \u00fat", "air_conditioning": "yes", "amenity": "fuel", "brand": "MOL", "brand:wikidata": "Q549181", "brand:wikipedia": "hu:MOL Magyar Olaj- \u00e9s G\u00e1zipari Nyrt.", "building": "yes", "compressed_air": "yes", "contact:facebook": "https://www.facebook.com/mol.magyarorszag/", "contact:instagram": "https://www.instagram.com/mol.magyarorszag/", "contact:website": "https://www.mol.hu", "contact:youtube": "https://www.youtube.com/user/molgrouptv", "food": "yes", "fuel:GTL_diesel": "yes", "fuel:adblue": "no", "fuel:diesel": "yes", "fuel:lpg": "yes", "fuel:octane_100": "yes", "fuel:octane_95": "yes", "name": "MOL", "opening_hours": "24/7", "operator": "MOL Nyrt.", "operator:addr": "1117 Budapest, Domb\u00f3v\u00e1ri \u00fat 28.", "payment:cash": "yes", "payment:contactless": "yes", "payment:maestro": "yes", "payment:mastercard": "yes", "payment:mastercard_contactless": "yes", "payment:mastercard_electronic": "yes", "payment:visa": "yes", "payment:visa_electron": "yes", "ref:HU:company": "01-10-041683", "ref:HU:vatin": "10625790-4-44", "rent:lpg_bottles": "yes", "source": "website", "source:date": "2022-05-21", "truck": "no"}}, {"type": "way", "id": 272150803, "nodes": [2770810545, 2770810546, 2770810547, 2770810548, 2770810545], "tags": {"addr:city": "G\u00f6d\u00f6ll\u0151", "addr:housenumber": "61", "addr:postcode": "2100", "addr:street": "D\u00f3zsa Gy\u00f6rgy \u00fat", "air_conditioning": "yes", "amenity": "fuel", "brand": "MOL", "brand:wikidata": "Q549181", "brand:wikipedia": "hu:MOL Magyar Olaj- \u00e9s G\u00e1zipari Nyrt.", "building": "yes", "compressed_air": "yes", "contact:facebook": "https://www.facebook.com/mol.magyarorszag/", "contact:instagram": "https://www.instagram.com/mol.magyarorszag/", "contact:website": "https://www.mol.hu", "contact:youtube": "https://www.youtube.com/user/molgrouptv", "food": "no", "fuel:GTL_diesel": "yes", "fuel:adblue": "no", "fuel:diesel": "yes", "fuel:lpg": "no", "fuel:octane_100": "yes", "fuel:octane_95": "yes", "name": "MOL", "opening_hours": "Mo-Su 06:00-22:00", "operator": "MOL Nyrt.", "operator:addr": "1117 Budapest, Domb\u00f3v\u00e1ri \u00fat 28.", "payment:cash": "yes", "payment:contactless": "yes", "payment:maestro": "yes", "payment:mastercard": "yes", "payment:mastercard_contactless": "yes", "payment:mastercard_electronic": "yes", "payment:visa": "yes", "payment:visa_electron": "yes", "ref:HU:company": "01-10-041683", "ref:HU:vatin": "10625790-4-44", "rent:lpg_bottles": "yes", "source": "website", "source:date": "2022-05-21", "truck": "no"}}, {"type": "way", "id": 272536099, "nodes": [8608123445, 2774712818, 2774712819, 4853270860, 8608123444, 8608123445], "tags": {"addr:city": "G\u00f6d\u00f6ll\u0151", "addr:housenumber": "4", "addr:postcode": "2100", "addr:street": "Pattanty\u00fas \u00c1brah\u00e1m k\u00f6r\u00fat", "air_conditioning": "yes", "amenity": "fuel", "brand": "MOL", "brand:wikidata": "Q549181", "brand:wikipedia": "hu:MOL Magyar Olaj- \u00e9s G\u00e1zipari Nyrt.", "building": "yes", "compressed_air": "yes", "contact:facebook": "https://www.facebook.com/mol.magyarorszag/", "contact:instagram": "https://www.instagram.com/mol.magyarorszag/", "contact:website": "https://www.mol.hu", "contact:youtube": "https://www.youtube.com/user/molgrouptv", "food": "yes", "fuel:GTL_diesel": "yes", "fuel:adblue": "no", "fuel:diesel": "yes", "fuel:lpg": "no", "fuel:octane_100": "yes", "fuel:octane_95": "yes", "name": "MOL", "operator": "MOL Nyrt.", "operator:addr": "1117 Budapest, Domb\u00f3v\u00e1ri \u00fat 28.", "payment:cash": "yes", "payment:contactless": "yes", "payment:maestro": "yes", "payment:mastercard": "yes", "payment:mastercard_contactless": "yes", "payment:mastercard_electronic": "yes", "payment:visa": "yes", "payment:visa_electron": "yes", "ref:HU:company": "01-10-041683", "ref:HU:vatin": "10625790-4-44", "rent:lpg_bottles": "yes", "source": "website", "source:date": "2022-05-21", "truck": "no"}}, {"type": "way", "id": 273038287, "nodes": [2779327005, 2779327008, 2779327012, 2779327014, 2779327005], "tags": {"amenity": "fuel", "building": "yes"}}, {"type": "way", "id": 274978776, "nodes": [2796445599, 770083289, 2796445601, 2796445602, 2796445599], "tags": {"addr:city": "Asz\u00f3d", "addr:housenumber": "3", "addr:postcode": "2170", "addr:street": "Pesti \u00fat", "air_conditioning": "yes", "amenity": "fuel", "brand": "MOL", "brand:wikidata": "Q549181", "brand:wikipedia": "hu:MOL Magyar Olaj- \u00e9s G\u00e1zipari Nyrt.", "building": "yes", "compressed_air": "yes", "contact:facebook": "https://www.facebook.com/mol.magyarorszag/", "contact:instagram": "https://www.instagram.com/mol.magyarorszag/", "contact:website": "https://www.mol.hu", "contact:youtube": "https://www.youtube.com/user/molgrouptv", "food": "no", "fuel:GTL_diesel": "yes", "fuel:adblue": "no", "fuel:diesel": "yes", "fuel:lpg": "yes", "fuel:octane_100": "yes", "fuel:octane_95": "yes", "name": "MOL", "operator": "MOL Nyrt.", "operator:addr": "1117 Budapest, Domb\u00f3v\u00e1ri \u00fat 28.", "payment:cash": "yes", "payment:contactless": "yes", "payment:maestro": "yes", "payment:mastercard": "yes", "payment:mastercard_contactless": "yes", "payment:mastercard_electronic": "yes", "payment:visa": "yes", "payment:visa_electron": "yes", "ref:HU:company": "01-10-041683", "ref:HU:vatin": "10625790-4-44", "rent:lpg_bottles": "yes", "source": "website", "source:date": "2022-05-21", "truck": "no"}}, {"type": "way", "id": 283924473, "nodes": [8589224914, 8589224996, 2877359567, 2877359566, 2877359564, 8589224914], "tags": {"addr:city": "G\u00f6d\u00f6ll\u0151", "addr:housenumber": "104", "addr:postcode": "2100", "addr:street": "D\u00f3zsa Gy\u00f6rgy \u00fat", "amenity": "fuel", "brand": "Shell", "brand:wikidata": "Q110716465", "brand:wikipedia": "en:Royal Dutch Shell", "building": "yes", "layer": "1", "name": "Shell", "opening_hours": "24/7", "operator": "Shell", "website": "https://www.shell.hu/"}}, {"type": "way", "id": 283924476, "nodes": [2877359576, 2877359577, 2877359578, 2877359579, 2877359580, 2877359581, 2877359582, 2877359583, 2877359576], "tags": {"amenity": "fuel", "brand": "LUKOIL", "building": "yes", "email": "info.HU@eu.lukoil.com", "name": "LUKOIL", "operator": "LUKOIL Magyarorsz\u00e1g Kft.", "website": "http://www.lukoil.hu"}}, {"type": "way", "id": 283924477, "nodes": [2877359584, 2877359585, 2877359586, 2877359587, 2877359588, 2877359589, 3066919541, 4061793237, 3066918586, 2877359584], "tags": {"amenity": "fuel", "brand": "LUKOIL", "building": "yes", "email": "info.HU@eu.lukoil.com", "name": "LUKOIL", "operator": "LUKOIL Magyarorsz\u00e1g Kft.", "website": "http://www.lukoil.hu"}}, {"type": "way", "id": 293462091, "nodes": [2970571638, 2970571639, 2970571640, 2970571641, 2970571638], "tags": {"amenity": "fuel", "building": "yes"}}, {"type": "way", "id": 295484975, "nodes": [2992190159, 3297671193, 2992190160, 2992190161, 3297671195, 2992190162, 2992190159], "tags": {"addr:city": "Mogyor\u00f3d", "addr:postcode": "2146", "air_conditioning": "yes", "amenity": "fuel", "brand": "MOL", "brand:wikidata": "Q549181", "brand:wikipedia": "hu:MOL Magyar Olaj- \u00e9s G\u00e1zipari Nyrt.", "building": "roof", "compressed_air": "yes", "contact:facebook": "https://www.facebook.com/mol.magyarorszag/", "contact:instagram": "https://www.instagram.com/mol.magyarorszag/", "contact:website": "https://www.mol.hu", "contact:youtube": "https://www.youtube.com/user/molgrouptv", "food": "no", "fuel:GTL_diesel": "yes", "fuel:adblue": "no", "fuel:diesel": "yes", "fuel:lpg": "no", "fuel:octane_100": "yes", "fuel:octane_95": "yes", "layer": "1", "name": "MOL", "operator": "MOL Nyrt.", "operator:addr": "1117 Budapest, Domb\u00f3v\u00e1ri \u00fat 28.", "payment:cash": "yes", "payment:contactless": "yes", "payment:maestro": "yes", "payment:mastercard": "yes", "payment:mastercard_contactless": "yes", "payment:mastercard_electronic": "yes", "payment:visa": "yes", "payment:visa_electron": "yes", "ref:HU:company": "01-10-041683", "ref:HU:vatin": "10625790-4-44", "rent:lpg_bottles": "no", "source": "website", "source:date": "2022-05-21", "truck": "no"}}, {"type": "way", "id": 301290174, "nodes": [279755361, 3053716074, 3053716073, 3053716075, 3053715946, 3053715848, 3053715947, 3053715951, 3053715950, 3053715945, 3053716077, 279755361], "tags": {"amenity": "fuel", "brand": "Shell", "brand:wikidata": "Q154950", "brand:wikipedia": "en:Royal Dutch Shell", "building": "roof", "layer": "1", "name": "Shell", "operator": "Shell", "source": "Bing", "website": "https://www.shell.hu/"}}, {"type": "way", "id": 301290177, "nodes": [3053715862, 6833275948, 279755229, 6833275947, 3053712682, 3053715869, 6833275946, 3053715867, 3053715864, 3053715865, 6833275949, 3053715861, 3053715862], "tags": {"amenity": "fuel", "brand": "Shell", "brand:wikidata": "Q154950", "brand:wikipedia": "en:Royal Dutch Shell", "building": "roof", "layer": "1", "name": "Shell", "operator": "Shell", "source": "Bing", "website": "https://www.shell.hu/"}}, {"type": "way", "id": 310070800, "nodes": [3154168337, 3154168328, 3154168326, 3154168330, 3154168337], "tags": {"amenity": "fuel", "building": "yes"}}, {"type": "way", "id": 322446985, "nodes": [3292179996, 3292179998, 3377822946, 3292179989, 3292179986, 3377822945, 3292179996], "tags": {"addr:city": "Budapest", "addr:housenumber": "51", "addr:postcode": "1172", "addr:street": "Cinkotai \u00fat", "air_conditioning": "yes", "amenity": "fuel", "brand": "OMV", "brand:wikidata": "Q168238", "brand:wikipedia": "en:OMV", "building": "yes", "compressed_air": "yes", "contact:email": "info.hungary@omv.com", "contact:facebook": "https://www.facebook.com/omvmagyarorszag", "contact:fax": "+36 1 381 9899", "contact:instagram": "https://www.instagram.com/omv/", "contact:linkedin": "https://www.linkedin.com/company/omv", "contact:phone": "+36 1 257 0325", "contact:twitter": "omv", "contact:website": "https://www.omv.hu", "contact:youtube": "https://www.youtube.com/user/omvofficial", "fuel:GTL_diesel": "yes", "fuel:diesel": "yes", "fuel:octane_100": "yes", "fuel:octane_95": "yes", "name": "OMV", "opening_hours": "Mo-Su 05:00-22:00; PH off", "operator": "OMV Hung\u00e1ria Kft.", "operator:addr": "1117 Budapest, Okt\u00f3ber huszonharmadika utca 6-10 5. emelet 5/A.", "payment:cash": "yes", "payment:contactless": "yes", "payment:maestro": "yes", "payment:mastercard": "yes", "payment:mastercard_contactless": "yes", "payment:mastercard_electronic": "yes", "payment:visa": "yes", "payment:visa_electron": "yes", "ref:HU:company": "01-09-071584", "ref:HU:vatin": "10542925-2-44", "ref:vatin": "HU10542925", "source:www.omv.hu:date": "2020-10-03"}}, {"type": "way", "id": 322449726, "nodes": [3292198544, 3292198541, 3292198542, 3292198543, 3292198548, 3292198551, 3292198544], "tags": {"addr:city": "Budapest", "addr:postcode": "1172", "addr:street": "Cinkotai \u00fat", "air_conditioning": "yes", "amenity": "fuel", "brand": "MOL", "brand:wikidata": "Q549181", "brand:wikipedia": "hu:MOL Magyar Olaj- \u00e9s G\u00e1zipari Nyrt.", "building": "yes", "compressed_air": "yes", "contact:facebook": "https://www.facebook.com/mol.magyarorszag/", "contact:instagram": "https://www.instagram.com/mol.magyarorszag/", "contact:website": "https://www.mol.hu", "contact:youtube": "https://www.youtube.com/user/molgrouptv", "food": "no", "fuel:GTL_diesel": "yes", "fuel:adblue": "no", "fuel:diesel": "yes", "fuel:lpg": "yes", "fuel:octane_100": "yes", "fuel:octane_95": "yes", "name": "MOL", "old_name": "Agip", "opening_hours": "Mo-Su 06:00-22:00", "operator": "MOL Nyrt.", "operator:addr": "1117 Budapest, Domb\u00f3v\u00e1ri \u00fat 28.", "payment:cash": "yes", "payment:contactless": "yes", "payment:maestro": "yes", "payment:mastercard": "yes", "payment:mastercard_contactless": "yes", "payment:mastercard_electronic": "yes", "payment:visa": "yes", "payment:visa_electron": "yes", "ref:HU:company": "01-10-041683", "ref:HU:vatin": "10625790-4-44", "rent:lpg_bottles": "yes", "source": "website", "source:date": "2022-05-21", "truck": "no"}}, {"type": "way", "id": 327075104, "nodes": [3337875346, 2136091649, 2136091684, 3337875343, 3337875344, 3337875345, 3337875346], "tags": {"addr:city": "Budapest", "addr:housenumber": "108", "addr:postcode": "1165", "addr:street": "B\u00f6k\u00e9nyf\u00f6ldi \u00fat", "amenity": "fuel", "building": "yes", "email": "info@normbenz.hu", "fuel:diesel": "yes", "fuel:octane_95": "yes", "fuel:octane_98": "yes", "name": "Orlen", "opening_hours": "24/7", "operator": "Normbenz Magyarorsz\u00e1g Kft.", "payment:american_express": "yes", "payment:maestro": "yes", "payment:mastercard": "yes", "payment:visa": "yes", "payment:visa_electron": "yes", "website": "https://orlen.hu/", "wheelchair": "yes"}}, {"type": "way", "id": 349141057, "nodes": [3207652564, 3550615820, 3550615824, 3550615818, 3550615817, 3207652564], "tags": {"addr:city": "Budapest", "addr:housenumber": "273/C", "addr:postcode": "1171", "addr:street": "Pesti \u00fat", "amenity": "fuel", "brand": "Shell", "brand:wikidata": "Q110716465", "brand:wikipedia": "en:Royal Dutch Shell", "building": "yes", "name": "Shell", "phone": "+36 1 253 0025"}}, {"type": "way", "id": 354851864, "nodes": [3605080039, 3605080040, 3605080041, 3605080042, 3605080039], "tags": {"amenity": "fuel", "building": "yes"}}, {"type": "way", "id": 365103181, "nodes": [3691477639, 3691477644, 3691477651, 3691477642, 3691477639], "tags": {"addr:city": "Budapest", "addr:housenumber": "1", "addr:postcode": "1173", "addr:street": "Esztena utca", "amenity": "fuel", "building": "yes", "name": "Orlen", "operator": "Normbenz Magyarorsz\u00e1g Kft.", "website": "https://orlen.hu/"}}, {"type": "way", "id": 372766480, "nodes": [3763155341, 3763155337, 3763155336, 2163015170, 3763155335, 3763155334, 5952277834, 3763155338, 3763155340, 3763155339, 3763155341], "tags": {"amenity": "fuel", "brand": "Mobil", "brand:wikidata": "Q109676002", "building": "roof", "name": "Mobil Petrol benzink\u00fat", "opening_hours": "24/7", "source": "Bing"}}, {"type": "way", "id": 411040231, "nodes": [4127795894, 4127795895, 4127795896, 4127795897, 4127795894], "tags": {"amenity": "fuel"}}, {"type": "way", "id": 428426401, "nodes": [1691296976, 4275257092, 4275257109, 4275257106, 1691296976], "tags": {"addr:city": "Budapest", "addr:housenumber": "2", "addr:postcode": "1173", "addr:street": "Pesti \u00fat", "amenity": "fuel", "building": "yes", "email": "info@normbenz.hu", "name": "Orlen", "opening_hours": "Mo-Su 05:00-22:00", "operator": "Normbenz Magyarorsz\u00e1g Kft.", "payment:american_express": "yes", "payment:maestro": "yes", "payment:mastercard": "yes", "payment:visa": "yes", "payment:visa_electron": "yes", "phone": "+36 1 253 0427", "source": "F\u00d6MI Ortofot\u00f3 2005", "website": "https://orlen.hu/"}}, {"type": "way", "id": 440037860, "nodes": [4377400313, 4377400314, 4377400312, 4377400311, 4377400313], "tags": {"amenity": "fuel", "building": "yes", "name": "K\u00e1ta", "source": "F\u00d6MI ortophoto 2005"}}, {"type": "way", "id": 464457378, "nodes": [2136762478, 2136762574, 2136762640, 2136762493, 2136762478], "tags": {"addr:city": "Budapest", "addr:housenumber": "106", "addr:postcode": "1165", "addr:street": "Arany J\u00e1nos utca", "air_conditioning": "yes", "amenity": "fuel", "brand": "MOL", "brand:wikidata": "Q549181", "brand:wikipedia": "hu:MOL Magyar Olaj- \u00e9s G\u00e1zipari Nyrt.", "building": "retail", "compressed_air": "yes", "contact:facebook": "https://www.facebook.com/mol.magyarorszag/", "contact:instagram": "https://www.instagram.com/mol.magyarorszag/", "contact:phone": "+36 1 402 1497", "contact:website": "https://www.mol.hu", "contact:youtube": "https://www.youtube.com/user/molgrouptv", "food": "no", "fuel:GTL_diesel": "yes", "fuel:adblue": "no", "fuel:diesel": "yes", "fuel:lpg": "yes", "fuel:octane_100": "yes", "fuel:octane_95": "yes", "fuel:octane_98": "yes", "name": "MOL", "opening_hours": "Mo-Su 06:00-22:00", "operator": "MOL Nyrt.", "operator:addr": "1117 Budapest, Domb\u00f3v\u00e1ri \u00fat 28.", "payment:cash": "yes", "payment:contactless": "yes", "payment:maestro": "yes", "payment:mastercard": "yes", "payment:mastercard_contactless": "yes", "payment:mastercard_electronic": "yes", "payment:visa": "yes", "payment:visa_electron": "yes", "ref:HU:company": "01-10-041683", "ref:HU:vatin": "10625790-4-44", "rent:lpg_bottles": "yes", "source": "website", "source:date": "2022-05-21", "toilets:wheelchair": "limited", "truck": "no", "wheelchair": "limited", "wheelchair:description": "Mosd\u00f3 r\u00e9sze a k\u00fat elad\u00f3j\u00e1t\u00f3l k\u00e9rhet\u0151, \u00e1r\u00e1t nem tudom, de elvileg nem k\u00e9rnek \u00e9rte semmit, a k\u00fat m\u00f6g\u00f6tt van a mell\u00e9khelys\u00e9g egy nem valami modern mosd\u00f3, de van mozg\u00e1ss\u00e9r\u00fclt szerencs\u00e9re."}}, {"type": "way", "id": 494466933, "nodes": [4862270999, 4862270993, 4862270992, 4862270998, 4862270994, 4862270995, 4862270997, 4862270990, 4862270991, 4862270996, 4862270999], "tags": {"amenity": "fuel", "brand": "Dragon Benz", "name": "Dragon Benz", "opening_hours": "24/7", "operator": "Dragon-Benz Kft.", "shop": "yes"}}, {"type": "way", "id": 519266263, "nodes": [5063690508, 5063690507, 5063690506, 5063690505, 5063690508], "tags": {"amenity": "fuel", "building": "yes", "name": "Szadai-k\u00fat"}}, {"type": "way", "id": 536750423, "nodes": [5198891006, 5198891005, 5198891004, 5198890998, 5198891003, 5198891006], "tags": {"addr:city": "F\u00f3t", "addr:postcode": "2151", "addr:street": "Keleti M\u00e1rton utca", "air_conditioning": "yes", "amenity": "fuel", "brand": "MOL", "brand:wikidata": "Q549181", "brand:wikipedia": "hu:MOL Magyar Olaj- \u00e9s G\u00e1zipari Nyrt.", "building": "yes", "compressed_air": "yes", "contact:facebook": "https://www.facebook.com/mol.magyarorszag/", "contact:instagram": "https://www.instagram.com/mol.magyarorszag/", "contact:phone": "+36 20 381 0687", "contact:website": "https://www.mol.hu", "contact:youtube": "https://www.youtube.com/user/molgrouptv", "food": "yes", "fuel:GTL_diesel": "yes", "fuel:adblue": "no", "fuel:diesel": "yes", "fuel:lpg": "yes", "fuel:octane_100": "yes", "fuel:octane_95": "yes", "name": "MOL", "name:en": "MOL", "opening_hours": "24/7", "operator": "MOL Nyrt.", "operator:addr": "1117 Budapest, Domb\u00f3v\u00e1ri \u00fat 28.", "payment:cash": "yes", "payment:contactless": "yes", "payment:maestro": "yes", "payment:mastercard": "yes", "payment:mastercard_contactless": "yes", "payment:mastercard_electronic": "yes", "payment:visa": "yes", "payment:visa_electron": "yes", "ref:HU:company": "01-10-041683", "ref:HU:vatin": "10625790-4-44", "rent:lpg_bottles": "yes", "source": "website", "source:date": "2022-05-21", "truck": "no"}}, {"type": "way", "id": 550397061, "nodes": [5316108742, 5316108743, 5316108744, 5316108745, 5316108742], "tags": {"amenity": "fuel", "brand": "Shell", "brand:wikidata": "Q154950", "brand:wikipedia": "en:Royal Dutch Shell", "building": "roof", "building:min_level": "1", "building:part": "roof", "fuel:diesel": "yes", "fuel:octane_92": "no", "fuel:octane_95": "yes", "fuel:octane_98": "no", "height": "0.5", "layer": "1", "min_height": "4.5", "name": "Shell", "wheelchair": "yes"}}, {"type": "way", "id": 550397062, "nodes": [5316108746, 5316108747, 5316108748, 5316108749, 5316108746], "tags": {"addr:city": "Budapest", "amenity": "fuel", "brand": "Shell", "brand:wikidata": "Q154950", "brand:wikipedia": "en:Royal Dutch Shell", "building": "retail", "name": "Shell", "operator": "Shell Hungary Zrt.", "website": "https://www.shell.hu/"}}, {"type": "way", "id": 550571751, "nodes": [5317813306, 5317813307, 5317813308, 5317813309, 5317813306], "tags": {"addr:city": "Budapest", "addr:housenumber": "39", "addr:postcode": "1183", "addr:street": "Halad\u00e1s utca", "air_conditioning": "yes", "amenity": "fuel", "brand": "OMV", "brand:wikidata": "Q168238", "brand:wikipedia": "en:OMV", "building": "retail", "compressed_air": "yes", "contact:email": "info.hungary@omv.com", "contact:facebook": "https://www.facebook.com/omvmagyarorszag", "contact:fax": "+36 1 381 9899", "contact:instagram": "https://www.instagram.com/omv/", "contact:linkedin": "https://www.linkedin.com/company/omv", "contact:phone": "+36 1 290 5139", "contact:twitter": "omv", "contact:website": "https://www.omv.hu", "contact:youtube": "https://www.youtube.com/user/omvofficial", "fuel:GTL_diesel": "yes", "fuel:diesel": "yes", "fuel:octane_100": "yes", "fuel:octane_95": "yes", "name": "OMV", "opening_hours": "24/7", "operator": "OMV Hung\u00e1ria Kft.", "operator:addr": "1117 Budapest, Okt\u00f3ber huszonharmadika utca 6-10 5. emelet 5/A.", "payment:american_express": "yes", "payment:cash": "yes", "payment:contactless": "yes", "payment:maestro": "yes", "payment:mastercard": "yes", "payment:mastercard_contactless": "yes", "payment:mastercard_electronic": "yes", "payment:routex": "yes", "payment:uta": "yes", "payment:visa": "yes", "payment:visa_electron": "yes", "ref:HU:company": "01-09-071584", "ref:HU:vatin": "10542925-2-44", "ref:vatin": "HU10542925", "source:www.omv.hu:date": "2020-10-03"}}, {"type": "way", "id": 552903849, "nodes": [5337689420, 10271429443, 5337690921, 5337690922, 5337690923, 5337689420], "tags": {"addr:city": "Budapest", "addr:housenumber": "661", "addr:postcode": "1182", "addr:street": "\u00dcll\u0151i \u00fat", "air_conditioning": "yes", "amenity": "fuel", "brand": "MOL", "brand:wikidata": "Q549181", "brand:wikipedia": "hu:MOL Magyar Olaj- \u00e9s G\u00e1zipari Nyrt.", "building": "retail", "compressed_air": "yes", "contact:facebook": "https://www.facebook.com/mol.magyarorszag/", "contact:fax": "+36 1 291 0238", "contact:instagram": "https://www.instagram.com/mol.magyarorszag/", "contact:phone": "+36 1 291 0233", "contact:website": "https://www.mol.hu", "contact:youtube": "https://www.youtube.com/user/molgrouptv", "food": "no", "fuel:GTL_diesel": "yes", "fuel:adblue": "no", "fuel:diesel": "yes", "fuel:lpg": "yes", "fuel:octane_100": "yes", "fuel:octane_95": "yes", "name": "MOL", "opening_hours": "Mo-Su 06:00-22:00", "operator": "MOL Nyrt.", "operator:addr": "1117 Budapest, Domb\u00f3v\u00e1ri \u00fat 28.", "payment:cash": "yes", "payment:contactless": "yes", "payment:maestro": "yes", "payment:mastercard": "yes", "payment:mastercard_contactless": "yes", "payment:mastercard_electronic": "yes", "payment:visa": "yes", "payment:visa_electron": "yes", "ref:HU:company": "01-10-041683", "ref:HU:vatin": "10625790-4-44", "rent:lpg_bottles": "yes", "source": "website", "source:date": "2022-05-21", "truck": "no", "wheelchair": "yes"}}, {"type": "way", "id": 554450265, "nodes": [5350684431, 5350685448, 5350684432, 5350688789, 5350688796, 5350684433, 5350684434, 5350684431], "tags": {"addr:city": "Vecs\u00e9s", "addr:housenumber": "20-22", "addr:postcode": "2220", "addr:street": "Gy\u00e1li \u00fat", "air_conditioning": "yes", "amenity": "fuel", "brand": "OMV", "brand:wikidata": "Q168238", "brand:wikipedia": "en:OMV", "building": "yes", "compressed_air": "yes", "contact:email": "info.hungary@omv.com", "contact:facebook": "https://www.facebook.com/omvmagyarorszag", "contact:fax": "+36 1 381 9899", "contact:instagram": "https://www.instagram.com/omv/", "contact:linkedin": "https://www.linkedin.com/company/omv", "contact:phone": "+36 29 350 051", "contact:twitter": "omv", "contact:website": "https://www.omv.hu", "contact:youtube": "https://www.youtube.com/user/omvofficial", "fuel:GTL_diesel": "yes", "fuel:diesel": "yes", "fuel:octane_100": "yes", "fuel:octane_95": "yes", "name": "OMV", "opening_hours": "24/7", "operator": "OMV Hung\u00e1ria Kft.", "operator:addr": "1117 Budapest, Okt\u00f3ber huszonharmadika utca 6-10 5. emelet 5/A.", "payment:cash": "yes", "payment:contactless": "yes", "payment:maestro": "yes", "payment:mastercard": "yes", "payment:mastercard_contactless": "yes", "payment:mastercard_electronic": "yes", "payment:visa": "yes", "payment:visa_electron": "yes", "ref:HU:company": "01-09-071584", "ref:HU:vatin": "10542925-2-44", "ref:vatin": "HU10542925", "source": "website", "source:date": "2020-10-03"}}, {"type": "way", "id": 564156667, "nodes": [5436346842, 5436346843, 5436346844, 8547575281, 5436346845, 8547575282, 5436346846, 5436346847, 5436346842], "tags": {"addr:city": "\u00dcll\u0151", "addr:housenumber": "1", "addr:postcode": "2225", "addr:street": "Pesti \u00fat", "air_conditioning": "yes", "amenity": "fuel", "brand": "OMV", "brand:wikidata": "Q168238", "brand:wikipedia": "en:OMV", "building": "roof", "compressed_air": "yes", "contact:email": "info.hungary@omv.com", "contact:facebook": "https://www.facebook.com/omvmagyarorszag", "contact:fax": "+36 1 381 9899", "contact:instagram": "https://www.instagram.com/omv/", "contact:linkedin": "https://www.linkedin.com/company/omv", "contact:phone": "+36 29 322 464", "contact:twitter": "omv", "contact:website": "https://www.omv.hu", "contact:youtube": "https://www.youtube.com/user/omvofficial", "fuel:GTL_diesel": "yes", "fuel:diesel": "yes", "fuel:octane_100": "yes", "fuel:octane_95": "yes", "layer": "1", "name": "OMV", "opening_hours": "Mo-Su 00:00-22:00; PH off", "operator": "OMV Hung\u00e1ria Kft.", "operator:addr": "1117 Budapest, Okt\u00f3ber huszonharmadika utca 6-10 5. emelet 5/A.", "payment:cash": "yes", "payment:contactless": "yes", "payment:maestro": "yes", "payment:mastercard": "yes", "payment:mastercard_contactless": "yes", "payment:mastercard_electronic": "yes", "payment:visa": "yes", "payment:visa_electron": "yes", "phone": "+36 29 322 464", "ref:HU:company": "01-09-071584", "ref:HU:vatin": "10542925-2-44", "ref:vatin": "HU10542925", "self_service": "no", "source": "website", "source:date": "2020-10-03"}}, {"type": "way", "id": 570769605, "nodes": [5487207933, 5487207934, 5487207935, 5487207936, 5487207933], "tags": {"addr:city": "Hatvan", "addr:postcode": "3000", "addr:street": "Elker\u00fcl\u0151 \u00fat", "air_conditioning": "yes", "amenity": "fuel", "brand": "MOL", "brand:wikidata": "Q549181", "brand:wikipedia": "hu:MOL Magyar Olaj- \u00e9s G\u00e1zipari Nyrt.", "building": "yes", "contact:facebook": "https://www.facebook.com/mol.magyarorszag/", "contact:instagram": "https://www.instagram.com/mol.magyarorszag/", "contact:website": "https://www.mol.hu", "contact:youtube": "https://www.youtube.com/user/molgrouptv", "fuel:diesel": "yes", "fuel:octane_95": "yes", "name": "MOL", "operator": "MOL Nyrt.", "operator:addr": "1117 Budapest, Domb\u00f3v\u00e1ri \u00fat 28.", "payment:cash": "yes", "payment:contactless": "yes", "payment:maestro": "yes", "payment:mastercard": "yes", "payment:mastercard_contactless": "yes", "payment:mastercard_electronic": "yes", "payment:visa": "yes", "payment:visa_electron": "yes", "ref:HU:company": "01-10-041683", "ref:HU:vatin": "10625790-4-44", "source": "website", "source:date": "2019-11-06"}}, {"type": "way", "id": 586897013, "nodes": [5606889059, 5606889057, 2006361221, 2006361224, 5606889059], "tags": {"addr:city": "Budapest", "addr:country": "HU", "addr:housenumber": "18", "addr:postcode": "1173", "addr:street": "Pesti \u00fat", "air_conditioning": "yes", "amenity": "fuel", "brand": "OMV", "brand:wikidata": "Q168238", "brand:wikipedia": "en:OMV", "brushless": "yes", "building": "retail", "car_wash": "yes", "compressed_air": "yes", "contact:email": "info.hungary@omv.com", "contact:facebook": "https://www.facebook.com/omvmagyarorszag", "contact:fax": "+36 1 381 9899", "contact:instagram": "https://www.instagram.com/omv/", "contact:linkedin": "https://www.linkedin.com/company/omv", "contact:twitter": "omv", "contact:website": "https://www.omv.hu", "contact:youtube": "https://www.youtube.com/user/omvofficial", "fuel:GTL_diesel": "yes", "fuel:diesel": "yes", "fuel:octane_100": "yes", "fuel:octane_95": "yes", "name": "OMV", "opening_hours": "24/7", "operator": "OMV Hung\u00e1ria Kft.", "operator:addr": "1117 Budapest, Okt\u00f3ber huszonharmadika utca 6-10 5. emelet 5/A.", "payment:cash": "yes", "payment:contactless": "yes", "payment:maestro": "yes", "payment:mastercard": "yes", "payment:mastercard_contactless": "yes", "payment:mastercard_electronic": "yes", "payment:visa": "yes", "payment:visa_electron": "yes", "ref:HU:company": "01-09-071584", "ref:HU:vatin": "10542925-2-44", "ref:vatin": "HU10542925", "self_service": "yes", "shop": "convenience", "source:www.omv.hu:date": "2020-10-03"}}, {"type": "way", "id": 586925833, "nodes": [5607092150, 5607092148, 1691296973, 5607092140, 5607092141, 5607092149, 5607092150], "tags": {"addr:city": "Budapest", "addr:housenumber": "6", "addr:postcode": "1173", "addr:street": "Pesti \u00fat", "amenity": "fuel", "brand": "Shell", "brand:wikidata": "Q110716465", "building": "yes", "car_wash": "no", "compressed_air": "yes", "name": "Shell", "opening_hours": "24/7", "operator": "Shell", "phone": "+36 1 256 0175"}}, {"type": "way", "id": 586925838, "nodes": [5607092167, 5607092170, 5064177363, 5607092166, 5064177366, 5607092171, 5607092127, 5607092167], "tags": {"addr:city": "Budapest", "addr:housenumber": "5", "addr:postcode": "1173", "addr:street": "Pesti \u00fat", "air_conditioning": "yes", "amenity": "fuel", "brand": "MOL", "brand:wikidata": "Q549181", "brand:wikipedia": "hu:MOL Magyar Olaj- \u00e9s G\u00e1zipari Nyrt.", "building": "yes", "car_wash": "yes", "compressed_air": "yes", "contact:facebook": "https://www.facebook.com/mol.magyarorszag/", "contact:instagram": "https://www.instagram.com/mol.magyarorszag/", "contact:phone": "+36 1 253 8074", "contact:website": "https://www.mol.hu", "contact:youtube": "https://www.youtube.com/user/molgrouptv", "food": "no", "fuel:GTL_diesel": "yes", "fuel:adblue": "no", "fuel:diesel": "yes", "fuel:lpg": "no", "fuel:octane_100": "yes", "fuel:octane_95": "yes", "name": "MOL", "opening_hours": "24/7", "operator": "MOL Nyrt.", "operator:addr": "1117 Budapest, Domb\u00f3v\u00e1ri \u00fat 28.", "payment:cash": "yes", "payment:contactless": "yes", "payment:maestro": "yes", "payment:mastercard": "yes", "payment:mastercard_contactless": "yes", "payment:mastercard_electronic": "yes", "payment:visa": "yes", "payment:visa_electron": "yes", "ref:HU:company": "01-10-041683", "ref:HU:vatin": "10625790-4-44", "rent:lpg_bottles": "yes", "source": "website", "source:date": "2022-05-21", "truck": "no"}}, {"type": "way", "id": 597074837, "nodes": [5686059602, 5686059603, 5686059604, 5686059605, 5686059602], "tags": {"amenity": "fuel", "fuel:diesel": "yes"}}, {"type": "way", "id": 605644092, "nodes": [5743799762, 5743799761, 6571390974, 6571390973, 5743799762], "tags": {"addr:city": "Budapest", "addr:housename": "AVIA t\u00f6lt\u0151\u00e1llom\u00e1s", "addr:housenumber": "89", "addr:postcode": "1106", "addr:street": "Kerepesi \u00fat", "amenity": "fuel", "brand": "Avia", "brand:wikidata": "Q300147", "brand:wikipedia": "de:Avia International", "building": "yes", "building:levels": "1", "compressed_air": "yes", "contact:email": "avia@avia.hu", "contact:facebook": "https://www.facebook.com/AVIAHungary", "contact:phone": "+36 20 979 1555", "contact:website": "https://www.avia.hu/toltoallomas/?id=15", "contact:youtube": "https://www.youtube.com/channel/UCjvjkjf2RgmKBuTnKSXk-Rg", "food": "no", "fuel:diesel": "yes", "fuel:e85": "no", "fuel:lpg": "no", "fuel:octane_95": "yes", "fuel:octane_98": "no", "height": "3", "name": "Avia", "opening_hours": "24/7", "operator": "AVIA Hung\u00e1ria Kft.", "payment:cash": "yes", "payment:contactless": "yes", "payment:maestro": "yes", "payment:mastercard": "yes", "payment:mastercard_contactless": "yes", "payment:mastercard_electronic": "yes", "payment:visa": "yes", "payment:visa_electron": "yes", "rent:lpg_bottles": "yes", "restaurant": "no", "source:www.avia.hu:date": "2021-12-17", "truck": "no"}}, {"type": "way", "id": 675957558, "nodes": [6330410877, 6330410878, 6330410879, 6330410880, 6330410877], "tags": {"amenity": "fuel", "name": "Kassza Auchan-F\u00f3t"}}, {"type": "way", "id": 675957560, "nodes": [6330410881, 6330410882, 6330410883, 6330410884, 6330410881], "tags": {"amenity": "fuel", "name": "Kassza Auchan-F\u00f3t"}}, {"type": "way", "id": 687556135, "nodes": [6445247866, 6445247863, 6445247861, 6445247862, 6445247864, 6445247860, 6445247865, 6445247866], "tags": {"addr:city": "Kerepes", "addr:postcode": "2144", "addr:street": "Szabads\u00e1g \u00fatja", "air_conditioning": "yes", "amenity": "fuel", "brand": "MOL", "brand:wikidata": "Q549181", "brand:wikipedia": "hu:MOL Magyar Olaj- \u00e9s G\u00e1zipari Nyrt.", "building": "yes", "compressed_air": "yes", "contact:facebook": "https://www.facebook.com/mol.magyarorszag/", "contact:instagram": "https://www.instagram.com/mol.magyarorszag/", "contact:website": "https://www.mol.hu", "contact:youtube": "https://www.youtube.com/user/molgrouptv", "food": "no", "fuel:GTL_diesel": "yes", "fuel:adblue": "no", "fuel:diesel": "yes", "fuel:lpg": "no", "fuel:octane_100": "yes", "fuel:octane_95": "yes", "fuel:octane_98": "yes", "name": "MOL", "operator": "MOL Nyrt.", "operator:addr": "1117 Budapest, Domb\u00f3v\u00e1ri \u00fat 28.", "payment:cash": "yes", "payment:contactless": "yes", "payment:maestro": "yes", "payment:mastercard": "yes", "payment:mastercard_contactless": "yes", "payment:mastercard_electronic": "yes", "payment:visa": "yes", "payment:visa_electron": "yes", "ref:HU:company": "01-10-041683", "ref:HU:vatin": "10625790-4-44", "rent:lpg_bottles": "yes", "source": "website", "source:date": "2022-05-21", "truck": "no"}}, {"type": "way", "id": 696540885, "nodes": [6541229732, 6541229733, 6541229734, 6541229735, 6541229732], "tags": {"addr:city": "Gy\u00e1l", "addr:housenumber": "19", "addr:postcode": "2360", "addr:street": "K\u0151r\u00f6si \u00fat", "air_conditioning": "yes", "amenity": "fuel", "brand": "MOL", "brand:wikidata": "Q549181", "brand:wikipedia": "hu:MOL Magyar Olaj- \u00e9s G\u00e1zipari Nyrt.", "building": "retail", "compressed_air": "yes", "contact:facebook": "https://www.facebook.com/mol.magyarorszag/", "contact:fax": "+36 29 340 138", "contact:instagram": "https://www.instagram.com/mol.magyarorszag/", "contact:phone": "+36 29 341 210", "contact:website": "https://www.mol.hu", "contact:youtube": "https://www.youtube.com/user/molgrouptv", "food": "yes", "fuel:GTL_diesel": "yes", "fuel:adblue": "no", "fuel:diesel": "yes", "fuel:lpg": "no", "fuel:octane_100": "yes", "fuel:octane_95": "yes", "name": "MOL", "opening_hours": "Mo-Su 05:00-22:00", "operator": "MOL Nyrt.", "operator:addr": "1117 Budapest, Domb\u00f3v\u00e1ri \u00fat 28.", "payment:cash": "yes", "payment:contactless": "yes", "payment:maestro": "yes", "payment:mastercard": "yes", "payment:mastercard_contactless": "yes", "payment:mastercard_electronic": "yes", "payment:visa": "yes", "payment:visa_electron": "yes", "ref:HU:company": "01-10-041683", "ref:HU:vatin": "10625790-4-44", "rent:lpg_bottles": "yes", "source": "website", "source:date": "2022-05-21", "toilets": "yes", "truck": "no", "wheelchair": "yes"}}, {"type": "way", "id": 731535899, "nodes": [6850895979, 6850895980, 6850895981, 6850895982, 6850895979], "tags": {"addr:city": "Bag", "addr:housenumber": "2", "addr:postcode": "2191", "addr:street": "D\u00f3zsa Gy\u00f6rgy utca", "air_conditioning": "yes", "amenity": "fuel", "brand": "OMV", "brand:wikidata": "Q168238", "brand:wikipedia": "en:OMV", "compressed_air": "yes", "contact:email": "info.hungary@omv.com", "contact:facebook": "https://www.facebook.com/omvmagyarorszag", "contact:fax": "+36 1 381 9899", "contact:instagram": "https://www.instagram.com/omv/", "contact:linkedin": "https://www.linkedin.com/company/omv", "contact:phone": "+36 28 408 048", "contact:twitter": "omv", "contact:website": "https://www.omv.hu", "contact:youtube": "https://www.youtube.com/user/omvofficial", "fuel:GTL_diesel": "yes", "fuel:diesel": "yes", "fuel:octane_100": "yes", "fuel:octane_95": "yes", "name": "OMV", "opening_hours": "24/7", "operator": "OMV Hung\u00e1ria Kft.", "operator:addr": "1117 Budapest, Okt\u00f3ber huszonharmadika utca 6-10 5. emelet 5/A.", "payment:cash": "yes", "payment:contactless": "yes", "payment:maestro": "yes", "payment:mastercard": "yes", "payment:mastercard_contactless": "yes", "payment:mastercard_electronic": "yes", "payment:visa": "yes", "payment:visa_electron": "yes", "ref:HU:company": "01-09-071584", "ref:HU:vatin": "10542925-2-44", "ref:vatin": "HU10542925", "source:www.omv.hu:date": "2020-10-03"}}, {"type": "way", "id": 805317593, "nodes": [7531935619, 7531935617, 7531935616, 7531935618, 7531935619], "tags": {"amenity": "fuel", "building": "yes"}}, {"type": "way", "id": 875812876, "nodes": [8151693694, 6952088922, 8151693692, 8151693691, 8151693690, 8151693694], "tags": {"addr:city": "Budapest", "addr:housenumber": "738", "addr:postcode": "1185", "addr:street": "\u00dcll\u0151i \u00fat", "air_conditioning": "yes", "amenity": "fuel", "brand": "MOL", "brand:wikidata": "Q549181", "brand:wikipedia": "hu:MOL Magyar Olaj- \u00e9s G\u00e1zipari Nyrt.", "compressed_air": "yes", "contact:facebook": "https://www.facebook.com/mol.magyarorszag/", "contact:instagram": "https://www.instagram.com/mol.magyarorszag/", "contact:website": "https://www.mol.hu", "contact:youtube": "https://www.youtube.com/user/molgrouptv", "food": "no", "fuel:GTL_diesel": "yes", "fuel:adblue": "no", "fuel:diesel": "yes", "fuel:lpg": "no", "fuel:octane_100": "yes", "fuel:octane_95": "yes", "fuel:octane_98": "yes", "name": "MOL", "operator": "MOL Nyrt.", "operator:addr": "1117 Budapest, Domb\u00f3v\u00e1ri \u00fat 28.", "payment:cash": "yes", "payment:contactless": "yes", "payment:maestro": "yes", "payment:mastercard": "yes", "payment:mastercard_contactless": "yes", "payment:mastercard_electronic": "yes", "payment:visa": "yes", "payment:visa_electron": "yes", "ref:HU:company": "01-10-041683", "ref:HU:vatin": "10625790-4-44", "rent:lpg_bottles": "no", "source": "website", "source:date": "2022-05-21", "truck": "no"}}, {"type": "way", "id": 893702141, "nodes": [8306216057, 8306216058, 8306216059, 8306216060, 8306216057], "tags": {"amenity": "fuel"}}, {"type": "way", "id": 893702142, "nodes": [923952240, 8306216062, 8306216063, 8306216064, 923952240], "tags": {"addr:city": "F\u00f3t", "addr:housenumber": "2/B", "addr:postcode": "2151", "addr:street": "Szab\u00f3 Dezs\u0151 \u00fat", "air_conditioning": "yes", "amenity": "fuel", "brand": "OMV", "brand:wikidata": "Q168238", "brand:wikipedia": "en:OMV", "compressed_air": "yes", "contact:email": "info.hungary@omv.com", "contact:facebook": "https://www.facebook.com/omvmagyarorszag", "contact:fax": "+36 1 381 9899", "contact:instagram": "https://www.instagram.com/omv/", "contact:linkedin": "https://www.linkedin.com/company/omv", "contact:phone": "+36 27 358 184", "contact:twitter": "omv", "contact:website": "https://www.omv.hu", "contact:youtube": "https://www.youtube.com/user/omvofficial", "fuel:GTL_diesel": "yes", "fuel:diesel": "yes", "fuel:octane_100": "yes", "fuel:octane_95": "yes", "name": "OMV", "opening_hours": "24/7", "operator": "OMV Hung\u00e1ria Kft.", "operator:addr": "1117 Budapest, Okt\u00f3ber huszonharmadika utca 6-10 5. emelet 5/A.", "payment:cash": "yes", "payment:contactless": "yes", "payment:credit_cards": "yes", "payment:maestro": "yes", "payment:mastercard": "yes", "payment:mastercard_contactless": "yes", "payment:mastercard_electronic": "yes", "payment:visa": "yes", "payment:visa_electron": "yes", "ref:HU:company": "01-09-071584", "ref:HU:vatin": "10542925-2-44", "ref:vatin": "HU10542925", "source:www.omv.hu:date": "2020-10-03"}}, {"type": "way", "id": 930389576, "nodes": [8626816548, 8626816549, 8626816550, 8626816551, 8626816552, 8626816553, 8626816554, 8626816555, 8626816548], "tags": {"addr:city": "Mogyor\u00f3d", "addr:housenumber": "7", "addr:postcode": "2146", "addr:street": "Hungaroring \u00fat", "amenity": "fuel"}}, {"type": "way", "id": 959032836, "nodes": [8874121839, 8874121836, 8874121837, 8874121838, 8874121839], "tags": {"addr:city": "Budapest", "addr:housenumber": "53", "addr:postcode": "1106", "addr:street": "J\u00e1szber\u00e9nyi \u00fat", "amenity": "fuel", "building": "retail", "facebook": "https://www.facebook.com/mpetrolofficial", "name": "MobilPetrol", "operator": "MPH Power Zrt.", "website": "https://www.mpetrol.hu"}}, {"type": "way", "id": 1089039211, "nodes": [5422355291, 5422355286, 5422355287, 5422355288, 5422355289, 5422355290, 5422355291], "tags": {"addr:city": "L\u0151rinci", "addr:postcode": "3022", "addr:street": "21. sz\u00e1m\u00fa f\u0151k\u00f6zleked\u00e9si \u00fat", "air_conditioning": "yes", "amenity": "fuel", "brand": "MOL", "brand:wikidata": "Q549181", "brand:wikipedia": "hu:MOL Magyar Olaj- \u00e9s G\u00e1zipari Nyrt.", "building": "yes", "compressed_air": "yes", "contact:facebook": "https://www.facebook.com/mol.magyarorszag/", "contact:instagram": "https://www.instagram.com/mol.magyarorszag/", "contact:website": "https://www.mol.hu", "contact:youtube": "https://www.youtube.com/user/molgrouptv", "food": "no", "fuel:GTL_diesel": "yes", "fuel:adblue": "no", "fuel:diesel": "yes", "fuel:lpg": "yes", "fuel:octane_100": "yes", "fuel:octane_95": "yes", "name": "MOL", "operator": "MOL Nyrt.", "operator:addr": "1117 Budapest, Domb\u00f3v\u00e1ri \u00fat 28.", "payment:cash": "yes", "payment:contactless": "yes", "payment:maestro": "yes", "payment:mastercard": "yes", "payment:mastercard_contactless": "yes", "payment:mastercard_electronic": "yes", "payment:visa": "yes", "payment:visa_electron": "yes", "ref:HU:company": "01-10-041683", "ref:HU:vatin": "10625790-4-44", "rent:lpg_bottles": "no", "source": "website", "source:date": "2022-05-21", "truck": "yes"}}]}