{"version": 0.6, "generator": "Overpass API 0.7.59 e21c39fe", "osm3s": {"timestamp_osm_base": "2023-01-20T17:58:06Z", "copyright": "The data included in this document is from www.openstreetmap.org. The data is made available under ODbL."}, "elements": [{"type": "node", "id": 1382297777, "lat": 47.1362583, "lon": 17.5665269, "tags": {"amenity": "library", "name": "Nagy L\u00e1szl\u00f3 K\u00f6nyvt\u00e1r", "official_name": "Nagy L\u00e1szl\u00f3 V\u00e1rosi K\u00f6nyvt\u00e1r \u00e9s Szabadid\u0151 K\u00f6zpont - Rendeki Fi\u00f3kk\u00f6nyvt\u00e1r", "opening_hours": "We 10:00-14:00; Fr 14:00-18:00", "website": "http://www.vkajka.hu/"}}, {"type": "node", "id": 1774996130, "lat": 47.0903976, "lon": 17.9065538}, {"type": "node", "id": 1774996135, "lat": 47.0904801, "lon": 17.9064193}, {"type": "node", "id": 1774996146, "lat": 47.0906514, "lon": 17.9068986}, {"type": "node", "id": 1774996182, "lat": 47.090872, "lon": 17.9065484}, {"type": "node", "id": 1774996187, "lat": 47.0908797, "lon": 17.9058325}, {"type": "node", "id": 1774996203, "lat": 47.0910463, "lon": 17.9062478}, {"type": "node", "id": 1774996206, "lat": 47.0911044, "lon": 17.9061624}, {"type": "node", "id": 1778391604, "lat": 47.1038952, "lon": 17.8965293, "tags": {"amenity": "library", "name": "D\u00f3zsav\u00e1rosi K\u00f6nyvt\u00e1r", "source": "survey"}}, {"type": "node", "id": 1860429257, "lat": 47.1059701, "lon": 17.438029}, {"type": "node", "id": 1860429306, "lat": 47.1059661, "lon": 17.437809}, {"type": "node", "id": 1860429309, "lat": 47.1063978, "lon": 17.437792}, {"type": "node", "id": 1860429345, "lat": 47.1064018, "lon": 17.4380121}, {"type": "node", "id": 1882685839, "lat": 47.1544133, "lon": 17.4161677}, {"type": "node", "id": 1882686174, "lat": 47.154272, "lon": 17.4161631}, {"type": "node", "id": 1882686198, "lat": 47.1542734, "lon": 17.4160692}, {"type": "node", "id": 1882686204, "lat": 47.1544147, "lon": 17.4160738}, {"type": "node", "id": 2213612733, "lat": 47.2525144, "lon": 17.7291125}, {"type": "node", "id": 2213612752, "lat": 47.2523982, "lon": 17.7291809}, {"type": "node", "id": 2213612776, "lat": 47.2523706, "lon": 17.7290605}, {"type": "node", "id": 2213612780, "lat": 47.2524839, "lon": 17.7289998}, {"type": "node", "id": 2299916123, "lat": 47.2524258, "lon": 17.7291646}, {"type": "node", "id": 2299916124, "lat": 47.2524156, "lon": 17.7291706}, {"type": "node", "id": 2345698330, "lat": 47.2632777, "lon": 17.8740926, "tags": {"addr:city": "Zirc", "addr:housenumber": "1", "addr:postcode": "8420", "addr:street": "R\u00e1k\u00f3czi t\u00e9r", "amenity": "library", "int_name": "National Sz\u00e9ch\u00e9nyi Library Antal Reguly Historiclal Library", "name": "Reguly Antal M\u0171eml\u00e9k K\u00f6nyvt\u00e1r Zirc", "opening_hours": "Tu-Su 09:00-17:00", "phone": "+36 88 593 800", "website": "http://www.oszk.hu/ciszterci_muemlekkonyvtar", "wheelchair": "no"}}, {"type": "node", "id": 2474386012, "lat": 47.2523917, "lon": 17.7291566}, {"type": "node", "id": 2666819918, "lat": 47.2295427, "lon": 17.7892941, "tags": {"addr:city": "P\u00e9nzesgy\u0151r", "addr:housenumber": "6", "addr:postcode": "8426", "addr:street": "F\u0151 utca", "amenity": "library", "name": "P\u00e9nzesgy\u0151r K\u00f6zs\u00e9gi K\u00f6nyvt\u00e1r", "operator": "P\u00e9nzesgy\u0151ri \u00d6nkorm\u00e1nyzat"}}, {"type": "node", "id": 2856000971, "lat": 46.9607819, "lon": 17.8693745}, {"type": "node", "id": 2856000973, "lat": 46.9608306, "lon": 17.8695271}, {"type": "node", "id": 2856008202, "lat": 46.9611739, "lon": 17.8691062}, {"type": "node", "id": 2856008214, "lat": 46.9612225, "lon": 17.8692588}, {"type": "node", "id": 2990605398, "lat": 47.0032376, "lon": 17.8286733, "tags": {"amenity": "library", "name": "Hidegk\u00fati K\u00f6nyvt\u00e1r", "source": "survey; Bing", "wheelchair": "no"}}, {"type": "node", "id": 3096874176, "lat": 47.0905139, "lon": 17.9067162}, {"type": "node", "id": 3353596637, "lat": 47.18825, "lon": 17.81865, "tags": {"addr:city": "H\u00e1rsk\u00fat", "addr:housenumber": "16", "addr:postcode": "8442", "addr:street": "R\u00e1k\u00f3czi utca", "amenity": "library", "name": "K\u00f6nyvt\u00e1r \u00e9s M\u0171vel\u0151d\u00e9si H\u00e1z", "opening_hours": "Mo 16:00-21:00;We 17:00-21:00;Th 9:00-11:00;Sa 17:00-22:00;Su 15:00-20:00", "phone": "+36 88 272 662", "source": "turistautak.hu", "url": "http://turistautak.hu/poi.php?id=16600"}}, {"type": "node", "id": 3354795911, "lat": 47.0551766, "lon": 17.870749, "tags": {"amenity": "library", "fixme": "which building?", "source": "turistautak.hu", "url": "http://turistautak.hu/poi.php?id=77582"}}, {"type": "node", "id": 3439631864, "lat": 47.122211, "lon": 17.7809098, "tags": {"addr:city": "B\u00e1nd", "addr:housenumber": "67", "addr:postcode": "8443", "addr:street": "Pet\u0151fi S\u00e1ndor utca", "amenity": "library", "name": "K\u00f6nyvt\u00e1r", "source": "turistautak.hu", "source:date": "2011-05-26", "url": "http://turistautak.hu/poi.php?id=66145"}}, {"type": "node", "id": 3459885308, "lat": 47.261442, "lon": 17.870927, "tags": {"amenity": "library", "name": "V\u00e1rosi k\u00f6nyvt\u00e1r", "source": "turistautak.hu", "source:date": "2011-06-25", "url": "http://turistautak.hu/poi.php?id=43848"}}, {"type": "node", "id": 3761768488, "lat": 47.144104, "lon": 17.6506006}, {"type": "node", "id": 3761768489, "lat": 47.1439088, "lon": 17.6504923}, {"type": "node", "id": 3761768490, "lat": 47.1438839, "lon": 17.6505892}, {"type": "node", "id": 3761768491, "lat": 47.1439753, "lon": 17.6506398}, {"type": "node", "id": 3761768492, "lat": 47.1438915, "lon": 17.6509663}, {"type": "node", "id": 3761768493, "lat": 47.1439954, "lon": 17.6510239}, {"type": "node", "id": 3895147738, "lat": 47.2218655, "lon": 17.6051604, "tags": {"addr:city": "Bakonyj\u00e1k\u00f3", "addr:postcode": "8581", "addr:street": "Kossuth Lajos utca", "amenity": "library", "name": "Faluk\u00f6nyvt\u00e1r"}}, {"type": "node", "id": 4714623393, "lat": 47.2061606, "lon": 17.8690822, "tags": {"amenity": "library"}}, {"type": "node", "id": 5141854102, "lat": 46.9834473, "lon": 17.9405169, "tags": {"amenity": "library", "source": "survey", "survey:date": "2017-10-01"}}, {"type": "node", "id": 6697402051, "lat": 47.1052499, "lon": 17.5614202, "tags": {"addr:city": "Ajka", "addr:housenumber": "13", "addr:postcode": "8400", "addr:street": "Szabads\u00e1g t\u00e9r", "amenity": "library", "email": "ajkakonyvtar@vkajka.hu", "name": "Ajka V\u00e1rosi K\u00f6nyvt\u00e1r", "opening_hours": "Mo-Fr 13:00-20:00; We 09:00-20:00; Sa 09:00-15:00", "phone": "+36 88 312 946", "website": "http://vkajka.hu/"}}, {"type": "node", "id": 6906261024, "lat": 47.1056596, "lon": 17.9214361, "tags": {"addr:city": "Veszpr\u00e9m", "addr:housenumber": "1/a", "addr:postcode": "8200", "addr:street": "M\u00e1rcius 15. utca", "amenity": "library", "name": "K\u00f6nyvt\u00e1r"}}, {"type": "node", "id": 9239129934, "lat": 46.9802027, "lon": 17.9225903, "tags": {"amenity": "library"}}, {"type": "node", "id": 9963845458, "lat": 47.1337674, "lon": 17.4028272, "tags": {"amenity": "library"}}, {"type": "way", "id": 175458958, "nodes": [1860429257, 1860429306, 1860429309, 1860429345, 1860429257], "tags": {"addr:city": "Devecser", "addr:housenumber": "5", "addr:postcode": "8460", "addr:street": "Pet\u0151fi S\u00e1ndor t\u00e9r", "amenity": "library", "building": "yes", "building:levels": "2", "name": "K\u00f6nyvt\u00e1r", "opening_hours": "Mo,Tu 12:00-17:00; Th,Fr 9:00-17:00; Sa 8:00-12:00", "operator": "Devecseri V\u00e1rosi K\u00f6nyvt\u00e1r \u00e9s M\u0171vel\u0151d\u00e9si H\u00e1z"}}, {"type": "way", "id": 177861294, "nodes": [1882686174, 1882686198, 1882686204, 1882685839, 1882686174], "tags": {"amenity": "library", "building": "yes", "name": "K\u00f6nyvt\u00e1r"}}, {"type": "way", "id": 211349365, "nodes": [2213612780, 2213612776, 2474386012, 2213612752, 2299916124, 2299916123, 2213612733, 2213612780], "tags": {"addr:city": "Bakonyb\u00e9l", "addr:housenumber": "3", "addr:postcode": "8427", "addr:street": "F\u0151 utca", "amenity": "library", "building": "public", "name": "K\u00f6zs\u00e9gi K\u00f6nyvt\u00e1r", "opening_hours": "Tu-Fr 12:00-19:00; Sa 08:00-12:00; PH closed", "operator": "Bakonyb\u00e9li \u00d6nkorm\u00e1nyzat", "phone": "+36 88 461 474", "source": "http://www.bakonybel.hu/intezmenyek/id/50/", "website": "http://www.bakonybel-4031.emagyarorszag.hu"}}, {"type": "way", "id": 238450757, "nodes": [1774996146, 1774996182, 1774996203, 1774996206, 1774996187, 1774996135, 1774996130, 3096874176, 1774996146], "tags": {"addr:city": "Veszpr\u00e9m", "addr:housenumber": "3", "addr:postcode": "8200", "addr:street": "Komak\u00fat t\u00e9r", "amenity": "library", "email": "ekmk@ekmk.hu", "internet_access": "yes", "name": "E\u00f6tv\u00f6s K\u00e1roly Megyei K\u00f6nyvt\u00e1r", "opening_hours": "We-Fr 09:00-18:00", "phone": "+36 88/560-610", "website": "https://www.ekmk.hu/hu/", "wheelchair": "yes"}}, {"type": "way", "id": 281611715, "nodes": [2856000973, 2856000971, 2856008202, 2856008214, 2856000973], "tags": {"addr:city": "Balatonf\u00fcred", "addr:country": "HU", "addr:postcode": "8230", "amenity": "library", "building": "yes", "name": "Lipt\u00e1k G\u00e1bor V\u00e1rosi K\u00f6nyvt\u00e1r", "source": "Bing;survey"}}, {"type": "way", "id": 372623600, "nodes": [3761768488, 3761768489, 3761768490, 3761768491, 3761768492, 3761768493, 3761768488], "tags": {"addr:city": "V\u00e1rosl\u0151d", "addr:housenumber": "56", "addr:postcode": "8445", "addr:street": "Kossuth Lajos utca", "amenity": "library", "building": "yes"}}]}