{"version": 0.6, "generator": "Overpass API 0.7.59 e21c39fe", "osm3s": {"timestamp_osm_base": "2023-01-17T15:16:20Z", "copyright": "The data included in this document is from www.openstreetmap.org. The data is made available under ODbL."}, "elements": [{"type": "node", "id": 278787450, "lat": 46.4738439, "lon": 18.6839888, "tags": {"amenity": "pub", "note": "Old user replaced."}}, {"type": "node", "id": 278789350, "lat": 46.4829697, "lon": 18.6821005, "tags": {"amenity": "pub", "created_by": "Potlatch 0.9c", "name": "R\u00e9zkakas s\u00f6r\u00f6z\u0151"}}, {"type": "node", "id": 289112855, "lat": 46.4749735, "lon": 18.6847486, "tags": {"amenity": "pub", "created_by": "Potlatch 0.10b"}}, {"type": "node", "id": 289114379, "lat": 46.5285894, "lon": 18.7124427, "tags": {"amenity": "pub", "created_by": "Potlatch 0.10b"}}, {"type": "node", "id": 289114923, "lat": 46.5358522, "lon": 18.7078507, "tags": {"amenity": "pub", "created_by": "Potlatch 0.10b"}}, {"type": "node", "id": 311702201, "lat": 46.5095882, "lon": 18.5883808, "tags": {"amenity": "pub", "fixme": "verify", "name": "Z\u00f6ldfa kisvend\u00e9gl\u0151"}}, {"type": "node", "id": 871609242, "lat": 46.4868412, "lon": 18.9545019, "tags": {"amenity": "pub", "name": "Vinogr\u00e1d", "toilets:wheelchair": "no", "wheelchair": "no"}}, {"type": "node", "id": 871617047, "lat": 46.4863315, "lon": 18.9518564, "tags": {"amenity": "pub", "name": "M\u0171vel\u0151d\u00e9si H\u00e1z", "toilets:wheelchair": "no", "wheelchair": "limited"}}, {"type": "node", "id": 1705539877, "lat": 46.525376, "lon": 18.9759647, "tags": {"addr:city": "Kalocsa", "addr:housenumber": "9", "addr:postcode": "6300", "addr:street": "B\u00fazapiac t\u00e9r", "amenity": "pub", "name": "Pelik\u00e1n S\u00f6rb\u00e1r", "phone": "+36 78 466 453", "smoking": "outside", "wifi": "free"}}, {"type": "node", "id": 1944039669, "lat": 46.1780559, "lon": 18.9512165, "tags": {"addr:city": "Baja", "addr:housenumber": "11", "addr:postcode": "6500", "addr:street": "Szenth\u00e1roms\u00e1g t\u00e9r", "amenity": "pub", "name": "Mediterr\u00e1n Caff\u00e9 and Bar", "opening_hours": "Mo-Th 07:30-24:00, Fr,Sa 07:30-02:30, Su 09:00-24:00", "wheelchair": "limited"}}, {"type": "node", "id": 2411423306, "lat": 46.179321, "lon": 18.9492914, "tags": {"amenity": "pub", "name": "Daniel's Cafe", "wheelchair": "yes"}}, {"type": "node", "id": 2411423308, "lat": 46.1795265, "lon": 18.9490178, "tags": {"amenity": "pub", "name": "The Riverside Pub"}}, {"type": "node", "id": 2508005612, "lat": 46.5287294, "lon": 18.9646161}, {"type": "node", "id": 2508005613, "lat": 46.5285045, "lon": 18.9650045}, {"type": "node", "id": 2508005614, "lat": 46.5283695, "lon": 18.9648276}, {"type": "node", "id": 2508005615, "lat": 46.5285997, "lon": 18.9644468}, {"type": "node", "id": 2508005628, "lat": 46.5281428, "lon": 18.9635435}, {"type": "node", "id": 2508005629, "lat": 46.5283742, "lon": 18.9638471}, {"type": "node", "id": 2508005630, "lat": 46.5285224, "lon": 18.9636085}, {"type": "node", "id": 2508005631, "lat": 46.528291, "lon": 18.9633049}, {"type": "node", "id": 2508005632, "lat": 46.5282175, "lon": 18.9641086}, {"type": "node", "id": 2508005633, "lat": 46.5279879, "lon": 18.9637806}, {"type": "node", "id": 2971925478, "lat": 46.3177225, "lon": 18.7594373, "tags": {"amenity": "pub", "name": "Kiwi"}}, {"type": "node", "id": 2971925479, "lat": 46.3112742, "lon": 18.7572159, "tags": {"amenity": "pub", "name": "Tavasz pressz\u00f3"}}, {"type": "node", "id": 2982349722, "lat": 46.2828899, "lon": 18.7571473, "tags": {"amenity": "pub", "name": "Kedvenc kocsma", "opening_hours": "Mo-Th 06:00-22:00; Fr,Sa 06:00-24:00; Su 06:00-22:00", "wheelchair": "no"}}, {"type": "node", "id": 3040025614, "lat": 46.192909, "lon": 19.1446609, "tags": {"amenity": "pub", "opening_hours": "Mo-Su 06:00-21:00"}}, {"type": "node", "id": 3042292467, "lat": 46.2468562, "lon": 19.1429893, "tags": {"amenity": "pub"}}, {"type": "node", "id": 3042292471, "lat": 46.2496004, "lon": 19.1429562, "tags": {"amenity": "pub", "toilets:wheelchair": "no", "wheelchair": "no"}}, {"type": "node", "id": 3072194910, "lat": 46.194005, "lon": 19.18924, "tags": {"amenity": "pub", "name": "Bubi S\u00f6r\u00f6z\u0151", "toilets:wheelchair": "no", "wheelchair": "no"}}, {"type": "node", "id": 3073940334, "lat": 46.3457713, "lon": 18.5921999, "tags": {"amenity": "pub", "name": "T\u00e9gl\u00e1s pressz\u00f3"}}, {"type": "node", "id": 3073948756, "lat": 46.3458588, "lon": 18.5941586, "tags": {"amenity": "pub"}}, {"type": "node", "id": 3077360557, "lat": 46.1931639, "lon": 19.1789698, "tags": {"amenity": "pub", "name": "\u00c1szok S\u00f6r\u00f6z\u0151", "start_date": "2000"}}, {"type": "node", "id": 3170922253, "lat": 46.3390836, "lon": 19.0535775, "tags": {"amenity": "pub", "name": "Drink B\u00e1r"}}, {"type": "node", "id": 3413206750, "lat": 46.222386, "lon": 18.600525, "tags": {"amenity": "pub", "source": "turistautak.hu", "url": "http://turistautak.hu/poi.php?id=90257"}}, {"type": "node", "id": 3414916345, "lat": 46.2146, "lon": 18.643009, "tags": {"amenity": "pub", "name": "Hegyalja s\u00f6r\u00f6z\u0151 (bez\u00e1rt)", "source": "turistautak.hu", "url": "http://turistautak.hu/poi.php?id=65623"}}, {"type": "node", "id": 3417744931, "lat": 46.3486687, "lon": 18.7003707, "tags": {"addr:city": "Szeksz\u00e1rd", "addr:housenumber": "12", "addr:postcode": "7100", "addr:street": "Garay t\u00e9r", "amenity": "pub", "capacity": "80", "contact:email": "soho.bt@t-online.hu", "contact:phone": "+36 74 411 764;+36 20 953 2711", "contact:website": "http://www.garayetterem.hu/", "name": "Garay s\u00f6r\u00f6z\u0151", "opening_hours": "Mo-Th 09:00-22:00; Fr 09:00-24:00;Sa 00:00-02:00,11:00-24:00; Su 00:00-02:00", "operator": "SOHO Bt.", "ref:HU:vatin": "26438742-2-17", "ref:vatin": "HU26438742", "source": "turistautak.hu", "url": "http://turistautak.hu/poi.php?id=130327"}}, {"type": "node", "id": 3417744945, "lat": 46.352496, "lon": 18.719129, "tags": {"amenity": "pub", "source": "turistautak.hu", "url": "http://turistautak.hu/poi.php?id=142721"}}, {"type": "node", "id": 3417744957, "lat": 46.3485473, "lon": 18.7010765, "tags": {"addr:city": "Szeksz\u00e1rd", "addr:housenumber": "6", "addr:postcode": "7100", "addr:street": "Garay t\u00e9r", "amenity": "pub", "contact:facebook": "https://www.facebook.com/Papa-Boroz%C3%B3ja-2014-Borb%C3%A1r-696643253700786/", "name": "Papa boroz\u00f3ja", "opening_hours": "Mo-Th 10:30-22:00; Fr,Sa 10:30-26:00", "phone": "+36 70 343 5247", "source": "turistautak.hu", "survey:date": "2022-04-14", "url": "http://turistautak.hu/poi.php?id=32200", "wheelchair": "limited"}}, {"type": "node", "id": 3417744984, "lat": 46.3506259, "lon": 18.6998238, "tags": {"amenity": "pub", "contact:facebook": "https://www.facebook.com/pages/category/Pub/S%C3%B6r%C3%B6z%C5%91-Teke-142752432782009/", "name": "Teke s\u00f6r\u00f6z\u0151", "opening_hours": "Mo-Th 15:00-24:00; Fr,Sa 15:00-04:00; PH off", "phone": "+36 74 412 859", "source": "turistautak.hu", "url": "http://turistautak.hu/poi.php?id=74754"}}, {"type": "node", "id": 3420245646, "lat": 46.2056512, "lon": 18.8136195, "tags": {"amenity": "pub", "source": "turistautak.hu", "url": "http://turistautak.hu/poi.php?id=142727"}}, {"type": "node", "id": 3452835821, "lat": 46.534167, "lon": 18.81315, "tags": {"amenity": "pub", "name": "N\u00e1das cs\u00e1rda", "source": "turistautak.hu", "source:date": "2012-01-01", "url": "http://turistautak.hu/poi.php?id=129693"}}, {"type": "node", "id": 3462181527, "lat": 46.24845, "lon": 18.66015, "tags": {"amenity": "pub", "name": "S\u00f6r\u00f6z\u0151", "source": "turistautak.hu", "source:date": "2011-09-08", "url": "http://turistautak.hu/poi.php?id=36791"}}, {"type": "node", "id": 3462187015, "lat": 46.33106, "lon": 18.6983, "tags": {"addr:city": "Szeksz\u00e1rd", "addr:country": "HU", "addr:housenumber": "47", "addr:postcode": "7100", "addr:street": "Csat\u00e1ri utca", "amenity": "pub", "name": "Alibi s\u00f6r\u00f6z\u0151", "opening_hours": "Mo-Su 10:00-24:00", "outdoor_seating": "yes", "phone": "+36 74 416 229"}}, {"type": "node", "id": 3462187049, "lat": 46.247163, "lon": 18.661052, "tags": {"amenity": "pub", "name": "Feny\u0151 kocsma", "source": "turistautak.hu", "source:date": "2011-09-08", "url": "http://turistautak.hu/poi.php?id=36789"}}, {"type": "node", "id": 3462187054, "lat": 46.475447, "lon": 18.686128, "tags": {"amenity": "pub", "name": "Gilde s\u00f6r\u00f6z\u0151", "source": "turistautak.hu", "source:date": "2012-01-01", "url": "http://turistautak.hu/poi.php?id=50945"}}, {"type": "node", "id": 3462187092, "lat": 46.33499, "lon": 18.7003, "tags": {"addr:city": "Szeksz\u00e1rd", "addr:housenumber": "94", "addr:postcode": "7100", "addr:street": "B\u00e9ri Balogh \u00c1d\u00e1m utca", "amenity": "pub", "name": "M\u00e1rkv\u00e1rt pinc\u00e9szet", "phone": "+36 74 311 500", "source": "turistautak.hu", "source:date": "2019-07-08", "url": "http://turistautak.hu/poi.php?id=32182"}}, {"type": "node", "id": 3462188407, "lat": 46.2487155, "lon": 18.6868065, "tags": {"amenity": "pub", "source": "turistautak.hu", "source:date": "2011-09-08", "url": "http://turistautak.hu/poi.php?id=72190"}}, {"type": "node", "id": 3462188432, "lat": 46.282557, "lon": 18.755831, "tags": {"amenity": "pub", "source": "turistautak.hu", "source:date": "2012-08-03", "url": "http://turistautak.hu/poi.php?id=142755"}}, {"type": "node", "id": 3462188461, "lat": 46.312923, "lon": 18.757792, "tags": {"amenity": "pub", "source": "turistautak.hu", "source:date": "2011-09-08", "url": "http://turistautak.hu/poi.php?id=35489"}}, {"type": "node", "id": 3470101434, "lat": 46.488991, "lon": 19.071429, "tags": {"addr:city": "Homokm\u00e9gy", "addr:housenumber": "40", "addr:postcode": "6341", "addr:street": "Kossuth Lajos utca", "amenity": "pub", "name": "Karcs\u00e1k Pressz\u00f3", "smoking": "separated", "source": "turistautak.hu", "source:date": "2012-10-15", "url": "http://turistautak.hu/poi.php?id=125137"}}, {"type": "node", "id": 3470101437, "lat": 46.494441, "lon": 18.967595, "tags": {"amenity": "pub", "source": "turistautak.hu", "source:date": "2012-10-15", "toilets:wheelchair": "no", "url": "http://turistautak.hu/poi.php?id=128613", "wheelchair": "no"}}, {"type": "node", "id": 3470101440, "lat": 46.534767, "lon": 18.990183, "tags": {"amenity": "pub", "source": "turistautak.hu", "source:date": "2011-11-21", "url": "http://turistautak.hu/poi.php?id=123979"}}, {"type": "node", "id": 3470101956, "lat": 46.486476, "lon": 19.074115, "tags": {"amenity": "pub", "name": "Sz\u00e9kes falatoz\u00f3", "source": "turistautak.hu", "source:date": "2012-10-15", "url": "http://turistautak.hu/poi.php?id=128627"}}, {"type": "node", "id": 3474965032, "lat": 46.421002, "lon": 19.175103, "tags": {"amenity": "pub", "name": "Lesz Vigasz kocsma", "source": "turistautak.hu", "source:date": "2011-06-24", "url": "http://turistautak.hu/poi.php?id=3524"}}, {"type": "node", "id": 3476245864, "lat": 46.3859833, "lon": 18.9564261}, {"type": "node", "id": 3476245865, "lat": 46.3860601, "lon": 18.956369}, {"type": "node", "id": 3476251990, "lat": 46.3859982, "lon": 18.9565196}, {"type": "node", "id": 3476251991, "lat": 46.3860648, "lon": 18.9563987}, {"type": "node", "id": 3476251992, "lat": 46.3861624, "lon": 18.9563347}, {"type": "node", "id": 3476252093, "lat": 46.3861821, "lon": 18.956458}, {"type": "node", "id": 3487697987, "lat": 46.280477, "lon": 18.995918, "tags": {"amenity": "pub", "name": "Ciao Amigo s\u00f6r\u00f6z\u0151", "source": "turistautak.hu", "source:date": "2011-06-24", "toilets:wheelchair": "no", "url": "http://turistautak.hu/poi.php?id=88746", "wheelchair": "no"}}, {"type": "node", "id": 3487703907, "lat": 46.187347, "lon": 18.938023, "tags": {"amenity": "pub", "name": "Nyaras kocsma", "source": "turistautak.hu", "source:date": "2011-06-24", "url": "http://turistautak.hu/poi.php?id=86952"}}, {"type": "node", "id": 3487703911, "lat": 46.348408, "lon": 19.122794, "tags": {"amenity": "pub", "name": "Sashever\u0151", "source": "turistautak.hu", "source:date": "2011-06-24", "url": "http://turistautak.hu/poi.php?id=88812"}}, {"type": "node", "id": 3487703930, "lat": 46.17118, "lon": 18.94774, "tags": {"amenity": "pub", "name": "Zr\u00ednyi s\u00f6r-v\u00e1r", "source": "turistautak.hu", "source:date": "2011-06-24", "url": "http://turistautak.hu/poi.php?id=73080"}}, {"type": "node", "id": 3487703961, "lat": 46.18755, "lon": 18.941458, "tags": {"amenity": "pub", "name": "Sarok S\u00f6r\u00f6z\u00f6", "source": "turistautak.hu;route4u", "source:date": "2011-06-24", "url": "http://turistautak.hu/poi.php?id=86951"}}, {"type": "node", "id": 3487703981, "lat": 46.282337, "lon": 18.99031, "tags": {"amenity": "pub", "source": "turistautak.hu", "source:date": "2011-06-24", "url": "http://turistautak.hu/poi.php?id=3529"}}, {"type": "node", "id": 3487703984, "lat": 46.285943, "lon": 18.999521, "tags": {"amenity": "pub", "source": "turistautak.hu", "source:date": "2011-06-24", "toilets:wheelchair": "no", "url": "http://turistautak.hu/poi.php?id=88744", "wheelchair": "no"}}, {"type": "node", "id": 3488458756, "lat": 46.424357, "lon": 18.791822, "tags": {"amenity": "pub", "name": "Neptun pressz\u00f3", "source": "turistautak.hu", "source:date": "2012-01-01", "url": "http://turistautak.hu/poi.php?id=52911"}}, {"type": "node", "id": 3488458787, "lat": 46.4121476, "lon": 18.7533318, "tags": {"amenity": "pub", "fixme": "check: source_old", "source": "turistautak.hu", "source:date": "2012-01-01", "url": "http://turistautak.hu/poi.php?id=52928"}}, {"type": "node", "id": 3739032668, "lat": 46.4710399, "lon": 18.6423531, "tags": {"addr:city": "medina", "addr:street": "R\u00e1k\u00f3czi utca", "amenity": "pub"}}, {"type": "node", "id": 4018692589, "lat": 46.1857577, "lon": 18.9604726}, {"type": "node", "id": 4018692590, "lat": 46.1856613, "lon": 18.9605131}, {"type": "node", "id": 4018692591, "lat": 46.1856809, "lon": 18.9606107}, {"type": "node", "id": 4018692592, "lat": 46.1857774, "lon": 18.9605702}, {"type": "node", "id": 4051985127, "lat": 46.3466671, "lon": 18.7033544, "tags": {"amenity": "pub", "name": "Aranyszem s\u00f6r\u00f6z\u0151", "survey:date": "2020-10-20"}}, {"type": "node", "id": 4200188277, "lat": 46.4888159, "lon": 19.0715179, "tags": {"addr:city": "Homokm\u00e9gy", "addr:housenumber": "42", "addr:postcode": "6341", "addr:street": "Kossuth Lajos utca", "amenity": "pub", "name": "Jobb mint otthon Kocsma", "smoking": "outside"}}, {"type": "node", "id": 4455661979, "lat": 46.274328, "lon": 18.6367903}, {"type": "node", "id": 4455661980, "lat": 46.2742622, "lon": 18.6368426}, {"type": "node", "id": 4455661981, "lat": 46.2743197, "lon": 18.6370089}, {"type": "node", "id": 4455661982, "lat": 46.2743855, "lon": 18.6369606}, {"type": "node", "id": 4471761189, "lat": 46.5380833, "lon": 18.9836364, "tags": {"addr:postcode": "6300", "addr:street": "48-as utca", "alt_name": "Old Bikers' Pub", "amenity": "pub", "name": "Old Motors Pub", "toilets:wheelchair": "no", "wheelchair": "no"}}, {"type": "node", "id": 4485361058, "lat": 46.3406768, "lon": 18.7012571, "tags": {"amenity": "pub", "name": "Vad\u00e1sz s\u00f6r\u00f6z\u0151", "opening_hours": "Mo-Fr 07:00-22:00; Sa 07:00-12:00, 17:00-24:00"}}, {"type": "node", "id": 4624276205, "lat": 46.216205, "lon": 18.6436028}, {"type": "node", "id": 4624276206, "lat": 46.2162217, "lon": 18.6437302}, {"type": "node", "id": 4624276207, "lat": 46.2162829, "lon": 18.6438335}, {"type": "node", "id": 4624276208, "lat": 46.2162839, "lon": 18.6435545}, {"type": "node", "id": 4624276209, "lat": 46.2163006, "lon": 18.6436618}, {"type": "node", "id": 4624276210, "lat": 46.2163275, "lon": 18.6436256}, {"type": "node", "id": 4624276211, "lat": 46.2163451, "lon": 18.643749}, {"type": "node", "id": 4691949135, "lat": 46.3510899, "lon": 18.6994842, "tags": {"addr:city": "Szeksz\u00e1rd", "addr:country": "HU", "addr:housenumber": "16", "addr:postcode": "7100", "addr:street": "Szent L\u00e1szl\u00f3 utca", "amenity": "pub", "contact:facebook": "https://www.facebook.com/yankeeszekszard/?rf=122816144469010", "email": "kefe69@indamail.hu", "name": "Yankee Pub", "opening_hours": "Mo-Th 16:00-22:00; Fr,Sa 16:00-02:00; PH off", "outdoor_seating": "yes", "phone": "+36 74 887 196", "start_date": "1995-10-01"}}, {"type": "node", "id": 4933469303, "lat": 46.1661267, "lon": 18.9704068, "tags": {"amenity": "pub", "fixme": "verify", "name": "Csupor S\u00f6r\u00f6z\u0151", "source": "route4u", "toilets:wheelchair": "no", "wheelchair": "no"}}, {"type": "node", "id": 4933469312, "lat": 46.1715304, "lon": 18.9646518, "tags": {"amenity": "pub", "name": "Makk VII-es Kiskocsma", "source": "route4u"}}, {"type": "node", "id": 4933469417, "lat": 46.1920017, "lon": 18.9430985, "tags": {"amenity": "pub", "fixme": "verify", "name": "Sir\u00e1ly S\u00f6r\u00f6z\u0151", "source": "route4u", "toilets:wheelchair": "no", "wheelchair": "no"}}, {"type": "node", "id": 4933469621, "lat": 46.1932241, "lon": 19.1933317, "tags": {"amenity": "pub", "fixme": "verify", "name": "Boszork\u00e1ny S\u00f6r\u00f6z\u0151", "source": "route4u", "toilets:wheelchair": "no", "wheelchair": "no"}}, {"type": "node", "id": 4933469651, "lat": 46.2504593, "lon": 18.9863563, "tags": {"amenity": "pub", "name": "Grott\u00f3 Italbolt", "source": "route4u", "toilets:wheelchair": "no", "wheelchair": "no"}}, {"type": "node", "id": 4933469653, "lat": 46.2511848, "lon": 18.9789569, "tags": {"amenity": "pub", "fixme": "verify", "name": "Karibik S\u00f6r\u00f6z\u0151", "source": "route4u", "toilets:wheelchair": "no", "wheelchair": "no"}}, {"type": "node", "id": 4933469672, "lat": 46.2966164, "lon": 18.9949675, "tags": {"amenity": "pub", "fixme": "verify", "name": "Arany F\u00e1c\u00e1n S\u00f6r\u00f6z\u0151", "source": "route4u", "toilets:wheelchair": "no", "wheelchair": "no"}}, {"type": "node", "id": 4933469693, "lat": 46.3780529, "lon": 18.8214105, "tags": {"amenity": "pub", "fixme": "verify", "name": "Italbolt", "source": "route4u"}}, {"type": "node", "id": 4933469737, "lat": 46.2063614, "lon": 18.9608866, "tags": {"amenity": "pub", "fixme": "verify", "name": "Virgonc S\u00f6r\u00f6z\u0151", "source": "route4u", "toilets:wheelchair": "no", "wheelchair": "no"}}, {"type": "node", "id": 4933469884, "lat": 46.3332042, "lon": 19.0594345, "tags": {"amenity": "pub", "fixme": "verify", "name": "Cs\u00e1rda S\u00f6r\u00f6z\u0151", "source": "route4u"}}, {"type": "node", "id": 4933469890, "lat": 46.3370936, "lon": 18.6985955, "tags": {"amenity": "pub", "name": "L\u00e9pcs\u0151 Pressz\u00f3", "opening_hours": "08:00-21:00", "source": "route4u", "survey:date": "2022-08-27"}}, {"type": "node", "id": 4933470205, "lat": 46.5193175, "lon": 18.9895367, "tags": {"amenity": "pub", "fixme": "verify", "name": "K\u00e1polna S\u00f6r\u00f6z\u0151", "source": "route4u", "toilets:wheelchair": "no", "wheelchair": "limited"}}, {"type": "node", "id": 4933470217, "lat": 46.5252866, "lon": 19.000544, "tags": {"amenity": "pub", "fixme": "verify", "name": "Tam-Tam B\u00e1r", "source": "route4u", "toilets:wheelchair": "no", "wheelchair": "no"}}, {"type": "node", "id": 4933470265, "lat": 46.5281654, "lon": 18.9933857, "tags": {"amenity": "pub", "fixme": "verify", "name": "Kocka S\u00f6r\u00f6z\u0151", "source": "route4u", "toilets:wheelchair": "no", "wheelchair": "no"}}, {"type": "node", "id": 4933470272, "lat": 46.5309398, "lon": 18.9621961, "tags": {"amenity": "pub", "fixme": "verify", "name": "Stella S\u00f6rb\u00e1r 2", "source": "route4u", "toilets:wheelchair": "no", "wheelchair": "no"}}, {"type": "node", "id": 4933470276, "lat": 46.5320134, "lon": 18.986199, "tags": {"amenity": "pub", "fixme": "verify", "name": "Patika S\u00f6rb\u00e1r", "source": "route4u", "toilets:wheelchair": "no", "wheelchair": "no"}}, {"type": "node", "id": 4933470283, "lat": 46.5344095, "lon": 18.9588398, "tags": {"amenity": "pub", "fixme": "verify", "name": "Rept\u00e9r S\u00f6rb\u00e1r", "source": "route4u", "toilets:wheelchair": "limited", "wheelchair": "no"}}, {"type": "node", "id": 4933470286, "lat": 46.5357, "lon": 18.9786906, "tags": {"amenity": "pub", "fixme": "verify", "name": "Kakas Kocsma", "source": "route4u", "toilets:wheelchair": "no", "wheelchair": "no"}}, {"type": "node", "id": 4939171715, "lat": 46.5219152, "lon": 18.9838802, "tags": {"amenity": "pub", "fixme": "verify", "name": "Pr\u00e9rifarkas S\u00f6r\u00f6z\u0151", "source": "route4u", "toilets:wheelchair": "no", "wheelchair": "no"}}, {"type": "node", "id": 4939174127, "lat": 46.179913, "lon": 18.9540574, "tags": {"amenity": "pub", "name": "V\u00e1roskapu S\u00f6r\u00f6z\u0151", "source": "route4u", "toilets:wheelchair": "no", "wheelchair": "no"}}, {"type": "node", "id": 4939174228, "lat": 46.5281528, "lon": 18.9640032, "tags": {"amenity": "pub", "fixme": "verify", "name": "Pel\u00e9 S\u00f6r\u00f6z\u0151 2", "source": "route4u", "toilets:wheelchair": "no", "wheelchair": "no"}}, {"type": "node", "id": 4939174277, "lat": 46.5288583, "lon": 18.8106338, "tags": {"amenity": "pub", "fixme": "verify", "name": "Gond\u0171z\u0151 Italbolt-Boroz\u00f3", "source": "route4u", "toilets:wheelchair": "yes", "wheelchair": "no"}}, {"type": "node", "id": 4939174322, "lat": 46.5227876, "lon": 18.9804755, "tags": {"amenity": "pub", "fixme": "verify", "name": "Balaton Kocsma", "source": "route4u", "toilets:wheelchair": "no", "wheelchair": "no"}}, {"type": "node", "id": 4939175394, "lat": 46.5283556, "lon": 18.9636268, "tags": {"amenity": "pub", "fixme": "verify", "name": "P\u00e1lya Drinkb\u00e1r", "source": "route4u", "toilets:wheelchair": "no", "wheelchair": "no"}}, {"type": "node", "id": 4939175667, "lat": 46.2900327, "lon": 18.9928401, "tags": {"amenity": "pub", "fixme": "verify", "name": "Kam\u00e9leon Klub", "source": "route4u", "toilets:wheelchair": "no", "wheelchair": "no"}}, {"type": "node", "id": 4939176160, "lat": 46.3515235, "lon": 19.1188623, "tags": {"amenity": "pub", "fixme": "verify", "name": "Horgony S\u00f6r\u00f6z\u0151", "source": "route4u"}}, {"type": "node", "id": 4939177836, "lat": 46.182402, "lon": 18.9537524, "tags": {"amenity": "pub", "fixme": "verify", "name": "K\u00e9k M\u00f3kus S\u00f6r\u00f6z\u0151", "source": "route4u"}}, {"type": "node", "id": 4939178710, "lat": 46.1762693, "lon": 18.9506894, "tags": {"amenity": "pub", "fixme": "verify", "name": "Renk\u00f3 S\u00f6r\u00f6z\u0151", "source": "route4u", "toilets:wheelchair": "limited", "wheelchair": "limited"}}, {"type": "node", "id": 4939179881, "lat": 46.1847308, "lon": 18.9473984, "tags": {"amenity": "pub", "fixme": "verify", "name": "Vol.1.Club", "source": "route4u"}}, {"type": "node", "id": 4939179975, "lat": 46.5263204, "lon": 18.9872679, "tags": {"amenity": "pub", "fixme": "verify", "name": "Stella S\u00f6r-B\u00e1r", "source": "route4u", "toilets:wheelchair": "no", "wheelchair": "no"}}, {"type": "node", "id": 4940551992, "lat": 46.1811315, "lon": 18.9481003, "tags": {"amenity": "pub", "name": "Basket B\u00e1r", "source": "route4u", "toilets:wheelchair": "no", "wheelchair": "no"}}, {"type": "node", "id": 4940561749, "lat": 46.5268294, "lon": 18.9180196, "tags": {"amenity": "pub", "fixme": "verify", "name": "Turul S\u00f6r\u00f6z\u0151", "source": "route4u", "toilets:wheelchair": "no", "wheelchair": "no"}}, {"type": "node", "id": 4940562174, "lat": 46.1801156, "lon": 18.9480639, "tags": {"amenity": "pub", "name": "Joker B\u00e1r", "opening_hours:covid19": "off", "source": "route4u", "toilets:wheelchair": "no", "wheelchair": "no"}}, {"type": "node", "id": 4940562175, "lat": 46.5249408, "lon": 18.9834558, "tags": {"amenity": "pub", "fixme": "verify", "name": "Stop-Vid\u00e1mpark S\u00f6r\u00f6z\u0151", "source": "route4u", "toilets:wheelchair": "no", "wheelchair": "no"}}, {"type": "node", "id": 4940563889, "lat": 46.3509653, "lon": 18.690645, "tags": {"addr:city": "Szeksz\u00e1rd", "addr:country": "HU", "addr:housenumber": "5", "addr:postcode": "7100", "addr:street": "Bocskai utca", "amenity": "pub", "name": "Unicum Pressz\u00f3", "opening_hours": "Mo-Sa 09:00-21:00", "source": "route4u", "toilets:wheelchair": "no", "wheelchair": "limited"}}, {"type": "node", "id": 4952630834, "lat": 46.3835868, "lon": 18.8156817}, {"type": "node", "id": 4952630835, "lat": 46.3836238, "lon": 18.8156773}, {"type": "node", "id": 4952630836, "lat": 46.3835929, "lon": 18.8157907}, {"type": "node", "id": 4952630837, "lat": 46.3836273, "lon": 18.8157399}, {"type": "node", "id": 4952630838, "lat": 46.3836838, "lon": 18.8157332}, {"type": "node", "id": 4952630839, "lat": 46.3835272, "lon": 18.8157985}, {"type": "node", "id": 4952630840, "lat": 46.3835159, "lon": 18.8155957}, {"type": "node", "id": 4952630841, "lat": 46.383675, "lon": 18.8155769}, {"type": "node", "id": 5005193223, "lat": 46.3986348, "lon": 19.1225945, "tags": {"amenity": "pub", "name": "Beck's S\u00f6r\u00f6z\u0151"}}, {"type": "node", "id": 5041741572, "lat": 46.3864761, "lon": 18.8290406}, {"type": "node", "id": 5041741573, "lat": 46.3863528, "lon": 18.8290776}, {"type": "node", "id": 5041741574, "lat": 46.3863783, "lon": 18.8291931}, {"type": "node", "id": 5041741575, "lat": 46.3864857, "lon": 18.82917}, {"type": "node", "id": 5560077511, "lat": 46.1767428, "lon": 18.9511493, "tags": {"amenity": "pub", "fixme": "verify", "name": "Cash Drinkb\u00e1r", "source": "route4u", "toilets:wheelchair": "limited", "wheelchair": "limited"}}, {"type": "node", "id": 5592844098, "lat": 46.3875249, "lon": 18.9586132}, {"type": "node", "id": 5592844099, "lat": 46.3875087, "lon": 18.9586318}, {"type": "node", "id": 5592844100, "lat": 46.3874192, "lon": 18.9584196}, {"type": "node", "id": 5592844101, "lat": 46.3875927, "lon": 18.9587855}, {"type": "node", "id": 5592844102, "lat": 46.3876594, "lon": 18.9587089}, {"type": "node", "id": 5592844103, "lat": 46.3874697, "lon": 18.9583616}, {"type": "node", "id": 6409785257, "lat": 46.5218563, "lon": 18.984227, "tags": {"amenity": "pub", "name": "Blue b\u00e1r"}}, {"type": "node", "id": 6585453549, "lat": 46.345252, "lon": 18.7079609}, {"type": "node", "id": 6585453550, "lat": 46.3452017, "lon": 18.707972}, {"type": "node", "id": 6585453551, "lat": 46.3451918, "lon": 18.7078771}, {"type": "node", "id": 6585453552, "lat": 46.345242, "lon": 18.7078661}, {"type": "node", "id": 6609390844, "lat": 46.3505222, "lon": 18.6958578, "tags": {"addr:city": "Szeksz\u00e1rd", "addr:country": "HU", "addr:housenumber": "11", "addr:postcode": "7100", "addr:street": "Babits Mih\u00e1ly utca", "amenity": "pub", "email": "sed0911@freemail.hu", "name": "S\u00e9d s\u00f6r\u00f6z\u0151", "opening_hours": "Mo-Th 07:00-23:00, Fr 07:00-01:00, Sa 08:00-01:00, Su 08:00-23:00", "outdoor_seating": "yes", "phone": "+36 70 940 4518"}}, {"type": "node", "id": 6777157057, "lat": 46.1953996, "lon": 18.9215795}, {"type": "node", "id": 6777157058, "lat": 46.1954228, "lon": 18.9216747}, {"type": "node", "id": 6777157059, "lat": 46.1954868, "lon": 18.9216422}, {"type": "node", "id": 6777157060, "lat": 46.1954636, "lon": 18.9215469}, {"type": "node", "id": 6915624286, "lat": 46.3442966, "lon": 18.7084461, "tags": {"addr:city": "Szeksz\u00e1rd", "addr:housenumber": "40/A", "addr:postcode": "7100", "addr:street": "Tartsay lak\u00f3telep", "amenity": "pub", "name": "Szalon B\u00fcf\u00e9", "opening_hours": "Mo-Su 06:00-22:00", "outdoor_seating": "yes", "smoking": "outside"}}, {"type": "node", "id": 7278431113, "lat": 46.1909442, "lon": 18.7165508, "tags": {"amenity": "pub"}}, {"type": "node", "id": 7530036631, "lat": 46.3519824, "lon": 19.1183959}, {"type": "node", "id": 7530036632, "lat": 46.3518091, "lon": 19.1185798}, {"type": "node", "id": 7530036633, "lat": 46.3518566, "lon": 19.1186738}, {"type": "node", "id": 7530036634, "lat": 46.3518942, "lon": 19.1186338}, {"type": "node", "id": 7530036635, "lat": 46.3518767, "lon": 19.1185993}, {"type": "node", "id": 7530036636, "lat": 46.3519261, "lon": 19.1185469}, {"type": "node", "id": 7530036637, "lat": 46.3519418, "lon": 19.118578}, {"type": "node", "id": 7530036638, "lat": 46.3519769, "lon": 19.1185409}, {"type": "node", "id": 7530036639, "lat": 46.3519692, "lon": 19.1185257}, {"type": "node", "id": 7530036640, "lat": 46.3520205, "lon": 19.1184713}, {"type": "node", "id": 7539594583, "lat": 46.5094064, "lon": 19.0533433, "tags": {"amenity": "pub", "name": "Buki kocsma"}}, {"type": "node", "id": 7544939024, "lat": 46.3569915, "lon": 18.7037623, "tags": {"amenity": "pub", "name": "Gesztenye s\u00f6r\u00f6z\u0151", "opening_hours": "08:00-22:00", "outdoor_seating": "yes"}}, {"type": "node", "id": 7576289619, "lat": 46.528994, "lon": 19.02686, "tags": {"amenity": "pub"}}, {"type": "node", "id": 7577953937, "lat": 46.3438013, "lon": 18.7014636, "tags": {"amenity": "pub", "name": "R\u00e9zkakas"}}, {"type": "node", "id": 9330066609, "lat": 46.4079278, "lon": 18.7556578}, {"type": "node", "id": 9330066610, "lat": 46.40795, "lon": 18.7557287}, {"type": "node", "id": 9330066611, "lat": 46.4078778, "lon": 18.7557761}, {"type": "node", "id": 9330066612, "lat": 46.4078301, "lon": 18.7556232}, {"type": "node", "id": 9330066613, "lat": 46.4079924, "lon": 18.7555069}, {"type": "node", "id": 9330066614, "lat": 46.4080192, "lon": 18.7555956}, {"type": "node", "id": 9548481761, "lat": 46.2059346, "lon": 18.8131148, "tags": {"addr:city": "P\u00f6rb\u00f6ly", "addr:postcode": "7142", "amenity": "pub", "name": "Duna S\u00f6r\u00f6z\u0151"}}, {"type": "node", "id": 9748614501, "lat": 46.1927268, "lon": 18.7248069, "tags": {"amenity": "pub", "survey:date": "2022-05-17"}}, {"type": "way", "id": 243379321, "nodes": [2508005612, 2508005613, 2508005614, 2508005615, 2508005612], "tags": {"addr:city": "Kalocsa", "addr:housenumber": "1", "addr:postcode": "6300", "addr:street": "Haj\u00f3s Alfr\u00e9d utca", "amenity": "pub", "name": "Napk\u00f6zi S\u00f6r\u00f6z\u0151", "toilets:wheelchair": "no", "wheelchair": "no"}}, {"type": "way", "id": 243379329, "nodes": [2508005628, 2508005629, 2508005630, 2508005631, 2508005628], "tags": {"amenity": "pub"}}, {"type": "way", "id": 243379330, "nodes": [2508005629, 2508005632, 2508005633, 2508005628, 2508005629], "tags": {"amenity": "pub", "name": "Z\u0151d", "toilets:wheelchair": "no", "wheelchair": "no"}}, {"type": "way", "id": 340401449, "nodes": [3476252093, 3476251990, 3476245864, 3476251991, 3476245865, 3476251992, 3476252093], "tags": {"amenity": "pub", "building": "yes", "name": "Mediterr\u00e1n pub", "source": "survey;Bing", "toilets:wheelchair": "no", "wheelchair": "no"}}, {"type": "way", "id": 399125602, "nodes": [4018692589, 4018692590, 4018692591, 4018692592, 4018692589], "tags": {"addr:city": "Baja", "addr:housenumber": "2", "addr:postcode": "6500", "addr:street": "Szegedi \u00fat", "amenity": "pub", "building": "yes", "name": "Akv\u00e1rium kocsma", "source": "http://www.boltapro.hu/index.php?page=/hirdetesek/hirdetes.php&kod=37303"}}, {"type": "way", "id": 448562972, "nodes": [4455661979, 4455661980, 4455661981, 4455661982, 4455661979], "tags": {"addr:city": "Sz\u00e1lka", "addr:housenumber": "85", "addr:postcode": "7121", "addr:street": "Kossuth Lajos utca", "amenity": "pub", "building": "yes"}}, {"type": "way", "id": 467824724, "nodes": [4624276205, 4624276206, 4624276207, 4624276211, 4624276209, 4624276210, 4624276208, 4624276205], "tags": {"amenity": "pub", "building": "yes", "name": "Patak cs\u00e1rda"}}, {"type": "way", "id": 505292531, "nodes": [4952630841, 4952630838, 4952630837, 4952630835, 4952630834, 4952630836, 4952630839, 4952630840, 4952630841], "tags": {"amenity": "pub", "building": "yes", "name": "Halli Galli Pub"}}, {"type": "way", "id": 516471817, "nodes": [5041741572, 5041741573, 5041741574, 5041741575, 5041741572], "tags": {"amenity": "pub", "building": "yes", "name": "Gernik K\u00e1v\u00e9h\u00e1z"}}, {"type": "way", "id": 585201897, "nodes": [5592844103, 5592844102, 5592844101, 5592844099, 5592844098, 5592844100, 5592844103], "tags": {"amenity": "pub", "name": "Duduj Kocsma", "source": "route4u", "toilets:wheelchair": "no", "wheelchair": "no"}}, {"type": "way", "id": 701207291, "nodes": [6585453552, 6585453551, 6585453550, 6585453549, 6585453552], "tags": {"amenity": "pub", "building": "yes", "name": "Fradi b\u00fcf\u00e9", "opening_hours": "07:00-22:00, PH off", "outdoor_seating": "yes", "smoking": "outside", "source": "bing", "source_date": "2019-07-02"}}, {"type": "way", "id": 722501657, "nodes": [6777157060, 6777157059, 6777157058, 6777157057, 6777157060], "tags": {"amenity": "pub", "building": "yes", "mapillary": "537573457238028", "name": "S\u00f6r\u00f6z\u0151"}}, {"type": "way", "id": 805117953, "nodes": [7530036631, 7530036632, 7530036633, 7530036634, 7530036635, 7530036636, 7530036637, 7530036638, 7530036639, 7530036640, 7530036631], "tags": {"addr:city": "\u00c9rsekhalma", "amenity": "pub", "building": "yes"}}, {"type": "way", "id": 1011262439, "nodes": [9330066614, 9330066613, 9330066612, 9330066611, 9330066610, 9330066609, 9330066614], "tags": {"amenity": "pub", "building": "yes", "building:levels": "1"}}]}