{"version": 0.6, "generator": "Overpass API 0.7.59 e21c39fe", "osm3s": {"timestamp_osm_base": "2023-01-21T09:47:07Z", "copyright": "The data included in this document is from www.openstreetmap.org. The data is made available under ODbL."}, "elements": [{"type": "node", "id": 540863732, "lat": 47.1774208, "lon": 16.3530263, "tags": {"amenity": "fuel", "name": "Diskont", "wheelchair": "no"}}, {"type": "node", "id": 693276731, "lat": 47.2424389, "lon": 16.652417, "tags": {"addr:city": "Szombathely", "addr:housenumber": "29", "addr:postcode": "9700", "addr:street": "Zanati \u00fat", "air_conditioning": "yes", "amenity": "fuel", "brand": "MOL", "brand:wikidata": "Q549181", "brand:wikipedia": "hu:MOL Magyar Olaj- \u00e9s G\u00e1zipari Nyrt.", "compressed_air": "yes", "contact:facebook": "https://www.facebook.com/mol.magyarorszag/", "contact:instagram": "https://www.instagram.com/mol.magyarorszag/", "contact:website": "https://www.mol.hu", "contact:youtube": "https://www.youtube.com/user/molgrouptv", "food": "yes", "fuel:GTL_diesel": "yes", "fuel:adblue": "yes", "fuel:diesel": "yes", "fuel:lpg": "yes", "fuel:octane_100": "yes", "fuel:octane_95": "yes", "fuel:octane_98": "yes", "name": "MOL", "operator": "MOL Nyrt.", "operator:addr": "1117 Budapest, Domb\u00f3v\u00e1ri \u00fat 28.", "payment:cash": "yes", "payment:contactless": "yes", "payment:maestro": "yes", "payment:mastercard": "yes", "payment:mastercard_contactless": "yes", "payment:mastercard_electronic": "yes", "payment:visa": "yes", "payment:visa_electron": "yes", "ref:HU:company": "01-10-041683", "ref:HU:vatin": "10625790-4-44", "rent:lpg_bottles": "yes", "source": "website", "source:date": "2022-05-21", "truck": "no"}}, {"type": "node", "id": 834681878, "lat": 47.2548025, "lon": 16.6198121, "tags": {"addr:city": "Szombathely", "addr:housenumber": "1", "addr:postcode": "9700", "addr:street": "Vikt\u00f3ria utca", "air_conditioning": "yes", "amenity": "fuel", "brand": "MOL", "brand:wikidata": "Q549181", "brand:wikipedia": "hu:MOL Magyar Olaj- \u00e9s G\u00e1zipari Nyrt.", "compressed_air": "yes", "contact:facebook": "https://www.facebook.com/mol.magyarorszag/", "contact:instagram": "https://www.instagram.com/mol.magyarorszag/", "contact:website": "https://www.mol.hu", "contact:youtube": "https://www.youtube.com/user/molgrouptv", "food": "yes", "fuel:GTL_diesel": "yes", "fuel:adblue": "no", "fuel:diesel": "yes", "fuel:e85": "yes", "fuel:lpg": "yes", "fuel:octane_100": "yes", "fuel:octane_95": "yes", "name": "MOL", "opening_hours": "Mo-Su 06:00-22:00", "operator": "MOL Nyrt.", "operator:addr": "1117 Budapest, Domb\u00f3v\u00e1ri \u00fat 28.", "payment:cash": "yes", "payment:contactless": "yes", "payment:maestro": "yes", "payment:mastercard": "yes", "payment:mastercard_contactless": "yes", "payment:mastercard_electronic": "yes", "payment:visa": "yes", "payment:visa_electron": "yes", "ref:HU:company": "01-10-041683", "ref:HU:vatin": "10625790-4-44", "rent:lpg_bottles": "yes", "source": "website", "source:date": "2022-05-21", "truck": "no", "wheelchair": "yes"}}, {"type": "node", "id": 951801854, "lat": 47.2484241, "lon": 16.2968226, "tags": {"addr:city": "Jabing", "addr:housenumber": "1", "addr:postcode": "7503", "addr:street": "Bundesstra\u00dfe", "amenity": "fuel", "brand": "Turm\u00f6l", "brand:wikidata": "Q1473279", "brand:wikipedia": "de:Turm\u00f6l", "name": "Turm\u00f6l", "opening_hours": "Mo-Sa 06:00-22:00; Su 07:00-22:00", "phone": "+43 3362 4022", "website": "https://www.turm\u00f6l.at/", "wheelchair": "limited"}}, {"type": "node", "id": 965265205, "lat": 47.2423965, "lon": 16.3126794, "tags": {"addr:city": "Gro\u00dfpetersdorf", "addr:country": "AT", "addr:housenumber": "1", "addr:postcode": "7503", "addr:street": "Schlainingerstra\u00dfe", "amenity": "fuel", "at_bev:addr_date": "2020-10-01", "name": "GP Diskont", "wheelchair": "no"}}, {"type": "node", "id": 974073644, "lat": 47.047318, "lon": 16.3180229, "tags": {"addr:city": "G\u00fcssing", "addr:housenumber": "54-56", "addr:postcode": "7540", "addr:street": "Grazer Stra\u00dfe", "amenity": "fuel", "name": "Awi"}}, {"type": "node", "id": 1134273495, "lat": 47.2421163, "lon": 16.5907415, "tags": {"amenity": "fuel", "brand": "Shell", "name": "Shell", "operator": "Shell", "website": "https://www.shell.hu/"}}, {"type": "node", "id": 1349142913, "lat": 46.9885031, "lon": 16.2575727, "tags": {"amenity": "fuel", "brand": "BP", "brand:wikidata": "Q152057", "name": "BP", "operator": "BP", "source": "Bing"}}, {"type": "node", "id": 1747019719, "lat": 47.136031, "lon": 16.2718935}, {"type": "node", "id": 1747019720, "lat": 47.1360445, "lon": 16.2718069}, {"type": "node", "id": 1747019729, "lat": 47.1361186, "lon": 16.271923}, {"type": "node", "id": 1747019732, "lat": 47.1361321, "lon": 16.2718364}, {"type": "node", "id": 1786182648, "lat": 47.0675713, "lon": 16.3230821, "tags": {"amenity": "fuel", "brand": "AWI"}}, {"type": "node", "id": 1833987773, "lat": 47.0696393, "lon": 16.3222907, "tags": {"amenity": "fuel"}}, {"type": "node", "id": 1864780950, "lat": 46.982293, "lon": 16.2808313}, {"type": "node", "id": 1944239087, "lat": 47.2400464, "lon": 16.6490527, "tags": {"addr:city": "Szombathely", "addr:housenumber": "56", "addr:postcode": "9700", "addr:street": "Zanati \u00fat", "air_conditioning": "yes", "amenity": "fuel", "brand": "MOL", "brand:wikidata": "Q549181", "brand:wikipedia": "hu:MOL Magyar Olaj- \u00e9s G\u00e1zipari Nyrt.", "compressed_air": "yes", "contact:facebook": "https://www.facebook.com/mol.magyarorszag/", "contact:instagram": "https://www.instagram.com/mol.magyarorszag/", "contact:website": "https://www.mol.hu", "contact:youtube": "https://www.youtube.com/user/molgrouptv", "food": "no", "fuel:GTL_diesel": "yes", "fuel:adblue": "no", "fuel:diesel": "yes", "fuel:e85": "yes", "fuel:lpg": "no", "fuel:octane_100": "yes", "fuel:octane_95": "yes", "name": "MOL", "operator": "MOL Nyrt.", "operator:addr": "1117 Budapest, Domb\u00f3v\u00e1ri \u00fat 28.", "payment:cash": "yes", "payment:contactless": "yes", "payment:maestro": "yes", "payment:mastercard": "yes", "payment:mastercard_contactless": "yes", "payment:mastercard_electronic": "yes", "payment:visa": "yes", "payment:visa_electron": "yes", "ref:HU:company": "01-10-041683", "ref:HU:vatin": "10625790-4-44", "rent:lpg_bottles": "no", "source": "website", "source:date": "2022-05-21", "truck": "no"}}, {"type": "node", "id": 1944240581, "lat": 47.2278252, "lon": 16.6549107, "tags": {"amenity": "fuel", "name": "Magyar benzink\u00fat"}}, {"type": "node", "id": 2161429751, "lat": 47.0099894, "lon": 16.5833161, "tags": {"amenity": "fuel", "brand": "Shell", "brand:wikidata": "Q154950", "brand:wikipedia": "en:Royal Dutch Shell", "name": "Shell", "operator": "Shell", "toilets:wheelchair": "yes", "website": "https://www.shell.hu/", "wheelchair": "yes"}}, {"type": "node", "id": 2379280211, "lat": 47.2582992, "lon": 16.6128368, "tags": {"amenity": "fuel", "brand": "Shell", "name": "Shell", "operator": "Shell", "website": "https://www.shell.hu/", "wheelchair": "yes"}}, {"type": "node", "id": 2383408160, "lat": 47.2296898, "lon": 16.6174091}, {"type": "node", "id": 2383408166, "lat": 47.2296392, "lon": 16.6172304}, {"type": "node", "id": 2383408167, "lat": 47.2294345, "lon": 16.61744}, {"type": "node", "id": 2383408175, "lat": 47.2293003, "lon": 16.6175224}, {"type": "node", "id": 2383408177, "lat": 47.2294142, "lon": 16.6173685}, {"type": "node", "id": 2383408178, "lat": 47.2293307, "lon": 16.6176297}, {"type": "node", "id": 2384504917, "lat": 47.215091, "lon": 16.6193869}, {"type": "node", "id": 2385552075, "lat": 47.2155119, "lon": 16.6358026, "tags": {"addr:city": "Szombathely", "addr:postcode": "9700", "addr:street": "Rumi utca", "air_conditioning": "yes", "amenity": "fuel", "brand": "OMV", "brand:wikidata": "Q168238", "brand:wikipedia": "en:OMV", "compressed_air": "yes", "contact:email": "info.hungary@omv.com", "contact:facebook": "https://www.facebook.com/omvmagyarorszag", "contact:fax": "+36 1 381 9899", "contact:instagram": "https://www.instagram.com/omv/", "contact:linkedin": "https://www.linkedin.com/company/omv", "contact:phone": "+36 94 312 160", "contact:twitter": "omv", "contact:website": "https://www.omv.hu", "contact:youtube": "https://www.youtube.com/user/omvofficial", "fuel:GTL_diesel": "yes", "fuel:diesel": "yes", "fuel:octane_100": "yes", "fuel:octane_95": "yes", "fuel:octane_98": "yes", "name": "OMV", "opening_hours": "Mo-Su 07:00-19:00; PH off", "opening_hours:covid19": "same", "operator": "OMV Hung\u00e1ria Kft.", "operator:addr": "1117 Budapest, Okt\u00f3ber huszonharmadika utca 6-10 5. emelet 5/A.", "payment:cash": "yes", "payment:contactless": "yes", "payment:maestro": "yes", "payment:mastercard": "yes", "payment:mastercard_contactless": "yes", "payment:mastercard_electronic": "yes", "payment:visa": "yes", "payment:visa_electron": "yes", "ref:HU:company": "01-09-071584", "ref:HU:vatin": "10542925-2-44", "ref:vatin": "HU10542925", "self_service": "yes", "source": "website", "source:date": "2020-10-03"}}, {"type": "node", "id": 2390611100, "lat": 47.2413674, "lon": 16.6529595, "tags": {"addr:city": "Szombathely", "addr:housenumber": "70", "addr:postcode": "9700", "addr:street": "Zanati \u00fat", "amenity": "fuel", "brand": "Shell", "brand:wikidata": "Q154950", "brand:wikipedia": "en:Royal Dutch Shell", "fuel:diesel": "yes", "fuel:octane_95": "yes", "name": "Shell", "operator": "Shell", "website": "https://www.shell.hu/"}}, {"type": "node", "id": 2707266520, "lat": 46.9374792, "lon": 16.1438571}, {"type": "node", "id": 2822792401, "lat": 46.9379, "lon": 16.148718, "tags": {"addr:city": "Jennersdorf", "addr:housenumber": "7", "addr:postcode": "8380", "addr:street": "Technologiepark", "amenity": "fuel", "car_wash": "yes", "name": "Rumpold Tankstelle"}}, {"type": "node", "id": 2974822037, "lat": 47.2481954, "lon": 16.624686}, {"type": "node", "id": 2974822038, "lat": 47.2482125, "lon": 16.6247693}, {"type": "node", "id": 2974822039, "lat": 47.2482605, "lon": 16.6246569}, {"type": "node", "id": 2974822040, "lat": 47.2482777, "lon": 16.6247402}, {"type": "node", "id": 2982807153, "lat": 47.2385367, "lon": 16.5218106, "tags": {"amenity": "fuel"}}, {"type": "node", "id": 2989860790, "lat": 47.2541144, "lon": 16.6169315, "tags": {"addr:city": "Szombathely", "addr:housenumber": "210", "addr:postcode": "9700", "addr:street": "11-es husz\u00e1r \u00fat", "amenity": "fuel", "brand": "ENVI", "fuel:diesel": "yes", "fuel:octane_95": "yes", "name": "ENVI", "operator": "METRO"}}, {"type": "node", "id": 3261488674, "lat": 47.0471573, "lon": 16.4093346}, {"type": "node", "id": 3261488677, "lat": 47.0471975, "lon": 16.4093943}, {"type": "node", "id": 3261488679, "lat": 47.0472265, "lon": 16.4092345}, {"type": "node", "id": 3261488683, "lat": 47.047264, "lon": 16.4092902}, {"type": "node", "id": 3261488686, "lat": 47.0473055, "lon": 16.409352}, {"type": "node", "id": 3261488688, "lat": 47.0473402, "lon": 16.4093018}, {"type": "node", "id": 3261488691, "lat": 47.0473686, "lon": 16.4095279}, {"type": "node", "id": 3261488692, "lat": 47.0473694, "lon": 16.4096501}, {"type": "node", "id": 3261488693, "lat": 47.0474107, "lon": 16.4095904}, {"type": "node", "id": 3261488694, "lat": 47.0474159, "lon": 16.4094595}, {"type": "node", "id": 3261488695, "lat": 47.0474202, "lon": 16.4094208}, {"type": "node", "id": 3261488696, "lat": 47.0474312, "lon": 16.4094373}, {"type": "node", "id": 3340266447, "lat": 47.1587976, "lon": 16.2645161}, {"type": "node", "id": 3340266448, "lat": 47.1587143, "lon": 16.2644917}, {"type": "node", "id": 3340266449, "lat": 47.1586987, "lon": 16.2646059}, {"type": "node", "id": 3340266450, "lat": 47.1587821, "lon": 16.2646304}, {"type": "node", "id": 3353032892, "lat": 47.2270346, "lon": 16.6515274}, {"type": "node", "id": 3353032893, "lat": 47.2271231, "lon": 16.651489}, {"type": "node", "id": 3353032894, "lat": 47.2272226, "lon": 16.6524674}, {"type": "node", "id": 3353032895, "lat": 47.2273111, "lon": 16.652429}, {"type": "node", "id": 3394440850, "lat": 47.2472696, "lon": 16.6018541, "tags": {"amenity": "fuel", "brand": "Independent", "fuel:diesel": "yes", "fuel:octane_95": "yes", "name": "Mag\u00e1nk\u00fat"}}, {"type": "node", "id": 3459862956, "lat": 47.014409, "lon": 16.609934, "tags": {"addr:city": "K\u00f6rmend", "addr:postcode": "9900", "addr:street": "R\u00e1k\u00f3czi utca", "air_conditioning": "yes", "amenity": "fuel", "brand": "MOL", "brand:wikidata": "Q549181", "brand:wikipedia": "hu:MOL Magyar Olaj- \u00e9s G\u00e1zipari Nyrt.", "contact:facebook": "https://www.facebook.com/mol.magyarorszag/", "contact:instagram": "https://www.instagram.com/mol.magyarorszag/", "contact:website": "https://www.mol.hu", "contact:youtube": "https://www.youtube.com/user/molgrouptv", "fuel:diesel": "yes", "fuel:octane_95": "yes", "name": "MOL", "operator": "MOL Nyrt.", "operator:addr": "1117 Budapest, Domb\u00f3v\u00e1ri \u00fat 28.", "payment:cash": "yes", "payment:contactless": "yes", "payment:maestro": "yes", "payment:mastercard": "yes", "payment:mastercard_contactless": "yes", "payment:mastercard_electronic": "yes", "payment:visa": "yes", "payment:visa_electron": "yes", "ref:HU:company": "01-10-041683", "ref:HU:vatin": "10625790-4-44", "source": "website", "source:date": "2019-11-06", "url": "http://turistautak.hu/poi.php?id=27542", "wheelchair": "yes"}}, {"type": "node", "id": 3459863176, "lat": 47.0067852, "lon": 16.6085757, "tags": {"amenity": "fuel", "name": "Magyar benzink\u00fat \u2013 Magyar k\u00fath\u00e1l\u00f3zat", "source": "turistautak.hu", "source:date": "2015-03-03", "url": "http://turistautak.hu/poi.php?id=5355"}}, {"type": "node", "id": 3471869148, "lat": 47.2514807, "lon": 16.6298618, "tags": {"amenity": "fuel", "name": "Crazy Cargo benzink\u00fat", "source": "turistautak.hu", "source:date": "2015-03-03", "url": "http://turistautak.hu/poi.php?id=73595", "wheelchair": "limited"}}, {"type": "node", "id": 3471878038, "lat": 47.205065, "lon": 16.630883, "tags": {"amenity": "fuel", "fixme": "resurvey", "source": "turistautak.hu", "source:date": "2011-09-06", "url": "http://turistautak.hu/poi.php?id=17115"}}, {"type": "node", "id": 3830179064, "lat": 46.9595789, "lon": 16.2764273}, {"type": "node", "id": 3830179065, "lat": 46.9594581, "lon": 16.276367}, {"type": "node", "id": 3830179066, "lat": 46.9594344, "lon": 16.2764656}, {"type": "node", "id": 3830179067, "lat": 46.9594534, "lon": 16.2764764}, {"type": "node", "id": 3830179068, "lat": 46.9594389, "lon": 16.2765381}, {"type": "node", "id": 3830179069, "lat": 46.959541, "lon": 16.2765895}, {"type": "node", "id": 3964007840, "lat": 47.2568097, "lon": 16.4664553, "tags": {"amenity": "fuel", "self_service": "yes"}}, {"type": "node", "id": 3964007843, "lat": 47.2533388, "lon": 16.6306641, "tags": {"amenity": "fuel", "name": "Magyar Benzink\u00fat"}}, {"type": "node", "id": 4306334745, "lat": 46.9775542, "lon": 16.2943958}, {"type": "node", "id": 4306334746, "lat": 46.9775606, "lon": 16.2946724}, {"type": "node", "id": 4306334749, "lat": 46.9776536, "lon": 16.2946677}, {"type": "node", "id": 4306334750, "lat": 46.9776472, "lon": 16.2943911}, {"type": "node", "id": 4306334979, "lat": 46.9821685, "lon": 16.280662}, {"type": "node", "id": 4306334982, "lat": 46.9822481, "lon": 16.2805362}, {"type": "node", "id": 4306334985, "lat": 46.9822822, "lon": 16.2805826}, {"type": "node", "id": 4306334991, "lat": 46.9823336, "lon": 16.2804474}, {"type": "node", "id": 4306334994, "lat": 46.982352, "lon": 16.2804724}, {"type": "node", "id": 4306334995, "lat": 46.9823666, "lon": 16.2806955}, {"type": "node", "id": 4306334996, "lat": 46.9823732, "lon": 16.2807044}, {"type": "node", "id": 4306334997, "lat": 46.9823991, "lon": 16.2803438}, {"type": "node", "id": 4306334998, "lat": 46.9824353, "lon": 16.280587}, {"type": "node", "id": 4306335002, "lat": 46.9824862, "lon": 16.2806562}, {"type": "node", "id": 4306335007, "lat": 46.9825522, "lon": 16.2805519}, {"type": "node", "id": 4541395921, "lat": 46.9375536, "lon": 16.1437374}, {"type": "node", "id": 4541395922, "lat": 46.9374617, "lon": 16.1438015}, {"type": "node", "id": 4541395924, "lat": 46.9373934, "lon": 16.1439149}, {"type": "node", "id": 4541395925, "lat": 46.9374546, "lon": 16.1441094}, {"type": "node", "id": 4541395926, "lat": 46.93766, "lon": 16.1439709}, {"type": "node", "id": 4541395927, "lat": 46.9375967, "lon": 16.1437695}, {"type": "node", "id": 4541395928, "lat": 46.9375695, "lon": 16.1437878}, {"type": "node", "id": 4541395934, "lat": 46.9374283, "lon": 16.1438914}, {"type": "node", "id": 4541395935, "lat": 46.9374957, "lon": 16.1440817}, {"type": "node", "id": 4740778532, "lat": 46.9818481, "lon": 16.2826733}, {"type": "node", "id": 4740778533, "lat": 46.9817403, "lon": 16.2827565}, {"type": "node", "id": 4740778534, "lat": 46.9816802, "lon": 16.2825952}, {"type": "node", "id": 4740778535, "lat": 46.981788, "lon": 16.2825187}, {"type": "node", "id": 5136906211, "lat": 47.011873, "lon": 16.1844549}, {"type": "node", "id": 5136906212, "lat": 47.0117722, "lon": 16.1844165}, {"type": "node", "id": 5136906213, "lat": 47.0117437, "lon": 16.184577}, {"type": "node", "id": 5136906214, "lat": 47.0117104, "lon": 16.1847616}, {"type": "node", "id": 5136906215, "lat": 47.0116841, "lon": 16.1849099}, {"type": "node", "id": 5136906216, "lat": 47.0117855, "lon": 16.1849486}, {"type": "node", "id": 5295870826, "lat": 47.0468274, "lon": 16.6799863}, {"type": "node", "id": 5295870827, "lat": 47.0468862, "lon": 16.6801381}, {"type": "node", "id": 5295870828, "lat": 47.0469588, "lon": 16.6800775}, {"type": "node", "id": 5405915229, "lat": 47.2151359, "lon": 16.6192142}, {"type": "node", "id": 5405915230, "lat": 47.2149783, "lon": 16.6192316}, {"type": "node", "id": 5405915231, "lat": 47.2149793, "lon": 16.6192508}, {"type": "node", "id": 5405915232, "lat": 47.2148872, "lon": 16.6192609}, {"type": "node", "id": 5405915233, "lat": 47.2148947, "lon": 16.6194085}, {"type": "node", "id": 5405915234, "lat": 47.2150924, "lon": 16.6194143}, {"type": "node", "id": 5405915235, "lat": 47.2151458, "lon": 16.6194085}, {"type": "node", "id": 5878532870, "lat": 47.0147124, "lon": 16.610307}, {"type": "node", "id": 5878532871, "lat": 47.0147021, "lon": 16.6100983}, {"type": "node", "id": 5878532872, "lat": 47.0146225, "lon": 16.6098073}, {"type": "node", "id": 5878532873, "lat": 47.0145054, "lon": 16.6093548}, {"type": "node", "id": 5878532874, "lat": 47.0143879, "lon": 16.6094319}, {"type": "node", "id": 5878532875, "lat": 47.014147, "lon": 16.6095976}, {"type": "node", "id": 5878532876, "lat": 47.0140694, "lon": 16.6096696}, {"type": "node", "id": 5878532877, "lat": 47.0139986, "lon": 16.6098621}, {"type": "node", "id": 5878532878, "lat": 47.0140055, "lon": 16.6099073}, {"type": "node", "id": 5878532879, "lat": 47.0146846, "lon": 16.6103878}, {"type": "node", "id": 5878993156, "lat": 47.0143679, "lon": 16.6094457}, {"type": "node", "id": 5878993182, "lat": 47.0141873, "lon": 16.6095699}, {"type": "node", "id": 5878996885, "lat": 47.0141444, "lon": 16.6100056}, {"type": "node", "id": 5879001595, "lat": 47.014697, "lon": 16.6100657}, {"type": "node", "id": 5922551890, "lat": 47.0145304, "lon": 16.6094514}, {"type": "node", "id": 6083081541, "lat": 47.0210042, "lon": 16.6162468}, {"type": "node", "id": 6083081542, "lat": 47.0204291, "lon": 16.6167253}, {"type": "node", "id": 6083081543, "lat": 47.0203964, "lon": 16.6170474}, {"type": "node", "id": 6083081544, "lat": 47.0205674, "lon": 16.6176865}, {"type": "node", "id": 6083081545, "lat": 47.0207747, "lon": 16.6179704}, {"type": "node", "id": 6083081546, "lat": 47.0209379, "lon": 16.6179299}, {"type": "node", "id": 6083081547, "lat": 47.0210844, "lon": 16.6180759}, {"type": "node", "id": 6083081548, "lat": 47.0211812, "lon": 16.6180677}, {"type": "node", "id": 6083081549, "lat": 47.0203949, "lon": 16.6168777}, {"type": "node", "id": 6147193293, "lat": 46.9788694, "lon": 16.5040069}, {"type": "node", "id": 6147193294, "lat": 46.9786334, "lon": 16.5029181}, {"type": "node", "id": 6147193295, "lat": 46.9782756, "lon": 16.5031241}, {"type": "node", "id": 6147193296, "lat": 46.9783343, "lon": 16.5040564}, {"type": "node", "id": 6147193297, "lat": 46.9789568, "lon": 16.5039352}, {"type": "node", "id": 6210890584, "lat": 46.9640373, "lon": 16.6042373, "tags": {"amenity": "fuel"}}, {"type": "node", "id": 6249210975, "lat": 47.2151353, "lon": 16.6194096}, {"type": "node", "id": 6476233065, "lat": 47.0645419, "lon": 16.3254636, "tags": {"addr:city": "G\u00fcssing", "addr:country": "AT", "addr:housenumber": "2a", "addr:postcode": "7540", "addr:street": "Wiener Stra\u00dfe", "amenity": "fuel", "contact:phone": "+43 3322 434 79", "name": "Tankstelle Roth"}}, {"type": "node", "id": 6507031520, "lat": 46.964275, "lon": 16.6044154}, {"type": "node", "id": 6507031521, "lat": 46.9642868, "lon": 16.6040516}, {"type": "node", "id": 6507031522, "lat": 46.9638058, "lon": 16.6038608}, {"type": "node", "id": 6507031523, "lat": 46.9637816, "lon": 16.6043613}, {"type": "node", "id": 6952077171, "lat": 47.238959, "lon": 16.626003, "tags": {"addr:city": "Szombathely", "addr:housenumber": "10", "addr:postcode": "9700", "addr:street": "M\u00e1rkus Em\u00edlia utca", "air_conditioning": "yes", "amenity": "fuel", "brand": "MOL", "brand:wikidata": "Q549181", "brand:wikipedia": "hu:MOL Magyar Olaj- \u00e9s G\u00e1zipari Nyrt.", "compressed_air": "yes", "contact:facebook": "https://www.facebook.com/mol.magyarorszag/", "contact:instagram": "https://www.instagram.com/mol.magyarorszag/", "contact:website": "https://www.mol.hu", "contact:youtube": "https://www.youtube.com/user/molgrouptv", "food": "yes", "fuel:GTL_diesel": "yes", "fuel:adblue": "no", "fuel:diesel": "yes", "fuel:lpg": "no", "fuel:octane_100": "yes", "fuel:octane_95": "yes", "name": "MOL", "operator": "MOL Nyrt.", "operator:addr": "1117 Budapest, Domb\u00f3v\u00e1ri \u00fat 28.", "payment:cash": "yes", "payment:contactless": "yes", "payment:maestro": "yes", "payment:mastercard": "yes", "payment:mastercard_contactless": "yes", "payment:mastercard_electronic": "yes", "payment:visa": "yes", "payment:visa_electron": "yes", "ref:HU:company": "01-10-041683", "ref:HU:vatin": "10625790-4-44", "rent:lpg_bottles": "no", "source": "website", "source:date": "2022-05-21", "truck": "no"}}, {"type": "node", "id": 7083495120, "lat": 47.213425, "lon": 16.6190637}, {"type": "node", "id": 7083495121, "lat": 47.2134168, "lon": 16.6191455}, {"type": "node", "id": 7083495122, "lat": 47.2134595, "lon": 16.6191548}, {"type": "node", "id": 7083495123, "lat": 47.2134677, "lon": 16.619073}, {"type": "node", "id": 8197297440, "lat": 46.9375338, "lon": 16.1436742}, {"type": "node", "id": 8197297441, "lat": 46.9374413, "lon": 16.1437365}, {"type": "node", "id": 8360056814, "lat": 47.0177197, "lon": 16.6141895, "tags": {"addr:city": "K\u00f6rmend", "addr:housenumber": "5", "addr:postcode": "9900", "addr:street": "Sport utca", "amenity": "fuel", "brand": "Concordia", "email": "kormend@concordia-trans.hu", "name": "Concordia", "opening_hours": "Mo-Sa 06:00-22:00", "website": "http://concordiabenzinkut.hu/?page_id=46"}}, {"type": "node", "id": 9347176899, "lat": 47.0469, "lon": 16.6799257}, {"type": "node", "id": 9347246588, "lat": 47.00813, "lon": 16.57423, "tags": {"addr:city": "K\u00f6rmend", "addr:postcode": "9900", "addr:street": "R\u00e1k\u00f3czi utca", "air_conditioning": "yes", "amenity": "fuel", "brand": "MOL", "brand:wikidata": "Q549181", "brand:wikipedia": "hu:MOL Magyar Olaj- \u00e9s G\u00e1zipari Nyrt.", "compressed_air": "yes", "contact:facebook": "https://www.facebook.com/mol.magyarorszag/", "contact:instagram": "https://www.instagram.com/mol.magyarorszag/", "contact:website": "https://www.mol.hu", "contact:youtube": "https://www.youtube.com/user/molgrouptv", "fixme": "verify import", "food": "no", "fuel:GTL_diesel": "yes", "fuel:adblue": "no", "fuel:diesel": "yes", "fuel:lpg": "no", "fuel:octane_100": "yes", "fuel:octane_95": "yes", "name": "MOL", "operator": "MOL Nyrt.", "operator:addr": "1117 Budapest, Domb\u00f3v\u00e1ri \u00fat 28.", "payment:cash": "yes", "payment:contactless": "yes", "payment:maestro": "yes", "payment:mastercard": "yes", "payment:mastercard_contactless": "yes", "payment:mastercard_electronic": "yes", "payment:visa": "yes", "payment:visa_electron": "yes", "ref:HU:company": "01-10-041683", "ref:HU:vatin": "10625790-4-44", "rent:lpg_bottles": "yes", "source": "website", "source:date": "2022-05-21", "truck": "no"}}, {"type": "way", "id": 162907430, "nodes": [1747019720, 1747019732, 1747019729, 1747019719, 1747019720], "tags": {"amenity": "fuel", "building": "roof", "layer": "1"}}, {"type": "way", "id": 229795769, "nodes": [2383408178, 2383408175, 2383408167, 2383408177, 2383408166, 2383408160, 2383408178], "tags": {"addr:city": "Szombathely", "addr:housenumber": "6", "addr:postcode": "9700", "addr:street": "Kiskar utca", "amenity": "fuel", "brand": "Shell", "brand:wikidata": "Q154950", "brand:wikipedia": "en:Royal Dutch Shell", "building": "yes", "fuel:diesel": "yes", "fuel:lpg": "yes", "fuel:octane_95": "yes", "name": "Shell", "operator": "Shell", "website": "https://find.shell.com/hu/fuel/10203508-szombathely-iii/hu-HU", "wheelchair": "yes"}}, {"type": "way", "id": 293906522, "nodes": [2974822039, 2974822037, 2974822038, 2974822040, 2974822039], "tags": {"amenity": "fuel", "name": "Mag\u00e1n benzink\u00fat", "operator": "Privat"}}, {"type": "way", "id": 319692566, "nodes": [3261488688, 3261488686, 3261488683, 3261488679, 3261488674, 3261488677, 3261488692, 3261488693, 3261488691, 3261488694, 3261488696, 3261488695, 3261488688], "tags": {"amenity": "fuel", "building": "yes", "layer": "1"}}, {"type": "way", "id": 327295555, "nodes": [3340266447, 3340266448, 3340266449, 3340266450, 3340266447], "tags": {"amenity": "fuel", "building": "roof"}}, {"type": "way", "id": 328475646, "nodes": [3353032893, 3353032892, 3353032894, 3353032895, 3353032893], "tags": {"addr:city": "Szombathely", "addr:housenumber": "15", "addr:postcode": "9700", "addr:street": "Csaba utca", "air_conditioning": "yes", "amenity": "fuel", "brand": "OMV", "brand:wikidata": "Q168238", "brand:wikipedia": "en:OMV", "building": "yes", "compressed_air": "yes", "contact:email": "info.hungary@omv.com", "contact:facebook": "https://www.facebook.com/omvmagyarorszag", "contact:fax": "+36 1 381 9899", "contact:instagram": "https://www.instagram.com/omv/", "contact:linkedin": "https://www.linkedin.com/company/omv", "contact:phone": "+36 94 328 809", "contact:twitter": "omv", "contact:website": "https://www.omv.hu", "contact:youtube": "https://www.youtube.com/user/omvofficial", "fuel:GTL_diesel": "yes", "fuel:diesel": "yes", "fuel:octane_100": "yes", "fuel:octane_95": "yes", "name": "OMV", "opening_hours": "Mo-Su 06:00-22:00; PH off", "operator": "OMV Hung\u00e1ria Kft.", "operator:addr": "1117 Budapest, Okt\u00f3ber huszonharmadika utca 6-10 5. emelet 5/A.", "payment:cash": "yes", "payment:contactless": "yes", "payment:maestro": "yes", "payment:mastercard": "yes", "payment:mastercard_contactless": "yes", "payment:mastercard_electronic": "yes", "payment:visa": "yes", "payment:visa_electron": "yes", "ref:HU:company": "01-09-071584", "ref:HU:vatin": "10542925-2-44", "ref:vatin": "HU10542925", "source:www.omv.hu:date": "2020-10-03"}}, {"type": "way", "id": 379689439, "nodes": [3830179064, 3830179065, 3830179066, 3830179067, 3830179068, 3830179069, 3830179064], "tags": {"addr:city": "Szentgotth\u00e1rd", "addr:housenumber": "4", "addr:postcode": "9970", "addr:street": "F\u00fczesi \u00fat", "air_conditioning": "yes", "amenity": "fuel", "brand": "MOL", "brand:wikidata": "Q549181", "brand:wikipedia": "hu:MOL Magyar Olaj- \u00e9s G\u00e1zipari Nyrt.", "building": "retail", "compressed_air": "yes", "contact:facebook": "https://www.facebook.com/mol.magyarorszag/", "contact:instagram": "https://www.instagram.com/mol.magyarorszag/", "contact:phone": "+36 94 383 400", "contact:website": "https://www.mol.hu", "contact:youtube": "https://www.youtube.com/user/molgrouptv", "food": "no", "fuel:GTL_diesel": "yes", "fuel:adblue": "no", "fuel:diesel": "yes", "fuel:lpg": "no", "fuel:octane_100": "yes", "fuel:octane_95": "yes", "name": "MOL", "opening_hours": "Mo-Su 06:00-21:00", "operator": "MOL Nyrt.", "operator:addr": "1117 Budapest, Domb\u00f3v\u00e1ri \u00fat 28.", "payment:cash": "yes", "payment:contactless": "yes", "payment:maestro": "yes", "payment:mastercard": "yes", "payment:mastercard_contactless": "yes", "payment:mastercard_electronic": "yes", "payment:visa": "yes", "payment:visa_electron": "yes", "ref:HU:company": "01-10-041683", "ref:HU:vatin": "10625790-4-44", "rent:lpg_bottles": "yes", "source": "website", "source:date": "2022-05-21", "truck": "no"}}, {"type": "way", "id": 431436360, "nodes": [4306335007, 4306335002, 4306334998, 4306334995, 4306334996, 1864780950, 4306334979, 4306334982, 4306334985, 4306334994, 4306334991, 4306334997, 4306335007], "tags": {"amenity": "fuel", "contact:phone": "+36 20 218 0892", "contact:website": "https://www.mpetrol.hu/", "name": "M.Petrol"}}, {"type": "way", "id": 431436400, "nodes": [4306334746, 4306334745, 4306334750, 4306334749, 4306334746], "tags": {"amenity": "fuel", "building": "retail", "email": "info@normbenz.hu", "name": "Orlen", "operator": "Normbenz Magyarorsz\u00e1g Kft.", "website": "https://orlen.hu/"}}, {"type": "way", "id": 458095554, "nodes": [4541395921, 8197297440, 8197297441, 4541395922, 2707266520, 4541395934, 4541395924, 4541395925, 4541395935, 4541395926, 4541395927, 4541395928, 4541395921], "tags": {"addr:city": "Jennersdorf", "addr:housenumber": "7a", "addr:postcode": "8380", "addr:street": "Eisenst\u00e4dter Stra\u00dfe", "amenity": "fuel", "brand": "Eni", "brand:wikidata": "Q565594", "brand:wikipedia": "en:Eni", "building": "house", "name": "Eni Tankstelle", "phone": "+43332945731"}}, {"type": "way", "id": 481133703, "nodes": [4740778532, 4740778533, 4740778534, 4740778535, 4740778532], "tags": {"addr:city": "R\u00e1baf\u00fczes", "addr:postcode": "9955", "addr:street": "8. sz\u00e1m\u00fa f\u0151k\u00f6zleked\u00e9si \u00fat", "addr:suburb": "R\u00e1baf\u00fczes", "air_conditioning": "yes", "amenity": "fuel", "brand": "MOL", "brand:wikidata": "Q549181", "brand:wikipedia": "hu:MOL Magyar Olaj- \u00e9s G\u00e1zipari Nyrt.", "building": "retail", "compressed_air": "yes", "contact:facebook": "https://www.facebook.com/mol.magyarorszag/", "contact:instagram": "https://www.instagram.com/mol.magyarorszag/", "contact:phone": "+36 94 554 375", "contact:website": "https://www.mol.hu", "contact:youtube": "https://www.youtube.com/user/molgrouptv", "food": "yes", "fuel:GTL_diesel": "yes", "fuel:adblue": "no", "fuel:diesel": "yes", "fuel:lpg": "yes", "fuel:octane_100": "yes", "fuel:octane_95": "yes", "name": "MOL", "opening_hours": "24/7", "operator": "MOL Nyrt.", "operator:addr": "1117 Budapest, Domb\u00f3v\u00e1ri \u00fat 28.", "payment:cash": "yes", "payment:contactless": "yes", "payment:maestro": "yes", "payment:mastercard": "yes", "payment:mastercard_contactless": "yes", "payment:mastercard_electronic": "yes", "payment:visa": "yes", "payment:visa_electron": "yes", "ref:HU:company": "01-10-041683", "ref:HU:vatin": "10625790-4-44", "rent:lpg_bottles": "yes", "source": "website", "source:date": "2022-05-21", "truck": "yes"}}, {"type": "way", "id": 528642039, "nodes": [5136906211, 5136906212, 5136906213, 5136906214, 5136906215, 5136906216, 5136906211], "tags": {"addr:city": "K\u00f6nigsdorf", "addr:housenumber": "1", "addr:street": "Gewerbepark", "amenity": "fuel", "building": "yes", "fuel:adblue": "yes", "fuel:diesel": "yes", "fuel:octane_98": "yes", "name": "Spritk\u00f6nig", "operator": "Spritk\u00f6nig"}}, {"type": "way", "id": 548167023, "nodes": [9347176899, 5295870826, 5295870827, 5295870828, 9347176899], "tags": {"addr:city": "Molnaszecs\u0151d", "addr:housenumber": "96", "addr:postcode": "9912", "addr:street": "Pet\u0151fi \u00fat", "amenity": "fuel", "brand": "Avia", "brand:wikidata": "Q300147", "brand:wikipedia": "de:Avia International", "building": "roof", "compressed_air": "no", "contact:email": "avia@avia.hu", "contact:facebook": "https://www.facebook.com/AVIAHungary", "contact:phone": "+36 30 969 1901", "contact:website": "https://www.avia.hu/toltoallomas/?id=21", "contact:youtube": "https://www.youtube.com/channel/UCjvjkjf2RgmKBuTnKSXk-Rg", "fixme": "verify import", "food": "yes", "fuel:diesel": "yes", "fuel:e85": "no", "fuel:lpg": "no", "fuel:octane_95": "yes", "fuel:octane_98": "no", "name": "Avia", "operator": "AVIA Hung\u00e1ria Kft.", "payment:cash": "yes", "payment:contactless": "yes", "payment:maestro": "yes", "payment:mastercard": "yes", "payment:mastercard_contactless": "yes", "payment:mastercard_electronic": "yes", "payment:visa": "yes", "payment:visa_electron": "yes", "rent:lpg_bottles": "yes", "restaurant": "no", "source:date": "2022-04-25", "truck": "no", "website": "https://www.avia.hu/toltoallomas/?id=21"}}, {"type": "way", "id": 560558891, "nodes": [5405915229, 5405915230, 5405915231, 5405915232, 5405915233, 2384504917, 5405915234, 6249210975, 5405915235, 5405915229], "tags": {"addr:city": "Szombathely", "addr:housenumber": "92", "addr:postcode": "9700", "addr:street": "K\u00f6rmendi \u00fat", "air_conditioning": "yes", "amenity": "fuel", "brand": "OMV", "brand:wikidata": "Q168238", "brand:wikipedia": "en:OMV", "building": "retail", "compressed_air": "yes", "contact:email": "info.hungary@omv.com", "contact:facebook": "https://www.facebook.com/omvmagyarorszag", "contact:fax": "+36 1 381 9899", "contact:instagram": "https://www.instagram.com/omv/", "contact:linkedin": "https://www.linkedin.com/company/omv", "contact:phone": "+36 94 510 080", "contact:twitter": "omv", "contact:website": "https://www.omv.hu", "contact:youtube": "https://www.youtube.com/user/omvofficial", "fuel:GTL_diesel": "yes", "fuel:diesel": "yes", "fuel:octane_100": "yes", "fuel:octane_95": "yes", "name": "OMV", "opening_hours": "24/7", "operator": "OMV Hung\u00e1ria Kft.", "operator:addr": "1117 Budapest, Okt\u00f3ber huszonharmadika utca 6-10 5. emelet 5/A.", "payment:cash": "yes", "payment:contactless": "yes", "payment:maestro": "yes", "payment:mastercard": "yes", "payment:mastercard_contactless": "yes", "payment:mastercard_electronic": "yes", "payment:visa": "yes", "payment:visa_electron": "yes", "ref:HU:company": "01-09-071584", "ref:HU:vatin": "10542925-2-44", "ref:vatin": "HU10542925", "source:www.omv.hu:date": "2020-10-03"}}, {"type": "way", "id": 622338726, "nodes": [5878532870, 5878532871, 5879001595, 5878532872, 5922551890, 5878532873, 5878532874, 5878993156, 5878993182, 5878532875, 5878532876, 5878532877, 5878532878, 5878996885, 5878532879, 5878532870], "tags": {"amenity": "fuel"}}, {"type": "way", "id": 647814614, "nodes": [6083081541, 6083081542, 6083081549, 6083081543, 6083081544, 6083081545, 6083081546, 6083081547, 6083081548, 6083081541], "tags": {"addr:city": "K\u00f6rmend", "addr:conscriptionnumber": "307/1", "addr:postcode": "9900", "addr:street": "R\u00e1k\u00f3czi utca", "air_conditioning": "yes", "amenity": "fuel", "brand": "OMV", "brand:wikidata": "Q168238", "brand:wikipedia": "en:OMV", "compressed_air": "yes", "contact:email": "info.hungary@omv.com", "contact:facebook": "https://www.facebook.com/omvmagyarorszag", "contact:fax": "+36 1 381 9899", "contact:instagram": "https://www.instagram.com/omv/", "contact:linkedin": "https://www.linkedin.com/company/omv", "contact:phone": "+36 94 410 629", "contact:twitter": "omv", "contact:website": "https://www.omv.hu", "contact:youtube": "https://www.youtube.com/user/omvofficial", "fuel:GTL_diesel": "yes", "fuel:diesel": "yes", "fuel:octane_100": "yes", "fuel:octane_95": "yes", "name": "OMV", "opening_hours": "24/7", "operator": "OMV Hung\u00e1ria Kft.", "operator:addr": "1117 Budapest, Okt\u00f3ber huszonharmadika utca 6-10 5. emelet 5/A.", "payment:cash": "yes", "payment:contactless": "yes", "payment:maestro": "yes", "payment:mastercard": "yes", "payment:mastercard_contactless": "yes", "payment:mastercard_electronic": "yes", "payment:visa": "yes", "payment:visa_electron": "yes", "ref:HU:company": "01-09-071584", "ref:HU:vatin": "10542925-2-44", "ref:vatin": "HU10542925", "source:www.omv.hu:date": "2020-10-03"}}, {"type": "way", "id": 656195870, "nodes": [6147193293, 6147193297, 6147193294, 6147193295, 6147193296, 6147193293], "tags": {"addr:city": "Cs\u00e1k\u00e1nydoroszl\u00f3", "addr:housenumber": "70", "addr:postcode": "9919", "addr:street": "Vas\u00fat utca", "amenity": "fuel", "brand": "Avia", "compressed_air": "yes", "contact:email": "avia@avia.hu", "contact:facebook": "https://www.facebook.com/AVIAHungary", "contact:phone": "+36 20 367 2096", "contact:website": "https://www.avia.hu/toltoallomas/?id=121", "contact:youtube": "https://www.youtube.com/channel/UCjvjkjf2RgmKBuTnKSXk-Rg", "food": "no", "fuel:diesel": "yes", "fuel:e85": "no", "fuel:lpg": "no", "fuel:octane_95": "yes", "fuel:octane_98": "no", "name": "Avia", "operator": "AVIA Hung\u00e1ria Kft.", "payment:cash": "yes", "payment:contactless": "yes", "payment:maestro": "yes", "payment:mastercard": "yes", "payment:mastercard_contactless": "yes", "payment:mastercard_electronic": "yes", "payment:visa": "yes", "payment:visa_electron": "yes", "rent:lpg_bottles": "yes", "restaurant": "no", "source:www.avia.hu:date": "2021-12-17", "truck": "no"}}, {"type": "way", "id": 693085507, "nodes": [6507031521, 6507031522]}, {"type": "way", "id": 693085508, "nodes": [6507031523, 6507031520, 6507031521]}, {"type": "way", "id": 693085513, "nodes": [6507031522, 6507031523]}, {"type": "way", "id": 758473767, "nodes": [7083495123, 7083495122, 7083495121, 7083495120, 7083495123], "tags": {"addr:city": "Szombathely", "addr:housenumber": "92", "addr:postcode": "9700", "addr:street": "K\u00f6rmendi \u00fat", "amenity": "fuel", "brand": "Avia", "building": "retail", "compressed_air": "no", "contact:email": "avia@avia.hu", "contact:facebook": "https://www.facebook.com/AVIAHungary", "contact:phone": "+36 20 996 1603", "contact:website": "https://www.avia.hu/toltoallomas/?id=23", "contact:youtube": "https://www.youtube.com/channel/UCjvjkjf2RgmKBuTnKSXk-Rg", "food": "no", "fuel:diesel": "yes", "fuel:e85": "no", "fuel:lpg": "no", "fuel:octane_95": "yes", "fuel:octane_98": "no", "name": "Avia", "operator": "AVIA Hung\u00e1ria Kft.", "payment:cash": "yes", "payment:contactless": "yes", "payment:maestro": "yes", "payment:mastercard": "yes", "payment:mastercard_contactless": "yes", "payment:mastercard_electronic": "yes", "payment:visa": "yes", "payment:visa_electron": "yes", "rent:lpg_bottles": "yes", "restaurant": "no", "source:www.avia.hu:date": "2021-12-17", "truck": "no", "url": "http://turistautak.hu/poi.php?id=17126"}}, {"type": "relation", "id": 9633892, "members": [{"type": "way", "ref": 693085508, "role": "outer"}, {"type": "way", "ref": 693085507, "role": "outer"}, {"type": "way", "ref": 693085513, "role": "outer"}], "tags": {"amenity": "fuel", "type": "multipolygon"}}]}