{"version": 0.6, "generator": "Overpass API 0.7.59 e21c39fe", "osm3s": {"timestamp_osm_base": "2023-01-17T15:17:22Z", "copyright": "The data included in this document is from www.openstreetmap.org. The data is made available under ODbL."}, "elements": [{"type": "node", "id": 702389664, "lat": 47.1724547, "lon": 20.2013544, "tags": {"amenity": "pub", "layer": "-1", "name": "Fregatt s\u00f6r\u00f6z\u0151"}}, {"type": "node", "id": 1129279184, "lat": 47.1737007, "lon": 20.1790837, "tags": {"addr:city": "Szolnok", "addr:country": "HU", "addr:housenumber": "10", "addr:postcode": "5000", "addr:street": "Dob\u00f3 Istv\u00e1n utca", "amenity": "pub", "name": "Rex Kocsma", "wheelchair:description": "az egys\u00e9g bez\u00e1rt"}}, {"type": "node", "id": 1165305319, "lat": 47.1744982, "lon": 20.1764753, "tags": {"amenity": "pub", "name": "Antiq S\u00f6r\u00f6z\u0151", "smoking": "yes", "toilets:wheelchair": "no", "wheelchair": "no", "wheelchair:description": "az egys\u00e9g megsz\u0171nt"}}, {"type": "node", "id": 1326108226, "lat": 47.17448, "lon": 20.1954019, "tags": {"amenity": "pub", "name": "Gar\u00e1zs S\u00f6r\u00f6z\u0151", "toilets:wheelchair": "no", "wheelchair": "no"}}, {"type": "node", "id": 1494102025, "lat": 47.1787469, "lon": 20.1779599, "tags": {"amenity": "pub", "name": "Retro Pressz\u00f3", "opening_hours": "24/7", "smoking": "yes", "wheelchair:description": "az egys\u00e9g megsz\u0171nt"}}, {"type": "node", "id": 2337572486, "lat": 47.1817286, "lon": 20.3980654, "tags": {"amenity": "pub"}}, {"type": "node", "id": 2414273649, "lat": 47.1795985, "lon": 20.3135725, "tags": {"amenity": "pub", "name": "S\u00f6r\u00f6z\u0151", "wheelchair": "yes"}}, {"type": "node", "id": 2424831334, "lat": 47.1716, "lon": 20.2965172, "tags": {"amenity": "pub", "name": "Bandi b\u00e1csi kocsm\u00e1ja"}}, {"type": "node", "id": 2470858076, "lat": 47.1755168, "lon": 20.212103, "tags": {"amenity": "pub", "name": "Dr\u00f3tos kocsma", "toilets:wheelchair": "no", "wheelchair": "yes"}}, {"type": "node", "id": 2470972587, "lat": 47.1709228, "lon": 20.1884953, "tags": {"amenity": "pub", "internet_access": "wlan", "internet_access:ssid": "Gang", "name": "Gang s\u00f6r\u00f6z\u0151", "note": "H-Cs: 17 - 00 P\u00e9-Szo: 15 - 04", "wheelchair": "no"}}, {"type": "node", "id": 2470979041, "lat": 47.174141, "lon": 20.1881171, "tags": {"amenity": "pub", "name": "K\u00e9k Angyal"}}, {"type": "node", "id": 2960288218, "lat": 47.1868579, "lon": 20.0145059, "tags": {"amenity": "pub", "source": "survey"}}, {"type": "node", "id": 2960418556, "lat": 47.1886397, "lon": 20.0040565, "tags": {"amenity": "pub", "name": "Taverna S\u00f6r\u00f6z\u0151"}}, {"type": "node", "id": 2960422739, "lat": 47.1883852, "lon": 19.9797824}, {"type": "node", "id": 2960422740, "lat": 47.188392, "lon": 19.9796425}, {"type": "node", "id": 2960422741, "lat": 47.188421, "lon": 19.9797862}, {"type": "node", "id": 2960422742, "lat": 47.1884662, "lon": 19.979791}, {"type": "node", "id": 2960422744, "lat": 47.1885413, "lon": 19.9797989}, {"type": "node", "id": 2960422745, "lat": 47.1885481, "lon": 19.979659}, {"type": "node", "id": 2984366541, "lat": 47.2860295, "lon": 20.0676238, "tags": {"amenity": "pub", "name": "Fecske"}}, {"type": "node", "id": 2984390117, "lat": 47.2834213, "lon": 20.0713014, "tags": {"amenity": "pub", "name": "S\u00edpos", "toilets:wheelchair": "no", "wheelchair": "no"}}, {"type": "node", "id": 3045923837, "lat": 47.3678827, "lon": 20.0935855}, {"type": "node", "id": 3045923840, "lat": 47.367903, "lon": 20.0935356}, {"type": "node", "id": 3045923841, "lat": 47.3679101, "lon": 20.0936869}, {"type": "node", "id": 3045923842, "lat": 47.3679119, "lon": 20.0935683}, {"type": "node", "id": 3045923847, "lat": 47.3679618, "lon": 20.0935009}, {"type": "node", "id": 3045923848, "lat": 47.3679981, "lon": 20.093635}, {"type": "node", "id": 3045923854, "lat": 47.368114, "lon": 20.0929685}, {"type": "node", "id": 3045923862, "lat": 47.3681868, "lon": 20.0933194}, {"type": "node", "id": 3045923864, "lat": 47.3681931, "lon": 20.0929328}, {"type": "node", "id": 3045923870, "lat": 47.3682658, "lon": 20.0932837}, {"type": "node", "id": 3067974404, "lat": 47.1761891, "lon": 20.1720387, "tags": {"amenity": "pub", "name": "V\u00edg Bakter s\u00f6r\u00f6z\u0151", "toilets:wheelchair": "no", "wheelchair": "yes"}}, {"type": "node", "id": 3204428419, "lat": 47.3312092, "lon": 19.874768, "tags": {"amenity": "pub", "name": "Musk\u00e1tli"}}, {"type": "node", "id": 3204480908, "lat": 47.3247229, "lon": 19.8778033, "tags": {"amenity": "pub", "name": "Fakocsma"}}, {"type": "node", "id": 3204480925, "lat": 47.3334872, "lon": 19.871237, "tags": {"amenity": "pub", "opening_hours": "08:00- 20:00"}}, {"type": "node", "id": 3255775106, "lat": 47.1938675, "lon": 20.1840738, "tags": {"amenity": "pub", "name": "Kehely S\u00f6r\u00f6z\u0151", "toilets:wheelchair": "no", "wheelchair": "yes"}}, {"type": "node", "id": 3264424346, "lat": 47.1327356, "lon": 20.2185192, "tags": {"amenity": "pub", "name": "Kanyar B\u00fcf\u00e9", "toilets:wheelchair": "no", "wheelchair": "no"}}, {"type": "node", "id": 3322988269, "lat": 47.0195676, "lon": 20.2852105, "tags": {"amenity": "pub"}}, {"type": "node", "id": 3322988298, "lat": 47.0180315, "lon": 20.2845534, "tags": {"amenity": "pub"}}, {"type": "node", "id": 3398751901, "lat": 47.186817, "lon": 20.0024, "tags": {"amenity": "pub", "name": "Foci \u00c1szok s\u00f6r\u00f6z\u0151", "source": "turistautak.hu", "url": "http://turistautak.hu/poi.php?id=72325"}}, {"type": "node", "id": 3398751904, "lat": 47.173633, "lon": 20.01585, "tags": {"amenity": "pub", "name": "H\u00e1ry Doh\u00e1nybolt", "source": "turistautak.hu", "url": "http://turistautak.hu/poi.php?id=81074"}}, {"type": "node", "id": 3398751905, "lat": 47.1869507, "lon": 20.0029438, "tags": {"amenity": "pub", "fixme": "position", "name": "Ipar kocsma", "source": "turistautak.hu", "url": "http://turistautak.hu/poi.php?id=73551"}}, {"type": "node", "id": 3398751913, "lat": 47.184967, "lon": 20.0204, "tags": {"amenity": "pub", "name": "Viharsarok s\u00f6r\u00f6z\u0151", "source": "turistautak.hu", "url": "http://turistautak.hu/poi.php?id=81084"}}, {"type": "node", "id": 3446927604, "lat": 47.328083, "lon": 19.950951, "tags": {"amenity": "pub", "name": "Blonder s\u00f6r\u00f6z\u0151", "source": "turistautak.hu", "source:date": "2012-08-21", "url": "http://turistautak.hu/poi.php?id=143610"}}, {"type": "node", "id": 3446927607, "lat": 47.330502, "lon": 19.951683, "tags": {"amenity": "pub", "name": "Bet\u00e9r\u0151 2", "source": "turistautak.hu", "source:date": "2012-08-21", "url": "http://turistautak.hu/poi.php?id=143608"}}, {"type": "node", "id": 3446927612, "lat": 47.332557, "lon": 19.953601, "tags": {"amenity": "pub", "name": "Hangulat B\u00fcf\u00e9-eszpressz\u00f3", "source": "turistautak.hu", "source:date": "2011-02-13", "url": "http://turistautak.hu/poi.php?id=110241"}}, {"type": "node", "id": 3446927640, "lat": 47.343326, "lon": 19.944411, "tags": {"amenity": "pub", "source": "turistautak.hu", "source:date": "2011-02-13", "url": "http://turistautak.hu/poi.php?id=110245"}}, {"type": "node", "id": 3454580483, "lat": 47.095233, "lon": 20.0217, "tags": {"amenity": "pub", "name": "Barna B\u00e1r", "source": "turistautak.hu", "source:date": "2010-10-16", "toilets:wheelchair": "yes", "url": "http://turistautak.hu/poi.php?id=101356", "wheelchair": "yes"}}, {"type": "node", "id": 3454580491, "lat": 47.163167, "lon": 19.788867, "tags": {"amenity": "pub", "name": "Bubor\u00e9k s\u00f6r\u00f6z\u0151", "source": "turistautak.hu", "source:date": "2010-12-05", "url": "http://turistautak.hu/poi.php?id=22860"}}, {"type": "node", "id": 3454580716, "lat": 47.116284, "lon": 19.936259, "tags": {"amenity": "pub", "source": "turistautak.hu", "source:date": "2011-11-17", "url": "http://turistautak.hu/poi.php?id=128652"}}, {"type": "node", "id": 3454580718, "lat": 47.117121, "lon": 19.935229, "tags": {"amenity": "pub", "source": "turistautak.hu", "source:date": "2011-11-17", "url": "http://turistautak.hu/poi.php?id=128653"}}, {"type": "node", "id": 3454580727, "lat": 47.122431, "lon": 19.93732, "tags": {"amenity": "pub", "source": "turistautak.hu", "source:date": "2011-11-17", "url": "http://turistautak.hu/poi.php?id=128656"}}, {"type": "node", "id": 3454581471, "lat": 47.1822, "lon": 19.798383, "tags": {"amenity": "pub", "name": "Facsk\u00f3 kocsma", "source": "turistautak.hu", "source:date": "2010-12-05", "url": "http://turistautak.hu/poi.php?id=48439"}}, {"type": "node", "id": 3454581475, "lat": 47.159117, "lon": 19.791283, "tags": {"amenity": "pub", "name": "Falat s\u00f6r\u00f6z\u0151", "source": "turistautak.hu", "source:date": "2010-12-05", "url": "http://turistautak.hu/poi.php?id=23319"}}, {"type": "node", "id": 3454581482, "lat": 47.175233, "lon": 19.790883, "tags": {"addr:city": "Cegl\u00e9d", "addr:street": "Nagyk\u00e1tai \u00fat", "amenity": "pub", "name": "Gal\u00e9ria s\u00f6r\u00f6z\u0151", "source": "turistautak.hu", "source:date": "2010-12-05", "url": "http://turistautak.hu/poi.php?id=24948", "wheelchair": "no"}}, {"type": "node", "id": 3454581609, "lat": 47.172717, "lon": 19.7957, "tags": {"amenity": "pub", "name": "Jazz Caf\u00e9 kocsma", "source": "turistautak.hu", "source:date": "2010-12-05", "toilets:wheelchair": "no", "url": "http://turistautak.hu/poi.php?id=23170", "wheelchair": "no"}}, {"type": "node", "id": 3454581621, "lat": 47.0509738, "lon": 20.0699084, "tags": {"amenity": "pub", "name": "Koccint\u00f3 s\u00f6r\u00f6z\u0151", "source": "turistautak.hu", "source:date": "2010-12-05", "url": "http://turistautak.hu/poi.php?id=75018"}}, {"type": "node", "id": 3454581640, "lat": 47.170233, "lon": 19.801833, "tags": {"amenity": "pub", "name": "Mega s\u00f6r\u00f6z\u0151", "source": "turistautak.hu", "source:date": "2010-12-05", "url": "http://turistautak.hu/poi.php?id=47490"}}, {"type": "node", "id": 3454581648, "lat": 47.125517, "lon": 19.927767, "tags": {"amenity": "pub", "name": "M\u00fcnchen s\u00f6r\u00f6z\u0151", "source": "turistautak.hu", "source:date": "2010-12-05", "url": "http://turistautak.hu/poi.php?id=51049"}}, {"type": "node", "id": 3454581658, "lat": 47.1238, "lon": 19.934367, "tags": {"amenity": "pub", "fixme": "resurvey (source was old)", "name": "Olgi pressz\u00f3", "source": "turistautak.hu", "source:date": "2008-06-26", "url": "http://turistautak.hu/poi.php?id=49833"}}, {"type": "node", "id": 3454581661, "lat": 47.169683, "lon": 19.798317, "tags": {"amenity": "pub", "name": "Park b\u00fcf\u00e9", "source": "turistautak.hu", "source:date": "2018-12-30", "url": "http://turistautak.hu/poi.php?id=47870"}}, {"type": "node", "id": 3454581893, "lat": 47.186, "lon": 20.008467, "tags": {"amenity": "pub", "fixme": "resurvey (source was old)", "name": "Strand kisvend\u00e9gl\u0151", "source": "turistautak.hu", "source:date": "2008-06-26", "toilets:wheelchair": "no", "url": "http://turistautak.hu/poi.php?id=49834", "wheelchair": "no"}}, {"type": "node", "id": 3454581921, "lat": 47.048333, "lon": 20.074017, "tags": {"amenity": "pub", "name": "Sz\u00e9lmalom s\u00f6r\u00f6z\u0151", "source": "turistautak.hu", "source:date": "2010-05-28", "url": "http://turistautak.hu/poi.php?id=93883"}}, {"type": "node", "id": 3454581930, "lat": 47.12215, "lon": 19.93905, "tags": {"amenity": "pub", "name": "Terasz s\u00f6r\u00f6z\u0151", "source": "turistautak.hu", "source:date": "2010-12-05", "url": "http://turistautak.hu/poi.php?id=25586"}}, {"type": "node", "id": 3454581942, "lat": 47.0485, "lon": 20.073817, "tags": {"amenity": "pub", "name": "Vakeg\u00e9r s\u00f6r\u00f6z\u0151", "source": "turistautak.hu", "source:date": "2010-05-28", "url": "http://turistautak.hu/poi.php?id=93884"}}, {"type": "node", "id": 3454581948, "lat": 47.059867, "lon": 20.059483, "tags": {"amenity": "pub", "source": "turistautak.hu", "source:date": "2012-09-01", "url": "http://turistautak.hu/poi.php?id=93880"}}, {"type": "node", "id": 3454581951, "lat": 47.096867, "lon": 20.0233, "tags": {"amenity": "pub", "source": "turistautak.hu", "source:date": "2012-07-30", "url": "http://turistautak.hu/poi.php?id=142364"}}, {"type": "node", "id": 3454582122, "lat": 47.1665243, "lon": 19.7892125, "tags": {"addr:city": "Cegl\u00e9d", "addr:housenumber": "43", "addr:postcode": "2700", "addr:street": "D\u00e9li \u00fat", "amenity": "pub", "name": "\u00c1gnes s\u00f6r\u00f6z\u0151", "source": "turistautak.hu", "source:date": "2018-12-30", "url": "http://turistautak.hu/poi.php?id=24996"}}, {"type": "node", "id": 3454582127, "lat": 47.1665615, "lon": 19.7909832, "tags": {"addr:city": "Cegl\u00e9d", "addr:housenumber": "23", "addr:postcode": "2700", "addr:street": "Pet\u0151fi utca", "amenity": "pub", "name": "\u00c1szok s\u00f6r\u00f6z\u0151", "source": "turistautak.hu", "source:date": "2010-12-05", "url": "http://turistautak.hu/poi.php?id=24997"}}, {"type": "node", "id": 3485146740, "lat": 46.977654, "lon": 20.248501, "tags": {"amenity": "pub", "name": "Kir\u00e1ly Szeszpressz\u00f3", "source": "turistautak.hu", "source:date": "2014-02-23", "url": "http://turistautak.hu/poi.php?id=133117"}}, {"type": "node", "id": 3488425512, "lat": 47.0023325, "lon": 19.9218302, "tags": {"amenity": "pub", "name": "K\u00e9k Nefelejcs pressz\u00f3", "source": "turistautak.hu", "source:date": "2011-04-24", "url": "http://turistautak.hu/poi.php?id=72441"}}, {"type": "node", "id": 3488425532, "lat": 47.028183, "lon": 19.800483, "tags": {"amenity": "pub", "name": "P\u00e1lma boroz\u00f3", "source": "turistautak.hu", "source:date": "2011-06-30", "url": "http://turistautak.hu/poi.php?id=49515"}}, {"type": "node", "id": 3488425547, "lat": 47.0024366, "lon": 19.9213746, "tags": {"amenity": "pub", "source": "turistautak.hu", "source:date": "2012-10-15", "url": "http://turistautak.hu/poi.php?id=135580"}}, {"type": "node", "id": 3488425549, "lat": 47.0028349, "lon": 19.9199673, "tags": {"amenity": "pub", "source": "turistautak.hu", "source:date": "2012-03-13", "url": "http://turistautak.hu/poi.php?id=135581"}}, {"type": "node", "id": 3489427665, "lat": 47.273217, "lon": 20.117955, "tags": {"amenity": "pub", "name": "Bisztr\u00f3", "source": "turistautak.hu", "source:date": "2010-03-26", "url": "http://turistautak.hu/poi.php?id=34547"}}, {"type": "node", "id": 3489427666, "lat": 47.0168, "lon": 20.13521, "tags": {"amenity": "pub", "fixme": "resurvey (source was old)", "name": "Csarnok pressz\u00f3", "source": "turistautak.hu", "source:date": "2009-02-01", "url": "http://turistautak.hu/poi.php?id=65320"}}, {"type": "node", "id": 3489427686, "lat": 47.282, "lon": 20.38428, "tags": {"amenity": "pub", "name": "O\u00e1zis s\u00f6r\u00f6z\u0151", "source": "turistautak.hu", "source:date": "2010-12-05", "url": "http://turistautak.hu/poi.php?id=8994"}}, {"type": "node", "id": 3489429127, "lat": 47.311488, "lon": 20.092962, "tags": {"amenity": "pub", "source": "turistautak.hu", "source:date": "2010-03-26", "url": "http://turistautak.hu/poi.php?id=33644"}}, {"type": "node", "id": 3490728159, "lat": 47.08635, "lon": 20.33329, "tags": {"amenity": "pub", "name": "Geszteny\u00e9s kocsma", "source": "turistautak.hu", "source:date": "2011-12-13", "url": "http://turistautak.hu/poi.php?id=130685"}}, {"type": "node", "id": 3490728174, "lat": 47.06007, "lon": 20.31443, "tags": {"amenity": "pub", "source": "turistautak.hu", "source:date": "2011-12-13", "url": "http://turistautak.hu/poi.php?id=130679"}}, {"type": "node", "id": 3490728192, "lat": 47.208758, "lon": 20.325309, "tags": {"amenity": "pub", "source": "turistautak.hu", "source:date": "2010-03-26", "url": "http://turistautak.hu/poi.php?id=65743"}}, {"type": "node", "id": 3816610565, "lat": 47.1869594, "lon": 20.1943321}, {"type": "node", "id": 3816610566, "lat": 47.1869597, "lon": 20.19418}, {"type": "node", "id": 3816610567, "lat": 47.1870882, "lon": 20.1943326}, {"type": "node", "id": 3816610568, "lat": 47.1870885, "lon": 20.1941806}, {"type": "node", "id": 3865403603, "lat": 47.1838596, "lon": 20.2098002, "tags": {"addr:street": "Bimb\u00f3 utca", "amenity": "pub", "name": "K\u00f3kusz B\u00e1r", "note": "Bili\u00e1rd, Csocs\u00f3, Darts", "opening_hours": "Mo-Su 13:00-21:00", "outdoor_seating": "yes", "smoking": "outside"}}, {"type": "node", "id": 3964247165, "lat": 47.1739972, "lon": 20.1790007, "tags": {"amenity": "pub", "name": "Hunyadi Pressz\u00f3"}}, {"type": "node", "id": 3964247166, "lat": 47.1760103, "lon": 20.179954, "tags": {"amenity": "pub", "name": "Csiki Boroz\u00f3"}}, {"type": "node", "id": 3984899797, "lat": 47.191679, "lon": 20.0022125, "tags": {"amenity": "pub", "name": "Ny\u00e1rfa pressz\u00f3"}}, {"type": "node", "id": 4152601448, "lat": 47.1706634, "lon": 19.8046816}, {"type": "node", "id": 4152601449, "lat": 47.1706782, "lon": 19.8047201}, {"type": "node", "id": 4152601450, "lat": 47.1706919, "lon": 19.8047816}, {"type": "node", "id": 4152601463, "lat": 47.1708466, "lon": 19.8045686}, {"type": "node", "id": 4152601464, "lat": 47.1708751, "lon": 19.8046686}, {"type": "node", "id": 4164134371, "lat": 47.2946528, "lon": 20.2556657, "tags": {"addr:city": "Besenysz\u00f6g", "addr:housenumber": "19", "addr:postcode": "5071", "addr:street": "Damjanich \u00fat", "amenity": "pub", "name": "Kiss Kert s\u00f6r\u00f6z\u0151"}}, {"type": "node", "id": 4212863921, "lat": 47.0518056, "lon": 19.9473135, "tags": {"addr:city": "Kocs\u00e9r", "addr:postcode": "2755", "addr:street": "XIV. d\u0171l\u0151 (K\u0151r\u00f6stet\u00e9tleni \u00fat)", "amenity": "pub", "name": "Kutyakapar\u00f3 Cs\u00e1rda"}}, {"type": "node", "id": 4413470793, "lat": 47.176033, "lon": 20.297177, "tags": {"amenity": "pub"}}, {"type": "node", "id": 4422458847, "lat": 47.3713504, "lon": 20.157845, "tags": {"amenity": "pub", "name": "F\u00e1c\u00e1nos B\u00fcf\u00e9"}}, {"type": "node", "id": 4434432792, "lat": 47.177559, "lon": 20.194268, "tags": {"amenity": "pub", "toilets:wheelchair": "no", "wheelchair": "yes"}}, {"type": "node", "id": 4471899313, "lat": 47.1746609, "lon": 20.1925059, "tags": {"amenity": "pub", "name": "N\u00e1das pressz\u00f3", "name:hu": "N\u00e1das pressz\u00f3", "toilets:wheelchair": "no", "wheelchair": "no"}}, {"type": "node", "id": 4529341561, "lat": 47.174525, "lon": 20.1924785, "tags": {"amenity": "pub", "name": "L\u00fadl\u00e1b", "toilets:wheelchair": "no", "wheelchair": "no"}}, {"type": "node", "id": 4529341563, "lat": 47.1744524, "lon": 20.194529, "tags": {"amenity": "pub", "name": "Wurlitzer S\u00f6r\u00f6z\u0151", "toilets:wheelchair": "limited", "wheelchair": "yes"}}, {"type": "node", "id": 4529341565, "lat": 47.1746089, "lon": 20.1969207, "tags": {"amenity": "pub", "name": "S\u00f6r\u00e1rium - Interakt\u00edv S\u00f6rm\u00fazeum", "toilets:wheelchair": "yes", "wheelchair": "yes"}}, {"type": "node", "id": 4529347967, "lat": 47.1789831, "lon": 20.1761512, "tags": {"addr:city": "Szolnok", "addr:housenumber": "1-3", "addr:postcode": "5000", "addr:street": "Jubileumi t\u00e9r", "amenity": "pub", "name": "V\u00e1r\u00f3terem Klub"}}, {"type": "node", "id": 4833155915, "lat": 47.1717559, "lon": 20.1925854, "tags": {"amenity": "pub", "name": "Art Caf\u00e9"}}, {"type": "node", "id": 4933471945, "lat": 46.9787665, "lon": 20.2526743, "tags": {"amenity": "pub", "name": "Red Ar\u00e9na", "wheelchair": "yes"}}, {"type": "node", "id": 4933471946, "lat": 46.978914, "lon": 20.2553027, "tags": {"amenity": "pub", "name": "Cuki S\u00f6r\u00f6z\u00f6", "source": "route4u", "toilets:wheelchair": "no", "wheelchair": "yes"}}, {"type": "node", "id": 4933471947, "lat": 46.9789929, "lon": 20.2532635, "tags": {"amenity": "pub", "name": "Sz\u00fccsi S\u00f6r\u00f6z\u0151", "wheelchair": "yes"}}, {"type": "node", "id": 4933471961, "lat": 47.0175397, "lon": 20.2774463, "tags": {"amenity": "pub", "fixme": "verify", "name": "Feh\u00e9r Orm\u00e1nyos S\u00f6r\u00f6z\u0151", "source": "route4u", "toilets:wheelchair": "no", "wheelchair": "yes"}}, {"type": "node", "id": 4933471994, "lat": 47.0580213, "lon": 20.2669331, "tags": {"amenity": "pub", "fixme": "verify", "name": "Boxutca S\u00f6r\u00f6z\u00f6", "source": "route4u", "toilets:wheelchair": "no", "wheelchair": "yes"}}, {"type": "node", "id": 4933471998, "lat": 47.0607903, "lon": 20.2613548, "tags": {"amenity": "pub", "fixme": "verify", "name": "Torony", "source": "route4u", "toilets:wheelchair": "no", "wheelchair": "yes"}}, {"type": "node", "id": 4933472012, "lat": 47.0681708, "lon": 20.1769378, "tags": {"amenity": "pub", "fixme": "verify", "name": "Spaten S\u00f6r\u00f6z\u0151", "source": "route4u"}}, {"type": "node", "id": 4933472284, "lat": 47.0874459, "lon": 20.2355127, "tags": {"amenity": "pub", "name": "Netov\u00e1bb S\u00f6r\u00f6z\u00f6", "source": "route4u", "toilets:wheelchair": "no", "verified": "yes", "wheelchair": "no"}}, {"type": "node", "id": 4933472358, "lat": 47.1180587, "lon": 20.2229015, "tags": {"amenity": "pub", "fixme": "verify", "name": "Kis Bagoly S\u00f6r\u00f6z\u0151", "source": "route4u"}}, {"type": "node", "id": 4933472360, "lat": 47.1186194, "lon": 20.2056359, "tags": {"amenity": "pub", "name": "Vigyorg\u00f3 S\u00f6r\u00f6z\u0151", "toilets:wheelchair": "no", "wheelchair": "no"}}, {"type": "node", "id": 4933472390, "lat": 47.1574261, "lon": 20.2069116, "tags": {"amenity": "pub", "fixme": "verify", "name": "Mini B\u00e1r S\u00f6r\u00f6z\u0151", "source": "route4u"}}, {"type": "node", "id": 4933472469, "lat": 47.135368, "lon": 20.2092517, "tags": {"amenity": "pub", "fixme": "verify", "name": "Gold 2 S\u00f6r\u00f6z\u0151", "source": "route4u"}}, {"type": "node", "id": 4933472493, "lat": 47.2004797, "lon": 20.0134537, "tags": {"amenity": "pub", "fixme": "verify", "name": "Bagolyv\u00e1r S\u00f6r\u00f6z\u0151", "source": "route4u", "toilets:wheelchair": "limited", "wheelchair": "yes"}}, {"type": "node", "id": 4933472558, "lat": 47.1667135, "lon": 20.1941718, "tags": {"amenity": "pub", "fixme": "verify", "name": "Pardon Bisztr\u00f3", "source": "route4u", "wheelchair": "yes"}}, {"type": "node", "id": 4933472569, "lat": 47.1696365, "lon": 20.1842282, "tags": {"amenity": "pub", "fixme": "verify", "name": "Vakeg\u00e9r S\u00f6r\u00f6z\u0151", "source": "route4u"}}, {"type": "node", "id": 4933472589, "lat": 47.1837967, "lon": 20.1926292, "tags": {"amenity": "pub", "name": "M\u00f3kus Kocsma", "toilets:wheelchair": "no", "wheelchair": "yes"}}, {"type": "node", "id": 4933472591, "lat": 47.1838128, "lon": 20.1877479, "tags": {"amenity": "pub", "name": "Nyezega S\u00f6r\u00f6z\u0151", "toilets:wheelchair": "no", "wheelchair": "no"}}, {"type": "node", "id": 4933472597, "lat": 47.1850808, "lon": 20.1929046, "tags": {"amenity": "pub", "name": "Z\u00f6ld Kocsma A Horg\u00e1szokhoz", "toilets:wheelchair": "yes", "wheelchair": "yes"}}, {"type": "node", "id": 4933472690, "lat": 47.1911828, "lon": 20.1875774, "tags": {"amenity": "pub", "name": "Borbedob\u00f3", "toilets:wheelchair": "no", "wheelchair": "no"}}, {"type": "node", "id": 4933472847, "lat": 47.2992435, "lon": 20.2586184, "tags": {"amenity": "pub", "name": "Franco Pub", "source": "route4u", "verified": "yes"}}, {"type": "node", "id": 4939173409, "lat": 47.1791113, "lon": 20.179109, "tags": {"amenity": "pub", "name": "\u00c1szok S\u00f6r\u00f6z\u0151", "toilets:wheelchair": "no", "wheelchair": "no"}}, {"type": "node", "id": 4939175671, "lat": 47.175012, "lon": 20.1939006, "tags": {"amenity": "pub", "name": "Boomerang Music Club", "toilets:wheelchair": "no", "wheelchair": "yes"}}, {"type": "node", "id": 4939175790, "lat": 47.1760627, "lon": 20.2971927, "tags": {"amenity": "pub", "name": "Feny\u0151 S\u00f6r\u00f6z\u0151", "toilets:wheelchair": "yes", "wheelchair": "yes"}}, {"type": "node", "id": 4939176006, "lat": 47.1735048, "lon": 20.1988409, "tags": {"amenity": "pub", "fixme": "verify", "name": "Szez\u00e1m T\u00e1rulj B\u00fcf\u00e9 S\u00f6r\u00f6z\u0151", "source": "route4u", "toilets:wheelchair": "no", "wheelchair": "no"}}, {"type": "node", "id": 4939177720, "lat": 47.1759535, "lon": 20.1651014, "tags": {"amenity": "pub", "fixme": "verify", "name": "Alb\u00e1nszam\u00e1r S\u00f6rkert", "source": "route4u", "toilets:wheelchair": "no", "wheelchair": "yes"}}, {"type": "node", "id": 4939177888, "lat": 47.1757369, "lon": 20.1647872, "tags": {"amenity": "pub", "fixme": "verify", "name": "Alb\u00e1nszam\u00e1r S\u00f6rkert", "source": "route4u", "toilets:wheelchair": "no", "wheelchair": "yes"}}, {"type": "node", "id": 4939178783, "lat": 47.167193, "lon": 20.1971579, "tags": {"amenity": "pub", "name": "Tenisz Klub Drinkb\u00e1r", "toilets:wheelchair": "no", "wheelchair": "no"}}, {"type": "node", "id": 4939178906, "lat": 47.1736936, "lon": 20.1924963, "tags": {"amenity": "pub", "name": "S\u00f6rpatika", "wheelchair:description": "megsz\u0171nt az egys\u00e9g"}}, {"type": "node", "id": 4939179407, "lat": 47.1733918, "lon": 20.1935981, "tags": {"amenity": "pub", "fixme": "verify", "name": "Hiller S\u00f6r\u00f6z\u0151", "source": "route4u", "toilets:wheelchair": "yes", "wheelchair": "yes"}}, {"type": "node", "id": 4939179687, "lat": 47.1784669, "lon": 20.175389, "tags": {"amenity": "pub", "name": "V\u00f6r\u00f6s F\u0151nix", "toilets:wheelchair": "no", "wheelchair": "no"}}, {"type": "node", "id": 4939179690, "lat": 47.179902, "lon": 20.1846232, "tags": {"amenity": "pub", "fixme": "verify", "name": "Pilvax Pub S\u00f6r\u00f6z\u0151", "source": "route4u", "toilets:wheelchair": "no", "wheelchair": "no"}}, {"type": "node", "id": 4939279359, "lat": 47.16819, "lon": 20.1945462, "tags": {"amenity": "pub", "name": "Pardon Bistro", "wheelchair:description": "megsz\u0171nt az egys\u00e9g"}}, {"type": "node", "id": 4939280854, "lat": 47.175341, "lon": 20.1933577, "tags": {"amenity": "pub", "name": "Rock Parking Club", "wheelchair:description": "az egys\u00e9g megsz\u0171nt"}}, {"type": "node", "id": 4940559141, "lat": 47.0967897, "lon": 20.2310297, "tags": {"amenity": "pub", "name": "Pikol\u00f3 S\u00f6r\u00f6z\u0151", "source": "route4u", "verified": "yes"}}, {"type": "node", "id": 4940560045, "lat": 47.1757283, "lon": 20.1657772, "tags": {"amenity": "pub", "fixme": "verify", "name": "Bar\u00e1ts\u00e1g Bisztr\u00f3", "source": "route4u", "toilets:wheelchair": "no", "wheelchair": "yes"}}, {"type": "node", "id": 4940563399, "lat": 47.1934838, "lon": 20.1781237, "tags": {"amenity": "pub", "name": "V\u00f6r\u00f6s \u00d6rd\u00f6g Kiskocsma", "toilets:wheelchair": "no", "wheelchair": "no"}}, {"type": "node", "id": 5048665785, "lat": 47.325448, "lon": 19.949899}, {"type": "node", "id": 5048665786, "lat": 47.3254226, "lon": 19.950027}, {"type": "node", "id": 5048665787, "lat": 47.3255114, "lon": 19.9500655}, {"type": "node", "id": 5048665788, "lat": 47.3255369, "lon": 19.9499374}, {"type": "node", "id": 6424367779, "lat": 47.1780692, "lon": 20.1885004, "tags": {"amenity": "pub"}}, {"type": "node", "id": 6424367781, "lat": 47.180112, "lon": 20.185314, "tags": {"amenity": "pub", "name": "Vad\u00e1sz s\u00f6r\u00f6z\u0151"}}, {"type": "node", "id": 6424368112, "lat": 47.1775478, "lon": 20.1811042, "tags": {"amenity": "pub", "name": "Amigo Pressz\u00f3"}}, {"type": "node", "id": 6805023170, "lat": 47.1834278, "lon": 20.3020604, "tags": {"addr:city": "Szajol", "addr:housenumber": "3", "addr:postcode": "5081", "addr:street": "K\u00e1rolyi Mih\u00e1ly \u00fat", "amenity": "pub", "name": "K\u00e9k Kobra"}}, {"type": "node", "id": 7552006434, "lat": 47.3556149, "lon": 19.8392232, "tags": {"amenity": "pub"}}, {"type": "node", "id": 9507348242, "lat": 47.1768768, "lon": 19.8159062}, {"type": "node", "id": 9507348243, "lat": 47.1769574, "lon": 19.8160493}, {"type": "node", "id": 9507348244, "lat": 47.176999, "lon": 19.8159986}, {"type": "node", "id": 9507348245, "lat": 47.1769184, "lon": 19.8158554}, {"type": "node", "id": 9813916703, "lat": 47.265011, "lon": 19.9125511, "tags": {"addr:city": "\u00dajszilv\u00e1s", "addr:housenumber": "4", "addr:postcode": "2768", "addr:street": "Szent Istv\u00e1n utca", "amenity": "pub", "facebook": "https://www.facebook.com/Western-S%C3%B6r%C3%B6z%C5%91-102044659193212", "name": "Western s\u00f6r\u00f6z\u0151", "opening_hours": "Tu-Th 11:00-21:00; Fr,Sa 11:00-23:00; Su 12:00-20:00", "phone": "+36302271936"}}, {"type": "node", "id": 9944621902, "lat": 47.1684648, "lon": 20.1766152}, {"type": "node", "id": 9944621903, "lat": 47.1683427, "lon": 20.1765672}, {"type": "node", "id": 9944621904, "lat": 47.1683646, "lon": 20.1764414}, {"type": "node", "id": 9944621905, "lat": 47.1684859, "lon": 20.1764852}, {"type": "node", "id": 9944621910, "lat": 47.1684719, "lon": 20.1765638}, {"type": "node", "id": 10219802040, "lat": 46.9992463, "lon": 19.920789, "tags": {"amenity": "pub", "name": "Napsug\u00e1r pressz\u00f3"}}, {"type": "way", "id": 292493482, "nodes": [2960422745, 2960422740, 2960422739, 2960422741, 2960422742, 2960422744, 2960422745], "tags": {"amenity": "pub", "fixme": "check if open/closed", "name": "M\u00f3ricz Vend\u00e9gl\u0151"}}, {"type": "way", "id": 300520529, "nodes": [3045923864, 3045923870, 3045923862, 3045923854, 3045923864], "tags": {"amenity": "pub", "building": "yes"}}, {"type": "way", "id": 300520530, "nodes": [3045923847, 3045923848, 3045923841, 3045923837, 3045923842, 3045923840, 3045923847], "tags": {"amenity": "pub", "building": "yes"}}, {"type": "way", "id": 378258510, "nodes": [3816610567, 3816610568, 3816610566, 3816610565, 3816610567], "tags": {"amenity": "pub", "name": "K\u00e9t Kakas s\u00f6r\u00f6z\u0151", "opening_hours": "24/7", "wheelchair:description": "megsz\u0171nt az egys\u00e9g"}}, {"type": "way", "id": 414059014, "nodes": [4152601464, 4152601450, 4152601449, 4152601448, 4152601463, 4152601464], "tags": {"amenity": "pub", "building": "yes", "name": "B\u00e1r\u00e1nyka b\u00fcf\u00e9"}}, {"type": "way", "id": 517350765, "nodes": [5048665788, 5048665787, 5048665786, 5048665785, 5048665788], "tags": {"addr:city": "T\u00e1pi\u00f3gy\u00f6rgye", "addr:housenumber": "2", "addr:postcode": "2767", "addr:street": "Ady Endre utca", "amenity": "pub", "building": "yes", "name": "Vas\u00fati kocsma"}}, {"type": "way", "id": 1031599625, "nodes": [9507348245, 9507348244, 9507348243, 9507348242, 9507348245], "tags": {"amenity": "pub", "building": "yes", "name": "N\u00e1di B\u00fcf\u00e9"}}, {"type": "way", "id": 1085303120, "nodes": [9944621902, 9944621903, 9944621904, 9944621905, 9944621910, 9944621902], "tags": {"addr:city": "Szolnok", "addr:housenumber": "17", "addr:postcode": "5000", "addr:street": "Ind\u00f3h\u00e1z utca", "amenity": "pub", "building": "yes", "name": "Bea Kocsma"}}]}