{"version": 0.6, "generator": "Overpass API 0.7.59 e21c39fe", "osm3s": {"timestamp_osm_base": "2023-01-20T17:58:06Z", "copyright": "The data included in this document is from www.openstreetmap.org. The data is made available under ODbL."}, "elements": [{"type": "node", "id": 360641560, "lat": 46.3575226, "lon": 17.7915002}, {"type": "node", "id": 360641562, "lat": 46.3577923, "lon": 17.7915341}, {"type": "node", "id": 360641564, "lat": 46.3577789, "lon": 17.7917582}, {"type": "node", "id": 360641566, "lat": 46.357686, "lon": 17.7917464}, {"type": "node", "id": 360641568, "lat": 46.3576847, "lon": 17.7917687}, {"type": "node", "id": 360641570, "lat": 46.3577782, "lon": 17.7917805}, {"type": "node", "id": 360641572, "lat": 46.3577537, "lon": 17.7921878}, {"type": "node", "id": 360641574, "lat": 46.3574835, "lon": 17.7921538}, {"type": "node", "id": 360641576, "lat": 46.3575079, "lon": 17.7917481}, {"type": "node", "id": 360641578, "lat": 46.3575904, "lon": 17.7917585}, {"type": "node", "id": 360641580, "lat": 46.3575917, "lon": 17.7917351}, {"type": "node", "id": 360641582, "lat": 46.3575091, "lon": 17.7917247}, {"type": "node", "id": 370678198, "lat": 46.3679793, "lon": 17.7668775}, {"type": "node", "id": 370678203, "lat": 46.3680982, "lon": 17.7670047}, {"type": "node", "id": 370678206, "lat": 46.3679805, "lon": 17.7670488}, {"type": "node", "id": 370678208, "lat": 46.3679021, "lon": 17.7672027}, {"type": "node", "id": 370678211, "lat": 46.3678448, "lon": 17.7671414}, {"type": "node", "id": 370678225, "lat": 46.3680427, "lon": 17.7671153}, {"type": "node", "id": 1366742915, "lat": 46.1523529, "lon": 17.3915408, "tags": {"amenity": "library"}}, {"type": "node", "id": 3376376600, "lat": 46.2300743, "lon": 17.6172661, "tags": {"amenity": "library", "name": "Bokor J\u00f3zsef V\u00e1rosi K\u00f6nyvt\u00e1r"}}, {"type": "node", "id": 3438328715, "lat": 46.459564, "lon": 17.804995, "tags": {"amenity": "library", "name": "Klubk\u00f6nyvt\u00e1r", "source": "turistautak.hu", "source:date": "2012-10-14", "url": "http://turistautak.hu/poi.php?id=116312"}}, {"type": "node", "id": 3438330510, "lat": 46.45887, "lon": 17.738944, "tags": {"amenity": "library", "name": "Sz\u00e1sz Endre K\u00f6nyvt\u00e1r", "source": "turistautak.hu", "source:date": "2012-11-17", "url": "http://turistautak.hu/poi.php?id=126436"}}, {"type": "node", "id": 4364494391, "lat": 46.1554931, "lon": 17.9165198, "tags": {"addr:city": "Ibafa", "addr:housenumber": "4", "addr:postcode": "7935", "addr:street": "Kossuth Lajos utca", "amenity": "library"}}, {"type": "node", "id": 8325467145, "lat": 46.3103304, "lon": 17.8201401, "tags": {"amenity": "library", "name": "K\u00f6nyvt\u00e1r"}}, {"type": "node", "id": 8402011538, "lat": 46.360558, "lon": 17.6620122, "tags": {"addr:city": "Kaposf\u0151", "addr:housenumber": "210", "addr:postcode": "7523", "addr:street": "Kossuth Lajos utca", "amenity": "library", "name": "K\u00f6zs\u00e9gi K\u00f6nyvt\u00e1r Kaposf\u0151"}}, {"type": "node", "id": 8515152739, "lat": 46.1766203, "lon": 17.9271703, "tags": {"amenity": "library", "name": "K\u00f6nyvt\u00e1r"}}, {"type": "node", "id": 8662715407, "lat": 46.1258467, "lon": 17.8045945, "tags": {"amenity": "library", "name": "K\u00f6nyvt\u00e1r"}}, {"type": "node", "id": 9102154939, "lat": 46.308161, "lon": 17.7297395, "tags": {"addr:city": "Szenna", "addr:housenumber": "1", "addr:postcode": "7477", "addr:street": "\u00c1rp\u00e1d utca", "addr:subdistrict": "Zselic", "amenity": "library", "contact:email": "brigi@kapos-net.hu", "contact:fax": "+36 82 584-031", "contact:phone": "+36 82 584-030", "name": "K\u00f6nyvt\u00e1r", "official_name": "K\u00f6nyvt\u00e1ri Inform\u00e1ci\u00f3s \u00e9s K\u00f6z\u00f6ss\u00e9gi Hely", "source": "turistautak.hu", "url": "http://www.szenna.hu/?page=intezmenyek", "website": "https://bjvkk.wordpress.com/2014/03/17/szenna/"}}, {"type": "way", "id": 32127392, "nodes": [360641560, 360641562, 360641564, 360641566, 360641568, 360641570, 360641572, 360641574, 360641576, 360641578, 360641580, 360641582, 360641560], "tags": {"addr:city": "Kaposv\u00e1r", "addr:housenumber": "4", "addr:postcode": "7400", "addr:street": "Csokonai Vit\u00e9z Mih\u00e1ly utca", "amenity": "library", "building": "yes", "name": "Megyei \u00e9s V\u00e1rosi K\u00f6nyvt\u00e1r"}}, {"type": "way", "id": 32922443, "nodes": [370678198, 370678203, 370678225, 370678206, 370678208, 370678211, 370678198], "tags": {"addr:city": "Kaposv\u00e1r", "addr:housenumber": "15", "addr:postcode": "7400", "addr:street": "Hajn\u00f3czy J\u00f3zsef utca", "amenity": "library", "building": "yes", "name": "T\u00fcskev\u00e1ri K\u00f6nyvt\u00e1r"}}]}