{"version": 0.6, "generator": "Overpass API 0.7.59 e21c39fe", "osm3s": {"timestamp_osm_base": "2023-01-21T09:21:39Z", "copyright": "The data included in this document is from www.openstreetmap.org. The data is made available under ODbL."}, "elements": [{"type": "node", "id": 1261801703, "lat": 46.8918721, "lon": 18.0580353}, {"type": "node", "id": 1770371706, "lat": 46.9022454, "lon": 18.0448551}, {"type": "node", "id": 1770371708, "lat": 46.9024103, "lon": 18.0448024}, {"type": "node", "id": 1770371715, "lat": 46.9021027, "lon": 18.0427411}, {"type": "node", "id": 1770371716, "lat": 46.9019378, "lon": 18.0427938}, {"type": "node", "id": 1770396217, "lat": 46.8922017, "lon": 18.0576179}, {"type": "node", "id": 1770396218, "lat": 46.8921803, "lon": 18.0575491}, {"type": "node", "id": 1770396220, "lat": 46.8922938, "lon": 18.0574735}, {"type": "node", "id": 1770396223, "lat": 46.89206, "lon": 18.0567217}, {"type": "node", "id": 1770396229, "lat": 46.8928494, "lon": 18.0563576}, {"type": "node", "id": 1770396230, "lat": 46.8927933, "lon": 18.056395}, {"type": "node", "id": 1770396232, "lat": 46.8931617, "lon": 18.0575738}, {"type": "node", "id": 1770396235, "lat": 46.892974, "lon": 18.0567587}, {"type": "node", "id": 1770396263, "lat": 46.8921568, "lon": 18.0576479}, {"type": "node", "id": 1770396264, "lat": 46.8929195, "lon": 18.056795}, {"type": "node", "id": 1770396280, "lat": 46.8927517, "lon": 18.0562611}, {"type": "node", "id": 1770396287, "lat": 46.8922356, "lon": 18.0579014}, {"type": "node", "id": 1770420617, "lat": 46.9049932, "lon": 18.0515965, "tags": {"brand": "Spar", "brand:wikidata": "Q610492", "brand:wikipedia": "en:Spar (retailer)", "contact:website": "http://www.spar.hu", "name": "Spar", "shop": "supermarket", "website": "http://www.spar.hu", "wheelchair": "yes"}}, {"type": "node", "id": 1880568357, "lat": 46.9175135, "lon": 18.0706537, "tags": {"is_in": "Aranypart", "name": "ABC Supermarket", "shop": "supermarket"}}, {"type": "node", "id": 2387794079, "lat": 46.628423, "lon": 18.2808566}, {"type": "node", "id": 2387794080, "lat": 46.6281173, "lon": 18.2808282}, {"type": "node", "id": 2387794621, "lat": 46.6281309, "lon": 18.2804115}, {"type": "node", "id": 2387794622, "lat": 46.6280822, "lon": 18.2804086}, {"type": "node", "id": 2387794623, "lat": 46.62809, "lon": 18.2802499}, {"type": "node", "id": 2387794624, "lat": 46.6281387, "lon": 18.2802527}, {"type": "node", "id": 2387794625, "lat": 46.6281406, "lon": 18.2799947}, {"type": "node", "id": 2387794626, "lat": 46.6283918, "lon": 18.2800174}, {"type": "node", "id": 2387794627, "lat": 46.628384, "lon": 18.2802102}, {"type": "node", "id": 2387794628, "lat": 46.6284346, "lon": 18.280213}, {"type": "node", "id": 2387794629, "lat": 46.628421, "lon": 18.2805362}, {"type": "node", "id": 2387794630, "lat": 46.6284384, "lon": 18.2805358}, {"type": "node", "id": 2387811190, "lat": 46.6364901, "lon": 18.282585}, {"type": "node", "id": 2387811193, "lat": 46.6363616, "lon": 18.2821229}, {"type": "node", "id": 2387811196, "lat": 46.636165, "lon": 18.2822335}, {"type": "node", "id": 2387811199, "lat": 46.6361747, "lon": 18.2822788}, {"type": "node", "id": 2387811201, "lat": 46.6360326, "lon": 18.2823554}, {"type": "node", "id": 2387811204, "lat": 46.6361183, "lon": 18.2827211}, {"type": "node", "id": 2387811207, "lat": 46.6363422, "lon": 18.2825992}, {"type": "node", "id": 2387811209, "lat": 46.6363616, "lon": 18.2826559}, {"type": "node", "id": 2387814209, "lat": 46.6370522, "lon": 18.2812591}, {"type": "node", "id": 2387814210, "lat": 46.6368466, "lon": 18.2814427}, {"type": "node", "id": 2387814211, "lat": 46.6369702, "lon": 18.2817363}, {"type": "node", "id": 2387814212, "lat": 46.6371758, "lon": 18.2815527}, {"type": "node", "id": 2387844888, "lat": 46.9016451, "lon": 18.0495474}, {"type": "node", "id": 2387844891, "lat": 46.9014763, "lon": 18.0492639}, {"type": "node", "id": 2387844893, "lat": 46.9013647, "lon": 18.0493878}, {"type": "node", "id": 2387844894, "lat": 46.9013803, "lon": 18.0494269}, {"type": "node", "id": 2387844896, "lat": 46.9012179, "lon": 18.049619}, {"type": "node", "id": 2387844898, "lat": 46.9013914, "lon": 18.0499479}, {"type": "node", "id": 2387844900, "lat": 46.9014871, "lon": 18.0498405}, {"type": "node", "id": 2387844902, "lat": 46.9014493, "lon": 18.0497656}, {"type": "node", "id": 2390914220, "lat": 46.9266959, "lon": 18.2468952}, {"type": "node", "id": 2390914221, "lat": 46.9261599, "lon": 18.2469017}, {"type": "node", "id": 2390914222, "lat": 46.9261577, "lon": 18.2472078}, {"type": "node", "id": 2390914223, "lat": 46.9263067, "lon": 18.2472045}, {"type": "node", "id": 2390914224, "lat": 46.9263111, "lon": 18.2471394}, {"type": "node", "id": 2390914225, "lat": 46.9266959, "lon": 18.2471394}, {"type": "node", "id": 2390914226, "lat": 46.926062, "lon": 18.2496243}, {"type": "node", "id": 2390914227, "lat": 46.9255861, "lon": 18.2493247}, {"type": "node", "id": 2390914228, "lat": 46.9256995, "lon": 18.2489208}, {"type": "node", "id": 2390914229, "lat": 46.9258885, "lon": 18.2490478}, {"type": "node", "id": 2390914230, "lat": 46.9258685, "lon": 18.2491228}, {"type": "node", "id": 2390914231, "lat": 46.9261554, "lon": 18.2493019}, {"type": "node", "id": 2408263085, "lat": 46.8997009, "lon": 18.0279326}, {"type": "node", "id": 2408263086, "lat": 46.8998109, "lon": 18.02837}, {"type": "node", "id": 2408263087, "lat": 46.8991397, "lon": 18.0287314}, {"type": "node", "id": 2408263088, "lat": 46.8989511, "lon": 18.0283363}, {"type": "node", "id": 2942160453, "lat": 46.8989935, "lon": 18.0285054}, {"type": "node", "id": 2942160454, "lat": 46.8990723, "lon": 18.028463}, {"type": "node", "id": 2973206458, "lat": 46.6334774, "lon": 18.2808389}, {"type": "node", "id": 2973206459, "lat": 46.6335669, "lon": 18.2805875}, {"type": "node", "id": 2973206461, "lat": 46.6334986, "lon": 18.2802589}, {"type": "node", "id": 2973206464, "lat": 46.6333044, "lon": 18.2809152}, {"type": "node", "id": 2973206465, "lat": 46.633217, "lon": 18.2804947}, {"type": "node", "id": 2974532640, "lat": 46.8913855, "lon": 18.0574577}, {"type": "node", "id": 2974532641, "lat": 46.8915352, "lon": 18.057953}, {"type": "node", "id": 2974532642, "lat": 46.8915614, "lon": 18.0579322}, {"type": "node", "id": 2974532644, "lat": 46.8915959, "lon": 18.0572906}, {"type": "node", "id": 2974532645, "lat": 46.8916354, "lon": 18.0582232}, {"type": "node", "id": 2974532647, "lat": 46.8917471, "lon": 18.0576984}, {"type": "node", "id": 2974532649, "lat": 46.8918008, "lon": 18.0578432}, {"type": "node", "id": 2974532650, "lat": 46.8918043, "lon": 18.057653}, {"type": "node", "id": 2974532653, "lat": 46.891858, "lon": 18.0577978}, {"type": "node", "id": 2974532673, "lat": 46.8925239, "lon": 18.0577094}, {"type": "node", "id": 2974532674, "lat": 46.8925984, "lon": 18.0579489}, {"type": "node", "id": 2985667370, "lat": 46.9252056, "lon": 18.1001011}, {"type": "node", "id": 2985667371, "lat": 46.9249749, "lon": 18.1003371}, {"type": "node", "id": 2985667372, "lat": 46.9250713, "lon": 18.1005391}, {"type": "node", "id": 2985667373, "lat": 46.925302, "lon": 18.100303}, {"type": "node", "id": 3068158634, "lat": 46.7619074, "lon": 18.3974762, "tags": {"addr:city": "Ozora", "addr:housenumber": "10", "addr:postcode": "7086", "addr:street": "Enyingi utca", "name": "Bertalan kisbolt \u00e9s kocsma", "operator": "Bertalan Zsuzsanna", "shop": "supermarket"}}, {"type": "node", "id": 3692466857, "lat": 46.6005534, "lon": 18.0513394}, {"type": "node", "id": 3692466863, "lat": 46.600582, "lon": 18.0514337}, {"type": "node", "id": 3692466873, "lat": 46.6006465, "lon": 18.0513923}, {"type": "node", "id": 3692466876, "lat": 46.600658, "lon": 18.0514302}, {"type": "node", "id": 3692466887, "lat": 46.6006945, "lon": 18.0513615}, {"type": "node", "id": 3692466890, "lat": 46.600706, "lon": 18.0513994}, {"type": "node", "id": 3692466891, "lat": 46.6007174, "lon": 18.051234}, {"type": "node", "id": 3692466897, "lat": 46.600746, "lon": 18.0513284}, {"type": "node", "id": 5047018730, "lat": 46.9051733, "lon": 18.0496335, "tags": {"addr:city": "Si\u00f3fok", "addr:housenumber": "156-160", "addr:postcode": "8600", "addr:street": "F\u0151 utca", "brand": "Spar", "brand:wikidata": "Q610492", "brand:wikipedia": "en:Spar (retailer)", "name": "Spar", "opening_hours": "Mo-Fr 06:30-20:00; Sa 06:30-18:15; Su 07:00-17:00", "ref": "6970210", "shop": "supermarket", "wheelchair": "yes"}}, {"type": "node", "id": 5520454545, "lat": 46.9014937, "lon": 18.0492987}, {"type": "node", "id": 5520454546, "lat": 46.9015112, "lon": 18.0492793}, {"type": "node", "id": 7866489873, "lat": 46.8929117, "lon": 18.0565581}, {"type": "node", "id": 8601956267, "lat": 46.8375492, "lon": 17.974268, "tags": {"brand": "Real", "brand:wikidata": "Q698473", "brand:wikipedia": "en:Real (hypermarket)", "name": "Real", "opening_hours": "Mo-Fr 08:00-18:00; Sa 08:00-12:00", "shop": "supermarket"}}, {"type": "node", "id": 9078892389, "lat": 46.9084335, "lon": 18.0694266}, {"type": "node", "id": 9078892390, "lat": 46.9085032, "lon": 18.069622}, {"type": "node", "id": 9078892391, "lat": 46.9083663, "lon": 18.0697266}, {"type": "node", "id": 9078892392, "lat": 46.9082966, "lon": 18.0695313}, {"type": "node", "id": 9312446801, "lat": 46.6334371, "lon": 18.2806448}, {"type": "node", "id": 9312446802, "lat": 46.6332566, "lon": 18.2803656}, {"type": "node", "id": 9312446803, "lat": 46.6332778, "lon": 18.2804679}, {"type": "node", "id": 9312446809, "lat": 46.6334733, "lon": 18.2808188}, {"type": "node", "id": 9312446810, "lat": 46.6335469, "lon": 18.280491}, {"type": "way", "id": 165496799, "nodes": [1770371716, 1770371715, 1770371708, 1770371706, 1770371716], "tags": {"addr:city": "Si\u00f3fok", "addr:housenumber": "2", "addr:postcode": "8600", "addr:street": "Semmelweis utca", "alt_name": "German: Raupe", "building": "retail", "name": "Herny\u00f3 \u00dczleth\u00e1z", "shop": "supermarket", "source": "http://www.hernyouzlethaz.hu/page.php?8"}}, {"type": "way", "id": 165499121, "nodes": [1770396232, 1770396264, 1770396235, 7866489873, 1770396229, 1770396230, 1770396280, 1770396223, 1770396220, 1770396218, 1770396217, 1770396263, 1770396287, 2974532673, 2974532674, 1770396232], "tags": {"addr:city": "Si\u00f3fok", "addr:housename": "TESCO Si\u00f3fok Hipermarket", "addr:housenumber": "27", "addr:postcode": "8600", "addr:street": "Vak Botty\u00e1n utca", "air_conditioning": "yes", "branch": "Si\u00f3fok Hipermarket", "brand": "Tesco", "brand:wikidata": "Q487494", "brand:wikipedia": "en:Tesco", "building": "retail", "building:levels": "1", "contact:facebook": "https://www.facebook.com/tescoaruhazak", "contact:pinterest": "https://www.pinterest.com/tescohungary/", "contact:website": "https://tesco.hu/aruhazak/aruhaz/tesco-siofok-hipermarket/", "contact:youtube": "https://www.youtube.com/user/TescoMagyarorszag", "import": "osm_poi_matchmaker", "internet_access": "wlan", "internet_access:fee": "no", "internet_access:ssid": "tesco-internet", "loyalty_card": "yes", "name": "Tesco", "opening_hours": "Mo-Sa 06:00-22:00; Su 07:00-20:00; PH off", "operator": "TESCO-GLOBAL \u00c1ruh\u00e1zak Zrt.", "operator:addr": "2040 Buda\u00f6rs, Kinizsi \u00fat 1-3.", "payment:american_express": "yes", "payment:cash": "yes", "payment:contactless": "yes", "payment:edenred_card": "yes", "payment:edenred_voucher": "yes", "payment:gift_card": "yes", "payment:jcb": "yes", "payment:maestro": "yes", "payment:mastercard": "yes", "payment:mastercard_contactless": "yes", "payment:mastercard_electronic": "yes", "payment:multipay": "yes", "payment:otp_bankpont": "yes", "payment:otp_cafeteria": "yes", "payment:unionpay": "yes", "payment:v_pay": "yes", "payment:visa": "yes", "payment:visa_electron": "yes", "payment:wire_transfer": "yes", "ref:HU:company": "13-10-040628", "ref:HU:vatin": "10307078-2-44", "ref:vatin": "HU10307078", "roof:levels": "0", "shop": "supermarket", "source": "http://tesco.hu/aruhazak/aruhaz/114", "source:date": "2020-09-28", "source:wheelchair": "website", "toilets:wheelchair": "yes", "wheelchair": "yes"}}, {"type": "way", "id": 230256599, "nodes": [2387794079, 2387794080, 2387794621, 2387794622, 2387794623, 2387794624, 2387794625, 2387794626, 2387794627, 2387794628, 2387794629, 2387794630, 2387794079], "tags": {"brand": "Lidl", "brand:wikidata": "Q151954", "brand:wikipedia": "en:Lidl", "building": "retail", "name": "Lidl", "shop": "supermarket", "website": "https://www.lidl.hu/"}}, {"type": "way", "id": 230257825, "nodes": [2387811190, 2387811193, 2387811196, 2387811199, 2387811201, 2387811204, 2387811207, 2387811209, 2387811190], "tags": {"brand": "Penny", "brand:wikidata": "Q284688", "brand:wikipedia": "en:Penny (supermarket)", "building": "retail", "contact:website": "http://www.penny.hu", "name": "Penny", "shop": "supermarket", "toilets:wheelchair": "no", "website": "http://www.penny.hu", "wheelchair": "yes"}}, {"type": "way", "id": 230258042, "nodes": [2387814209, 2387814210, 2387814211, 2387814212, 2387814209], "tags": {"building": "retail", "name": "Coop", "shop": "supermarket", "toilets:wheelchair": "no", "website": "http://coop.hu", "wheelchair": "yes"}}, {"type": "way", "id": 230260456, "nodes": [2387844888, 5520454546, 5520454545, 2387844891, 2387844893, 2387844894, 2387844896, 2387844898, 2387844900, 2387844902, 2387844888], "tags": {"brand": "Penny", "brand:wikidata": "Q284688", "brand:wikipedia": "en:Penny (supermarket)", "building": "retail", "contact:website": "http://www.penny.hu", "name": "Penny", "shop": "supermarket", "website": "http://www.penny.hu", "wheelchair": "yes"}}, {"type": "way", "id": 230603322, "nodes": [2390914220, 2390914221, 2390914222, 2390914223, 2390914224, 2390914225, 2390914220], "tags": {"brand": "Penny", "brand:wikidata": "Q284688", "brand:wikipedia": "en:Penny (supermarket)", "building": "retail", "contact:website": "http://www.penny.hu", "name": "Penny", "shop": "supermarket", "website": "http://www.penny.hu", "wheelchair": "yes"}}, {"type": "way", "id": 230603323, "nodes": [2390914226, 2390914227, 2390914228, 2390914229, 2390914230, 2390914231, 2390914226], "tags": {"brand": "Lidl", "brand:wikidata": "Q151954", "brand:wikipedia": "en:Lidl", "building": "retail", "name": "Lidl", "shop": "supermarket", "website": "https://www.lidl.hu/", "wheelchair": "yes"}}, {"type": "way", "id": 232478657, "nodes": [2408263085, 2408263086, 2408263087, 2942160454, 2942160453, 2408263088, 2408263085], "tags": {"addr:city": "Si\u00f3fok", "addr:country": "HU", "addr:housenumber": "1-2", "addr:postcode": "8600", "addr:street": "Zam\u00e1rdi utca", "brand": "Lidl", "brand:wikidata": "Q151954", "brand:wikipedia": "en:Lidl", "building": "retail", "name": "Lidl", "opening_hours": "07:00-21:00", "operator": "Lidl", "shop": "supermarket", "website": "https://www.lidl.hu/"}}, {"type": "way", "id": 293729992, "nodes": [2973206458, 9312446809, 9312446801, 2973206459, 9312446810, 2973206461, 9312446802, 9312446803, 2973206465, 2973206464, 2973206458], "tags": {"addr:city": "Tam\u00e1si", "addr:housenumber": "1-3", "addr:postcode": "7090", "addr:street": "Garay utca", "brand": "Spar", "brand:wikidata": "Q610492", "brand:wikipedia": "en:SPAR (retailer)", "building": "commercial", "building:levels": "1", "name": "Spar", "opening_hours": "Mo-Fr 06:30-20:00; Sa 06:30-18:00; Su 07:00-13:00; PH off", "phone": "+36 20 823 7637", "shop": "supermarket", "website": "https://spar.hu"}}, {"type": "way", "id": 293877781, "nodes": [1261801703, 2974532645, 2974532641, 2974532642, 2974532640, 2974532644, 2974532647, 2974532650, 2974532653, 2974532649, 1261801703], "tags": {"addr:city": "Si\u00f3fok", "addr:housenumber": "74", "addr:postcode": "8600", "addr:street": "Attila utca", "air_conditioning": "yes", "brand": "Aldi", "brand:wikidata": "Q125054", "brand:wikipedia": "hu:Aldi", "building": "retail", "building:levels": "1", "contact:facebook": "https://www.facebook.com/ALDI.Magyarorszag", "contact:instagram": "https://www.instagram.com/aldi.magyarorszag", "contact:phone": "+36 80 088 264", "contact:website": "https://www.aldi.hu", "contact:youtube": "https://www.youtube.com/user/ALDIMagyarorszag", "name": "Aldi", "opening_hours": "Mo-Sa 06:30-20:00; Su 07:00-19:00; PH off", "operator": "ALDI Magyarorsz\u00e1g \u00c9lelmiszer Bt.", "operator:addr": "2051 Biatorb\u00e1gy, M\u00e9sz\u00e1rosok \u00fatja 2.", "payment:cash": "yes", "payment:contactless": "yes", "payment:maestro": "yes", "payment:mastercard": "yes", "payment:mastercard_contactless": "yes", "payment:mastercard_electronic": "yes", "payment:visa": "yes", "payment:visa_electron": "yes", "ref:HU:company": "13 06 058506", "ref:HU:vatin": "22234663-2-44", "ref:vatin": "HU22234663", "roof:levels": "0", "shop": "supermarket", "source": "import;website", "source:date": "2022-10-14", "wheelchair": "yes"}}, {"type": "way", "id": 294924588, "nodes": [2985667370, 2985667371, 2985667372, 2985667373, 2985667370], "tags": {"addr:city": "Balatonszabadi", "building": "retail", "description": "Eg\u00e9sz \u00e9vben nyitva, de r\u00f6videbb nyitvatart\u00e1ssal", "level": "0", "name": "CBA Siker ABC", "opening_hours": "Mo-Su 07:00-21:00; PH closed", "shop": "supermarket"}}, {"type": "way", "id": 365201328, "nodes": [3692466891, 3692466897, 3692466887, 3692466890, 3692466876, 3692466873, 3692466863, 3692466857, 3692466891], "tags": {"building": "yes", "name": "Vegyesbolt", "shop": "supermarket", "source": "Bing"}}, {"type": "way", "id": 981534651, "nodes": [9078892389, 9078892390, 9078892391, 9078892392, 9078892389], "tags": {"addr:city": "Si\u00f3fok", "addr:housenumber": "1", "addr:postcode": "8600", "addr:street": "Tin\u00f3di Lantos Sebesty\u00e9n t\u00e9r", "building": "yes", "name": "Coop ABC", "operator": "Balaton-Coop Kereskedelmi Zrt.", "shop": "supermarket"}}]}