{"version": 0.6, "generator": "Overpass API 0.7.59 e21c39fe", "osm3s": {"timestamp_osm_base": "2023-01-20T17:58:06Z", "copyright": "The data included in this document is from www.openstreetmap.org. The data is made available under ODbL."}, "elements": [{"type": "node", "id": 762022221, "lat": 47.8554423, "lon": 17.7737136}, {"type": "node", "id": 762024200, "lat": 47.8556004, "lon": 17.7740961}, {"type": "node", "id": 762026143, "lat": 47.8556581, "lon": 17.7740068}, {"type": "node", "id": 762028202, "lat": 47.8553981, "lon": 17.7738204}, {"type": "node", "id": 852459816, "lat": 47.9324829, "lon": 17.7114098}, {"type": "node", "id": 852459817, "lat": 47.9324606, "lon": 17.7113424}, {"type": "node", "id": 852459818, "lat": 47.9324864, "lon": 17.711322}, {"type": "node", "id": 852459819, "lat": 47.9324492, "lon": 17.7112146}, {"type": "node", "id": 852459820, "lat": 47.9325354, "lon": 17.711148}, {"type": "node", "id": 852459821, "lat": 47.932596, "lon": 17.7113228}, {"type": "node", "id": 971131148, "lat": 47.8670542, "lon": 17.276391, "tags": {"addr:city": "Mosonmagyar\u00f3v\u00e1r", "addr:housenumber": "16", "addr:postcode": "9200", "addr:street": "Erkel Ferenc utca", "amenity": "library", "name": "Husz\u00e1r G\u00e1l V\u00e1rosi K\u00f6nyvt\u00e1r", "opening_hours": "Mo,Sa 09:00-12:00; Tu-Fr 09:00-18:00", "phone": "+36 96 555 553", "website": "http://www.hgkmovar.hu/"}}, {"type": "node", "id": 994974784, "lat": 47.8951737, "lon": 17.42054, "tags": {"addr:city": "Kisbodak", "addr:postcode": "9234", "amenity": "library", "name": "K\u00f6nyvt\u00e1r"}}, {"type": "node", "id": 1433945314, "lat": 48.0395391, "lon": 17.4949614}, {"type": "node", "id": 1433945315, "lat": 48.0395474, "lon": 17.494839}, {"type": "node", "id": 1433945316, "lat": 48.0397559, "lon": 17.4949897}, {"type": "node", "id": 1433945324, "lat": 48.0397592, "lon": 17.4949506}, {"type": "node", "id": 1433945325, "lat": 48.0397892, "lon": 17.4949536}, {"type": "node", "id": 1433945326, "lat": 48.0397945, "lon": 17.494868}, {"type": "node", "id": 1441143054, "lat": 48.0395613, "lon": 17.4948406}, {"type": "node", "id": 1441143061, "lat": 48.0396536, "lon": 17.4948515}, {"type": "node", "id": 2297035329, "lat": 48.0121125, "lon": 17.8072476, "tags": {"amenity": "library"}}, {"type": "node", "id": 3456418509, "lat": 47.8517746, "lon": 17.4278035, "tags": {"amenity": "library", "name": "K\u00f6zs\u00e9gi K\u00f6nyvt\u00e1r"}}, {"type": "node", "id": 3501570346, "lat": 47.8318934, "lon": 17.457339}, {"type": "node", "id": 3501570352, "lat": 47.8319719, "lon": 17.4572481}, {"type": "node", "id": 3501570355, "lat": 47.8319999, "lon": 17.4575273}, {"type": "node", "id": 3501570358, "lat": 47.8320784, "lon": 17.4574364}, {"type": "node", "id": 4518631539, "lat": 47.9492622, "lon": 17.446984, "tags": {"addr:city": "Horn\u00fd Bar", "addr:conscriptionnumber": "184", "addr:housenumber": "184", "addr:place": "Horn\u00fd Bar", "addr:postcode": "930 33", "amenity": "library", "contact:email": "ouhornybar@stonline.sk", "contact:phone": "+421 31 559 7117", "name": "Obecn\u00e1 kni\u017enica Horn\u00fd Bar"}}, {"type": "node", "id": 4518631540, "lat": 47.9064166, "lon": 17.5239213, "tags": {"addr:city": "Baka", "addr:conscriptionnumber": "262", "addr:housenumber": "262", "addr:place": "Baka", "addr:postcode": "930 04", "amenity": "library", "contact:email": "obecbaka@stonline.sk", "contact:phone": "+421 31 559 4716", "name": "\u013dudov\u00e1 kni\u017enica Baka"}}, {"type": "node", "id": 4518631541, "lat": 47.9266316, "lon": 17.6865069, "tags": {"addr:city": "Pad\u00e1\u0148", "addr:conscriptionnumber": "289", "addr:housenumber": "289", "addr:place": "Pad\u00e1\u0148", "addr:postcode": "929 01", "amenity": "library", "contact:email": "oupadan@panelnet.sk", "contact:phone": "+421 31 558 9169", "name": "Obecn\u00e1 kni\u017enica Pad\u00e1\u0148"}}, {"type": "node", "id": 4518631543, "lat": 48.0021701, "lon": 17.4388927, "tags": {"addr:city": "Blatn\u00e1 na Ostrove", "addr:conscriptionnumber": "203", "addr:housenumber": "203", "addr:place": "Blatn\u00e1 na Ostrove", "addr:postcode": "930 32", "amenity": "library", "contact:email": "obec@blatnanaostrove.sk", "contact:phone": "+421 31 559 8115", "internet_access": "yes", "internet_access:fee": "yes", "name": "Obecn\u00e1 kni\u017enica Blatn\u00e1 na Ostrove", "operator": "Obecn\u00fd \u00farad Blatn\u00e1 na Ostrove", "operator:type": "government"}}, {"type": "node", "id": 4518631544, "lat": 47.92627, "lon": 17.4566679, "tags": {"addr:city": "Bod\u00edky", "addr:conscriptionnumber": "174", "addr:housenumber": "174", "addr:place": "Bod\u00edky", "addr:postcode": "93031", "amenity": "library", "contact:email": "obecbodiky@gmail.com", "contact:phone": "+421 31 554 6101", "name": "Obecn\u00e1 kni\u017enica"}}, {"type": "node", "id": 4518631546, "lat": 47.9982952, "lon": 17.4079572, "tags": {"addr:city": "Rohovce", "addr:conscriptionnumber": "164", "addr:housenumber": "164", "addr:place": "Rohovce", "addr:postcode": "930 30", "amenity": "library", "contact:email": "ocurohovce@stonline.sk", "contact:phone": "+421 915 235 501", "name": "Obecn\u00e1 kni\u017enica Rohovce"}}, {"type": "node", "id": 4518631547, "lat": 47.8277002, "lon": 17.6717986, "tags": {"addr:city": "Balo\u0148", "addr:conscriptionnumber": "22", "addr:housenumber": "22", "addr:place": "Balo\u0148", "addr:postcode": "930 08", "amenity": "library", "contact:email": "obecbalon@stonline.sk", "contact:phone": "+421 908 117 811", "name": "Obecn\u00e1 kni\u017enica Balo\u0148"}}, {"type": "node", "id": 4518631548, "lat": 47.8207906, "lon": 17.6150218, "tags": {"addr:city": "Sap", "addr:conscriptionnumber": "48", "addr:country": "SK", "addr:housenumber": "48", "addr:place": "Sap", "addr:postcode": "93006", "amenity": "library", "contact:email": "obecsap@obecsap.eu", "contact:phone": "+421 31 554 9130", "name": "Obecn\u00e1 kni\u017enica"}}, {"type": "node", "id": 4518631549, "lat": 47.9741177, "lon": 17.3823718, "tags": {"addr:city": "Vojka nad Dunajom", "addr:conscriptionnumber": "14", "addr:housenumber": "14", "addr:place": "Vojka nad Dunajom", "addr:postcode": "930 31", "amenity": "library", "contact:email": "obecvojka@gmail.com", "contact:phone": "+421 31 554 8181", "name": "Obecn\u00e1 kni\u017enica Vojka nad Dunajom"}}, {"type": "node", "id": 4518631551, "lat": 47.919422, "lon": 17.5004825, "tags": {"addr:city": "Trsten\u00e1 na Ostrove", "addr:conscriptionnumber": "20", "addr:housenumber": "20", "addr:place": "Trsten\u00e1 na Ostrove", "addr:postcode": "930 04", "amenity": "library", "contact:email": "ocutrstenano@stonline.sk", "contact:phone": "+421 31 554 7122", "name": "Obecn\u00e1 kni\u017enica Trsten\u00e1 na Ostrove"}}, {"type": "node", "id": 4518631552, "lat": 48.0169308, "lon": 17.5361698, "tags": {"amenity": "library", "contact:email": "starosta@orechovapoton.sk", "contact:phone": "+421 904 347 423", "name": "Obecn\u00e1 kni\u017enica Orechov\u00e1 Pot\u00f4\u0148"}}, {"type": "node", "id": 4518631553, "lat": 47.9874678, "lon": 17.5512385, "tags": {"addr:city": "Kr\u00e1\u013eovi\u010dove Kra\u010dany", "addr:conscriptionnumber": "109", "addr:housenumber": "109", "addr:place": "Kr\u00e1\u013eovi\u010dove Kra\u010dany", "addr:postcode": "930 03", "amenity": "library", "contact:email": "kral.kracany@nextra.sk", "contact:phone": "+421 31 551 4129", "name": "Obecn\u00e1 kni\u017enica Kr\u00e1\u013eovi\u010dove Kra\u010dany"}}, {"type": "node", "id": 4518631554, "lat": 47.9682459, "lon": 17.7851308, "tags": {"amenity": "library", "contact:email": "bacso@topolniky.sk", "contact:phone": "+421 918 816 459", "name": "Obecn\u00e1 kni\u017enica Topo\u013en\u00edky"}}, {"type": "node", "id": 4518631555, "lat": 47.8554509, "lon": 17.7727728, "tags": {"addr:city": "Ve\u013ek\u00fd Meder", "addr:housenumber": "18", "addr:postcode": "932 01", "addr:street": "Kom\u00e1r\u0148ansk\u00e1", "addr:streetnumber": "18", "amenity": "library", "contact:email": "msks@nextra.sk", "contact:phone": "+421 31 555 2360", "name": "Mestsk\u00e9 kult\u00farne stredisko - Mestsk\u00e1 kni\u017enica Ve\u013ek\u00fd Meder"}}, {"type": "node", "id": 4823280724, "lat": 48.0840348, "lon": 17.6921253, "tags": {"addr:city": "Tom\u00e1\u0161ikovo", "addr:conscriptionnumber": "319", "addr:housenumber": "319", "addr:place": "Tom\u00e1\u0161ikovo", "addr:postcode": "925 04", "amenity": "library", "contact:email": "obec@tomasikovo.sk", "contact:phone": "+421 31 785 5231", "name": "Obecn\u00e1 kni\u017enica Tom\u00e1\u0161ikovo"}}, {"type": "node", "id": 4823280730, "lat": 48.0599304, "lon": 17.8254169, "tags": {"addr:city": "Kr\u00e1\u013eov Brod", "addr:conscriptionnumber": "4", "addr:housenumber": "4", "addr:place": "Kr\u00e1\u013eov Brod", "addr:postcode": "925 41", "amenity": "library", "contact:email": "kralov.brod@azet.sk", "contact:phone": "+421 31 702 0132", "name": "Obecn\u00e1 kni\u017enica Kr\u00e1\u013eov Brod"}}, {"type": "node", "id": 6069569293, "lat": 48.031431, "lon": 17.3046738, "tags": {"amenity": "library", "name": "Mestsk\u00e1 kni\u017enica Zsigmonda Zalabaiho", "name:hu": "Zalabai Zsigmond v\u00e1rosi K\u00f6nyvt\u00e1r", "opening_hours": "Mo,Fr 13:00-16:00; Tu-Th 09:00-12:00,13:00-18:00; Sa 08:00-12:00", "source": "survey"}}, {"type": "way", "id": 60887797, "nodes": [762022221, 762026143, 762024200, 762028202, 762022221], "tags": {"addr:city": "Ve\u013ek\u00fd Meder", "addr:conscriptionnumber": "54", "addr:country": "SK", "addr:housenumber": "54/19", "addr:street": "Kom\u00e1r\u0148ansk\u00e1", "addr:streetnumber": "19", "amenity": "library", "building": "yes", "import": "budovy201004", "source": "kapor2"}}, {"type": "way", "id": 71704023, "nodes": [852459816, 852459817, 852459818, 852459819, 852459820, 852459821, 852459816], "tags": {"addr:city": "Doln\u00fd \u0160t\u00e1l", "addr:conscriptionnumber": "65", "addr:country": "SK", "addr:housenumber": "65", "addr:place": "Doln\u00fd \u0160t\u00e1l", "amenity": "library", "building": "yes", "import": "budovy201004", "name": "Kni\u017enica", "name:hu": "k\u00f6nyvt\u00e1r", "opening_hours": "Tu,Th 10:00-17:00; We,Fr 10:00-18:00", "source": "kapor2", "source:conscriptionnumber": "kapor2"}}, {"type": "way", "id": 130096446, "nodes": [1433945315, 1433945314, 1433945316, 1433945324, 1433945325, 1433945326, 1441143061, 1441143054, 1433945315], "tags": {"addr:city": "Horn\u00e1 Pot\u00f4\u0148", "addr:conscriptionnumber": "427", "addr:country": "SK", "addr:housenumber": "427", "addr:place": "Benkova Pot\u00f4\u0148", "amenity": "library", "building": "yes", "source:conscriptionnumber": "kapor2"}}, {"type": "way", "id": 343287098, "nodes": [3501570355, 3501570346, 3501570352, 3501570358, 3501570355], "tags": {"amenity": "library", "building": "yes", "building:levels": "3"}}]}