{"version": 0.6, "generator": "Overpass API 0.7.59 e21c39fe", "osm3s": {"timestamp_osm_base": "2023-01-20T17:55:59Z", "copyright": "The data included in this document is from www.openstreetmap.org. The data is made available under ODbL."}, "elements": [{"type": "node", "id": 2510300749, "lat": 46.1831063, "lon": 18.951288}, {"type": "node", "id": 2510300750, "lat": 46.1833459, "lon": 18.9512826}, {"type": "node", "id": 2510300751, "lat": 46.1834721, "lon": 18.9510707}, {"type": "node", "id": 2510300752, "lat": 46.1832623, "lon": 18.9508615}, {"type": "node", "id": 2510300753, "lat": 46.183201, "lon": 18.9510117}, {"type": "node", "id": 2510300754, "lat": 46.183318, "lon": 18.9511271}, {"type": "node", "id": 2510300755, "lat": 46.1833031, "lon": 18.9511673}, {"type": "node", "id": 2510300756, "lat": 46.1831546, "lon": 18.9511673}, {"type": "node", "id": 2510303940, "lat": 46.1833459, "lon": 18.9508857}, {"type": "node", "id": 2510303941, "lat": 46.1834796, "lon": 18.9510412}, {"type": "node", "id": 2510303942, "lat": 46.1836578, "lon": 18.9507113}, {"type": "node", "id": 2510303943, "lat": 46.1835223, "lon": 18.9505557}, {"type": "node", "id": 2575927068, "lat": 46.532131, "lon": 18.9797508, "tags": {"addr:city": "Kalocsa", "addr:housenumber": "22", "addr:postcode": "6300", "addr:street": "Kossuth Lajos utca", "amenity": "library", "name": "Tomori P\u00e1l V\u00e1rosi \u00e9s F\u0151iskolai K\u00f6nyvt\u00e1r", "phone": "+36 78 462 236", "website": "http://www.tpkkalocsa.hu/", "wheelchair": "yes"}}, {"type": "node", "id": 3040025546, "lat": 46.1917372, "lon": 19.1455634}, {"type": "node", "id": 3040025550, "lat": 46.1917954, "lon": 19.1457519}, {"type": "node", "id": 3040025552, "lat": 46.1918078, "lon": 19.1456199}, {"type": "node", "id": 3040025553, "lat": 46.1918398, "lon": 19.1457233}, {"type": "node", "id": 3040025554, "lat": 46.191859, "lon": 19.1455869}, {"type": "node", "id": 3040025555, "lat": 46.1918818, "lon": 19.1454703}, {"type": "node", "id": 3040025556, "lat": 46.1918905, "lon": 19.1456887}, {"type": "node", "id": 3040025557, "lat": 46.1919395, "lon": 19.1456571}, {"type": "node", "id": 3061936075, "lat": 46.1969529, "lon": 19.1861301, "tags": {"amenity": "library"}}, {"type": "node", "id": 3073933845, "lat": 46.3474038, "lon": 18.5944752, "tags": {"amenity": "library"}}, {"type": "node", "id": 3138365165, "lat": 46.3473877, "lon": 18.7016701, "tags": {"addr:city": "Szeksz\u00e1rd", "addr:housenumber": "51", "addr:postcode": "7100", "addr:street": "Sz\u00e9chenyi utca", "amenity": "library", "contact:fax": "+36 74 311 834", "contact:phone": "+36 74 528 100;+36 74 528 104", "email": "tolnalib@igyuk.hu", "name": "Illy\u00e9s Gyula megyei k\u00f6nyvt\u00e1r", "opening_hours": "Mo,We-Fr 10:00-18:00; Sa 09:00-13:00", "website": "http://www.igyuk.hu", "wheelchair": "limited"}}, {"type": "node", "id": 3452836093, "lat": 46.526831, "lon": 18.81869, "tags": {"amenity": "library", "source": "turistautak.hu", "source:date": "2012-06-07", "url": "http://turistautak.hu/poi.php?id=139579"}}, {"type": "node", "id": 4200188247, "lat": 46.49065, "lon": 19.07116}, {"type": "node", "id": 4200188248, "lat": 46.4905302, "lon": 19.071378}, {"type": "node", "id": 4450005090, "lat": 46.4176603, "lon": 18.922208, "tags": {"addr:city": "Fajsz", "addr:housenumber": "3", "addr:postcode": "6352", "addr:street": "Ady utca", "amenity": "library", "internet_access": "wlan", "name": "K\u00f6nyvt\u00e1r \u00e9s Inform\u00e1ci\u00f3s Pont", "name:hu": "K\u00f6nyvt\u00e1r \u00e9s Inform\u00e1ci\u00f3s Pont"}}, {"type": "node", "id": 5351835096, "lat": 46.188422, "lon": 18.7254322}, {"type": "node", "id": 5351835097, "lat": 46.1882731, "lon": 18.7254641}, {"type": "node", "id": 5351835098, "lat": 46.1883022, "lon": 18.7257481}, {"type": "node", "id": 5351835099, "lat": 46.1884511, "lon": 18.7257162}, {"type": "node", "id": 7535471525, "lat": 46.4905777, "lon": 19.0710761}, {"type": "node", "id": 7535471590, "lat": 46.4904579, "lon": 19.0712942}, {"type": "node", "id": 8221189042, "lat": 46.3407366, "lon": 19.0496338}, {"type": "node", "id": 8221189043, "lat": 46.3406804, "lon": 19.0498331}, {"type": "node", "id": 8221189044, "lat": 46.3405708, "lon": 19.0497682}, {"type": "node", "id": 8221189045, "lat": 46.3406182, "lon": 19.0496002}, {"type": "node", "id": 8221189046, "lat": 46.3406466, "lon": 19.0496171}, {"type": "node", "id": 8221189047, "lat": 46.3406554, "lon": 19.0495857}, {"type": "node", "id": 8688647602, "lat": 46.4323733, "lon": 18.7801146}, {"type": "node", "id": 8688647603, "lat": 46.4327186, "lon": 18.7805445}, {"type": "node", "id": 8688647604, "lat": 46.4326269, "lon": 18.7806996}, {"type": "node", "id": 8688647605, "lat": 46.4322847, "lon": 18.7802643}, {"type": "node", "id": 9127663239, "lat": 46.1882783, "lon": 18.7255149, "tags": {"artist_name": "Adorj\u00e1ni Endre", "historic": "memorial", "inscription": "A bukovinai sz\u00e9kelyek hazatelep\u00edt\u0151j\u00e9nek eml\u00e9k\u00e9re \u00e1ll\u00edttatta a Sz\u00e9kely Sz\u00f6vets\u00e9g Istenseg\u00edts Fogadjisten Andr\u00e1sfalva Hadikfalva J\u00f3zseffalva", "material": "metal", "memorial": "plaque", "name": "N\u00e9meth K\u00e1lm\u00e1n domborm\u0171", "start_date": "1996-06-29"}}, {"type": "node", "id": 9338455863, "lat": 46.4326153, "lon": 18.780321}, {"type": "node", "id": 9338455864, "lat": 46.4325466, "lon": 18.7802354}, {"type": "node", "id": 9338455865, "lat": 46.4325035, "lon": 18.7803082}, {"type": "node", "id": 9338455866, "lat": 46.4325718, "lon": 18.7803946}, {"type": "node", "id": 9338455867, "lat": 46.4324823, "lon": 18.7802503}, {"type": "node", "id": 9338455868, "lat": 46.4324715, "lon": 18.7802685}, {"type": "node", "id": 9338455869, "lat": 46.4323919, "lon": 18.7803977}, {"type": "node", "id": 9338455870, "lat": 46.4324, "lon": 18.7803841}, {"type": "node", "id": 9338455871, "lat": 46.4325421, "lon": 18.780561}, {"type": "node", "id": 9338455872, "lat": 46.4326066, "lon": 18.7804379}, {"type": "node", "id": 9338455873, "lat": 46.4326178, "lon": 18.780419}, {"type": "node", "id": 9338455874, "lat": 46.4325309, "lon": 18.78058}, {"type": "node", "id": 9463201723, "lat": 46.350729, "lon": 18.703751, "tags": {"amenity": "library", "email": "gyerekkonyvtar@gmail.com", "name": "Gyermekk\u00f6nyvt\u00e1r", "phone": "+36 74 312 209", "survey:date": "2022-01-06"}}, {"type": "node", "id": 9652043713, "lat": 46.4327077, "lon": 18.780531, "tags": {"emergency": "fire_hydrant", "fire_hydrant:pressure": "yes", "fire_hydrant:type": "wall", "water_source": "main"}}, {"type": "way", "id": 243650705, "nodes": [2510300749, 2510300750, 2510300751, 2510300752, 2510300753, 2510300754, 2510300755, 2510300756, 2510300749], "tags": {"addr:city": "Baja", "addr:housenumber": "12", "addr:postcode": "6500", "addr:street": "Telcs Ede utca", "amenity": "library", "building": "yes", "name": "Ady Endre V\u00e1rosi K\u00f6nyvt\u00e1r, gyermekk\u00f6nyvt\u00e1ri r\u00e9szleg", "opening_hours": "Sep-Jun: Mo 14:00-18:00; Sep-Jun: Tu-Fr 10:00-18:00; Sep-Jun: Sa 08:00-12:00; Jul-Aug: Mo-Fr 09:00-17:00", "operator": "Ady Endre V\u00e1rosi K\u00f6nyvt\u00e1r", "phone": "+36 79 322 741 ext. 105", "website": "http://gyerek.bajaikonyvtar.hu/"}}, {"type": "way", "id": 243651028, "nodes": [2510303940, 2510303941, 2510303942, 2510303943, 2510303940], "tags": {"addr:city": "Baja", "addr:housenumber": "9", "addr:postcode": "6500", "addr:street": "Munk\u00e1csy Mih\u00e1ly utca", "amenity": "library", "building": "yes", "name": "Ady Endre V\u00e1rosi K\u00f6nyvt\u00e1r \u00e9s M\u0171vel\u0151d\u00e9si K\u00f6zpont", "note": "egykori zsinag\u00f3ga \u00e9p\u00fclete", "opening_hours": "Mo 14:00-18:00; Tu-Fr 10:00-18:00; Sa 08:00-12:00", "phone": "+36 79 325 216", "website": "https://www.bajaikonyvtar.hu/", "wheelchair": "no"}}, {"type": "way", "id": 299917246, "nodes": [3040025550, 3040025546, 3040025555, 3040025557, 3040025556, 3040025554, 3040025552, 3040025553, 3040025550], "tags": {"amenity": "library", "building": "yes", "name": "K\u00f6zs\u00e9gi k\u00f6nyvt\u00e1r"}}, {"type": "way", "id": 420032529, "nodes": [7535471525, 4200188247, 4200188248, 7535471590, 7535471525], "tags": {"addr:city": "Homokm\u00e9gy", "addr:housenumber": "6", "addr:postcode": "6341", "addr:street": "Iskola utca", "amenity": "library", "building": "yes", "name": "K\u00f6zs\u00e9gi K\u00f6nyvt\u00e1r Homokm\u00e9gy"}}, {"type": "way", "id": 554573849, "nodes": [5351835096, 5351835097, 9127663239, 5351835098, 5351835099, 5351835096], "tags": {"addr:city": "B\u00e1tasz\u00e9k", "addr:housenumber": "1", "addr:postcode": "7140", "addr:street": "H\u0151s\u00f6k tere", "amenity": "library", "building": "yes", "contact:facebook": "https://www.facebook.com/Kereszt%C3%A9ly-Gyula-V%C3%A1rosi-K%C3%B6nyvt%C3%A1r-952814998107394/", "email": "keresztely.gyula@gmail.com", "name": "Kereszt\u00e9ly Gyula V\u00e1rosi K\u00f6nyvt\u00e1r", "opening_hours": "Mo-Th 08:00-16:00; PH off", "phone": "+36 74 493 076", "survey:date": "2021-09-22", "website": "https://www.kgyvk.hu/"}}, {"type": "way", "id": 883990212, "nodes": [8221189042, 8221189043, 8221189044, 8221189045, 8221189046, 8221189047, 8221189042], "tags": {"addr:city": "Nemesn\u00e1dudvar", "addr:housenumber": "50", "addr:postcode": "6345", "addr:street": "Pet\u0151fi utca", "amenity": "library", "building": "yes", "internet_access": "yes", "internet_access:fee": "no", "name": "Nemesn\u00e1dudvari K\u00f6zs\u00e9gi K\u00f6nyvt\u00e1r", "ref:isil": "HU-IL-000122-3"}}, {"type": "way", "id": 937835665, "nodes": [8688647605, 8688647602, 9338455867, 9338455868, 9338455865, 9338455864, 9338455863, 9338455866, 9338455872, 9338455873, 9652043713, 8688647603, 8688647604, 9338455874, 9338455871, 9338455870, 9338455869, 8688647605], "tags": {"addr:city": "Tolna", "addr:housenumber": "73/B", "addr:postcode": "7130", "addr:street": "Bajcsy-Zsilinszky utca", "amenity": "library", "building": "yes", "building:levels": "2", "email": "tolmoly@tolnaairnet.hu", "name": "V\u00e1rosi k\u00f6nyvt\u00e1r", "opening_hours": "Mo,Tu,Th,Fr 09:00-17:00; We 12:00-17:00; Sa 09:00-12:00", "phone": "+36 74 440 170", "source": "MapboxSattelite", "survey:date": "2022-04-08", "website": "https://www.konyvtartolna.hu/", "wheelchair": "yes"}}]}