{"version": 0.6, "generator": "Overpass API 0.7.59 e21c39fe", "osm3s": {"timestamp_osm_base": "2023-01-21T09:47:07Z", "copyright": "The data included in this document is from www.openstreetmap.org. The data is made available under ODbL."}, "elements": [{"type": "node", "id": 2390550011, "lat": 46.5774295, "lon": 20.6505066, "tags": {"addr:city": "Orosh\u00e1za", "addr:postcode": "5900", "addr:street": "Elker\u00fcl\u0151 \u00fat", "air_conditioning": "yes", "amenity": "fuel", "brand": "MOL", "brand:wikidata": "Q549181", "brand:wikipedia": "hu:MOL Magyar Olaj- \u00e9s G\u00e1zipari Nyrt.", "compressed_air": "yes", "contact:facebook": "https://www.facebook.com/mol.magyarorszag/", "contact:instagram": "https://www.instagram.com/mol.magyarorszag/", "contact:website": "https://www.mol.hu", "contact:youtube": "https://www.youtube.com/user/molgrouptv", "food": "no", "fuel:GTL_diesel": "yes", "fuel:adblue": "no", "fuel:diesel": "yes", "fuel:lpg": "yes", "fuel:octane_100": "yes", "fuel:octane_95": "yes", "fuel:octane_98": "yes", "name": "MOL", "operator": "MOL Nyrt.", "operator:addr": "1117 Budapest, Domb\u00f3v\u00e1ri \u00fat 28.", "payment:cash": "yes", "payment:contactless": "yes", "payment:maestro": "yes", "payment:mastercard": "yes", "payment:mastercard_contactless": "yes", "payment:mastercard_electronic": "yes", "payment:visa": "yes", "payment:visa_electron": "yes", "ref:HU:company": "01-10-041683", "ref:HU:vatin": "10625790-4-44", "rent:lpg_bottles": "no", "source": "website", "source:date": "2022-05-21", "truck": "no"}}, {"type": "node", "id": 2463179072, "lat": 46.6289421, "lon": 20.8158403, "tags": {"amenity": "fuel"}}, {"type": "node", "id": 2951277351, "lat": 46.9348658, "lon": 20.8166462, "tags": {"addr:city": "Gyomaendr\u0151d", "addr:housenumber": "12", "addr:postcode": "5500", "addr:street": "P\u00e1sztor J\u00e1nos utca", "air_conditioning": "yes", "amenity": "fuel", "brand": "MOL", "brand:wikidata": "Q549181", "brand:wikipedia": "hu:MOL Magyar Olaj- \u00e9s G\u00e1zipari Nyrt.", "compressed_air": "yes", "contact:facebook": "https://www.facebook.com/mol.magyarorszag/", "contact:instagram": "https://www.instagram.com/mol.magyarorszag/", "contact:website": "https://www.mol.hu", "contact:youtube": "https://www.youtube.com/user/molgrouptv", "food": "no", "fuel:GTL_diesel": "yes", "fuel:adblue": "no", "fuel:diesel": "yes", "fuel:lpg": "yes", "fuel:octane_100": "yes", "fuel:octane_95": "yes", "name": "MOL", "opening_hours": "Mo-Su 05:00-23:00", "operator": "MOL Nyrt.", "operator:addr": "1117 Budapest, Domb\u00f3v\u00e1ri \u00fat 28.", "payment:cash": "yes", "payment:contactless": "yes", "payment:maestro": "yes", "payment:mastercard": "yes", "payment:mastercard_contactless": "yes", "payment:mastercard_electronic": "yes", "payment:visa": "yes", "payment:visa_electron": "yes", "ref:HU:company": "01-10-041683", "ref:HU:vatin": "10625790-4-44", "rent:lpg_bottles": "yes", "source": "website", "source:date": "2022-05-21", "truck": "no"}}, {"type": "node", "id": 3334249499, "lat": 46.9335403, "lon": 20.8142941, "tags": {"addr:city": "Gyomaendr\u0151d", "addr:housenumber": "133", "addr:postcode": "5500", "addr:street": "F\u0151 \u00fat", "air_conditioning": "yes", "amenity": "fuel", "brand": "OMV", "brand:wikidata": "Q168238", "brand:wikipedia": "en:OMV", "compressed_air": "yes", "contact:email": "info.hungary@omv.com", "contact:facebook": "https://www.facebook.com/omvmagyarorszag", "contact:fax": "+36 1 381 9899", "contact:instagram": "https://www.instagram.com/omv/", "contact:linkedin": "https://www.linkedin.com/company/omv", "contact:phone": "+36 66 581 740", "contact:twitter": "omv", "contact:website": "https://www.omv.hu", "contact:youtube": "https://www.youtube.com/user/omvofficial", "fuel:GTL_diesel": "yes", "fuel:diesel": "yes", "fuel:octane_100": "yes", "fuel:octane_95": "yes", "name": "OMV", "opening_hours": "Mo-Su 05:00-22:00; PH off", "opening_hours:covid19": "same", "operator": "OMV Hung\u00e1ria Kft.", "operator:addr": "1117 Budapest, Okt\u00f3ber huszonharmadika utca 6-10 5. emelet 5/A.", "payment:cash": "yes", "payment:contactless": "yes", "payment:maestro": "yes", "payment:mastercard": "yes", "payment:mastercard_contactless": "yes", "payment:mastercard_electronic": "yes", "payment:visa": "yes", "payment:visa_electron": "yes", "ref:HU:company": "01-09-071584", "ref:HU:vatin": "10542925-2-44", "ref:vatin": "HU10542925", "source": "website", "source:date": "2020-10-03"}}, {"type": "node", "id": 3468130156, "lat": 46.8597747, "lon": 20.5576687, "tags": {"addr:city": "Szarvas", "addr:housenumber": "51-53", "addr:postcode": "5540", "addr:street": "Szabads\u00e1g \u00fat", "air_conditioning": "yes", "amenity": "fuel", "brand": "MOL", "brand:wikidata": "Q549181", "brand:wikipedia": "hu:MOL Magyar Olaj- \u00e9s G\u00e1zipari Nyrt.", "compressed_air": "yes", "contact:facebook": "https://www.facebook.com/mol.magyarorszag/", "contact:instagram": "https://www.instagram.com/mol.magyarorszag/", "contact:website": "https://www.mol.hu", "contact:youtube": "https://www.youtube.com/user/molgrouptv", "food": "no", "fuel:GTL_diesel": "yes", "fuel:adblue": "no", "fuel:diesel": "yes", "fuel:lpg": "yes", "fuel:octane_100": "yes", "fuel:octane_95": "yes", "name": "MOL", "operator": "MOL Nyrt.", "operator:addr": "1117 Budapest, Domb\u00f3v\u00e1ri \u00fat 28.", "payment:cash": "yes", "payment:contactless": "yes", "payment:maestro": "yes", "payment:mastercard": "yes", "payment:mastercard_contactless": "yes", "payment:mastercard_electronic": "yes", "payment:visa": "yes", "payment:visa_electron": "yes", "ref:HU:company": "01-10-041683", "ref:HU:vatin": "10625790-4-44", "rent:lpg_bottles": "yes", "source": "website", "source:date": "2022-05-21", "truck": "no", "url": "http://turistautak.hu/poi.php?id=55204"}}, {"type": "node", "id": 3488480201, "lat": 46.6564549, "lon": 20.9291419, "tags": {"amenity": "fuel", "source": "turistautak.hu", "source:date": "2012-12-27", "url": "http://turistautak.hu/poi.php?id=103511"}}, {"type": "node", "id": 3671981185, "lat": 46.7562439, "lon": 20.8129978}, {"type": "node", "id": 3671981186, "lat": 46.7561815, "lon": 20.8132756}, {"type": "node", "id": 3671981187, "lat": 46.7561546, "lon": 20.8132952}, {"type": "node", "id": 3671981188, "lat": 46.7560646, "lon": 20.81326}, {"type": "node", "id": 3671981189, "lat": 46.7560472, "lon": 20.8132227}, {"type": "node", "id": 3671981190, "lat": 46.7561118, "lon": 20.8129347}, {"type": "node", "id": 3685862132, "lat": 46.8658955, "lon": 20.5278877}, {"type": "node", "id": 3685862133, "lat": 46.8660059, "lon": 20.5279742}, {"type": "node", "id": 3685862134, "lat": 46.8659701, "lon": 20.5280717}, {"type": "node", "id": 3685862135, "lat": 46.8658597, "lon": 20.5279852}, {"type": "node", "id": 4755802645, "lat": 46.9311223, "lon": 20.8150415, "tags": {"amenity": "fuel", "name": "Avia"}}, {"type": "node", "id": 5302233496, "lat": 46.9242819, "lon": 20.772969}, {"type": "node", "id": 5302233497, "lat": 46.9242679, "lon": 20.7730843}, {"type": "node", "id": 5302233498, "lat": 46.9243419, "lon": 20.7731036}, {"type": "node", "id": 5302233499, "lat": 46.9243559, "lon": 20.7729883}, {"type": "node", "id": 5302698132, "lat": 46.87994, "lon": 20.4707721}, {"type": "node", "id": 5302698133, "lat": 46.8800078, "lon": 20.4708128}, {"type": "node", "id": 5302698136, "lat": 46.8800291, "lon": 20.4708257}, {"type": "node", "id": 5302698137, "lat": 46.8799983, "lon": 20.4709338}, {"type": "node", "id": 5302698138, "lat": 46.879864, "lon": 20.4708518}, {"type": "node", "id": 5302698139, "lat": 46.8798946, "lon": 20.4707444}, {"type": "node", "id": 6113428391, "lat": 46.8539197, "lon": 20.5738929}, {"type": "node", "id": 6113428392, "lat": 46.8538972, "lon": 20.5739747}, {"type": "node", "id": 6113428393, "lat": 46.8539888, "lon": 20.5740286}, {"type": "node", "id": 6113428394, "lat": 46.854011, "lon": 20.5739478}, {"type": "node", "id": 6952088897, "lat": 46.661851, "lon": 20.671505, "tags": {"addr:city": "Nagysz\u00e9n\u00e1s", "addr:postcode": "5931", "addr:street": "Orosh\u00e1zi \u00fat", "air_conditioning": "yes", "amenity": "fuel", "brand": "MOL", "brand:wikidata": "Q549181", "brand:wikipedia": "hu:MOL Magyar Olaj- \u00e9s G\u00e1zipari Nyrt.", "contact:facebook": "https://www.facebook.com/mol.magyarorszag/", "contact:instagram": "https://www.instagram.com/mol.magyarorszag/", "contact:website": "https://www.mol.hu", "contact:youtube": "https://www.youtube.com/user/molgrouptv", "fixme": "Van it m\u00e9g MOL k\u00fat? Olyan mintha \u00e9szakabbra lenne Nagysz\u00e9n\u00e1s belter\u00fclet\u00e9n. Ha nem MOL ez a k\u00fat, mi lett helyette?", "fuel:diesel": "yes", "fuel:octane_95": "yes", "name": "MOL", "operator": "MOL Nyrt.", "operator:addr": "1117 Budapest, Domb\u00f3v\u00e1ri \u00fat 28.", "payment:cash": "yes", "payment:contactless": "yes", "payment:maestro": "yes", "payment:mastercard": "yes", "payment:mastercard_contactless": "yes", "payment:mastercard_electronic": "yes", "payment:visa": "yes", "payment:visa_electron": "yes", "ref:HU:company": "01-10-041683", "ref:HU:vatin": "10625790-4-44", "source": "website", "source:date": "2019-11-06"}}, {"type": "node", "id": 7273421989, "lat": 46.8549203, "lon": 20.5728}, {"type": "node", "id": 7273421990, "lat": 46.854818, "lon": 20.5727395}, {"type": "node", "id": 7273421991, "lat": 46.8547716, "lon": 20.5729072}, {"type": "node", "id": 7273421992, "lat": 46.8548739, "lon": 20.5729678}, {"type": "node", "id": 7954651055, "lat": 46.66763, "lon": 20.67193, "tags": {"addr:city": "Nagysz\u00e9n\u00e1s", "addr:postcode": "5931", "addr:street": "Orosh\u00e1zi \u00fat", "air_conditioning": "yes", "amenity": "fuel", "brand": "MOL", "brand:wikidata": "Q549181", "brand:wikipedia": "hu:MOL Magyar Olaj- \u00e9s G\u00e1zipari Nyrt.", "compressed_air": "yes", "contact:facebook": "https://www.facebook.com/mol.magyarorszag/", "contact:instagram": "https://www.instagram.com/mol.magyarorszag/", "contact:website": "https://www.mol.hu", "contact:youtube": "https://www.youtube.com/user/molgrouptv", "fixme": "verify import", "food": "no", "fuel:GTL_diesel": "yes", "fuel:adblue": "no", "fuel:diesel": "yes", "fuel:lpg": "no", "fuel:octane_100": "yes", "fuel:octane_95": "yes", "name": "MOL", "operator": "MOL Nyrt.", "operator:addr": "1117 Budapest, Domb\u00f3v\u00e1ri \u00fat 28.", "payment:cash": "yes", "payment:contactless": "yes", "payment:maestro": "yes", "payment:mastercard": "yes", "payment:mastercard_contactless": "yes", "payment:mastercard_electronic": "yes", "payment:visa": "yes", "payment:visa_electron": "yes", "ref:HU:company": "01-10-041683", "ref:HU:vatin": "10625790-4-44", "rent:lpg_bottles": "yes", "source": "website", "source:date": "2022-05-21", "truck": "no"}}, {"type": "node", "id": 9894064105, "lat": 46.6572684, "lon": 20.5902831}, {"type": "node", "id": 9894064106, "lat": 46.6572171, "lon": 20.5902811}, {"type": "node", "id": 9894064107, "lat": 46.6572171, "lon": 20.5903558}, {"type": "node", "id": 9894064108, "lat": 46.6572684, "lon": 20.5903545}, {"type": "way", "id": 362977750, "nodes": [3671981185, 3671981186, 3671981187, 3671981188, 3671981189, 3671981190, 3671981185], "tags": {"amenity": "fuel", "building": "yes", "description": "MOL \u00fczemanyag", "name": "Kondor-Trans", "operator": "Kondor-Benz Kft."}}, {"type": "way", "id": 364549090, "nodes": [3685862132, 3685862133, 3685862134, 3685862135, 3685862132], "tags": {"amenity": "fuel", "building": "retail"}}, {"type": "way", "id": 548871416, "nodes": [5302233496, 5302233497, 5302233498, 5302233499, 5302233496], "tags": {"amenity": "fuel", "building": "yes"}}, {"type": "way", "id": 548923112, "nodes": [5302698133, 5302698136, 5302698137, 5302698138, 5302698139, 5302698132, 5302698133], "tags": {"addr:city": "B\u00e9k\u00e9sszentandr\u00e1s", "addr:postcode": "5561", "amenity": "fuel", "building": "retail", "name": "Orlen", "source": "turistautak.hu", "source:date": "2012-08-01", "url": "http://turistautak.hu/poi.php?id=55207", "website": "https://orlen.hu/"}}, {"type": "way", "id": 778989251, "nodes": [6113428391, 6113428392, 6113428393, 6113428394, 6113428391], "tags": {"addr:city": "Szarvas", "addr:housenumber": "9", "addr:postcode": "5540", "addr:street": "Csabai \u00fat", "amenity": "fuel", "brand": "Shell", "brand:wikidata": "Q110716465", "brand:wikipedia": "en:Royal Dutch Shell", "building": "retail", "name": "Shell", "operator": "Shell Hungary Zrt."}}, {"type": "way", "id": 778989254, "nodes": [7273421989, 7273421990, 7273421991, 7273421992, 7273421989], "tags": {"addr:city": "Szarvas", "addr:housenumber": "9", "addr:postcode": "5540", "addr:street": "Csabai \u00fat", "air_conditioning": "yes", "amenity": "fuel", "brand": "MOL", "brand:wikidata": "Q549181", "brand:wikipedia": "hu:MOL Magyar Olaj- \u00e9s G\u00e1zipari Nyrt.", "building": "retail", "compressed_air": "yes", "contact:facebook": "https://www.facebook.com/mol.magyarorszag/", "contact:instagram": "https://www.instagram.com/mol.magyarorszag/", "contact:website": "https://www.mol.hu", "contact:youtube": "https://www.youtube.com/user/molgrouptv", "food": "no", "fuel:GTL_diesel": "yes", "fuel:adblue": "no", "fuel:diesel": "yes", "fuel:lpg": "yes", "fuel:octane_100": "yes", "fuel:octane_95": "yes", "name": "MOL", "operator": "MOL Nyrt.", "operator:addr": "1117 Budapest, Domb\u00f3v\u00e1ri \u00fat 28.", "payment:cash": "yes", "payment:contactless": "yes", "payment:maestro": "yes", "payment:mastercard": "yes", "payment:mastercard_contactless": "yes", "payment:mastercard_electronic": "yes", "payment:visa": "yes", "payment:visa_electron": "yes", "ref:HU:company": "01-10-041683", "ref:HU:vatin": "10625790-4-44", "rent:lpg_bottles": "yes", "source": "website", "source:date": "2022-05-21", "truck": "no"}}, {"type": "way", "id": 1079320701, "nodes": [9894064105, 9894064106, 9894064107, 9894064108, 9894064105], "tags": {"amenity": "fuel", "building": "retail"}}]}