{"version": 0.6, "generator": "Overpass API 0.7.59 e21c39fe", "osm3s": {"timestamp_osm_base": "2023-01-20T17:57:01Z", "copyright": "The data included in this document is from www.openstreetmap.org. The data is made available under ODbL."}, "elements": [{"type": "node", "id": 1971733421, "lat": 47.5056077, "lon": 21.6518085}, {"type": "node", "id": 1971733425, "lat": 47.5054996, "lon": 21.6516891}, {"type": "node", "id": 1971733430, "lat": 47.5054074, "lon": 21.6518719}, {"type": "node", "id": 1971733434, "lat": 47.5055154, "lon": 21.6519913}, {"type": "node", "id": 3052318813, "lat": 47.7125071, "lon": 21.6768694}, {"type": "node", "id": 3052318814, "lat": 47.7123642, "lon": 21.6768703}, {"type": "node", "id": 3052318815, "lat": 47.7123624, "lon": 21.6766996}, {"type": "node", "id": 3052318816, "lat": 47.7125053, "lon": 21.6767013}, {"type": "node", "id": 3354856144, "lat": 47.600777, "lon": 21.754088, "tags": {"addr:city": "Hajd\u00fas\u00e1mson", "addr:housenumber": "7", "addr:postcode": "4251", "addr:street": "Szabads\u00e1g t\u00e9r", "amenity": "library", "name": "Pet\u0151fi S\u00e1ndor V\u00e1rosi K\u00f6nyvt\u00e1r", "source": "turistautak.hu", "url": "http://turistautak.hu/poi.php?id=80958"}}, {"type": "node", "id": 3833367460, "lat": 47.6013355, "lon": 21.970473}, {"type": "node", "id": 3833367461, "lat": 47.6012084, "lon": 21.9705312}, {"type": "node", "id": 3833367462, "lat": 47.6012906, "lon": 21.9709265}, {"type": "node", "id": 3833367463, "lat": 47.6014177, "lon": 21.9708683}, {"type": "node", "id": 4053742830, "lat": 47.5320604, "lon": 21.6433515, "tags": {"addr:city": "Debrecen", "addr:housenumber": "13", "addr:postcode": "4029", "addr:street": "V\u00edztorony utca", "amenity": "library", "internet_access": "yes", "name": "Pet\u0151fi Eml\u00e9kk\u00f6nyvt\u00e1r", "operator": "M\u00e9liusz K\u00f6nyvt\u00e1r"}}, {"type": "node", "id": 4476563340, "lat": 47.7718016, "lon": 21.8620394}, {"type": "node", "id": 4476563341, "lat": 47.771714, "lon": 21.862034}, {"type": "node", "id": 4476563342, "lat": 47.7717047, "lon": 21.862366}, {"type": "node", "id": 4476563343, "lat": 47.7719149, "lon": 21.8623789}, {"type": "node", "id": 4476563344, "lat": 47.7719177, "lon": 21.8622798}, {"type": "node", "id": 4476563345, "lat": 47.7717951, "lon": 21.8622722}, {"type": "node", "id": 4939126988, "lat": 47.6452454, "lon": 21.6634587, "tags": {"addr:city": "Bocskaikert", "addr:housenumber": "20", "addr:postcode": "4241", "addr:street": "Vincell\u00e9r \u00fat", "amenity": "library", "opening_hours": "Tu-We 14:00-18:00, Th 08:00-12:00, Fr 14:00-18:00, Sa 08:00-12:00"}}, {"type": "node", "id": 9209838856, "lat": 47.3974631, "lon": 21.7732652}, {"type": "node", "id": 9209838857, "lat": 47.3974629, "lon": 21.7733828}, {"type": "node", "id": 9209838858, "lat": 47.3976126, "lon": 21.7733832}, {"type": "node", "id": 9209838859, "lat": 47.3976121, "lon": 21.7737475}, {"type": "node", "id": 9209838860, "lat": 47.3977064, "lon": 21.7737477}, {"type": "node", "id": 9209838861, "lat": 47.3977069, "lon": 21.7732658}, {"type": "node", "id": 9209838863, "lat": 47.3976768, "lon": 21.7732668}, {"type": "node", "id": 9209838864, "lat": 47.3974913, "lon": 21.7732659}, {"type": "node", "id": 9209838904, "lat": 47.3976125, "lon": 21.7734634, "tags": {"entrance": "yes"}}, {"type": "node", "id": 9213638828, "lat": 47.3929136, "lon": 21.7310545}, {"type": "node", "id": 9213638829, "lat": 47.3929739, "lon": 21.7311805}, {"type": "node", "id": 9213638830, "lat": 47.3927805, "lon": 21.7313823}, {"type": "node", "id": 9213638831, "lat": 47.3927203, "lon": 21.7312563}, {"type": "node", "id": 10078244830, "lat": 47.5201363, "lon": 22.1329364, "tags": {"amenity": "library", "name": "Biblioteca Or\u0103\u0219eneasc\u0103 \u201dM\u00e1t\u00e9 Imre\u201d V\u00e1rosi K\u00f6nyvt\u00e1r"}}, {"type": "node", "id": 10078244907, "lat": 47.5228727, "lon": 22.1296142}, {"type": "node", "id": 10078244908, "lat": 47.522804, "lon": 22.1295281}, {"type": "node", "id": 10078244912, "lat": 47.5227362, "lon": 22.1296451}, {"type": "node", "id": 10078244913, "lat": 47.5228158, "lon": 22.1297313}, {"type": "node", "id": 10078244931, "lat": 47.522853, "lon": 22.1295944}, {"type": "node", "id": 10088633550, "lat": 47.5578083, "lon": 21.8348826, "tags": {"amenity": "library", "name": "M\u00e9liusz Zsuzsi Erdei Vas\u00fat ZSEV K\u00f6nyvt\u00e1rPont", "operator": "ZSUZSI Erdei Vas\u00fat Nonprofit Kft."}}, {"type": "way", "id": 186466402, "nodes": [1971733421, 1971733425, 1971733430, 1971733434, 1971733421], "tags": {"addr:city": "Debrecen", "addr:housenumber": "110", "addr:postcode": "4030", "addr:street": "Monostorp\u00e1lyi \u00fat", "amenity": "library", "building": "yes", "name": "J\u00f3zsef Attila telepi K\u00f6nyvt\u00e1r", "phone": "+36 52 437 415", "source": "http://meliusz.hu/web/guest/elerhetosegek2"}}, {"type": "way", "id": 301127643, "nodes": [3052318813, 3052318814, 3052318815, 3052318816, 3052318813], "tags": {"addr:city": "T\u00e9gl\u00e1s", "addr:housenumber": "66", "addr:postcode": "4243", "addr:street": "Kossuth Lajos utca", "amenity": "library", "building": "yes", "name": "V\u00e1rosi K\u00f6nyvt\u00e1r", "website": "http://www.teglas.hu", "wheelchair": "yes"}}, {"type": "way", "id": 379988119, "nodes": [3833367460, 3833367461, 3833367462, 3833367463, 3833367460], "tags": {"addr:city": "Ny\u00edracs\u00e1d", "addr:housenumber": "4", "addr:postcode": "4262", "addr:street": "Kassai utca", "amenity": "library", "building": "yes", "name": "Ligetalja K\u00f6nyvt\u00e1r", "opening_hours": "Mo-Fr 9:00-12:00, 13:00-16:30"}}, {"type": "way", "id": 450752555, "nodes": [4476563340, 4476563341, 4476563342, 4476563343, 4476563344, 4476563345, 4476563340], "tags": {"amenity": "library", "building": "yes"}}, {"type": "way", "id": 997420561, "nodes": [9209838856, 9209838857, 9209838858, 9209838904, 9209838859, 9209838860, 9209838861, 9209838863, 9209838864, 9209838856], "tags": {"addr:city": "Monostorp\u00e1lyi", "addr:housenumber": "1", "addr:postcode": "4275", "addr:street": "Damjanich utca", "amenity": "library", "building": "yes", "email": "monostorpalyikonyvtar@gmail.com", "name": "Monostorp\u00e1lyi Gondoz\u00e1si K\u00f6zpont \u00e9s K\u00f6zs\u00e9gi K\u00f6nyvt\u00e1r", "phone": "+36 52 393 539"}}, {"type": "way", "id": 997864886, "nodes": [9213638828, 9213638829, 9213638830, 9213638831, 9213638828], "tags": {"addr:city": "Hossz\u00fap\u00e1lyi", "addr:conscriptionnumber": "819", "addr:housenumber": "2", "addr:postcode": "4274", "addr:street": "Debreceni utca", "amenity": "library", "building": "yes", "name": "K\u00f6zs\u00e9gi k\u00f6nyvt\u00e1r", "opening_hours": "Mo-Fr 08:00-16:00; Sa 09:00-13:00", "phone": "+36 52 375 114"}}, {"type": "way", "id": 1101306098, "nodes": [10078244907, 10078244931, 10078244908, 10078244912, 10078244913, 10078244907], "tags": {"addr:city": "Valea lui Mihai", "addr:housenumber": "21", "addr:postcode": "415700", "addr:street": "Strada Ady Endre", "amenity": "library", "building": "yes", "name": "Biblioteca \u0218colar\u0103 (Iskolai K\u00f6nyvt\u00e1r)"}}]}