{"version": 0.6, "generator": "Overpass API 0.7.59 e21c39fe", "osm3s": {"timestamp_osm_base": "2023-01-21T09:46:07Z", "copyright": "The data included in this document is from www.openstreetmap.org. The data is made available under ODbL."}, "elements": [{"type": "node", "id": 34149300, "lat": 48.1232866, "lon": 18.7730216, "tags": {"amenity": "fuel", "brand": "Slovnaft", "import_ref": "sk_fuel_2", "name": "Slovnaft", "operator": "Slovnaft"}}, {"type": "node", "id": 34149525, "lat": 48.0592925, "lon": 18.9608925, "tags": {"amenity": "fuel", "brand": "Slovnaft", "import_ref": "sk_fuel_2", "name": "Slovnaft", "note": "Hontianska II", "operator": "Slovnaft"}}, {"type": "node", "id": 34149535, "lat": 47.7990297, "lon": 18.6960932, "tags": {"amenity": "fuel", "brand": "Slovnaft", "brand:wikidata": "Q1587563", "brand:wikipedia": "en:Slovnaft", "fuel:diesel": "yes", "fuel:lpg": "yes", "fuel:octane_95": "yes", "import_ref": "sk_fuel_2", "name": "Slovnaft", "note": "Komensk\u00e9ho", "operator": "Slovnaft"}}, {"type": "node", "id": 34149582, "lat": 47.7991556, "lon": 18.6822093, "tags": {"amenity": "fuel", "brand": "Slovnaft", "import_ref": "sk_fuel_2", "name": "Slovnaft", "note": "\u017delezni\u010dn\u00fd rad", "operator": "Slovnaft"}}, {"type": "node", "id": 34149779, "lat": 48.0628056, "lon": 18.6625278, "tags": {"amenity": "fuel", "brand": "Slovnaft", "import_ref": "sk_fuel_2", "name": "Slovnaft", "operator": "Slovnaft"}}, {"type": "node", "id": 314391068, "lat": 47.8159418, "lon": 18.8815987, "tags": {"addr:city": "Szob", "addr:housenumber": "45", "addr:postcode": "2628", "addr:street": "D\u00f3zsa Gy\u00f6rgy utca", "amenity": "fuel", "brand": "OIL!", "brand:wikidata": "Q2007561", "name": "OIL!"}}, {"type": "node", "id": 464764001, "lat": 47.7919636, "lon": 19.1163574, "tags": {"addr:city": "V\u00e1c", "addr:postcode": "2600", "addr:street": "Balassagyarmati \u00fat", "air_conditioning": "yes", "amenity": "fuel", "brand": "MOL", "brand:wikidata": "Q549181", "brand:wikipedia": "hu:MOL Magyar Olaj- \u00e9s G\u00e1zipari Nyrt.", "compressed_air": "yes", "contact:facebook": "https://www.facebook.com/mol.magyarorszag/", "contact:instagram": "https://www.instagram.com/mol.magyarorszag/", "contact:website": "https://www.mol.hu", "contact:youtube": "https://www.youtube.com/user/molgrouptv", "food": "yes", "fuel:GTL_diesel": "yes", "fuel:adblue": "no", "fuel:diesel": "yes", "fuel:lpg": "no", "fuel:octane_100": "yes", "fuel:octane_95": "yes", "name": "MOL", "opening_hours": "Mo-Su 06:00-22:00", "operator": "MOL Nyrt.", "operator:addr": "1117 Budapest, Domb\u00f3v\u00e1ri \u00fat 28.", "payment:cash": "yes", "payment:contactless": "yes", "payment:maestro": "yes", "payment:mastercard": "yes", "payment:mastercard_contactless": "yes", "payment:mastercard_electronic": "yes", "payment:visa": "yes", "payment:visa_electron": "yes", "ref:HU:company": "01-10-041683", "ref:HU:vatin": "10625790-4-44", "rent:lpg_bottles": "yes", "source": "website", "source:date": "2022-05-21", "truck": "no", "wheelchair": "yes"}}, {"type": "node", "id": 470332168, "lat": 47.794556, "lon": 19.1139497, "tags": {"amenity": "fuel", "operator": "Castrol"}}, {"type": "node", "id": 582676198, "lat": 47.7913235, "lon": 18.9716308, "tags": {"addr:city": "Visegr\u00e1d", "addr:postcode": "2025", "addr:street": "Duna-parti \u00fat", "air_conditioning": "yes", "amenity": "fuel", "brand": "MOL", "brand:wikidata": "Q549181", "brand:wikipedia": "hu:MOL Magyar Olaj- \u00e9s G\u00e1zipari Nyrt.", "compressed_air": "yes", "contact:facebook": "https://www.facebook.com/mol.magyarorszag/", "contact:instagram": "https://www.instagram.com/mol.magyarorszag/", "contact:website": "https://www.mol.hu", "contact:youtube": "https://www.youtube.com/user/molgrouptv", "food": "no", "fuel:GTL_diesel": "yes", "fuel:adblue": "no", "fuel:diesel": "yes", "fuel:lpg": "no", "fuel:octane_100": "yes", "fuel:octane_95": "yes", "name": "MOL", "operator": "MOL Nyrt.", "operator:addr": "1117 Budapest, Domb\u00f3v\u00e1ri \u00fat 28.", "payment:cash": "yes", "payment:contactless": "yes", "payment:maestro": "yes", "payment:mastercard": "yes", "payment:mastercard_contactless": "yes", "payment:mastercard_electronic": "yes", "payment:visa": "yes", "payment:visa_electron": "yes", "ref:HU:company": "01-10-041683", "ref:HU:vatin": "10625790-4-44", "rent:lpg_bottles": "no", "source": "website", "source:date": "2022-05-21", "truck": "no"}}, {"type": "node", "id": 582676364, "lat": 47.786971, "lon": 19.0435453, "tags": {"addr:city": "Dunabogd\u00e1ny", "addr:conscriptionnumber": "0160/1", "addr:postcode": "2023", "addr:street": "11. sz\u00e1m\u00fa f\u0151\u00fat", "air_conditioning": "yes", "amenity": "fuel", "brand": "OMV", "brand:wikidata": "Q168238", "brand:wikipedia": "en:OMV", "compressed_air": "yes", "contact:email": "info.hungary@omv.com", "contact:facebook": "https://www.facebook.com/omvmagyarorszag", "contact:fax": "+36 1 381 9899", "contact:instagram": "https://www.instagram.com/omv/", "contact:linkedin": "https://www.linkedin.com/company/omv", "contact:twitter": "omv", "contact:website": "https://www.omv.hu", "contact:youtube": "https://www.youtube.com/user/omvofficial", "fuel:GTL_diesel": "yes", "fuel:diesel": "yes", "fuel:octane_100": "yes", "fuel:octane_95": "yes", "name": "OMV", "opening_hours": "Mo-Su 06:00-22:00; PH off", "operator": "OMV Hung\u00e1ria Kft.", "operator:addr": "1117 Budapest, Okt\u00f3ber huszonharmadika utca 6-10 5. emelet 5/A.", "payment:cash": "yes", "payment:contactless": "yes", "payment:maestro": "yes", "payment:mastercard": "yes", "payment:mastercard_contactless": "yes", "payment:mastercard_electronic": "yes", "payment:visa": "yes", "payment:visa_electron": "yes", "ref:HU:company": "01-09-071584", "ref:HU:vatin": "10542925-2-44", "ref:vatin": "HU10542925", "source": "website", "source:date": "2020-10-03"}}, {"type": "node", "id": 583497109, "lat": 47.9778859, "lon": 18.5348725, "tags": {"addr:city": "Kura\u013eany", "addr:country": "SK", "addr:postcode": "935 64", "amenity": "fuel", "brand": "Jurki", "fixme": "resurvey, entered from memory", "fuel:octane_100": "yes", "fuel:octane_95": "yes", "name": "\u010cS JURKI Kura\u013eany", "opening_hours": "Mo-Fr 07:00-19:00", "operator": "Jurki", "phone": "+421 36 7721660"}}, {"type": "node", "id": 729844128, "lat": 48.0985116, "lon": 18.5483671}, {"type": "node", "id": 729845644, "lat": 48.0984512, "lon": 18.5483167}, {"type": "node", "id": 729848816, "lat": 48.0985074, "lon": 18.5481665}, {"type": "node", "id": 729850156, "lat": 48.0985793, "lon": 18.5481863}, {"type": "node", "id": 749864426, "lat": 48.0410201, "lon": 18.6554433, "tags": {"amenity": "fuel", "operator": "TAM"}}, {"type": "node", "id": 1133792913, "lat": 48.0599189, "lon": 18.9613288, "tags": {"amenity": "fuel", "disused": "yes"}}, {"type": "node", "id": 1133827907, "lat": 48.0822363, "lon": 18.9447804, "tags": {"amenity": "fuel", "brand": "Benzinol", "name": "Benzinol", "operator": "Benzinol"}}, {"type": "node", "id": 1291533003, "lat": 48.1113965, "lon": 18.8817797, "tags": {"amenity": "fuel", "operator": "Dalioil"}}, {"type": "node", "id": 1457974028, "lat": 47.7888476, "lon": 18.7108748}, {"type": "node", "id": 1457974029, "lat": 47.7888503, "lon": 18.7108589}, {"type": "node", "id": 1457974034, "lat": 47.7888567, "lon": 18.7110091}, {"type": "node", "id": 1457974041, "lat": 47.7888585, "lon": 18.7110182}, {"type": "node", "id": 1457974043, "lat": 47.7888597, "lon": 18.711001}, {"type": "node", "id": 1457974044, "lat": 47.7888602, "lon": 18.7108535}, {"type": "node", "id": 1457974048, "lat": 47.788884, "lon": 18.7110632}, {"type": "node", "id": 1457974052, "lat": 47.7888905, "lon": 18.7109617}, {"type": "node", "id": 1457974054, "lat": 47.7888918, "lon": 18.7110605}, {"type": "node", "id": 1457974072, "lat": 47.7889677, "lon": 18.7107345}, {"type": "node", "id": 1457974079, "lat": 47.788975, "lon": 18.7107238}, {"type": "node", "id": 1457974085, "lat": 47.7889865, "lon": 18.7107266}, {"type": "node", "id": 1457974102, "lat": 47.7890594, "lon": 18.7108731}, {"type": "node", "id": 2169633880, "lat": 47.8880165, "lon": 18.6412644, "tags": {"amenity": "fuel"}}, {"type": "node", "id": 2429396052, "lat": 47.8007223, "lon": 18.9651229, "tags": {"addr:city": "Nagymaros", "addr:conscriptionnumber": "13301/2", "addr:housenumber": "119", "addr:postcode": "2626", "addr:street": "V\u00e1ci \u00fat", "air_conditioning": "yes", "amenity": "fuel", "brand": "MOL", "brand:wikidata": "Q549181", "brand:wikipedia": "hu:MOL Magyar Olaj- \u00e9s G\u00e1zipari Nyrt.", "compressed_air": "yes", "contact:facebook": "https://www.facebook.com/mol.magyarorszag/", "contact:instagram": "https://www.instagram.com/mol.magyarorszag/", "contact:mobile": "+36 20 238 2371", "contact:phone": "+36 27 354 035", "contact:website": "https://www.mol.hu", "contact:youtube": "https://www.youtube.com/user/molgrouptv", "food": "no", "fuel:GTL_diesel": "yes", "fuel:adblue": "no", "fuel:diesel": "yes", "fuel:lpg": "no", "fuel:octane_100": "yes", "fuel:octane_95": "yes", "name": "MOL", "opening_hours": "Mo-Su 06:00-21:00", "operator": "MOL Nyrt.", "operator:addr": "1117 Budapest, Domb\u00f3v\u00e1ri \u00fat 28.", "payment:cash": "yes", "payment:contactless": "yes", "payment:maestro": "yes", "payment:mastercard": "yes", "payment:mastercard_contactless": "yes", "payment:mastercard_electronic": "yes", "payment:visa": "yes", "payment:visa_electron": "yes", "ref:HU:company": "01-10-041683", "ref:HU:vatin": "10625790-4-44", "rent:lpg_bottles": "yes", "shop": "convenience", "source": "survey", "source:date": "2022-05-21", "toilets": "yes", "truck": "no", "wheelchair": "yes"}}, {"type": "node", "id": 2882891991, "lat": 47.7562923, "lon": 18.5327885}, {"type": "node", "id": 2882891992, "lat": 47.756302, "lon": 18.5330523}, {"type": "node", "id": 2882891993, "lat": 47.7562358, "lon": 18.5328248}, {"type": "node", "id": 2882892704, "lat": 47.7563585, "lon": 18.533016}, {"type": "node", "id": 2906482601, "lat": 47.9322127, "lon": 19.1380508}, {"type": "node", "id": 2906482604, "lat": 47.9321542, "lon": 19.1382393}, {"type": "node", "id": 3059613913, "lat": 47.7812261, "lon": 19.1440936}, {"type": "node", "id": 3059613914, "lat": 47.7812033, "lon": 19.1441331}, {"type": "node", "id": 3059613915, "lat": 47.7811431, "lon": 19.1440561}, {"type": "node", "id": 3059613916, "lat": 47.7811659, "lon": 19.1440165}, {"type": "node", "id": 3439052091, "lat": 47.9718554, "lon": 18.7825262, "tags": {"amenity": "fuel", "brand": "Mol", "opening_hours": "Mo-Su 06:00-20:00", "source": "survey", "survey:date": "2021-09-05", "url": "http://turistautak.hu/poi.php?id=77331"}}, {"type": "node", "id": 3729702313, "lat": 48.1099169, "lon": 19.1185695, "tags": {"amenity": "fuel", "operator": "DG Petrol"}}, {"type": "node", "id": 3931809878, "lat": 48.0829587, "lon": 18.9324278, "tags": {"amenity": "fuel", "name": "TAM", "operator": "TAM"}}, {"type": "node", "id": 3979914767, "lat": 47.8042022, "lon": 18.7520457}, {"type": "node", "id": 3979914768, "lat": 47.8040258, "lon": 18.7521198}, {"type": "node", "id": 3979914769, "lat": 47.804016, "lon": 18.7520685}, {"type": "node", "id": 3979914770, "lat": 47.8038873, "lon": 18.7521226}, {"type": "node", "id": 3979914771, "lat": 47.803935, "lon": 18.7523742}, {"type": "node", "id": 3979914772, "lat": 47.8042402, "lon": 18.752246}, {"type": "node", "id": 4583459426, "lat": 47.7724637, "lon": 18.737113}, {"type": "node", "id": 4583459427, "lat": 47.7724567, "lon": 18.7372126}, {"type": "node", "id": 4583459428, "lat": 47.7723033, "lon": 18.7371888}, {"type": "node", "id": 4583459429, "lat": 47.7723103, "lon": 18.7370892}, {"type": "node", "id": 5074113747, "lat": 47.8041865, "lon": 18.7522686}, {"type": "node", "id": 5074113751, "lat": 47.8040682, "lon": 18.752102}, {"type": "node", "id": 5165557775, "lat": 48.1114248, "lon": 18.6247786, "tags": {"amenity": "fuel", "fuel:diesel": "yes", "fuel:octane_95": "yes", "name": "TaM Autohof \u0160arovce", "website": "http://www.tamtrans.sk/"}}, {"type": "node", "id": 5165600395, "lat": 48.0074027, "lon": 18.5140952, "tags": {"amenity": "fuel", "fuel:diesel": "yes", "fuel:octane_95": "yes", "name": "Gulf", "opening_hours": "Mo-Sa 06:00-21:00; Su 07:00-20:00"}}, {"type": "node", "id": 5282893862, "lat": 47.9195826, "lon": 19.1218739}, {"type": "node", "id": 5282893863, "lat": 47.9194491, "lon": 19.1222056}, {"type": "node", "id": 5282893864, "lat": 47.9195929, "lon": 19.1223345}, {"type": "node", "id": 5282893865, "lat": 47.9196649, "lon": 19.1221556}, {"type": "node", "id": 5282893866, "lat": 47.9196094, "lon": 19.1221059}, {"type": "node", "id": 5282893867, "lat": 47.9196709, "lon": 19.121953}, {"type": "node", "id": 5391163899, "lat": 47.7803015, "lon": 18.7496388}, {"type": "node", "id": 5391163900, "lat": 47.7802586, "lon": 18.749504}, {"type": "node", "id": 5391163901, "lat": 47.7801989, "lon": 18.7495453}, {"type": "node", "id": 5391163902, "lat": 47.7802416, "lon": 18.7496812}, {"type": "node", "id": 5699471478, "lat": 47.8944332, "lon": 18.754897, "tags": {"amenity": "fuel"}}, {"type": "node", "id": 5705970320, "lat": 47.8454252, "lon": 18.5252478}, {"type": "node", "id": 5705971421, "lat": 47.8456342, "lon": 18.525375}, {"type": "node", "id": 5705971422, "lat": 47.8455987, "lon": 18.5255046}, {"type": "node", "id": 5705971423, "lat": 47.84539, "lon": 18.5253768}, {"type": "node", "id": 5705971424, "lat": 47.8455044, "lon": 18.5254465}, {"type": "node", "id": 5705971431, "lat": 47.8455799, "lon": 18.5254931}, {"type": "node", "id": 5705971438, "lat": 47.8453941, "lon": 18.525363}, {"type": "node", "id": 5705971439, "lat": 47.8454102, "lon": 18.5253012}, {"type": "node", "id": 5705971441, "lat": 47.8454919, "lon": 18.5252884}, {"type": "node", "id": 5999038814, "lat": 47.7802686, "lon": 18.7495356, "tags": {"entrance": "yes"}}, {"type": "node", "id": 6203761849, "lat": 47.8041482, "lon": 18.7520684}, {"type": "node", "id": 6203761850, "lat": 47.8041076, "lon": 18.7523017}, {"type": "node", "id": 6952088914, "lat": 47.770008, "lon": 19.139047, "tags": {"addr:city": "V\u00e1c", "addr:housenumber": "11", "addr:postcode": "2600", "addr:street": "F\u00f6ldv\u00e1ry t\u00e9r", "air_conditioning": "yes", "amenity": "fuel", "brand": "MOL", "brand:wikidata": "Q549181", "brand:wikipedia": "hu:MOL Magyar Olaj- \u00e9s G\u00e1zipari Nyrt.", "compressed_air": "yes", "contact:facebook": "https://www.facebook.com/mol.magyarorszag/", "contact:instagram": "https://www.instagram.com/mol.magyarorszag/", "contact:website": "https://www.mol.hu", "contact:youtube": "https://www.youtube.com/user/molgrouptv", "food": "yes", "fuel:GTL_diesel": "yes", "fuel:adblue": "no", "fuel:diesel": "yes", "fuel:lpg": "yes", "fuel:octane_100": "yes", "fuel:octane_95": "yes", "name": "MOL", "operator": "MOL Nyrt.", "operator:addr": "1117 Budapest, Domb\u00f3v\u00e1ri \u00fat 28.", "payment:cash": "yes", "payment:contactless": "yes", "payment:maestro": "yes", "payment:mastercard": "yes", "payment:mastercard_contactless": "yes", "payment:mastercard_electronic": "yes", "payment:visa": "yes", "payment:visa_electron": "yes", "ref:HU:company": "01-10-041683", "ref:HU:vatin": "10625790-4-44", "rent:lpg_bottles": "yes", "source": "website", "source:date": "2022-05-21", "truck": "no"}}, {"type": "node", "id": 7880458266, "lat": 47.7699151, "lon": 18.9018977}, {"type": "node", "id": 7880458267, "lat": 47.7698716, "lon": 18.9019311}, {"type": "node", "id": 7880458268, "lat": 47.769885, "lon": 18.9019697}, {"type": "node", "id": 7880458269, "lat": 47.7699285, "lon": 18.9019363}, {"type": "node", "id": 8980228684, "lat": 47.9324223, "lon": 19.1382175}, {"type": "node", "id": 8980228685, "lat": 47.9323782, "lon": 19.1383682}, {"type": "node", "id": 9376089659, "lat": 47.9322858, "lon": 19.1383302}, {"type": "node", "id": 9376089660, "lat": 47.9322904, "lon": 19.1383155}, {"type": "node", "id": 9376089661, "lat": 47.9323495, "lon": 19.1381453}, {"type": "node", "id": 9376089662, "lat": 47.9323436, "lon": 19.1381643}, {"type": "node", "id": 9954468764, "lat": 47.8454725, "lon": 18.5254271}, {"type": "node", "id": 9954468765, "lat": 47.8455101, "lon": 18.5252995}, {"type": "node", "id": 10197158651, "lat": 48.0985188, "lon": 18.548136}, {"type": "node", "id": 10245153704, "lat": 47.9186558, "lon": 19.1181725}, {"type": "node", "id": 10245153705, "lat": 47.9186045, "lon": 19.1182595}, {"type": "node", "id": 10245153706, "lat": 47.9185832, "lon": 19.1182315}, {"type": "node", "id": 10245153707, "lat": 47.9184761, "lon": 19.1184129}, {"type": "node", "id": 10245153708, "lat": 47.9184288, "lon": 19.1183506}, {"type": "node", "id": 10245235409, "lat": 47.9184675, "lon": 19.1182851}, {"type": "node", "id": 10245235410, "lat": 47.9184112, "lon": 19.1182111}, {"type": "node", "id": 10245235411, "lat": 47.9185309, "lon": 19.1180083}, {"type": "way", "id": 58905804, "nodes": [729848816, 10197158651, 729850156, 729844128, 729845644, 729848816], "tags": {"amenity": "fuel", "building": "yes", "height": "5.1", "source": "\u00daGKK SR Inspire"}}, {"type": "way", "id": 132554483, "nodes": [1457974079, 1457974085, 1457974102, 1457974054, 1457974048, 1457974041, 1457974034, 1457974043, 1457974052, 1457974028, 1457974029, 1457974044, 1457974072, 1457974079], "tags": {"amenity": "fuel", "brand": "Real-K", "building": "roof", "fuel:diesel": "yes", "fuel:lpg": "yes", "fuel:octane_95": "yes", "fuel:octane_98": "yes", "layer": "1", "name": "Real-K", "opening_hours": "Mo-Su 05:00-23:00", "operator": "Real-K", "shop": "yes"}}, {"type": "way", "id": 284565107, "nodes": [2882892704, 2882891991, 2882891993, 2882891992, 2882892704], "tags": {"addr:city": "Nyerges\u00fajfalu", "addr:housenumber": "2", "addr:postcode": "2536", "addr:street": "B\u00e9csi \u00fat", "amenity": "fuel", "building": "retail", "fuel:diesel": "yes", "fuel:octane_95": "yes", "name": "Orlen", "operator": "Normbenz Magyarorsz\u00e1g Kft.", "payment:american_express": "yes", "payment:cash": "yes", "payment:maestro": "yes", "payment:mastercard": "yes", "payment:visa": "yes", "website": "https://orlen.hu/"}}, {"type": "way", "id": 286982180, "nodes": [8980228684, 9376089662, 9376089661, 2906482601, 2906482604, 9376089659, 9376089660, 8980228685, 8980228684], "tags": {"addr:city": "R\u00e9ts\u00e1g", "addr:postcode": "2651", "addr:street": "R\u00e1k\u00f3czi \u00fat", "air_conditioning": "yes", "amenity": "fuel", "brand": "MOL", "brand:wikidata": "Q549181", "brand:wikipedia": "hu:MOL Magyar Olaj- \u00e9s G\u00e1zipari Nyrt.", "building": "yes", "compressed_air": "yes", "contact:facebook": "https://www.facebook.com/mol.magyarorszag/", "contact:instagram": "https://www.instagram.com/mol.magyarorszag/", "contact:website": "https://www.mol.hu", "contact:youtube": "https://www.youtube.com/user/molgrouptv", "food": "yes", "fuel:GTL_diesel": "yes", "fuel:adblue": "no", "fuel:diesel": "yes", "fuel:lpg": "yes", "fuel:octane_100": "yes", "fuel:octane_95": "yes", "name": "MOL", "operator": "MOL Nyrt.", "operator:addr": "1117 Budapest, Domb\u00f3v\u00e1ri \u00fat 28.", "payment:cash": "yes", "payment:contactless": "yes", "payment:maestro": "yes", "payment:mastercard": "yes", "payment:mastercard_contactless": "yes", "payment:mastercard_electronic": "yes", "payment:visa": "yes", "payment:visa_electron": "yes", "ref:HU:company": "01-10-041683", "ref:HU:vatin": "10625790-4-44", "rent:lpg_bottles": "yes", "source": "website", "source:date": "2022-05-21", "truck": "no"}}, {"type": "way", "id": 301811573, "nodes": [3059613913, 3059613914, 3059613915, 3059613916, 3059613913], "tags": {"amenity": "fuel", "brand": "M-Plus", "building": "roof", "fuel:diesel": "yes", "fuel:octane_95": "yes", "name": "M-Plus", "opening_hours": "Mo-Su 06:00-20:00"}}, {"type": "way", "id": 395104265, "nodes": [3979914767, 6203761849, 5074113751, 3979914768, 3979914769, 3979914770, 3979914771, 6203761850, 5074113747, 3979914772, 3979914767], "tags": {"addr:city": "Esztergom", "addr:housenumber": "1", "addr:postcode": "2500", "addr:street": "Visegr\u00e1di \u00fat", "air_conditioning": "yes", "amenity": "fuel", "brand": "MOL", "brand:wikidata": "Q549181", "brand:wikipedia": "hu:MOL Magyar Olaj- \u00e9s G\u00e1zipari Nyrt.", "building": "retail", "compressed_air": "yes", "contact:facebook": "https://www.facebook.com/mol.magyarorszag/", "contact:instagram": "https://www.instagram.com/mol.magyarorszag/", "contact:website": "https://www.mol.hu", "contact:youtube": "https://www.youtube.com/user/molgrouptv", "food": "yes", "fuel:GTL_diesel": "yes", "fuel:adblue": "no", "fuel:diesel": "yes", "fuel:lpg": "yes", "fuel:octane_100": "yes", "fuel:octane_95": "yes", "name": "MOL", "operator": "MOL Nyrt.", "operator:addr": "1117 Budapest, Domb\u00f3v\u00e1ri \u00fat 28.", "payment:cash": "yes", "payment:contactless": "yes", "payment:maestro": "yes", "payment:mastercard": "yes", "payment:mastercard_contactless": "yes", "payment:mastercard_electronic": "yes", "payment:visa": "yes", "payment:visa_electron": "yes", "ref:HU:company": "01-10-041683", "ref:HU:vatin": "10625790-4-44", "rent:lpg_bottles": "yes", "source": "website", "source:date": "2022-05-21", "truck": "no"}}, {"type": "way", "id": 395706264, "nodes": [5391163899, 5999038814, 5391163900, 5391163901, 5391163902, 5391163899], "tags": {"addr:city": "Esztergom", "addr:housenumber": "30", "addr:postcode": "2500", "addr:street": "M\u00e1ty\u00e1s kir\u00e1ly utca", "amenity": "fuel", "brand": "Shell", "brand:wikidata": "Q154950", "brand:wikipedia": "en:Royal Dutch Shell", "building": "retail", "fuel:diesel": "yes", "fuel:octane_95": "yes", "name": "Shell", "operator": "Shell Hungary Zrt."}}, {"type": "way", "id": 463029571, "nodes": [4583459426, 4583459427, 4583459428, 4583459429, 4583459426], "tags": {"addr:city": "Esztergom", "addr:postcode": "2500", "addr:street": "Dorogi \u00fat", "air_conditioning": "yes", "amenity": "fuel", "brand": "MOL", "brand:wikidata": "Q549181", "brand:wikipedia": "hu:MOL Magyar Olaj- \u00e9s G\u00e1zipari Nyrt.", "building": "retail", "compressed_air": "yes", "contact:facebook": "https://www.facebook.com/mol.magyarorszag/", "contact:instagram": "https://www.instagram.com/mol.magyarorszag/", "contact:website": "https://www.mol.hu", "contact:youtube": "https://www.youtube.com/user/molgrouptv", "food": "no", "fuel:GTL_diesel": "yes", "fuel:adblue": "no", "fuel:diesel": "yes", "fuel:lpg": "no", "fuel:octane_100": "yes", "fuel:octane_95": "yes", "name": "MOL", "opening_hours": "Mo-Su 06:00-21:00", "operator": "MOL Nyrt.", "operator:addr": "1117 Budapest, Domb\u00f3v\u00e1ri \u00fat 28.", "payment:cash": "yes", "payment:contactless": "yes", "payment:maestro": "yes", "payment:mastercard": "yes", "payment:mastercard_contactless": "yes", "payment:mastercard_electronic": "yes", "payment:visa": "yes", "payment:visa_electron": "yes", "ref:HU:company": "01-10-041683", "ref:HU:vatin": "10625790-4-44", "rent:lpg_bottles": "yes", "source": "website", "source:date": "2022-05-21", "truck": "no"}}, {"type": "way", "id": 546693627, "nodes": [5282893862, 5282893863, 5282893864, 5282893865, 5282893866, 5282893867, 5282893862], "tags": {"addr:city": "R\u00e9ts\u00e1g", "addr:housenumber": "1", "addr:postcode": "2651", "addr:street": "Pusztasz\u00e1nt\u00f3i \u00fat", "air_conditioning": "yes", "amenity": "fuel", "brand": "OMV", "brand:wikidata": "Q168238", "brand:wikipedia": "en:OMV", "building": "roof", "compressed_air": "yes", "contact:email": "info.hungary@omv.com", "contact:facebook": "https://www.facebook.com/omvmagyarorszag", "contact:fax": "+36 1 381 9899", "contact:instagram": "https://www.instagram.com/omv/", "contact:linkedin": "https://www.linkedin.com/company/omv", "contact:phone": "+36 35 351 982", "contact:twitter": "omv", "contact:website": "https://www.omv.hu", "contact:youtube": "https://www.youtube.com/user/omvofficial", "fuel:GTL_diesel": "yes", "fuel:diesel": "yes", "fuel:octane_100": "yes", "fuel:octane_95": "yes", "fuel:octane_98": "yes", "internet_access": "wlan", "internet_access:fee": "no", "name": "OMV", "opening_hours": "Mo-Su 06:00-22:00; PH off", "operator": "OMV Hung\u00e1ria Kft.", "operator:addr": "1117 Budapest, Okt\u00f3ber huszonharmadika utca 6-10 5. emelet 5/A.", "payment:cash": "yes", "payment:contactless": "yes", "payment:debit_cards": "yes", "payment:dkv": "yes", "payment:maestro": "yes", "payment:mastercard": "yes", "payment:mastercard_contactless": "yes", "payment:mastercard_electronic": "yes", "payment:routex": "yes", "payment:uta": "yes", "payment:visa": "yes", "payment:visa_electron": "yes", "ref:HU:company": "01-09-071584", "ref:HU:vatin": "10542925-2-44", "ref:vatin": "HU10542925", "self_service": "yes", "source": "website", "source:date": "2020-10-03", "wheelchair": "no"}}, {"type": "way", "id": 599911832, "nodes": [5705970320, 5705971441, 9954468765, 5705971421, 5705971422, 5705971431, 5705971424, 9954468764, 5705971423, 5705971438, 5705971439, 5705970320], "tags": {"amenity": "fuel", "building": "roof", "disused:name": "Jonagold-\u010derpacia stanica", "layer": "1", "name": "DALIOIL", "opening_hours": "Mo-Su 05:00-23:00", "website": "https://www.dalioil.sk/"}}, {"type": "way", "id": 844697616, "nodes": [7880458266, 7880458267, 7880458268, 7880458269, 7880458266], "tags": {"amenity": "fuel", "name": "Egykori Benzink\u00fat"}}, {"type": "way", "id": 1120172275, "nodes": [10245153704, 10245153705, 10245153706, 10245153707, 10245153708, 10245235409, 10245235410, 10245235411, 10245153704], "tags": {"amenity": "fuel", "brand": "Conoil", "building": "yes", "fuel:diesel": "yes", "fuel:octane_100": "yes", "fuel:octane_95": "yes", "fuel:octane_98": "yes", "name": "Conoil", "opening_hours": "24/7", "operator": "Concordia-Trans Kf", "payment:cash": "yes", "payment:contactless": "yes", "payment:debit_cards": "yes", "payment:maestro": "yes", "payment:mastercard": "yes", "payment:visa": "yes", "self_service": "yes", "website": "https://conoil.hu/"}}]}