{"version": 0.6, "generator": "Overpass API 0.7.59 e21c39fe", "osm3s": {"timestamp_osm_base": "2023-01-21T09:47:07Z", "copyright": "The data included in this document is from www.openstreetmap.org. The data is made available under ODbL."}, "elements": [{"type": "node", "id": 800198347, "lat": 47.5095782, "lon": 16.5002596, "tags": {"addr:city": "Oberpullendorf", "addr:country": "AT", "addr:housenumber": "6", "addr:postcode": "7350", "addr:street": "Stoob-S\u00fcd", "amenity": "fuel", "brand": "OMV", "brand:wikidata": "Q168238", "brand:wikipedia": "en:OMV", "fuel:cng": "yes", "name": "OMV", "opening_hours": "Mo-Su 05:00-22:00", "operator": "OMV", "phone": "+43 2612 42982"}}, {"type": "node", "id": 871180803, "lat": 47.5084556, "lon": 16.5036359, "tags": {"addr:city": "Oberpullendorf", "addr:housenumber": "26", "addr:postcode": "7350", "addr:street": "Wiener Stra\u00dfe", "amenity": "fuel", "name": "TankeBlaguss", "operator": "Blaguss", "self_service": "yes"}}, {"type": "node", "id": 1396880108, "lat": 47.5976194, "lon": 16.6277976, "tags": {"addr:city": "Deutschkreutz", "addr:country": "AT", "addr:housenumber": "85", "addr:postcode": "7301", "addr:street": "Hauptstra\u00dfe", "amenity": "fuel", "brand": "Socar", "compressed_air": "yes", "fuel:GTL_diesel": "yes", "fuel:adblue": "yes", "fuel:diesel": "yes", "fuel:octane_95": "yes", "fuel:octane_98": "yes", "name": "Socar Tankstelle Dorner", "opening_hours": "Mo-Su 06:00-22:00", "operator": "Dorner GmbH", "phone": "+43 2613 80296", "shop": "yes", "website": "https://www.dorner.info"}}, {"type": "node", "id": 1415546352, "lat": 47.3863852, "lon": 16.5482258, "tags": {"addr:city": "K\u0151szeg", "addr:postcode": "9730", "addr:street": "Pet\u0151fi t\u00e9r", "air_conditioning": "yes", "amenity": "fuel", "brand": "MOL", "brand:wikidata": "Q549181", "brand:wikipedia": "hu:MOL Magyar Olaj- \u00e9s G\u00e1zipari Nyrt.", "compressed_air": "yes", "contact:facebook": "https://www.facebook.com/mol.magyarorszag/", "contact:instagram": "https://www.instagram.com/mol.magyarorszag/", "contact:website": "https://www.mol.hu", "contact:youtube": "https://www.youtube.com/user/molgrouptv", "food": "no", "fuel:GTL_diesel": "yes", "fuel:adblue": "no", "fuel:diesel": "yes", "fuel:lpg": "no", "fuel:octane_100": "yes", "fuel:octane_95": "yes", "name": "MOL", "operator": "MOL Nyrt.", "operator:addr": "1117 Budapest, Domb\u00f3v\u00e1ri \u00fat 28.", "payment:cash": "yes", "payment:contactless": "yes", "payment:maestro": "yes", "payment:mastercard": "yes", "payment:mastercard_contactless": "yes", "payment:mastercard_electronic": "yes", "payment:visa": "yes", "payment:visa_electron": "yes", "ref:HU:company": "01-10-041683", "ref:HU:vatin": "10625790-4-44", "rent:lpg_bottles": "yes", "source": "website", "source:date": "2022-05-21", "truck": "no", "wheelchair": "yes"}}, {"type": "node", "id": 1507187044, "lat": 47.6711922, "lon": 16.6125133}, {"type": "node", "id": 1507187049, "lat": 47.6712366, "lon": 16.6123361}, {"type": "node", "id": 1507187050, "lat": 47.6712786, "lon": 16.612563}, {"type": "node", "id": 1507187053, "lat": 47.6713265, "lon": 16.6123863}, {"type": "node", "id": 1507202833, "lat": 47.6730444, "lon": 16.6063491}, {"type": "node", "id": 1507202834, "lat": 47.6730978, "lon": 16.6061017}, {"type": "node", "id": 1507202841, "lat": 47.6731757, "lon": 16.6064117}, {"type": "node", "id": 1507202843, "lat": 47.6732292, "lon": 16.6061643}, {"type": "node", "id": 1603677302, "lat": 47.4947226, "lon": 16.5106928, "tags": {"addr:city": "Oberpullendorf", "addr:country": "AT", "addr:housenumber": "1", "addr:postcode": "7350", "addr:street": "G\u00fcnserstra\u00dfe", "amenity": "fuel", "contact:phone": "+43 2612 42340", "name": "Reiner", "opening_hours": "Mo-Fr 07:00-19:00; Sa 07:00-18:00"}}, {"type": "node", "id": 1603677305, "lat": 47.4988906, "lon": 16.5123236, "tags": {"amenity": "fuel", "name": "Genol"}}, {"type": "node", "id": 1878369549, "lat": 47.3027827, "lon": 16.4422177, "tags": {"amenity": "fuel", "brand": "OMV", "fuel:diesel": "yes", "fuel:octane_95": "yes", "name": "Simon Karl"}}, {"type": "node", "id": 2074453876, "lat": 47.6850687, "lon": 16.5727926, "tags": {"addr:city": "Sopron", "addr:housenumber": "4/d", "addr:postcode": "9400", "addr:street": "B\u00e1nfalvi \u00fat", "amenity": "fuel", "brand": "Full Energy", "name": "Full Energy", "opening_hours": "24/7", "operator": "Full-Sopron"}}, {"type": "node", "id": 2293577680, "lat": 47.5906826, "lon": 16.5794482, "tags": {"amenity": "fuel", "name": "Diskont P\u00f6ltl"}}, {"type": "node", "id": 2385496834, "lat": 47.591345, "lon": 16.5395088, "tags": {"amenity": "fuel", "name": "Genol"}}, {"type": "node", "id": 2620801831, "lat": 47.5829621, "lon": 16.4609754, "tags": {"amenity": "fuel", "name": "Tanktreff"}}, {"type": "node", "id": 2794876999, "lat": 47.5384451, "lon": 16.4325188}, {"type": "node", "id": 2794877000, "lat": 47.5384879, "lon": 16.4324466}, {"type": "node", "id": 2794877002, "lat": 47.5385396, "lon": 16.4326417}, {"type": "node", "id": 2794877003, "lat": 47.5385824, "lon": 16.4325695}, {"type": "node", "id": 3078738540, "lat": 47.6794834, "lon": 16.5946853}, {"type": "node", "id": 3078738541, "lat": 47.6795054, "lon": 16.5947659}, {"type": "node", "id": 3078738543, "lat": 47.679546, "lon": 16.5947415}, {"type": "node", "id": 3078738544, "lat": 47.6795538, "lon": 16.59477}, {"type": "node", "id": 3078738549, "lat": 47.6796197, "lon": 16.5946956}, {"type": "node", "id": 3078738550, "lat": 47.6796242, "lon": 16.5946006}, {"type": "node", "id": 3078738551, "lat": 47.6796278, "lon": 16.5947254}, {"type": "node", "id": 3078738553, "lat": 47.6796458, "lon": 16.5946799}, {"type": "node", "id": 3079730788, "lat": 47.6903787, "lon": 16.5827288}, {"type": "node", "id": 3079730807, "lat": 47.6904436, "lon": 16.5826383}, {"type": "node", "id": 3079730810, "lat": 47.6904683, "lon": 16.5828817}, {"type": "node", "id": 3079730830, "lat": 47.6905311, "lon": 16.582794}, {"type": "node", "id": 3080817269, "lat": 47.6929047, "lon": 16.5821932}, {"type": "node", "id": 3080817270, "lat": 47.692939, "lon": 16.5823255}, {"type": "node", "id": 3080817271, "lat": 47.6929507, "lon": 16.5818445}, {"type": "node", "id": 3080817272, "lat": 47.6929545, "lon": 16.5822077}, {"type": "node", "id": 3080817278, "lat": 47.6929938, "lon": 16.5823414}, {"type": "node", "id": 3080817279, "lat": 47.6929969, "lon": 16.5822227}, {"type": "node", "id": 3080817283, "lat": 47.6929995, "lon": 16.5822986}, {"type": "node", "id": 3080817284, "lat": 47.6930071, "lon": 16.5821457}, {"type": "node", "id": 3080817286, "lat": 47.693033, "lon": 16.5819831}, {"type": "node", "id": 3080817288, "lat": 47.6930476, "lon": 16.5818728}, {"type": "node", "id": 3080817289, "lat": 47.6930518, "lon": 16.5823139}, {"type": "node", "id": 3080817290, "lat": 47.6930614, "lon": 16.5822415}, {"type": "node", "id": 3080817292, "lat": 47.6930924, "lon": 16.5820004}, {"type": "node", "id": 3080817293, "lat": 47.6930985, "lon": 16.5819545}, {"type": "node", "id": 3080817299, "lat": 47.6931511, "lon": 16.5821876}, {"type": "node", "id": 3080817303, "lat": 47.6931788, "lon": 16.5819779}, {"type": "node", "id": 3334249399, "lat": 47.68723, "lon": 16.58835, "tags": {"amenity": "fuel"}}, {"type": "node", "id": 3520238960, "lat": 47.4479201, "lon": 16.4179859, "tags": {"addr:city": "Piringsdorf", "addr:country": "AT", "addr:housenumber": "50", "addr:postcode": "7373", "addr:street": "Bundesstra\u00dfe", "amenity": "fuel", "brand": "A1 Tankstelle", "name": "A1", "phone": "+43 2616 86680"}}, {"type": "node", "id": 3595746564, "lat": 47.4104977, "lon": 16.415221, "tags": {"amenity": "fuel", "name": "Eni"}}, {"type": "node", "id": 4519231929, "lat": 47.5145153, "lon": 16.4885926, "tags": {"amenity": "fuel", "brand": "Diskont", "brand:wikidata": "Q107803455", "fuel:diesel": "yes", "fuel:octane_95": "yes", "name": "Hofer Diskont", "opening_hours": "Apr-Oct: 00:00-24:00; Nov-Mar: Mo-Su 06:00-22:00", "operator": "Avanti", "website": "https://www.diskonttanken.at"}}, {"type": "node", "id": 4589545735, "lat": 47.6704604, "lon": 16.6103412, "tags": {"amenity": "fuel", "name": "Diszkont benzink\u00fat", "operator": "Familie Tank Kft."}}, {"type": "node", "id": 4695993112, "lat": 47.5401232, "lon": 16.5501452, "tags": {"amenity": "fuel", "fuel:diesel": "yes"}}, {"type": "node", "id": 4695993113, "lat": 47.5384001, "lon": 16.5614652, "tags": {"amenity": "fuel"}}, {"type": "node", "id": 5352450171, "lat": 47.3786501, "lon": 16.5580993}, {"type": "node", "id": 5352450172, "lat": 47.378388, "lon": 16.5581769}, {"type": "node", "id": 5352450173, "lat": 47.3784448, "lon": 16.5579155}, {"type": "node", "id": 5352450174, "lat": 47.3784281, "lon": 16.5577924}, {"type": "node", "id": 5352450175, "lat": 47.3786015, "lon": 16.5577411}, {"type": "node", "id": 5511950543, "lat": 47.6766366, "lon": 16.5965335}, {"type": "node", "id": 5511950544, "lat": 47.6765632, "lon": 16.5963845}, {"type": "node", "id": 5511950545, "lat": 47.6766428, "lon": 16.596298}, {"type": "node", "id": 5511950546, "lat": 47.6767162, "lon": 16.5964471}, {"type": "node", "id": 5528257194, "lat": 47.6932152, "lon": 16.5656762}, {"type": "node", "id": 5528257195, "lat": 47.6930672, "lon": 16.5656145}, {"type": "node", "id": 5528257196, "lat": 47.6930913, "lon": 16.5654865}, {"type": "node", "id": 5528257197, "lat": 47.6932394, "lon": 16.5655482}, {"type": "node", "id": 6182337699, "lat": 47.4632812, "lon": 16.6340263, "tags": {"amenity": "fuel", "fuel:diesel": "yes", "fuel:octane_95": "forward", "name": "Sonnentank", "opening_hours": "Mo-Su 06:00-22:00"}}, {"type": "node", "id": 6404949236, "lat": 47.5760887, "lon": 16.4266795, "tags": {"addr:city": "Weppersdorf", "addr:country": "AT", "addr:housenumber": "98", "addr:postcode": "7331", "addr:street": "Hauptstra\u00dfe", "amenity": "fuel", "name": "PP-Skont", "operator": "Pia Pl\u00f6chl", "phone": "+43 2618 2276", "source": "https://weppersdorf.at/firmen.php"}}, {"type": "node", "id": 6453020733, "lat": 47.6932048, "lon": 16.5655338}, {"type": "node", "id": 6453020734, "lat": 47.6931826, "lon": 16.5656626}, {"type": "node", "id": 6453020735, "lat": 47.693115, "lon": 16.5654964}, {"type": "node", "id": 6453020736, "lat": 47.6930934, "lon": 16.5656254}, {"type": "node", "id": 6968135216, "lat": 47.6851394, "lon": 16.5724168}, {"type": "node", "id": 6968135217, "lat": 47.6849574, "lon": 16.5727636}, {"type": "node", "id": 6968135218, "lat": 47.685045, "lon": 16.5728668}, {"type": "node", "id": 6968135219, "lat": 47.6852283, "lon": 16.5725162}, {"type": "node", "id": 7057793102, "lat": 47.4445411, "lon": 16.5138951}, {"type": "node", "id": 7057793103, "lat": 47.4445218, "lon": 16.5138575}, {"type": "node", "id": 7057793104, "lat": 47.4444331, "lon": 16.5139568}, {"type": "node", "id": 7057793105, "lat": 47.4444524, "lon": 16.5139945}, {"type": "node", "id": 7057793106, "lat": 47.4445023, "lon": 16.5139075, "tags": {"addr:city": "Oberloisdorf", "addr:postcode": "7451", "addr:street": "Untere Rabitzstra\u00dfe", "amenity": "fuel", "fuel:diesel": "yes", "self_service": "yes"}}, {"type": "node", "id": 7057793110, "lat": 47.4463323, "lon": 16.5163861, "tags": {"addr:city": "Oberloisdorf", "addr:postcode": "7451", "amenity": "fuel", "operator": "Fa. Obradovits", "self_service": "yes"}}, {"type": "node", "id": 7110505119, "lat": 47.390675, "lon": 16.551771, "tags": {"addr:city": "K\u0151szeg", "addr:housenumber": "42", "addr:postcode": "9730", "addr:street": "Als\u00f3 k\u00f6r\u00fat", "amenity": "fuel", "brand": "Avia", "compressed_air": "no", "contact:email": "avia@avia.hu", "contact:facebook": "https://www.facebook.com/AVIAHungary", "contact:phone": "+36 94 505 391;+36 30 268 2590", "contact:website": "https://www.avia.hu/toltoallomas/?id=10", "contact:youtube": "https://www.youtube.com/channel/UCjvjkjf2RgmKBuTnKSXk-Rg", "fixme": "verify import", "food": "no", "fuel:diesel": "yes", "fuel:e85": "no", "fuel:lpg": "no", "fuel:octane_95": "no", "fuel:octane_98": "no", "name": "Avia", "operator": "AVIA Hung\u00e1ria Kft.", "payment:cash": "yes", "payment:contactless": "yes", "payment:maestro": "yes", "payment:mastercard": "yes", "payment:mastercard_contactless": "yes", "payment:mastercard_electronic": "yes", "payment:visa": "yes", "payment:visa_electron": "yes", "rent:lpg_bottles": "no", "restaurant": "no", "source:www.avia.hu:date": "2021-12-17", "truck": "no"}}, {"type": "node", "id": 7662963257, "lat": 47.559184, "lon": 16.432579, "tags": {"addr:city": "Markt Sankt Martin", "addr:country": "AT", "addr:housenumber": "78", "addr:postcode": "7341", "addr:street": "Hauptstra\u00dfe", "amenity": "fuel", "brand": "Independent", "email": "wallach@doppler.at", "fuel:adblue": "yes", "fuel:diesel": "yes", "fuel:octane_95": "yes", "name": "Turm\u00f6l Quick", "opening_hours": "24/7", "payment:dkv": "yes", "payment:uta": "yes", "phone": "+43 664 452 01 94", "website": "https://www.turm\u00f6l.at"}}, {"type": "node", "id": 7669621587, "lat": 47.6704901, "lon": 16.6170822, "tags": {"amenity": "fuel", "name": "ALDI Diszkont benzink\u00fat", "operator": "ALDI S\u00fcd"}}, {"type": "node", "id": 9485782609, "lat": 47.2923013, "lon": 16.3952728, "tags": {"addr:city": "Markt Neuhodis", "addr:housenumber": "215", "addr:postcode": "7464", "addr:street": "Markt Neuhodis", "amenity": "fuel", "description": "Waschstra\u00dfe und Cafe", "fuel:Heiz\u00f6l": "yes", "fuel:diesel": "yes", "fuel:octane_95": "yes", "fuel:premium_diesel": "yes", "name": "Tankstelle Kaiser"}}, {"type": "node", "id": 10108469255, "lat": 47.378377, "lon": 16.5579356}, {"type": "node", "id": 10108508861, "lat": 47.3783283, "lon": 16.5581696}, {"type": "node", "id": 10108508862, "lat": 47.3783848, "lon": 16.5581529}, {"type": "node", "id": 10108508863, "lat": 47.3782923, "lon": 16.5579046}, {"type": "node", "id": 10108508864, "lat": 47.3783697, "lon": 16.5578817}, {"type": "node", "id": 10245690916, "lat": 47.6931499, "lon": 16.5655802, "tags": {"addr:city": "Sopron", "addr:housenumber": "16", "addr:postcode": "9400", "addr:street": "Somfalvi \u00fat", "amenity": "fuel", "name": "FullEnergy T\u00f6lt\u0151\u00e1llom\u00e1s"}}, {"type": "way", "id": 137382314, "nodes": [1507187049, 1507187053, 1507187050, 1507187044, 1507187049], "tags": {"addr:city": "Sopron", "addr:housenumber": "32", "addr:postcode": "9400", "addr:street": "Ipar k\u00f6r\u00fat", "amenity": "fuel", "brand": "Shell", "brand:wikidata": "Q110716465", "brand:wikipedia": "en:Royal Dutch Shell", "building": "yes", "compressed_air": "yes", "name": "Shell", "opening_hours": "24/7", "operator": "Shell", "phone": "+36 99 702 103", "website": "https://www.shell.hu/"}}, {"type": "way", "id": 137384017, "nodes": [1507202834, 1507202843, 1507202841, 1507202833, 1507202834], "tags": {"addr:city": "Sopron", "addr:housenumber": "42", "addr:postcode": "9400", "addr:street": "Gy\u0151ri \u00fat", "air_conditioning": "yes", "amenity": "fuel", "brand": "MOL", "brand:wikidata": "Q549181", "brand:wikipedia": "hu:MOL Magyar Olaj- \u00e9s G\u00e1zipari Nyrt.", "building": "yes", "compressed_air": "yes", "contact:facebook": "https://www.facebook.com/mol.magyarorszag/", "contact:instagram": "https://www.instagram.com/mol.magyarorszag/", "contact:phone": "+36 99 312 674", "contact:website": "https://www.mol.hu", "contact:youtube": "https://www.youtube.com/user/molgrouptv", "food": "yes", "fuel:GTL_diesel": "yes", "fuel:adblue": "no", "fuel:diesel": "yes", "fuel:lpg": "no", "fuel:octane_100": "yes", "fuel:octane_95": "yes", "name": "MOL", "opening_hours": "Mo-Su 06:00-22:00", "operator": "MOL Nyrt.", "operator:addr": "1117 Budapest, Domb\u00f3v\u00e1ri \u00fat 28.", "payment:cash": "yes", "payment:contactless": "yes", "payment:maestro": "yes", "payment:mastercard": "yes", "payment:mastercard_contactless": "yes", "payment:mastercard_electronic": "yes", "payment:visa": "yes", "payment:visa_electron": "yes", "ref:HU:company": "01-10-041683", "ref:HU:vatin": "10625790-4-44", "rent:lpg_bottles": "yes", "source": "website", "source:date": "2022-05-21", "truck": "no"}}, {"type": "way", "id": 274822388, "nodes": [2794877003, 2794877002, 2794876999, 2794877000, 2794877003], "tags": {"amenity": "fuel", "name": "Landestankstelle"}}, {"type": "way", "id": 303508949, "nodes": [3078738550, 3078738553, 3078738549, 3078738551, 3078738544, 3078738543, 3078738541, 3078738540, 3078738550], "tags": {"addr:city": "Sopron", "addr:housenumber": "10", "addr:postcode": "9400", "addr:street": "K\u0151farag\u00f3 t\u00e9r", "air_conditioning": "yes", "amenity": "fuel", "brand": "MOL", "brand:wikidata": "Q549181", "brand:wikipedia": "hu:MOL Magyar Olaj- \u00e9s G\u00e1zipari Nyrt.", "building": "yes", "compressed_air": "yes", "contact:facebook": "https://www.facebook.com/mol.magyarorszag/", "contact:instagram": "https://www.instagram.com/mol.magyarorszag/", "contact:website": "https://www.mol.hu", "contact:youtube": "https://www.youtube.com/user/molgrouptv", "food": "no", "fuel:GTL_diesel": "yes", "fuel:adblue": "no", "fuel:diesel": "yes", "fuel:lpg": "no", "fuel:octane_100": "yes", "fuel:octane_95": "yes", "name": "MOL", "opening_hours": "Mo-Su 06:00-22:00", "operator": "MOL Nyrt.", "operator:addr": "1117 Budapest, Domb\u00f3v\u00e1ri \u00fat 28.", "payment:cash": "yes", "payment:contactless": "yes", "payment:maestro": "yes", "payment:mastercard": "yes", "payment:mastercard_contactless": "yes", "payment:mastercard_electronic": "yes", "payment:visa": "yes", "payment:visa_electron": "yes", "ref:HU:company": "01-10-041683", "ref:HU:vatin": "10625790-4-44", "rent:lpg_bottles": "no", "source": "website", "source:date": "2022-05-21", "truck": "no"}}, {"type": "way", "id": 303679624, "nodes": [3080817290, 3080817289, 3080817283, 3080817278, 3080817270, 3080817272, 3080817269, 3080817271, 3080817288, 3080817286, 3080817292, 3080817293, 3080817303, 3080817299, 3080817284, 3080817279, 3080817290], "tags": {"addr:city": "Sopron", "addr:housenumber": "60", "addr:postcode": "9400", "addr:street": "Lackner Krist\u00f3f utca", "amenity": "fuel", "brand": "Shell", "building": "yes", "name": "Shell", "opening_hours": "24/7", "operator": "Shell", "website": "https://www.shell.hu/"}}, {"type": "way", "id": 554635819, "nodes": [5352450171, 5352450172, 10108508862, 10108508861, 10108508863, 10108508864, 10108469255, 5352450173, 5352450174, 5352450175, 5352450171], "tags": {"addr:city": "K\u0151szeg", "addr:housenumber": "2", "addr:postcode": "9730", "addr:street": "Szombathelyi \u00fat", "air_conditioning": "yes", "amenity": "fuel", "brand": "OMV", "brand:wikidata": "Q168238", "brand:wikipedia": "en:OMV", "compressed_air": "yes", "contact:email": "info.hungary@omv.com", "contact:facebook": "https://www.facebook.com/omvmagyarorszag", "contact:fax": "+36 1 381 9899", "contact:instagram": "https://www.instagram.com/omv/", "contact:linkedin": "https://www.linkedin.com/company/omv", "contact:phone": "+36 94 563 116", "contact:twitter": "omv", "contact:website": "https://www.omv.hu", "contact:youtube": "https://www.youtube.com/user/omvofficial", "fuel:GTL_diesel": "yes", "fuel:diesel": "yes", "fuel:octane_100": "yes", "fuel:octane_95": "yes", "name": "OMV", "opening_hours": "Mo-Su 06:00-22:00; PH off", "operator": "OMV Hung\u00e1ria Kft.", "operator:addr": "1117 Budapest, Okt\u00f3ber huszonharmadika utca 6-10 5. emelet 5/A.", "payment:cash": "yes", "payment:contactless": "yes", "payment:maestro": "yes", "payment:mastercard": "yes", "payment:mastercard_contactless": "yes", "payment:mastercard_electronic": "yes", "payment:visa": "yes", "payment:visa_electron": "yes", "ref:HU:company": "01-09-071584", "ref:HU:vatin": "10542925-2-44", "ref:vatin": "HU10542925", "source:www.omv.hu:date": "2020-10-03"}}, {"type": "way", "id": 574135915, "nodes": [5511950546, 5511950543, 5511950544, 5511950545, 5511950546], "tags": {"addr:city": "Sopron", "addr:housenumber": "93", "addr:postcode": "9400", "addr:street": "Csengery utca", "air_conditioning": "yes", "amenity": "fuel", "brand": "OMV", "brand:wikidata": "Q168238", "brand:wikipedia": "en:OMV", "building": "retail", "building:levels": "1", "compressed_air": "yes", "contact:email": "info.hungary@omv.com", "contact:facebook": "https://www.facebook.com/omvmagyarorszag", "contact:fax": "+36 1 381 9899", "contact:instagram": "https://www.instagram.com/omv/", "contact:linkedin": "https://www.linkedin.com/company/omv", "contact:phone": "+36 99 508 937", "contact:twitter": "omv", "contact:website": "https://www.omv.hu", "contact:youtube": "https://www.youtube.com/user/omvofficial", "fuel:GTL_diesel": "yes", "fuel:diesel": "yes", "fuel:octane_100": "yes", "fuel:octane_95": "yes", "name": "OMV", "opening_hours": "24/7", "operator": "OMV Hung\u00e1ria Kft.", "operator:addr": "1117 Budapest, Okt\u00f3ber huszonharmadika utca 6-10 5. emelet 5/A.", "payment:cash": "yes", "payment:contactless": "yes", "payment:maestro": "yes", "payment:mastercard": "yes", "payment:mastercard_contactless": "yes", "payment:mastercard_electronic": "yes", "payment:visa": "yes", "payment:visa_electron": "yes", "ref:HU:company": "01-09-071584", "ref:HU:vatin": "10542925-2-44", "ref:vatin": "HU10542925", "source": "website", "source:date": "2020-10-03", "wheelchair": "yes"}}, {"type": "way", "id": 576369166, "nodes": [5528257197, 5528257194, 6453020734, 6453020736, 5528257195, 5528257196, 6453020735, 6453020733, 5528257197], "tags": {"addr:city": "Sopron", "addr:housenumber": "16", "addr:postcode": "9400", "addr:street": "Somfalvi \u00fat", "amenity": "fuel", "building": "yes", "name": "FullEnergy"}}, {"type": "way", "id": 744528648, "nodes": [6968135216, 6968135217, 6968135218, 6968135219, 6968135216], "tags": {"addr:city": "Sopron", "addr:housenumber": "4/D", "addr:postcode": "9400", "addr:street": "B\u00e1nfalvi \u00fat", "amenity": "fuel", "building": "yes"}}, {"type": "way", "id": 746408201, "nodes": [3079730830, 3079730810, 3079730788, 3079730807, 3079730830], "tags": {"addr:city": "Sopron", "addr:housenumber": "29", "addr:postcode": "9400", "addr:street": "Lackner Krist\u00f3f utca", "air_conditioning": "yes", "amenity": "fuel", "brand": "OMV", "brand:wikidata": "Q168238", "brand:wikipedia": "en:OMV", "building": "retail", "compressed_air": "yes", "contact:email": "info.hungary@omv.com", "contact:facebook": "https://www.facebook.com/omvmagyarorszag", "contact:fax": "+36 1 381 9899", "contact:instagram": "https://www.instagram.com/omv/", "contact:linkedin": "https://www.linkedin.com/company/omv", "contact:phone": "+36 99 510 565", "contact:twitter": "omv", "contact:website": "https://www.omv.hu", "contact:youtube": "https://www.youtube.com/user/omvofficial", "fuel:GTL_diesel": "yes", "fuel:diesel": "yes", "fuel:octane_100": "yes", "fuel:octane_95": "yes", "name": "OMV", "opening_hours": "24/7", "operator": "OMV Hung\u00e1ria Kft.", "operator:addr": "1117 Budapest, Okt\u00f3ber huszonharmadika utca 6-10 5. emelet 5/A.", "payment:cash": "yes", "payment:contactless": "yes", "payment:maestro": "yes", "payment:mastercard": "yes", "payment:mastercard_contactless": "yes", "payment:mastercard_electronic": "yes", "payment:visa": "yes", "payment:visa_electron": "yes", "ref:HU:company": "01-09-071584", "ref:HU:vatin": "10542925-2-44", "ref:vatin": "HU10542925", "source:www.omv.hu:date": "2020-10-03"}}, {"type": "way", "id": 755606131, "nodes": [7057793102, 7057793103, 7057793104, 7057793105, 7057793102], "tags": {"addr:city": "Oberloisdorf", "addr:postcode": "7451", "amenity": "fuel", "fuel:diesel": "yes", "operator": "Fa. Krutzler", "self_service": "yes"}}]}