{"version": 0.6, "generator": "Overpass API 0.7.59 e21c39fe", "osm3s": {"timestamp_osm_base": "2023-01-17T15:18:24Z", "copyright": "The data included in this document is from www.openstreetmap.org. The data is made available under ODbL."}, "elements": [{"type": "node", "id": 514999574, "lat": 46.8380127, "lon": 16.8378899, "tags": {"addr:city": "Zalaegerszeg", "addr:housenumber": "48", "addr:postcode": "8900", "addr:street": "Vizslaparki \u00fat", "amenity": "pub", "name": "Legends Pub", "phone": "+36 30 685 8263"}}, {"type": "node", "id": 514999683, "lat": 46.8370098, "lon": 16.8291976, "tags": {"addr:street": "Landorhegyi \u00fat", "amenity": "pub"}}, {"type": "node", "id": 515025379, "lat": 46.8356194, "lon": 16.8549046, "tags": {"amenity": "pub"}}, {"type": "node", "id": 515025397, "lat": 46.8396824, "lon": 16.853557, "tags": {"amenity": "pub"}}, {"type": "node", "id": 515025477, "lat": 46.8356776, "lon": 16.8532771, "tags": {"amenity": "pub"}}, {"type": "node", "id": 1255834704, "lat": 46.8434459, "lon": 16.8456699, "tags": {"addr:street": "Kossuth Lajos t\u00e9r", "amenity": "pub", "name": "Havanna Club Zalaegerszeg", "opening_hours": "Fr,Sa 22:00-04:30"}}, {"type": "node", "id": 1329488010, "lat": 46.5929034, "lon": 17.2673063, "tags": {"amenity": "pub"}}, {"type": "node", "id": 1711770809, "lat": 46.8422948, "lon": 16.8340112, "tags": {"addr:street": "D\u00f3zsa Gy\u00f6rgy utca", "amenity": "pub", "toilets:wheelchair": "no", "wheelchair": "no"}}, {"type": "node", "id": 1719719786, "lat": 46.8461451, "lon": 16.8435349, "tags": {"addr:street": "Munk\u00e1csy Mih\u00e1ly utca", "amenity": "pub", "internet_access": "wlan", "internet_access:fee": "no", "name": "Borosty\u00e1n pressz\u00f3"}}, {"type": "node", "id": 1789188698, "lat": 46.6369403, "lon": 16.8421844, "tags": {"amenity": "pub", "name": "Szomsz\u00e9d pressz\u00f3", "opening_hours": "Mo-Su 07:00-23:00", "toilets:wheelchair": "no", "wheelchair": "no"}}, {"type": "node", "id": 1827044366, "lat": 46.8426637, "lon": 16.8443806}, {"type": "node", "id": 1827044370, "lat": 46.8426689, "lon": 16.8440783}, {"type": "node", "id": 1827044373, "lat": 46.8426718, "lon": 16.8439259}, {"type": "node", "id": 1827044374, "lat": 46.8427114, "lon": 16.844257}, {"type": "node", "id": 1827044377, "lat": 46.8427134, "lon": 16.8441676}, {"type": "node", "id": 1827044383, "lat": 46.8427352, "lon": 16.8443104}, {"type": "node", "id": 1827044384, "lat": 46.8427364, "lon": 16.8442582}, {"type": "node", "id": 1827044386, "lat": 46.8427705, "lon": 16.8441704}, {"type": "node", "id": 1827044387, "lat": 46.8427717, "lon": 16.8441153}, {"type": "node", "id": 1827044400, "lat": 46.8427979, "lon": 16.8441166}, {"type": "node", "id": 1827044402, "lat": 46.8427988, "lon": 16.8440759}, {"type": "node", "id": 1827044404, "lat": 46.8428178, "lon": 16.844388}, {"type": "node", "id": 1827044406, "lat": 46.8428195, "lon": 16.8443145}, {"type": "node", "id": 1827044410, "lat": 46.8428266, "lon": 16.8440773}, {"type": "node", "id": 1827044413, "lat": 46.84283, "lon": 16.8439263}, {"type": "node", "id": 2109468230, "lat": 46.7797665, "lon": 17.277167}, {"type": "node", "id": 2109468278, "lat": 46.7796512, "lon": 17.2770694}, {"type": "node", "id": 2109468311, "lat": 46.7796514, "lon": 17.2772115}, {"type": "node", "id": 2109468322, "lat": 46.7797743, "lon": 17.2773041}, {"type": "node", "id": 2109468325, "lat": 46.7797022, "lon": 17.2773125}, {"type": "node", "id": 2109468372, "lat": 46.7797382, "lon": 17.2770286}, {"type": "node", "id": 2109468373, "lat": 46.7797607, "lon": 17.2770537}, {"type": "node", "id": 2109468423, "lat": 46.7796337, "lon": 17.277103}, {"type": "node", "id": 2119381904, "lat": 46.7699032, "lon": 17.2499452}, {"type": "node", "id": 2119381921, "lat": 46.7699144, "lon": 17.2500485}, {"type": "node", "id": 2119381925, "lat": 46.7700352, "lon": 17.2500206}, {"type": "node", "id": 2119381960, "lat": 46.7700241, "lon": 17.2499173}, {"type": "node", "id": 2125655861, "lat": 46.7629003, "lon": 17.2387778}, {"type": "node", "id": 2125655939, "lat": 46.7628857, "lon": 17.2386103}, {"type": "node", "id": 2125656027, "lat": 46.7628444, "lon": 17.2387882}, {"type": "node", "id": 2125656050, "lat": 46.7628298, "lon": 17.2386207}, {"type": "node", "id": 2145733574, "lat": 46.7579032, "lon": 17.3168412, "tags": {"amenity": "pub"}}, {"type": "node", "id": 2153600455, "lat": 46.7714233, "lon": 17.1712942}, {"type": "node", "id": 2153600466, "lat": 46.7713075, "lon": 17.1713136}, {"type": "node", "id": 2153600469, "lat": 46.7712942, "lon": 17.1711521}, {"type": "node", "id": 2153600470, "lat": 46.7714136, "lon": 17.1711314}, {"type": "node", "id": 2157042631, "lat": 46.8897908, "lon": 17.2287515}, {"type": "node", "id": 2157042642, "lat": 46.8897107, "lon": 17.2286468}, {"type": "node", "id": 2157042643, "lat": 46.8897334, "lon": 17.2287437}, {"type": "node", "id": 2157042687, "lat": 46.8897173, "lon": 17.2285425}, {"type": "node", "id": 2157042688, "lat": 46.8898032, "lon": 17.2285541}, {"type": "node", "id": 2157042740, "lat": 46.8897393, "lon": 17.2286506}, {"type": "node", "id": 2164402857, "lat": 46.8447976, "lon": 16.8487312}, {"type": "node", "id": 2164402858, "lat": 46.8448046, "lon": 16.848531}, {"type": "node", "id": 2164402860, "lat": 46.8447975, "lon": 16.8487096}, {"type": "node", "id": 2164402861, "lat": 46.8448216, "lon": 16.8486134}, {"type": "node", "id": 2164402865, "lat": 46.8448049, "lon": 16.8486135}, {"type": "node", "id": 2164402866, "lat": 46.8447296, "lon": 16.8487317}, {"type": "node", "id": 2164402867, "lat": 46.8448219, "lon": 16.8487094}, {"type": "node", "id": 2164402869, "lat": 46.8447289, "lon": 16.8485315}, {"type": "node", "id": 2168939144, "lat": 46.844579, "lon": 16.8550781}, {"type": "node", "id": 2168939146, "lat": 46.844492, "lon": 16.855218}, {"type": "node", "id": 2168939148, "lat": 46.8444889, "lon": 16.8550825}, {"type": "node", "id": 2168939156, "lat": 46.8445822, "lon": 16.8552135}, {"type": "node", "id": 2278535588, "lat": 46.7582691, "lon": 17.2470547, "tags": {"amenity": "pub", "name": "V\u00e9n bakter s\u00f6r\u00f6z\u0151"}}, {"type": "node", "id": 2278535681, "lat": 46.7753014, "lon": 17.2365067, "tags": {"amenity": "pub"}}, {"type": "node", "id": 2362065583, "lat": 46.5871844, "lon": 17.1223788, "tags": {"amenity": "pub", "name": "Eszpressz\u00f3"}}, {"type": "node", "id": 2362065601, "lat": 46.7279729, "lon": 17.1063767, "tags": {"amenity": "pub", "name": "Kiss-sziget kocsma"}}, {"type": "node", "id": 2509606781, "lat": 46.5364573, "lon": 16.9851551, "tags": {"amenity": "pub", "name": "K\u00e9k C\u00e1pa S\u00f6r\u00f6z\u0151"}}, {"type": "node", "id": 2729409902, "lat": 46.7139274, "lon": 17.3230142, "tags": {"amenity": "pub", "name": "Plat\u00e1n S\u00f6r\u00f6z\u0151"}}, {"type": "node", "id": 2900782857, "lat": 46.8456779, "lon": 16.8436723, "tags": {"addr:street": "Munk\u00e1csy Mih\u00e1ly utca", "amenity": "pub"}}, {"type": "node", "id": 2900790929, "lat": 46.8455119, "lon": 16.8418047, "tags": {"addr:street": "R\u00e1k\u00f3czi Ferenc utca", "amenity": "pub", "name": "Alibi S\u00f6r\u00f6z\u0151"}}, {"type": "node", "id": 2900834870, "lat": 46.8431475, "lon": 16.8461919, "tags": {"addr:city": "Zalaegerszeg", "addr:postcode": "8900", "addr:street": "Eur\u00f3pa t\u00e9r", "amenity": "pub", "name": "Club PopUp Underground", "opening_hours": "Mo-Th 14:00-22:00; Fr-Su 14:00-01:00"}}, {"type": "node", "id": 2900834871, "lat": 46.8428642, "lon": 16.8455843, "tags": {"addr:street": "Kossuth Lajos utca", "amenity": "pub", "name": "Belgian Beer Caf\u00e9", "opening_hours": "Mo-Th 11:00-23:00; Fr,Sa 11:00-13:00; Su 11:00-21:00"}}, {"type": "node", "id": 2901861003, "lat": 46.8055975, "lon": 17.1006727, "tags": {"amenity": "pub"}}, {"type": "node", "id": 2901936893, "lat": 46.8444333, "lon": 16.8513513, "tags": {"addr:street": "Stadion utca", "amenity": "pub", "name": "Szek\u00e9r Bet\u00e9r\u0151"}}, {"type": "node", "id": 2901936894, "lat": 46.8448917, "lon": 16.8482115, "tags": {"addr:street": "Kov\u00e1cs K\u00e1roly t\u00e9r", "amenity": "pub", "name": "Meg\u00e1ll\u00f3 Pressz\u00f3"}}, {"type": "node", "id": 2904535428, "lat": 46.8449629, "lon": 16.8525212, "tags": {"addr:street": "Balatoni \u00fat", "amenity": "pub"}}, {"type": "node", "id": 2914420835, "lat": 46.8402637, "lon": 16.8453351, "tags": {"addr:street": "Pet\u0151fi S\u00e1ndor utca", "amenity": "pub", "name": "SaloonZoo"}}, {"type": "node", "id": 2929721142, "lat": 46.6784369, "lon": 16.9496331}, {"type": "node", "id": 2929721143, "lat": 46.678455, "lon": 16.9497727}, {"type": "node", "id": 2929721145, "lat": 46.6785944, "lon": 16.9495896}, {"type": "node", "id": 2929721147, "lat": 46.6786126, "lon": 16.9497292}, {"type": "node", "id": 2943731050, "lat": 46.8360576, "lon": 17.1740972, "tags": {"amenity": "pub"}}, {"type": "node", "id": 2995486564, "lat": 46.6541223, "lon": 16.771254, "tags": {"amenity": "pub", "name": "Csik\u00f3s-cs\u00e1rda"}}, {"type": "node", "id": 2995486587, "lat": 46.639986, "lon": 16.8000969}, {"type": "node", "id": 2995486590, "lat": 46.6400289, "lon": 16.8002533}, {"type": "node", "id": 2995486591, "lat": 46.6400954, "lon": 16.8000331}, {"type": "node", "id": 2995486592, "lat": 46.6401384, "lon": 16.8001895}, {"type": "node", "id": 3029606169, "lat": 46.760985, "lon": 17.334964, "tags": {"amenity": "pub", "name": "Csereze boroz\u00f3"}}, {"type": "node", "id": 3163410264, "lat": 46.6639132, "lon": 17.2709429, "tags": {"amenity": "pub", "name": "Post Pub", "toilets:wheelchair": "yes", "wheelchair": "yes"}}, {"type": "node", "id": 3211301628, "lat": 46.8720135, "lon": 17.2956291, "tags": {"amenity": "pub", "name": "Ferenc s\u00f6r\u00f6z\u0151"}}, {"type": "node", "id": 3222227104, "lat": 46.7737746, "lon": 17.1052551, "tags": {"amenity": "pub"}}, {"type": "node", "id": 3370990983, "lat": 46.58527, "lon": 16.918799, "tags": {"amenity": "pub", "name": "Hangulat pressz\u00f3", "source": "turistautak.hu", "toilets:wheelchair": "no", "url": "http://turistautak.hu/poi.php?id=151713", "wheelchair": "no"}}, {"type": "node", "id": 3372363410, "lat": 46.558417, "lon": 17.10943, "tags": {"amenity": "pub", "craft": "winery", "name": "Kil\u00e1t\u00f3 boroz\u00f3", "source": "turistautak.hu", "toilets:wheelchair": "limited", "url": "http://turistautak.hu/poi.php?id=121831", "wheelchair": "yes"}}, {"type": "node", "id": 3372363415, "lat": 46.529138, "lon": 17.126483, "tags": {"amenity": "pub", "fixme": "resurvey, name?", "source": "turistautak.hu", "url": "http://turistautak.hu/poi.php?id=55334"}}, {"type": "node", "id": 3386310673, "lat": 46.701417, "lon": 16.756433, "tags": {"amenity": "pub", "name": "Hangulat kocsma (Z\u00e1rva)", "source": "turistautak.hu", "url": "http://turistautak.hu/poi.php?id=1659"}}, {"type": "node", "id": 3388304994, "lat": 46.640145, "lon": 16.799955, "tags": {"amenity": "pub", "name": "Italbolt", "source": "turistautak.hu", "url": "http://turistautak.hu/poi.php?id=92970"}}, {"type": "node", "id": 3397429810, "lat": 46.507322, "lon": 16.78171, "tags": {"amenity": "pub", "name": "Kocsma", "source": "turistautak.hu", "url": "http://turistautak.hu/poi.php?id=85013"}}, {"type": "node", "id": 3397994619, "lat": 46.504166, "lon": 16.915626, "tags": {"amenity": "pub", "source": "turistautak.hu", "url": "http://turistautak.hu/poi.php?id=59827"}}, {"type": "node", "id": 3409659452, "lat": 46.885529, "lon": 16.921528, "tags": {"amenity": "pub", "name": "B\u00e1zis s\u00f6r\u00f6z\u0151", "source": "turistautak.hu", "url": "http://turistautak.hu/poi.php?id=121239"}}, {"type": "node", "id": 3409659455, "lat": 46.88911, "lon": 16.901527, "tags": {"addr:city": "Zalaszentiv\u00e1n", "addr:housenumber": "4", "addr:postcode": "8921", "addr:street": "Zr\u00ednyi Mikl\u00f3s utca", "amenity": "pub", "name": "Z\u00f6ld Elef\u00e1nt s\u00f6r\u00f6z\u0151", "source": "turistautak.hu", "url": "http://turistautak.hu/poi.php?id=121230"}}, {"type": "node", "id": 3446767103, "lat": 46.870924, "lon": 16.948217, "tags": {"amenity": "pub", "name": "Hangulat b\u00e1r", "source": "turistautak.hu", "source:date": "2011-09-19", "url": "http://turistautak.hu/poi.php?id=68729"}}, {"type": "node", "id": 3446767119, "lat": 46.7891505, "lon": 16.930993, "tags": {"amenity": "pub", "brewery": "yes", "name": "Korona s\u00f6r\u00f6z\u0151, kocsma", "opening_hours": "Mo-Th 07:30-12:00,14:00-22:00; Fr-Sa 07:30-12:00,14:00-24:00; Su 08:00-12:00,14:00-22:00", "opening_hours:covid19": "open", "smoking": "outside", "source": "turistautak.hu", "source:date": "2011-09-19", "url": "http://turistautak.hu/poi.php?id=122958"}}, {"type": "node", "id": 3446767142, "lat": 46.7219, "lon": 17.01032, "tags": {"amenity": "pub", "name": "Motorokk Pub", "source": "turistautak.hu", "source:date": "2011-09-19", "url": "http://turistautak.hu/poi.php?id=98779"}}, {"type": "node", "id": 3446767146, "lat": 46.845249, "lon": 16.93, "tags": {"amenity": "pub", "name": "O\u00e1zis pressz\u00f3", "source": "turistautak.hu", "source:date": "2011-12-10", "url": "http://turistautak.hu/poi.php?id=118820"}}, {"type": "node", "id": 3446767156, "lat": 46.7291018, "lon": 16.9484151, "tags": {"amenity": "pub", "name": "T\u00f6lgyfa pressz\u00f3", "source": "turistautak.hu", "source:date": "2011-09-19", "url": "http://turistautak.hu/poi.php?id=107660"}}, {"type": "node", "id": 3446767158, "lat": 46.7424291, "lon": 16.9219303, "tags": {"amenity": "pub", "name": "Pressz\u00f3", "source": "turistautak.hu", "source:date": "2011-09-19", "url": "http://turistautak.hu/poi.php?id=107658"}}, {"type": "node", "id": 3446767159, "lat": 46.868223, "lon": 16.950684, "tags": {"amenity": "pub", "name": "Pressz\u00f3", "source": "turistautak.hu", "source:date": "2011-09-19", "url": "http://turistautak.hu/poi.php?id=118808"}}, {"type": "node", "id": 3446767162, "lat": 46.779133, "lon": 16.867207, "tags": {"amenity": "pub", "name": "Sarok pressz\u00f3", "source": "turistautak.hu", "source:date": "2011-09-19", "url": "http://turistautak.hu/poi.php?id=39928"}}, {"type": "node", "id": 3446767168, "lat": 46.817783, "lon": 16.990583, "tags": {"amenity": "pub", "name": "Sziszi s\u00f6r\u00f6z\u0151", "source": "turistautak.hu", "source:date": "2012-07-16", "url": "http://turistautak.hu/poi.php?id=141508"}}, {"type": "node", "id": 3446767175, "lat": 46.671458, "lon": 16.85416, "tags": {"amenity": "pub", "name": "S\u00f6r\u00f6z\u0151", "source": "turistautak.hu", "source:date": "2011-09-19", "toilets:wheelchair": "limited", "url": "http://turistautak.hu/poi.php?id=33719", "wheelchair": "limited"}}, {"type": "node", "id": 3446767314, "lat": 46.61569, "lon": 16.75749, "tags": {"amenity": "pub", "source": "turistautak.hu", "source:date": "2010-01-18", "url": "http://turistautak.hu/poi.php?id=26445"}}, {"type": "node", "id": 3446767528, "lat": 46.73079, "lon": 16.94317, "tags": {"amenity": "pub", "source": "turistautak.hu", "source:date": "2011-12-09", "url": "http://turistautak.hu/poi.php?id=126671"}}, {"type": "node", "id": 3446767559, "lat": 46.754797, "lon": 16.923912, "tags": {"amenity": "pub", "source": "turistautak.hu", "source:date": "2011-12-09", "url": "http://turistautak.hu/poi.php?id=125776"}}, {"type": "node", "id": 3446767720, "lat": 46.778932, "lon": 16.851822, "tags": {"amenity": "pub", "source": "turistautak.hu", "source:date": "2011-09-19", "url": "http://turistautak.hu/poi.php?id=99360"}}, {"type": "node", "id": 3446767751, "lat": 46.801074, "lon": 16.911957, "tags": {"amenity": "pub", "source": "turistautak.hu", "source:date": "2012-05-05", "url": "http://turistautak.hu/poi.php?id=138339"}}, {"type": "node", "id": 3446767835, "lat": 46.854208, "lon": 16.935371, "tags": {"amenity": "pub", "source": "turistautak.hu", "source:date": "2011-09-19", "url": "http://turistautak.hu/poi.php?id=118817"}}, {"type": "node", "id": 3454648862, "lat": 46.79163, "lon": 17.185428, "tags": {"amenity": "pub", "name": "Mini S\u00f6r\u00f6z\u0151", "source": "turistautak.hu", "source:date": "2011-05-26", "survey:date": "2019-08-05", "url": "http://turistautak.hu/poi.php?id=81477"}}, {"type": "node", "id": 3454648890, "lat": 46.7896084, "lon": 17.1900008, "tags": {"amenity": "pub", "description": "A V\u00e9n Bakter \u00f3don hangulat\u00fa igazi kiskocsma H\u00e9v\u00edz belv\u00e1ros\u00e1ban, j\u00f3 borokkal. K\u00f6telez\u0151 napirendi pont.", "name": "V\u00e9n Bakter", "source": "turistautak.hu", "source:date": "2013-11-01", "url": "http://turistautak.hu/poi.php?id=161373"}}, {"type": "node", "id": 3454649126, "lat": 46.721249, "lon": 17.170944, "tags": {"amenity": "pub", "name": "Korona s\u00f6r\u00f6z\u0151", "source": "turistautak.hu", "source:date": "2011-05-26", "url": "http://turistautak.hu/poi.php?id=97140"}}, {"type": "node", "id": 3454649912, "lat": 46.666577, "lon": 17.155622, "tags": {"amenity": "pub", "source": "turistautak.hu", "source:date": "2012-10-14", "url": "http://turistautak.hu/poi.php?id=96406"}}, {"type": "node", "id": 3454649989, "lat": 46.726687, "lon": 17.110374, "tags": {"amenity": "pub", "source": "turistautak.hu", "source:date": "2011-09-19", "url": "http://turistautak.hu/poi.php?id=96225"}}, {"type": "node", "id": 3454650243, "lat": 46.772365, "lon": 17.24327, "tags": {"amenity": "pub", "source": "turistautak.hu", "source:date": "2011-05-26", "url": "http://turistautak.hu/poi.php?id=77550"}}, {"type": "node", "id": 3454650245, "lat": 46.775809, "lon": 17.238256, "tags": {"amenity": "pub", "source": "turistautak.hu", "source:date": "2012-10-11", "url": "http://turistautak.hu/poi.php?id=145979"}}, {"type": "node", "id": 3454650250, "lat": 46.780192, "lon": 17.280276, "tags": {"amenity": "pub", "source": "turistautak.hu", "source:date": "2012-06-22", "url": "http://turistautak.hu/poi.php?id=140484"}}, {"type": "node", "id": 3454650274, "lat": 46.796065, "lon": 17.125262, "tags": {"amenity": "pub", "source": "turistautak.hu", "source:date": "2013-12-05", "url": "http://turistautak.hu/poi.php?id=50627"}}, {"type": "node", "id": 3454650705, "lat": 46.825117, "lon": 17.14275, "tags": {"amenity": "pub", "description": "Kocsma", "fixme": "resurvey (source was old)", "source": "turistautak.hu", "source:date": "2009-07-19", "url": "http://turistautak.hu/poi.php?id=19674"}}, {"type": "node", "id": 3454650719, "lat": 46.8428607, "lon": 17.2189503, "tags": {"amenity": "pub", "source": "turistautak.hu", "source:date": "2012-10-11", "url": "http://turistautak.hu/poi.php?id=145994"}}, {"type": "node", "id": 3454650789, "lat": 46.709539, "lon": 17.2484644, "tags": {"amenity": "pub", "changing_table": "no", "description": "Bety\u00e1rballad\u00e1k a kocsmafalon, n\u00e9pi haszn\u00e1lati t\u00e1rgyak, bety\u00e1rjelenetes f\u00e9ldomborm\u0171vek a k\u00fcls\u0151 homlokzaton stb.", "internet_access": "no", "name": "400 \u00e9ves v\u00e1mh\u00e1z", "outdoor_seating": "yes", "source": "turistautak.hu", "source:date": "2013-03-31", "toilets": "yes", "toilets:wheelchair": "no", "tourism": "attraction", "url": "http://turistautak.hu/poi.php?id=66642", "wheelchair": "limited"}}, {"type": "node", "id": 3456437183, "lat": 46.637135, "lon": 17.115534, "tags": {"amenity": "pub", "name": "Sparrow s\u00f6r\u00f6z\u0151", "source": "turistautak.hu", "source:date": "2011-09-19", "url": "http://turistautak.hu/poi.php?id=98424"}}, {"type": "node", "id": 3456439190, "lat": 46.602013, "lon": 16.947161, "tags": {"amenity": "pub", "source": "turistautak.hu", "source:date": "2011-09-19", "url": "http://turistautak.hu/poi.php?id=107591"}}, {"type": "node", "id": 3456439573, "lat": 46.653941, "lon": 16.9976, "tags": {"amenity": "pub", "source": "turistautak.hu", "source:date": "2011-09-19", "url": "http://turistautak.hu/poi.php?id=123044"}}, {"type": "node", "id": 3465218047, "lat": 46.530069, "lon": 16.832262, "tags": {"amenity": "pub", "source": "turistautak.hu", "source:date": "2011-09-19", "url": "http://turistautak.hu/poi.php?id=92846"}}, {"type": "node", "id": 3465218077, "lat": 46.556221, "lon": 16.767315, "tags": {"amenity": "pub", "source": "turistautak.hu", "source:date": "2012-01-20", "url": "http://turistautak.hu/poi.php?id=92918"}}, {"type": "node", "id": 3465219814, "lat": 46.514563, "lon": 16.778188, "tags": {"amenity": "pub", "source": "turistautak.hu", "source:date": "2011-09-19", "url": "http://turistautak.hu/poi.php?id=92875"}}, {"type": "node", "id": 3469965865, "lat": 46.70648, "lon": 17.320297, "tags": {"amenity": "pub", "name": "G\u00f3lyaf\u00e9szek boroz\u00f3", "source": "turistautak.hu", "source:date": "2012-10-14", "url": "http://turistautak.hu/poi.php?id=50022"}}, {"type": "node", "id": 3469965871, "lat": 46.69063, "lon": 17.28797, "tags": {"amenity": "pub", "name": "Jager s\u00f6r\u00f6z\u0151", "source": "turistautak.hu", "source:date": "2012-10-14", "url": "http://turistautak.hu/poi.php?id=10953"}}, {"type": "node", "id": 3469965891, "lat": 46.6908, "lon": 17.29053, "tags": {"amenity": "pub", "name": "Morzsa b\u00fcf\u00e9", "source": "turistautak.hu", "source:date": "2012-10-14", "url": "http://turistautak.hu/poi.php?id=10956"}}, {"type": "node", "id": 3470021565, "lat": 46.835715, "lon": 17.106398, "tags": {"amenity": "pub", "name": "Kehida Kapuja s\u00f6r\u00f6z\u0151, pizz\u00e9ria", "source": "turistautak.hu", "source:date": "2012-01-20", "url": "http://turistautak.hu/poi.php?id=74133"}}, {"type": "node", "id": 3470021572, "lat": 46.843833, "lon": 17.094867, "tags": {"amenity": "pub", "name": "Korona s\u00f6r\u00f6z\u0151", "source": "turistautak.hu", "source:date": "2011-09-19", "url": "http://turistautak.hu/poi.php?id=74214"}}, {"type": "node", "id": 3470021589, "lat": 46.878373, "lon": 17.110708, "tags": {"amenity": "pub", "name": "Pedr\u00f3 Kocsm\u00e1ja", "source": "turistautak.hu", "source:date": "2011-05-26", "url": "http://turistautak.hu/poi.php?id=102621"}}, {"type": "node", "id": 3479941518, "lat": 46.800668, "lon": 16.868733, "tags": {"amenity": "pub", "name": "N\u00edlus pressz\u00f3", "source": "turistautak.hu", "source:date": "2011-09-19", "toilets:wheelchair": "no", "url": "http://turistautak.hu/poi.php?id=33992", "wheelchair": "no"}}, {"type": "node", "id": 3479941522, "lat": 46.832715, "lon": 16.851027, "tags": {"amenity": "pub", "name": "Pitvar s\u00f6r\u00f6z\u0151", "source": "turistautak.hu", "source:date": "2012-01-20", "url": "http://turistautak.hu/poi.php?id=6761"}}, {"type": "node", "id": 3479941526, "lat": 46.8404851, "lon": 16.8475176, "tags": {"addr:city": "Zalaegerszeg", "addr:housenumber": "24", "addr:postcode": "8900", "addr:street": "Pet\u0151fi S\u00e1ndor utca", "amenity": "pub", "email": "info@robinsonpub.hu", "name": "Robinson Music Pub \u00e9s \u00c9tterem", "opening_hours": "Mo-Th 11:00-00:00; Fr 11:00-02:00; Sa 12:00-02:00; Su 12:00-23:00", "payment:cash": "yes", "payment:debit_cards": "yes", "source": "turistautak.hu", "source:date": "2012-01-20", "url": "http://turistautak.hu/poi.php?id=6760", "website": "http://www.robinsonpub.hu", "wheelchair": "no"}}, {"type": "node", "id": 3479941569, "lat": 46.83361, "lon": 16.84721, "tags": {"amenity": "pub", "source": "turistautak.hu", "source:date": "2012-01-20", "url": "http://turistautak.hu/poi.php?id=33748"}}, {"type": "node", "id": 3507287934, "lat": 46.7219329, "lon": 17.171139, "tags": {"amenity": "pub"}}, {"type": "node", "id": 3744909790, "lat": 46.6364987, "lon": 16.9952982, "tags": {"amenity": "pub"}}, {"type": "node", "id": 3913475185, "lat": 46.7894643, "lon": 16.7369123, "tags": {"amenity": "pub"}}, {"type": "node", "id": 4071613716, "lat": 46.7147104, "lon": 17.3229403, "tags": {"addr:city": "Balatonber\u00e9ny", "addr:postcode": "8649", "addr:street": "Vitorl\u00e1s s\u00e9t\u00e1ny Parkol\u00f3", "amenity": "pub", "name": "Csiripel\u0151 (volt Hord\u00f3 Boroz\u00f3)", "smoking": "outside"}}, {"type": "node", "id": 4075270180, "lat": 46.853693, "lon": 16.7780652, "tags": {"addr:city": "Tesk\u00e1nd", "addr:housenumber": "40", "addr:postcode": "8991", "addr:street": "Pet\u0151fi S\u00e1ndor utca", "amenity": "pub", "name": "Fakop\u00e1cs Vend\u00e9gl\u0151", "outdoor_seating": "yes", "smoking": "outside", "takeaway": "no"}}, {"type": "node", "id": 4337590925, "lat": 46.771327, "lon": 17.171077}, {"type": "node", "id": 4337590926, "lat": 46.7713311, "lon": 17.1711461}, {"type": "node", "id": 4337590927, "lat": 46.7713977, "lon": 17.171071}, {"type": "node", "id": 4337590928, "lat": 46.7714018, "lon": 17.171134}, {"type": "node", "id": 4618386990, "lat": 46.7651462, "lon": 17.2370817, "tags": {"amenity": "pub", "name": "R\u00f3zsa Pressz\u00f3", "name:hu": "R\u00f3zsa Pressz\u00f3"}}, {"type": "node", "id": 4625465085, "lat": 46.7030439, "lon": 16.761614}, {"type": "node", "id": 4625465086, "lat": 46.7030447, "lon": 16.7617171}, {"type": "node", "id": 4625465087, "lat": 46.703131, "lon": 16.7617158}, {"type": "node", "id": 4625465088, "lat": 46.7031321, "lon": 16.7618621}, {"type": "node", "id": 4625470989, "lat": 46.7031765, "lon": 16.7616119}, {"type": "node", "id": 4625470990, "lat": 46.7031783, "lon": 16.7618614}, {"type": "node", "id": 4923905038, "lat": 46.7803032, "lon": 16.7639641, "tags": {"amenity": "pub", "name": "Mi-Ti-Sz\u00f3"}}, {"type": "node", "id": 4933470992, "lat": 46.7161622, "lon": 17.1650392, "tags": {"amenity": "pub", "fixme": "verify", "name": "S\u00f6rkert B\u00fcf\u00e9 Diszkont", "source": "route4u", "toilets:wheelchair": "limited", "wheelchair": "no"}}, {"type": "node", "id": 4933471031, "lat": 46.5922626, "lon": 16.9190525, "tags": {"amenity": "pub", "fixme": "verify", "name": "Hegyi Man\u00f3k Bet\u00e9r\u0151je", "source": "route4u", "toilets:wheelchair": "limited", "wheelchair": "limited"}}, {"type": "node", "id": 4933471180, "lat": 46.6805435, "lon": 16.9860638, "tags": {"amenity": "pub", "fixme": "verify", "name": "Italbolt", "source": "route4u", "toilets:wheelchair": "no", "wheelchair": "limited"}}, {"type": "node", "id": 4933471410, "lat": 46.819512, "lon": 16.940195, "tags": {"amenity": "pub", "fixme": "verify", "name": "Z\u00f6ld \u00c1sz Italbolt", "source": "route4u", "toilets:wheelchair": "no", "wheelchair": "no"}}, {"type": "node", "id": 4933471604, "lat": 46.8437269, "lon": 16.8768054, "tags": {"amenity": "pub", "fixme": "Need a more punctual location.", "name": "Gond\u0171z\u0151 Bet\u00e9r\u0151", "source": "route4u", "toilets:wheelchair": "limited", "wheelchair": "limited"}}, {"type": "node", "id": 4939173914, "lat": 46.8419436, "lon": 16.848869, "tags": {"amenity": "pub", "fixme": "verify", "name": "Sz\u00edn\u00e9sz Klub", "source": "route4u"}}, {"type": "node", "id": 4939174037, "lat": 46.7659901, "lon": 17.2420571, "tags": {"amenity": "pub", "name": "Matr\u00f3z S\u00f6r\u00f6z\u0151", "source": "route4u", "toilets:wheelchair": "no", "wheelchair": "yes"}}, {"type": "node", "id": 4939179577, "lat": 46.8377116, "lon": 16.8465196, "tags": {"amenity": "pub", "fixme": "verify", "name": "Otell\u00f3 Drink-B\u00e1r", "source": "route4u", "toilets:wheelchair": "no", "wheelchair": "no"}}, {"type": "node", "id": 4939278622, "lat": 46.7660694, "lon": 17.2423195, "tags": {"addr:city": "Keszthely", "addr:housenumber": "2", "addr:postcode": "8360", "addr:street": "V\u00e1rosh\u00e1z utca", "amenity": "pub", "name": "Dick Turpin's Pub", "source": "route4u", "toilets:wheelchair": "no", "wheelchair": "no"}}, {"type": "node", "id": 5031106628, "lat": 46.674163, "lon": 17.0578758, "tags": {"amenity": "pub"}}, {"type": "node", "id": 5085306641, "lat": 46.700715, "lon": 17.1078211}, {"type": "node", "id": 5085306642, "lat": 46.700715, "lon": 17.1080357}, {"type": "node", "id": 5085306643, "lat": 46.7007885, "lon": 17.1080357}, {"type": "node", "id": 5085306644, "lat": 46.7007885, "lon": 17.1078211}, {"type": "node", "id": 6083664221, "lat": 46.6028737, "lon": 16.989232, "tags": {"amenity": "pub", "name": "H\u00e9t \u00f6rd\u00f6g pressz\u00f3"}}, {"type": "node", "id": 6090867444, "lat": 46.633375, "lon": 17.2786963, "tags": {"amenity": "pub", "name": "Italbolt", "source": "route4u"}}, {"type": "node", "id": 6093961733, "lat": 46.8737365, "lon": 16.8686807, "tags": {"amenity": "pub", "name": "Z\u00f6ldfa S\u00f6r\u00f6z\u0151", "source": "route4u"}}, {"type": "node", "id": 6101119283, "lat": 46.8466296, "lon": 16.8326429, "tags": {"addr:street": "Ola utca", "amenity": "pub", "name": "Svejk S\u00f6r\u00f6z\u0151", "source": "route4u"}}, {"type": "node", "id": 6101119592, "lat": 46.8613808, "lon": 16.7993929, "tags": {"addr:street": "Andr\u00e1shida utca", "amenity": "pub", "name": "Miszori Kocsma", "source": "route4u"}}, {"type": "node", "id": 6101119594, "lat": 46.8538389, "lon": 16.777204, "tags": {"addr:city": "Tesk\u00e1nd", "addr:housenumber": "43", "addr:postcode": "8991", "addr:street": "Pet\u0151fi S\u00e1ndor utca", "amenity": "pub", "name": "K\u00e9tl\u00e9pcs\u0151s kocsma", "source": "route4u;local knowledge"}}, {"type": "node", "id": 6127153330, "lat": 46.9022292, "lon": 16.9495976, "tags": {"amenity": "pub", "name": "Liget S\u00f6r\u00f6z\u0151", "source": "route4u"}}, {"type": "node", "id": 6175197038, "lat": 46.8411996, "lon": 16.8511331, "tags": {"addr:street": "B\u00edr\u00f3 M\u00e1rton utca", "amenity": "pub", "name": "Lucullus S\u00f6r\u00f6z\u0151", "source": "route4u"}}, {"type": "node", "id": 6175197040, "lat": 46.8430394, "lon": 16.8513146, "tags": {"addr:street": "B\u00edr\u00f3 M\u00e1rton utca", "amenity": "pub", "name": "Indi\u00e1n Kocsma", "source": "route4u"}}, {"type": "node", "id": 6175197041, "lat": 46.8445607, "lon": 16.851319, "tags": {"addr:street": "Stadion utca", "amenity": "pub", "name": "Lumen S\u00f6r\u00f6z\u0151", "source": "route4u"}}, {"type": "node", "id": 6175197047, "lat": 46.8344547, "lon": 16.8469158, "tags": {"amenity": "pub", "name": "Kik\u00f6t\u0151 S\u00f6r\u00f6z\u0151", "source": "route4u"}}, {"type": "node", "id": 6175197052, "lat": 46.8285704, "lon": 16.8337966, "tags": {"amenity": "pub", "name": "Joker S\u00f6r\u00f6z\u0151", "source": "route4u"}}, {"type": "node", "id": 8978416101, "lat": 46.7660556, "lon": 17.2414073, "tags": {"addr:city": "Keszthely", "addr:housenumber": "6", "addr:postcode": "8360", "addr:street": "V\u00e1rosh\u00e1z utca", "amenity": "pub", "name": "\u00c1nizs Caf\u00e9 & Pub"}}, {"type": "node", "id": 8980650757, "lat": 46.766515, "lon": 17.241331, "tags": {"addr:city": "Keszthely", "addr:housenumber": "8", "addr:postcode": "8360", "addr:street": "Peth\u0151 utca", "amenity": "pub", "name": "Vonyarci H\u00f6rp\u00f6get\u0151 Boroz\u00f3"}}, {"type": "node", "id": 9429647783, "lat": 46.8369513, "lon": 16.8411496, "tags": {"amenity": "pub", "name": "\u00c9va Pressz\u00f3"}}, {"type": "way", "id": 171713965, "nodes": [1827044373, 1827044370, 1827044366, 1827044404, 1827044406, 1827044383, 1827044384, 1827044374, 1827044377, 1827044386, 1827044387, 1827044400, 1827044402, 1827044410, 1827044413, 1827044373], "tags": {"addr:street": "Ady Endre utca", "amenity": "pub", "building": "yes", "name": "Pedro \u00c9tterem", "opening_hours": "Mo,Tu 11:00-14:00; We,Th 11:00-22:00; Fr 11:00-24:00; Sa 12:00-24:00"}}, {"type": "way", "id": 200995215, "nodes": [2109468311, 2109468423, 2109468278, 2109468372, 2109468373, 2109468230, 2109468322, 2109468325, 2109468311], "tags": {"amenity": "pub", "building": "residential", "name": "Faludi S\u00f6r\u00f6z\u0151"}}, {"type": "way", "id": 201932820, "nodes": [2119381921, 2119381904, 2119381960, 2119381925, 2119381921], "tags": {"amenity": "pub", "building": "yes", "mapillary": "521783918965864", "name": "Lazarra Caf\u00e9", "outdoor_seating": "yes"}}, {"type": "way", "id": 202595984, "nodes": [2125656027, 2125656050, 2125655939, 2125655861, 2125656027], "tags": {"addr:city": "Keszthely", "addr:housenumber": "51/a", "addr:postcode": "8360", "addr:street": "Vak Botty\u00e1n utca", "amenity": "pub", "building": "yes", "name": "Iroda S\u00f6r\u00f6z\u0151", "outdoor_seating": "yes"}}, {"type": "way", "id": 205388811, "nodes": [2153600466, 2153600469, 4337590926, 4337590925, 4337590927, 4337590928, 2153600470, 2153600455, 2153600466], "tags": {"amenity": "pub", "building": "yes"}}, {"type": "way", "id": 205729566, "nodes": [2157042642, 2157042687, 2157042688, 2157042631, 2157042643, 2157042740, 2157042642], "tags": {"amenity": "pub", "building": "residential", "name": "T\u00e1tika pressz\u00f3"}}, {"type": "way", "id": 206434687, "nodes": [2164402866, 2164402869, 2164402858, 2164402865, 2164402861, 2164402867, 2164402860, 2164402857, 2164402866], "tags": {"addr:street": "Kov\u00e1cs K\u00e1roly t\u00e9r", "amenity": "pub", "building": "yes"}}, {"type": "way", "id": 206846612, "nodes": [2168939146, 2168939148, 2168939144, 2168939156, 2168939146], "tags": {"addr:street": "Berzsenyi D\u00e1niel utca", "amenity": "pub", "building": "commercial", "building:colour": "white", "building:levels": "1", "building:material": "plaster", "name": "6:3 pressz\u00f3", "roof:shape": "pyramidal"}}, {"type": "way", "id": 289424919, "nodes": [2929721143, 2929721147, 2929721145, 2929721142, 2929721143], "tags": {"amenity": "pub", "building": "yes", "name": "Kaiser pressz\u00f3", "opening_hours": "Mo-Fr 06:30-12:00, 14:30-21:00; Sa 06:30-12:30,14:30-21:00; Su 07:30-12:30, 14:30-21:00"}}, {"type": "way", "id": 295789248, "nodes": [2995486592, 2995486591, 2995486587, 2995486590, 2995486592], "tags": {"amenity": "pub", "building": "commercial"}}, {"type": "way", "id": 467989313, "nodes": [4625470990, 4625465088, 4625465087, 4625465086, 4625465085, 4625470989, 4625470990], "tags": {"amenity": "pub", "building": "yes", "name": "Kokt\u00e9l pressz\u00f3"}}, {"type": "way", "id": 522014464, "nodes": [5085306644, 5085306643, 5085306642, 5085306641, 5085306644], "tags": {"amenity": "pub", "building": "yes"}}]}