{"version": 0.6, "generator": "Overpass API 0.7.59 e21c39fe", "osm3s": {"timestamp_osm_base": "2023-01-20T17:55:59Z", "copyright": "The data included in this document is from www.openstreetmap.org. The data is made available under ODbL."}, "elements": [{"type": "node", "id": 3211250243, "lat": 48.0391385, "lon": 19.168389}, {"type": "node", "id": 3211250244, "lat": 48.0392031, "lon": 19.1681735}, {"type": "node", "id": 3211250245, "lat": 48.0393203, "lon": 19.168252}, {"type": "node", "id": 3211250246, "lat": 48.039292, "lon": 19.1683464}, {"type": "node", "id": 3211250247, "lat": 48.0392214, "lon": 19.168299}, {"type": "node", "id": 3211250248, "lat": 48.039185, "lon": 19.1684202}, {"type": "node", "id": 3446895000, "lat": 47.8978087, "lon": 19.6056093, "tags": {"amenity": "library", "source": "turistautak.hu", "source:date": "2011-07-10", "url": "http://turistautak.hu/poi.php?id=58616"}}, {"type": "node", "id": 3446895764, "lat": 47.9681088, "lon": 19.6087091, "tags": {"amenity": "telephone", "payment:coins": "yes", "phone": "+36 32 384 101", "source": "turistautak.hu", "source:date": "2012-12-10", "url": "http://turistautak.hu/poi.php?id=39228"}}, {"type": "node", "id": 3471781300, "lat": 48.0371598, "lon": 19.3226165, "tags": {"amenity": "library", "name": "K\u00f6nyvt\u00e1r"}}, {"type": "node", "id": 4193545004, "lat": 48.080491, "lon": 19.2978769, "tags": {"addr:city": "Balassagyarmat", "addr:housenumber": "50", "addr:postcode": "2660", "addr:street": "R\u00e1k\u00f3czi fejedelem \u00fatja", "amenity": "library", "name": "Mad\u00e1ch Imre V\u00e1rosi K\u00f6nyvt\u00e1r", "website": "http://www.vkbalassa.hu/"}}, {"type": "node", "id": 4340381326, "lat": 47.9386164, "lon": 19.5836305}, {"type": "node", "id": 4340381327, "lat": 47.938665, "lon": 19.5838061}, {"type": "node", "id": 4340381328, "lat": 47.9388662, "lon": 19.5834764}, {"type": "node", "id": 4340381331, "lat": 47.9389149, "lon": 19.5836521}, {"type": "node", "id": 4361554931, "lat": 47.9679708, "lon": 19.6086523}, {"type": "node", "id": 4361554933, "lat": 47.9679945, "lon": 19.6085241}, {"type": "node", "id": 4361554935, "lat": 47.968137, "lon": 19.6087207}, {"type": "node", "id": 4361554937, "lat": 47.9681606, "lon": 19.6085925}, {"type": "node", "id": 4469262495, "lat": 47.7925447, "lon": 19.3865708, "tags": {"amenity": "library", "name": "K\u00f6nyvt\u00e1r"}}, {"type": "node", "id": 4811654751, "lat": 47.8054834, "lon": 19.2491127}, {"type": "node", "id": 4811654752, "lat": 47.8054449, "lon": 19.249053}, {"type": "node", "id": 4811654753, "lat": 47.8054057, "lon": 19.249109}, {"type": "node", "id": 4811654754, "lat": 47.80539, "lon": 19.2490846}, {"type": "node", "id": 4811654755, "lat": 47.8053694, "lon": 19.249114}, {"type": "node", "id": 4811654756, "lat": 47.8053864, "lon": 19.2491404}, {"type": "node", "id": 4811654757, "lat": 47.8053538, "lon": 19.2491868}, {"type": "node", "id": 4811654758, "lat": 47.8053911, "lon": 19.2492446}, {"type": "node", "id": 4825498421, "lat": 48.136327, "lon": 19.4487808, "tags": {"addr:city": "Zombor", "addr:conscriptionnumber": "65", "addr:housenumber": "65", "addr:place": "Zombor", "addr:postcode": "991 22", "amenity": "library", "contact:email": "obeczombor1@gmail.com", "contact:phone": "+421 47 487 1138", "name": "Obecn\u00e1 kni\u017enica Zombor"}}, {"type": "node", "id": 4825498422, "lat": 48.0690903, "lon": 19.201129, "tags": {"addr:city": "Ve\u013ek\u00e1 \u010calomija", "addr:conscriptionnumber": "214", "addr:housenumber": "214", "addr:place": "Ve\u013ek\u00e1 \u010calomija", "addr:postcode": "991 09", "amenity": "library", "contact:email": "velkacalomija@velkacalomija.sk", "contact:phone": "+421 47 487 5116", "name": "Obecn\u00e1 kni\u017enica Ve\u013ek\u00e1 \u010calomija"}}, {"type": "node", "id": 4825498423, "lat": 48.1158947, "lon": 19.1992126, "tags": {"addr:city": "Trebu\u0161ovce", "addr:conscriptionnumber": "33", "addr:housenumber": "33", "addr:place": "Trebu\u0161ovce", "addr:postcode": "991 27", "amenity": "library", "contact:email": "obectrebusovce@azet.sk", "contact:phone": "+421 47 489 4103", "name": "Obecn\u00e1 kni\u017enica Trebu\u0161ovce"}}, {"type": "node", "id": 4825498424, "lat": 48.0915012, "lon": 19.2899595, "tags": {"addr:city": "Slovensk\u00e9 \u010earmoty", "addr:conscriptionnumber": "99", "addr:housenumber": "99", "addr:place": "Slovensk\u00e9 \u010earmoty", "addr:postcode": "911 07", "amenity": "library", "contact:email": "obecslov.darmoty@mail.t-com.sk", "contact:phone": "+421 47 489 4196", "name": "Obecn\u00e1 kni\u017enica Slovensk\u00e9 \u010earmoty"}}, {"type": "node", "id": 4825498427, "lat": 48.114984, "lon": 19.2757888, "tags": {"addr:city": "Opatovsk\u00e1 Nov\u00e1 Ves", "addr:conscriptionnumber": "189", "addr:housenumber": "189", "addr:place": "Opatovsk\u00e1 Nov\u00e1 Ves", "addr:postcode": "991 07", "amenity": "library", "contact:email": "ocuonves@gmail.com", "contact:phone": "+421 47 489 4201", "name": "Obecn\u00e1 kni\u017enica Opatovsk\u00e1 Nov\u00e1 Ves"}}, {"type": "node", "id": 4825498430, "lat": 48.0757402, "lon": 19.1759404, "tags": {"addr:city": "Kosihy nad Ip\u013eom", "addr:conscriptionnumber": "164", "addr:housenumber": "164", "addr:place": "Kosihy nad Ip\u013eom", "addr:postcode": "991 11", "amenity": "library", "contact:email": "kosihynadiplom@zoznam.sk", "contact:phone": "+421 907 818 947", "name": "Obecn\u00e1 kni\u017enica Kosihy nad Ip\u013eom"}}, {"type": "node", "id": 4825498431, "lat": 48.0696379, "lon": 19.2476191, "tags": {"addr:city": "Kol\u00e1re", "addr:conscriptionnumber": "1", "addr:housenumber": "1", "addr:place": "Kol\u00e1re", "addr:postcode": "991 09", "amenity": "library", "contact:email": "kolare@mail.t-com.sk", "contact:phone": "+421 47 489 4266", "name": "Obecn\u00e1 kni\u017enica Kol\u00e1re"}}, {"type": "node", "id": 4825498432, "lat": 48.1094143, "lon": 19.4083329, "tags": {"addr:city": "Kiarov", "addr:conscriptionnumber": "25", "addr:housenumber": "25", "addr:place": "Kiarov", "addr:postcode": "991 06", "amenity": "library", "contact:email": "kiarov@gonet.sk", "contact:phone": "+421 47 488 1180", "name": "Obecn\u00e1 kni\u017enica Kiarov"}}, {"type": "node", "id": 4825498435, "lat": 48.1526784, "lon": 19.4557554, "tags": {"addr:city": "Glabu\u0161ovce", "addr:conscriptionnumber": "24", "addr:housenumber": "24", "addr:place": "Glabu\u0161ovce", "addr:postcode": "991 22", "amenity": "library", "contact:email": "glabusovce@gmail.com", "contact:phone": "+421 47 487 1180", "name": "Obecn\u00e1 kni\u017enica Glabu\u0161ovce"}}, {"type": "node", "id": 4825498439, "lat": 48.139864, "lon": 19.1927321, "tags": {"addr:city": "Kamenn\u00e9 Kosihy", "addr:conscriptionnumber": "3", "addr:housenumber": "3", "addr:place": "Kamenn\u00e9 Kosihy", "addr:postcode": "991 27", "amenity": "library", "contact:email": "obeckosihy@slovanet.sk", "contact:phone": "+421 47 488 4113", "name": "Obecn\u00e1 kni\u017enica Kamenn\u00e9 Kosihy"}}, {"type": "node", "id": 4825498443, "lat": 48.1411322, "lon": 19.4917701, "tags": {"addr:city": "\u010cel\u00e1re", "addr:conscriptionnumber": "120", "addr:housenumber": "120", "addr:place": "\u010cel\u00e1re", "addr:postcode": "991 22", "amenity": "library", "contact:email": "obec.celare@gmail.com", "contact:phone": "+421 917 483 274", "name": "Obecn\u00e1 kni\u017enica \u010cel\u00e1re"}}, {"type": "node", "id": 4825498445, "lat": 48.0841971, "lon": 19.2292866, "tags": {"addr:city": "Mal\u00e1 \u010calomija", "addr:conscriptionnumber": "45", "addr:housenumber": "45", "addr:place": "Mal\u00e1 \u010calomija", "addr:postcode": "991 08", "amenity": "library", "contact:email": "m.hlacok@mail.t-com.sk", "contact:phone": "+421 47 489 4102", "name": "Obecn\u00e1 kni\u017enica Mal\u00e1 \u010calomija"}}, {"type": "node", "id": 4973570652, "lat": 47.9263992, "lon": 19.4404082}, {"type": "node", "id": 4973570653, "lat": 47.9264632, "lon": 19.4407862}, {"type": "node", "id": 4973570654, "lat": 47.9265579, "lon": 19.4407505}, {"type": "node", "id": 4973570655, "lat": 47.926494, "lon": 19.4403725}, {"type": "node", "id": 5961474130, "lat": 47.9201187, "lon": 19.6959981}, {"type": "node", "id": 5961474131, "lat": 47.9201547, "lon": 19.6961787}, {"type": "node", "id": 5961474132, "lat": 47.9202058, "lon": 19.6961574}, {"type": "node", "id": 5961474133, "lat": 47.9202091, "lon": 19.6961787}, {"type": "node", "id": 5961474134, "lat": 47.9202615, "lon": 19.6961568}, {"type": "node", "id": 5961474135, "lat": 47.9202573, "lon": 19.6961318}, {"type": "node", "id": 5961474136, "lat": 47.9204504, "lon": 19.6960477}, {"type": "node", "id": 5961474137, "lat": 47.9204181, "lon": 19.6958627}, {"type": "node", "id": 5961479828, "lat": 47.9204369, "lon": 19.6959724}, {"type": "node", "id": 5964107637, "lat": 48.0824396, "lon": 19.5195425}, {"type": "node", "id": 5964107638, "lat": 48.0825942, "lon": 19.5201248}, {"type": "node", "id": 5964107639, "lat": 48.0823, "lon": 19.5202927}, {"type": "node", "id": 5964107640, "lat": 48.0821479, "lon": 19.5197104}, {"type": "node", "id": 6772901918, "lat": 47.9970588, "lon": 19.198094, "tags": {"amenity": "library"}}, {"type": "node", "id": 7923480351, "lat": 48.1350709, "lon": 19.7504495, "tags": {"amenity": "library", "internet_access": "yes", "internet_access:fee": "no", "internet_access:ssid": "Nincs", "name": "Karancsaljai K\u00f6zs\u00e9gi K\u00f6nyvt\u00e1r", "operator": "\u00d6nkorm\u00e1nyzat", "operator:type": "government"}}, {"type": "node", "id": 8320583932, "lat": 47.7726565, "lon": 19.458186, "tags": {"amenity": "library", "name": "K\u00f6zs\u00e9gi K\u00f6nyvt\u00e1r"}}, {"type": "node", "id": 8355578688, "lat": 48.1384549, "lon": 19.5288362}, {"type": "node", "id": 8355578689, "lat": 48.13843, "lon": 19.528914}, {"type": "node", "id": 8355578690, "lat": 48.1382546, "lon": 19.5287878}, {"type": "node", "id": 8355578691, "lat": 48.1382796, "lon": 19.5287099}, {"type": "node", "id": 9028240899, "lat": 48.072923, "lon": 19.6799241, "tags": {"amenity": "library"}}, {"type": "node", "id": 9295843875, "lat": 47.9751773, "lon": 19.4726819, "tags": {"amenity": "library"}}, {"type": "node", "id": 9326799920, "lat": 47.9909583, "lon": 19.3397905, "tags": {"amenity": "library", "name": "K\u00f6zs\u00e9gi K\u00f6nyvt\u00e1r"}}, {"type": "node", "id": 9420429846, "lat": 48.0859991, "lon": 19.4290853, "tags": {"amenity": "library"}}, {"type": "node", "id": 9422817790, "lat": 48.1042073, "lon": 19.677899, "tags": {"amenity": "library", "name": "K\u00f6zs\u00e9gi K\u00f6nyvt\u00e1r"}}, {"type": "node", "id": 10159396853, "lat": 47.9398869, "lon": 19.3078937, "tags": {"amenity": "library"}}, {"type": "way", "id": 315041518, "nodes": [3211250243, 3211250244, 3211250245, 3211250246, 3211250247, 3211250248, 3211250243], "tags": {"amenity": "library", "building": "yes"}}, {"type": "way", "id": 436160790, "nodes": [4340381328, 4340381326, 4340381327, 4340381331, 4340381328], "tags": {"amenity": "library", "building": "yes"}}, {"type": "way", "id": 438409256, "nodes": [4361554935, 3446895764, 4361554931, 4361554933, 4361554937, 4361554935], "tags": {"addr:city": "Fels\u0151told", "addr:housenumber": "10", "addr:postcode": "3067", "addr:street": "Sz\u00e9chenyi utca", "amenity": "library", "building": "yes", "building:levels": "1", "operator": "Zsiga J\u00e1nosn\u00e9", "operator:type": "public", "ref:isil": "HU-IL-002225-1"}}, {"type": "way", "id": 488880394, "nodes": [4811654751, 4811654752, 4811654753, 4811654754, 4811654755, 4811654756, 4811654757, 4811654758, 4811654751], "tags": {"addr:city": "Penc", "addr:postcode": "2614", "addr:street": "Pet\u0151fi utca", "amenity": "library", "building": "yes", "name": "K\u00f6nyvt\u00e1ri Inform\u00e1ci\u00f3s \u00e9s k\u00f6z\u00f6ss\u00e9gi hely", "opening_hours": "Tu 15:00-17:00; Th 15:00-17:00"}}, {"type": "way", "id": 507948407, "nodes": [4973570655, 4973570654, 4973570653, 4973570652, 4973570655], "tags": {"amenity": "library", "building": "yes", "name": "K\u00f6zs\u00e9gi K\u00f6nyvt\u00e1r Szanda"}}, {"type": "way", "id": 631284610, "nodes": [5961474130, 5961474131, 5961474132, 5961474133, 5961474134, 5961474135, 5961474136, 5961479828, 5961474137, 5961474130], "tags": {"addr:city": "P\u00e1szt\u00f3", "addr:housenumber": "3", "addr:postcode": "3060", "addr:street": "Nagymez\u0151 utca", "amenity": "library", "building": "public", "building:levels": "3", "name": "Teleki L\u00e1szl\u00f3 V\u00e1rosi K\u00f6nyvt\u00e1r", "phone": "+36-32-463-361", "website": "http://vkmkpaszto.hu/"}}, {"type": "way", "id": 631580325, "nodes": [5964107637, 5964107638, 5964107639, 5964107640, 5964107637], "tags": {"addr:city": "Sz\u00e9cs\u00e9ny", "addr:postcode": "3170", "addr:street": "Ady Endre utca", "amenity": "library", "building": "yes", "name": "Kr\u00fady Gyula V\u00e1rosi K\u00f6nyvt\u00e1r", "source": "turistautak.hu", "url": "http://turistautak.hu/poi.php?id=100378"}}, {"type": "way", "id": 899265481, "nodes": [8355578688, 8355578689, 8355578690, 8355578691, 8355578688], "tags": {"amenity": "library", "building": "yes", "name": "K\u00f6nyvt\u00e1r \u2013 Digit\u00e1lis J\u00f3l\u00e9t Program pont"}}]}