{"version": 0.6, "generator": "Overpass API 0.7.59 e21c39fe", "osm3s": {"timestamp_osm_base": "2023-01-21T09:24:38Z", "copyright": "The data included in this document is from www.openstreetmap.org. The data is made available under ODbL."}, "elements": [{"type": "node", "id": 2469211585, "lat": 46.6233529, "lon": 16.54733}, {"type": "node", "id": 2469211586, "lat": 46.6231952, "lon": 16.5472988}, {"type": "node", "id": 2469211587, "lat": 46.6231894, "lon": 16.547364}, {"type": "node", "id": 2469211588, "lat": 46.6228603, "lon": 16.5472903}, {"type": "node", "id": 2469211589, "lat": 46.6228545, "lon": 16.547347}, {"type": "node", "id": 2469211590, "lat": 46.6228097, "lon": 16.5473413}, {"type": "node", "id": 2469211591, "lat": 46.6227902, "lon": 16.5475256}, {"type": "node", "id": 2469211592, "lat": 46.6233257, "lon": 16.5476276}, {"type": "node", "id": 2469223587, "lat": 46.625175, "lon": 16.5442277}, {"type": "node", "id": 2469223589, "lat": 46.6248355, "lon": 16.543947}, {"type": "node", "id": 2469223590, "lat": 46.6247676, "lon": 16.544117}, {"type": "node", "id": 2469223592, "lat": 46.6248627, "lon": 16.544204}, {"type": "node", "id": 2469223594, "lat": 46.6247595, "lon": 16.5444768}, {"type": "node", "id": 2469223595, "lat": 46.6249958, "lon": 16.5446785}, {"type": "node", "id": 2506207593, "lat": 46.6247943, "lon": 16.5445065, "tags": {"amenity": "atm", "brand": "OTP Bank", "brand:wikidata": "Q912778", "name": "OTP Bank", "operator": "OTP Bank", "operator:wikidata": "Q912778", "short_name": "OTP"}}, {"type": "node", "id": 2861806176, "lat": 46.6241678, "lon": 16.5414252}, {"type": "node", "id": 2861806177, "lat": 46.624005, "lon": 16.5412275}, {"type": "node", "id": 2861806178, "lat": 46.6238814, "lon": 16.5414438}, {"type": "node", "id": 2861806179, "lat": 46.6240486, "lon": 16.5416402}, {"type": "node", "id": 2861865780, "lat": 46.6246944, "lon": 16.5402873, "tags": {"brand": "CBA", "brand:wikidata": "Q779845", "brand:wikipedia": "en:CBA (food retail)", "name": "CBA", "shop": "supermarket", "wheelchair": "no"}}, {"type": "node", "id": 2862035180, "lat": 46.6228605, "lon": 16.5414183, "tags": {"name": "Coop", "opening_hours": "Mo-Fr 06:00-17:00; Sa 06:00-13:00", "shop": "supermarket", "website": "http://coop.hu", "wheelchair": "no"}}, {"type": "node", "id": 3009569085, "lat": 46.8387618, "lon": 16.4192954}, {"type": "node", "id": 3009569086, "lat": 46.8386487, "lon": 16.4194357}, {"type": "node", "id": 3009569087, "lat": 46.8387014, "lon": 16.4195266}, {"type": "node", "id": 3009569088, "lat": 46.8385233, "lon": 16.4197475}, {"type": "node", "id": 3009569089, "lat": 46.8386188, "lon": 16.4199121}, {"type": "node", "id": 3009569090, "lat": 46.83891, "lon": 16.4195509}, {"type": "node", "id": 3009569096, "lat": 46.8387319, "lon": 16.4193325}, {"type": "node", "id": 4254267184, "lat": 46.8372138, "lon": 16.4994356}, {"type": "node", "id": 4254267185, "lat": 46.8372243, "lon": 16.4992885}, {"type": "node", "id": 4254268390, "lat": 46.8373893, "lon": 16.4994625}, {"type": "node", "id": 4254268391, "lat": 46.8373998, "lon": 16.4993154}, {"type": "node", "id": 4254268542, "lat": 46.8455117, "lon": 16.5856767}, {"type": "node", "id": 4254268543, "lat": 46.8455175, "lon": 16.5858719}, {"type": "node", "id": 4254268544, "lat": 46.8456051, "lon": 16.5858664}, {"type": "node", "id": 4254268545, "lat": 46.8456092, "lon": 16.586007}, {"type": "node", "id": 4254268546, "lat": 46.845711, "lon": 16.5856642}, {"type": "node", "id": 4254268547, "lat": 46.8457209, "lon": 16.586}, {"type": "node", "id": 4349417098, "lat": 46.625082, "lon": 16.5441508}, {"type": "node", "id": 4349417102, "lat": 46.6249804, "lon": 16.5440668}, {"type": "node", "id": 4349417104, "lat": 46.6248784, "lon": 16.5439824}, {"type": "node", "id": 4349417107, "lat": 46.6247933, "lon": 16.5441406}, {"type": "node", "id": 6254182542, "lat": 46.6247907, "lon": 16.5443943}, {"type": "node", "id": 6935517319, "lat": 46.6232365, "lon": 16.5426046, "tags": {"shop": "supermarket"}}, {"type": "node", "id": 7975746649, "lat": 46.5269935, "lon": 16.7274822, "tags": {"addr:city": "B\u00e1zakerettye", "addr:housenumber": "1", "addr:postcode": "8887", "addr:street": "Pet\u0151fi S\u00e1ndor utca", "name": "Falusi szupermarket", "opening_hours": "Mo-Fr 06:00-19:00; Sa 07:00-15:00; Su 11:00-19:00", "operator": "Vad\u00e1sz R\u00f3bert e.v.", "phone": "+36703365266;+36703360960", "shop": "supermarket"}}, {"type": "way", "id": 239117110, "nodes": [2469211585, 2469211586, 2469211587, 2469211588, 2469211589, 2469211590, 2469211591, 2469211592, 2469211585], "tags": {"brand": "PENNY", "brand:wikidata": "Q284688", "brand:wikipedia": "en:Penny (supermarket)", "building": "retail", "contact:website": "http://www.penny.hu", "name": "PENNY", "opening_hours": "Mo-Su 07:00-20:00", "operator": "Penny Market", "shop": "supermarket", "website": "http://www.penny.hu"}}, {"type": "way", "id": 239117894, "nodes": [2469223587, 4349417098, 4349417102, 4349417104, 2469223589, 2469223590, 4349417107, 2469223592, 6254182542, 2469223594, 2506207593, 2469223595, 2469223587], "tags": {"addr:city": "Lenti", "addr:housenumber": "4", "addr:postcode": "8960", "addr:street": "Kisfaludy utca", "brand": "Spar", "brand:wikidata": "Q610492", "brand:wikipedia": "en:Spar (retailer)", "building": "retail", "contact:website": "http://www.spar.hu", "name": "Spar", "operator": "Spar", "shop": "supermarket", "website": "http://www.spar.hu", "wheelchair": "yes"}}, {"type": "way", "id": 282238687, "nodes": [2861806176, 2861806177, 2861806178, 2861806179, 2861806176], "tags": {"addr:city": "Lenti", "addr:housenumber": "2", "addr:postcode": "8960", "addr:street": "Zr\u00ednyi Mikl\u00f3s utca", "building": "retail", "name": "Fezo", "opening_hours": "Mo-Fr 06:00-20:00; Sa 06:00-17:00; Su 07:00-12:00", "operator": "FE-ZO KFT", "payment:cash": "yes", "payment:credit_cards": "yes", "phone": "+36 94 434 047", "shop": "supermarket", "wheelchair": "no"}}, {"type": "way", "id": 297120274, "nodes": [3009569085, 3009569096, 3009569086, 3009569087, 3009569088, 3009569089, 3009569090, 3009569085], "tags": {"addr:city": "\u0150riszentp\u00e9ter", "addr:housenumber": "32", "addr:postcode": "9941", "addr:street": "V\u00e1rosszer", "branch": "8. ABC", "brand": "FEZO", "building": "retail", "building:levels": "1", "name": "FEZO", "opening_hours": "Mo-Sa 06:00-19:00; Su 06:00-13:00", "roof:levels": "1", "shop": "supermarket", "toilets:wheelchair": "no", "wheelchair": "yes"}}, {"type": "way", "id": 426111308, "nodes": [4254268546, 4254268547, 4254268545, 4254268544, 4254268543, 4254268542, 4254268546], "tags": {"building": "retail", "name": "Re\u00e1l \u00e9lelmiszerbolt", "shop": "supermarket", "wheelchair": "yes"}}, {"type": "way", "id": 426111362, "nodes": [4254268391, 4254268390, 4254267184, 4254267185, 4254268391], "tags": {"building": "retail", "mapillary": "3933104193422853", "name": "Coop", "opening_hours": "Mo-Fr 07:00-16:00; Sa 07:00-11:00; Su 08:00-10:00", "shop": "supermarket", "toilets:wheelchair": "no", "wheelchair": "no"}}]}