{"version": 0.6, "generator": "Overpass API 0.7.59 e21c39fe", "osm3s": {"timestamp_osm_base": "2023-01-21T09:47:07Z", "copyright": "The data included in this document is from www.openstreetmap.org. The data is made available under ODbL."}, "elements": [{"type": "node", "id": 2050067806, "lat": 46.5936859, "lon": 16.4599826}, {"type": "node", "id": 2050067808, "lat": 46.5937276, "lon": 16.4598291}, {"type": "node", "id": 2050067812, "lat": 46.5938704, "lon": 16.4601033}, {"type": "node", "id": 2050067813, "lat": 46.5939155, "lon": 16.4599372}, {"type": "node", "id": 2071214453, "lat": 46.8217979, "lon": 16.2787918}, {"type": "node", "id": 2071214457, "lat": 46.8218007, "lon": 16.2790083}, {"type": "node", "id": 2071214460, "lat": 46.8218932, "lon": 16.2787892}, {"type": "node", "id": 2071214462, "lat": 46.8218931, "lon": 16.2788164}, {"type": "node", "id": 2071214465, "lat": 46.8218954, "lon": 16.2789648}, {"type": "node", "id": 2071214468, "lat": 46.821896, "lon": 16.2790057}, {"type": "node", "id": 2862127509, "lat": 46.6237115, "lon": 16.5469788}, {"type": "node", "id": 2862127511, "lat": 46.6236403, "lon": 16.5468504}, {"type": "node", "id": 2862127512, "lat": 46.6236252, "lon": 16.5468779}, {"type": "node", "id": 2862127513, "lat": 46.6237776, "lon": 16.546859}, {"type": "node", "id": 2862127514, "lat": 46.6236718, "lon": 16.5467911}, {"type": "node", "id": 2862127515, "lat": 46.6236905, "lon": 16.5467572}, {"type": "node", "id": 3012042865, "lat": 46.6190827, "lon": 16.5459159, "tags": {"amenity": "fuel", "name": "Benzink\u00fat Zala Vol\u00e1n Zrt."}}, {"type": "node", "id": 3451489172, "lat": 46.5939019, "lon": 16.4599874, "tags": {"amenity": "toilets"}}, {"type": "node", "id": 3617650308, "lat": 46.7428537, "lon": 16.3085574}, {"type": "node", "id": 3617650309, "lat": 46.742821, "lon": 16.3085193}, {"type": "node", "id": 3617650310, "lat": 46.7427685, "lon": 16.3086152}, {"type": "node", "id": 3617650311, "lat": 46.7428013, "lon": 16.3086534}, {"type": "node", "id": 3671528894, "lat": 46.8380904, "lon": 16.4184401}, {"type": "node", "id": 3671528895, "lat": 46.8381396, "lon": 16.4181782}, {"type": "node", "id": 3671528896, "lat": 46.8381685, "lon": 16.4182656}, {"type": "node", "id": 3671528897, "lat": 46.8380584, "lon": 16.4183432}, {"type": "node", "id": 3671528898, "lat": 46.8380055, "lon": 16.4185}, {"type": "node", "id": 3671528903, "lat": 46.8379447, "lon": 16.4183158}, {"type": "node", "id": 5170732702, "lat": 46.6224408, "lon": 16.518785}, {"type": "node", "id": 5170732703, "lat": 46.6224397, "lon": 16.5188862}, {"type": "node", "id": 5170732704, "lat": 46.6223444, "lon": 16.518884}, {"type": "node", "id": 5170732705, "lat": 46.6223455, "lon": 16.5187828}, {"type": "node", "id": 5265523870, "lat": 46.6155064, "lon": 16.4641233}, {"type": "node", "id": 5265523871, "lat": 46.6154013, "lon": 16.4641021}, {"type": "node", "id": 5265523872, "lat": 46.6154228, "lon": 16.4638774}, {"type": "node", "id": 5265523873, "lat": 46.6155279, "lon": 16.4638986}, {"type": "node", "id": 5876782865, "lat": 46.8379919, "lon": 16.4182825}, {"type": "node", "id": 5876782866, "lat": 46.8380478, "lon": 16.4184701}, {"type": "node", "id": 6163070947, "lat": 46.5938945, "lon": 16.4600147}, {"type": "node", "id": 6163070950, "lat": 46.593739, "lon": 16.4600277}, {"type": "node", "id": 6163070951, "lat": 46.5938365, "lon": 16.4600838}, {"type": "node", "id": 6163070952, "lat": 46.5936825, "lon": 16.4599952}, {"type": "node", "id": 7120176286, "lat": 46.5937977, "lon": 16.459987, "tags": {"amenity": "fuel"}}, {"type": "node", "id": 7954651051, "lat": 46.59726, "lon": 16.46141, "tags": {"addr:city": "R\u00e9dics", "addr:postcode": "8978", "addr:street": "86. sz\u00e1m\u00fa f\u0151k\u00f6zleked\u00e9si \u00fat", "air_conditioning": "yes", "amenity": "fuel", "brand": "MOL", "brand:wikidata": "Q549181", "brand:wikipedia": "hu:MOL Magyar Olaj- \u00e9s G\u00e1zipari Nyrt.", "compressed_air": "yes", "contact:facebook": "https://www.facebook.com/mol.magyarorszag/", "contact:instagram": "https://www.instagram.com/mol.magyarorszag/", "contact:website": "https://www.mol.hu", "contact:youtube": "https://www.youtube.com/user/molgrouptv", "fixme": "verify import", "food": "yes", "fuel:GTL_diesel": "yes", "fuel:adblue": "yes", "fuel:diesel": "yes", "fuel:lpg": "no", "fuel:octane_100": "yes", "fuel:octane_95": "yes", "name": "MOL", "operator": "MOL Nyrt.", "operator:addr": "1117 Budapest, Domb\u00f3v\u00e1ri \u00fat 28.", "payment:cash": "yes", "payment:contactless": "yes", "payment:maestro": "yes", "payment:mastercard": "yes", "payment:mastercard_contactless": "yes", "payment:mastercard_electronic": "yes", "payment:visa": "yes", "payment:visa_electron": "yes", "ref:HU:company": "01-10-041683", "ref:HU:vatin": "10625790-4-44", "rent:lpg_bottles": "yes", "source": "website", "source:date": "2022-05-21", "truck": "no"}}, {"type": "node", "id": 9951205913, "lat": 46.5218705, "lon": 16.5178785}, {"type": "node", "id": 9951205937, "lat": 46.5216497, "lon": 16.5180339}, {"type": "node", "id": 9951206004, "lat": 46.5217959, "lon": 16.5180791}, {"type": "node", "id": 9951206029, "lat": 46.5216352, "lon": 16.5179706}, {"type": "node", "id": 9951206210, "lat": 46.5217917, "lon": 16.5180906}, {"type": "node", "id": 9951206236, "lat": 46.5216381, "lon": 16.5179729}, {"type": "node", "id": 9951206416, "lat": 46.5217945, "lon": 16.5180929}, {"type": "node", "id": 9951206443, "lat": 46.5216423, "lon": 16.5179613}, {"type": "node", "id": 9951206508, "lat": 46.5217506, "lon": 16.5181118}, {"type": "node", "id": 9951206629, "lat": 46.5218723, "lon": 16.51788}, {"type": "node", "id": 9951206655, "lat": 46.5216689, "lon": 16.5179817}, {"type": "node", "id": 9951206712, "lat": 46.52177, "lon": 16.5180592}, {"type": "node", "id": 9951206738, "lat": 46.5217133, "lon": 16.5177578}, {"type": "node", "id": 9952537455, "lat": 46.5224521, "lon": 16.5193688}, {"type": "node", "id": 9952537776, "lat": 46.5224671, "lon": 16.5191105}, {"type": "node", "id": 9952537817, "lat": 46.5223645, "lon": 16.5190802}, {"type": "node", "id": 9952537865, "lat": 46.5222728, "lon": 16.519231}, {"type": "node", "id": 9952538311, "lat": 46.522453, "lon": 16.5191492}, {"type": "node", "id": 9952538353, "lat": 46.5223733, "lon": 16.5190871}, {"type": "node", "id": 9952538402, "lat": 46.5223326, "lon": 16.5190645}, {"type": "node", "id": 9952538622, "lat": 46.5223879, "lon": 16.5190489}, {"type": "node", "id": 9952538665, "lat": 46.5223622, "lon": 16.5190867}, {"type": "node", "id": 9952538717, "lat": 46.522303, "lon": 16.5192537}, {"type": "node", "id": 9952538856, "lat": 46.5225156, "lon": 16.519197}, {"type": "way", "id": 194502766, "nodes": [2050067808, 2050067813, 3451489172, 6163070947, 2050067812, 6163070951, 6163070950, 6163070952, 2050067806, 2050067808], "tags": {"addr:city": "Dolga Vas", "addr:country": "SI", "addr:housenumber": "200", "addr:postcode": "9220", "addr:street": "Glavna ulica", "amenity": "fuel", "brand": "Petrol", "building": "yes", "contact:fax": "+386 2 5742431", "contact:phone": "+386 2 5742430", "contact:website": "http://www.petrol.si/bencinski-servisi/podrobno/1732", "fuel:diesel": "yes", "fuel:octane_100": "yes", "fuel:octane_95": "yes", "name": "Petrol - Dolga vas", "opening_hours": "24/7", "operator": "Petrol d.d.", "shop": "yes"}}, {"type": "way", "id": 196827320, "nodes": [2071214460, 2071214462, 2071214465, 2071214468, 2071214457, 2071214453, 2071214460], "tags": {"addr:city": "\u0160alovci", "addr:housenumber": "168b", "addr:postcode": "9204", "addr:street": "\u0160alovci", "amenity": "fuel", "brand": "INA", "building": "yes", "contact:fax": "+386 2 559 12 06", "contact:phone": "+386 2 559 12 04", "name": "INA - \u0160alovci", "opening_hours": "Mo-Fr 07:00-20:00; Sa 07:00-19:00; Su 07:00-13:00", "operator": "InterIna d.o.o.", "shop": "yes"}}, {"type": "way", "id": 307926808, "nodes": [2862127514, 2862127515, 2862127513, 2862127509, 2862127512, 2862127511, 2862127514], "tags": {"addr:city": "Lenti", "addr:housenumber": "3", "addr:postcode": "8960", "addr:street": "Sz\u00e9chenyi t\u00e9r", "air_conditioning": "yes", "amenity": "fuel", "brand": "MOL", "brand:wikidata": "Q549181", "brand:wikipedia": "hu:MOL Magyar Olaj- \u00e9s G\u00e1zipari Nyrt.", "building": "yes", "compressed_air": "yes", "contact:facebook": "https://www.facebook.com/mol.magyarorszag/", "contact:instagram": "https://www.instagram.com/mol.magyarorszag/", "contact:website": "https://www.mol.hu", "contact:youtube": "https://www.youtube.com/user/molgrouptv", "food": "yes", "fuel:GTL_diesel": "yes", "fuel:adblue": "no", "fuel:diesel": "yes", "fuel:lpg": "yes", "fuel:octane_100": "yes", "fuel:octane_95": "yes", "name": "MOL", "opening_hours": "24/7", "operator": "MOL Nyrt.", "operator:addr": "1117 Budapest, Domb\u00f3v\u00e1ri \u00fat 28.", "payment:cash": "yes", "payment:contactless": "yes", "payment:maestro": "yes", "payment:mastercard": "yes", "payment:mastercard_contactless": "yes", "payment:mastercard_electronic": "yes", "payment:visa": "yes", "payment:visa_electron": "yes", "ref:HU:company": "01-10-041683", "ref:HU:vatin": "10625790-4-44", "rent:lpg_bottles": "yes", "source": "website", "source:date": "2022-05-21", "truck": "no"}}, {"type": "way", "id": 356310135, "nodes": [3617650308, 3617650309, 3617650310, 3617650311, 3617650308], "tags": {"amenity": "fuel", "brand": "Petrol", "building": "yes"}}, {"type": "way", "id": 362919284, "nodes": [3671528894, 5876782866, 3671528898, 3671528903, 5876782865, 3671528895, 3671528896, 3671528897, 3671528894], "tags": {"addr:city": "\u0150riszentp\u00e9ter", "addr:conscriptionnumber": "197/1", "addr:housenumber": "22", "addr:postcode": "9941", "addr:street": "V\u00e1rosszer", "amenity": "fuel", "brand": "Avia", "building": "roof", "compressed_air": "yes", "contact:email": "avia@avia.hu", "contact:facebook": "https://www.facebook.com/AVIAHungary", "contact:phone": "+36 94 428 390;+36 20 219 9388", "contact:website": "https://www.avia.hu/toltoallomas/?id=55", "contact:youtube": "https://www.youtube.com/channel/UCjvjkjf2RgmKBuTnKSXk-Rg", "food": "no", "fuel:diesel": "yes", "fuel:e85": "no", "fuel:lpg": "no", "fuel:octane_95": "yes", "fuel:octane_98": "no", "name": "Avia", "operator": "AVIA Hung\u00e1ria Kft.", "payment:cash": "yes", "payment:contactless": "yes", "payment:maestro": "yes", "payment:mastercard": "yes", "payment:mastercard_contactless": "yes", "payment:mastercard_electronic": "yes", "payment:visa": "yes", "payment:visa_electron": "yes", "rent:lpg_bottles": "yes", "restaurant": "no", "source:www.avia.hu:date": "2021-12-17", "truck": "no"}}, {"type": "way", "id": 532883761, "nodes": [5170732702, 5170732703, 5170732704, 5170732705, 5170732702], "tags": {"addr:city": "Lenti", "addr:conscriptionnumber": "0145/19", "addr:postcode": "8960", "addr:street": "75. sz\u00e1m\u00fa f\u0151k\u00f6zleked\u00e9si \u00fat", "air_conditioning": "yes", "amenity": "fuel", "brand": "OMV", "brand:wikidata": "Q168238", "brand:wikipedia": "en:OMV", "building": "retail", "compressed_air": "yes", "contact:email": "info.hungary@omv.com", "contact:facebook": "https://www.facebook.com/omvmagyarorszag", "contact:fax": "+36 1 381 9899", "contact:instagram": "https://www.instagram.com/omv/", "contact:linkedin": "https://www.linkedin.com/company/omv", "contact:phone": "+36 20 946 6351", "contact:twitter": "omv", "contact:website": "https://www.omv.hu", "contact:youtube": "https://www.youtube.com/user/omvofficial", "fuel:GTL_diesel": "yes", "fuel:diesel": "yes", "fuel:octane_100": "yes", "fuel:octane_95": "yes", "name": "OMV", "opening_hours": "Mo-Su 06:00-22:00; PH off", "operator": "OMV Hung\u00e1ria Kft.", "operator:addr": "1117 Budapest, Okt\u00f3ber huszonharmadika utca 6-10 5. emelet 5/A.", "payment:cash": "yes", "payment:contactless": "yes", "payment:maestro": "yes", "payment:mastercard": "yes", "payment:mastercard_contactless": "yes", "payment:mastercard_electronic": "yes", "payment:visa": "yes", "payment:visa_electron": "yes", "ref:HU:company": "01-09-071584", "ref:HU:vatin": "10542925-2-44", "ref:vatin": "HU10542925", "source:www.omv.hu:date": "2020-10-03"}}, {"type": "way", "id": 544737434, "nodes": [5265523870, 5265523871, 5265523872, 5265523873, 5265523870], "tags": {"addr:city": "R\u00e9dics", "addr:postcode": "8978", "addr:street": "86. sz\u00e1m\u00fa f\u0151k\u00f6zleked\u00e9si \u00fat", "air_conditioning": "yes", "amenity": "fuel", "brand": "MOL", "brand:wikidata": "Q549181", "brand:wikipedia": "hu:MOL Magyar Olaj- \u00e9s G\u00e1zipari Nyrt.", "building": "retail", "contact:facebook": "https://www.facebook.com/mol.magyarorszag/", "contact:instagram": "https://www.instagram.com/mol.magyarorszag/", "contact:website": "https://www.mol.hu", "contact:youtube": "https://www.youtube.com/user/molgrouptv", "fuel:diesel": "yes", "fuel:octane_95": "yes", "fuel:octane_98": "yes", "name": "MOL", "opening_hours": "24/7", "operator": "MOL Nyrt.", "operator:addr": "1117 Budapest, Domb\u00f3v\u00e1ri \u00fat 28.", "payment:cash": "yes", "payment:contactless": "yes", "payment:maestro": "yes", "payment:mastercard": "yes", "payment:mastercard_contactless": "yes", "payment:mastercard_electronic": "yes", "payment:visa": "yes", "payment:visa_electron": "yes", "ref:HU:company": "01-10-041683", "ref:HU:vatin": "10625790-4-44", "shop": "kiosk", "source": "website", "source:date": "2019-11-06"}}, {"type": "way", "id": 1086034752, "nodes": [9951205913, 9951206629, 9951206416, 9951206210, 9951206004, 9951206712, 9951206508, 9951205937, 9951206655, 9951206443, 9951206236, 9951206029, 9951206738, 9951205913], "tags": {"addr:city": "Lendava", "addr:city:hu": "Lendva", "addr:city:sl": "Lendava", "addr:country": "SI", "addr:housenumber": "55", "addr:postcode": "9220", "addr:street": "Pince-marof", "addr:street:hu": "Pince major", "addr:street:sl": "Pince-Marof", "amenity": "fuel", "brand": "Petrol", "building": "yes", "contact:phone": "+386 2 5788433", "contact:website": "http://www.petrol.si/bencinski-servisi/podrobno/1753", "fuel:diesel": "yes", "fuel:lpg": "yes", "fuel:octane_100": "yes", "fuel:octane_95": "yes", "name": "Petrol - Pince Ac - jug", "opening_hours": "24/7", "operator": "Petrol d.d.", "ref:gurs:hs_mid": "19276899", "ref:gurs:sta_sid": "31733121", "shop": "yes"}}, {"type": "way", "id": 1086181926, "nodes": [9952538717, 9952537865, 9952538402, 9952538665, 9952537817, 9952538353, 9952538622, 9952537776, 9952538311, 9952538856, 9952537455, 9952538717], "tags": {"addr:city": "Lendava", "addr:city:hu": "Lendva", "addr:city:sl": "Lendava", "addr:country": "SI", "addr:housenumber": "44a", "addr:postcode": "9220", "addr:street": "Lendavska cesta", "addr:street:hu": "Lendvai \u00fat", "addr:street:sl": "Lendavska cesta", "addr:village": "Pince / Pince", "addr:village:hu": "Pince", "addr:village:sl": "Pince", "amenity": "fuel", "brand": "MOL", "brand:wikidata": "Q549181", "building": "yes", "contact:fax": "+386 2 5743001", "contact:mobile": "+386 40 677699", "contact:phone": "+386 2 5743000", "contact:website": "http://www.mol.si/si/vozite_z_nami/bencinski_servisi/toltoallomas/adatok/cmp/5/code/0314", "fuel:adblue": "yes", "fuel:diesel": "yes", "fuel:octane_95": "yes", "fuel:octane_98": "yes", "name": "MOL - Pince AC sever", "opening_hours": "24/7", "operator": "MOL Slovenija d.o.o.", "ref:gurs:hs_mid": "19277127", "ref:gurs:sta_sid": "31716406"}}]}