{"version": 0.6, "generator": "Overpass API 0.7.59 e21c39fe", "osm3s": {"timestamp_osm_base": "2023-01-20T17:54:54Z", "copyright": "The data included in this document is from www.openstreetmap.org. The data is made available under ODbL."}, "elements": [{"type": "node", "id": 2332046737, "lat": 47.4873982, "lon": 18.3170888}, {"type": "node", "id": 2332046740, "lat": 47.4872631, "lon": 18.3162583}, {"type": "node", "id": 2332046743, "lat": 47.4877153, "lon": 18.316801}, {"type": "node", "id": 2332046745, "lat": 47.4871668, "lon": 18.316434}, {"type": "node", "id": 2370947696, "lat": 47.5747272, "lon": 18.3842445, "tags": {"addr:city": "Tatab\u00e1nya", "addr:housenumber": "4", "addr:postcode": "2800", "addr:street": "Kossuth Lajos utca", "amenity": "library", "name": "B\u00e1nhidai Fi\u00f3kk\u00f6nyvt\u00e1r", "phone": "+36 34 311 426"}}, {"type": "node", "id": 2370947704, "lat": 47.5746259, "lon": 18.3844296, "tags": {"addr:city": "Tatab\u00e1nya", "addr:housenumber": "2", "addr:postcode": "2800", "addr:street": "Kossuth Lajos utca", "amenity": "library", "name": "V\u00e1rosi K\u00f6nyvt\u00e1r Tatab\u00e1nya", "phone": "+36 34 311 426", "wheelchair": "limited"}}, {"type": "node", "id": 2374510566, "lat": 47.5557203, "lon": 18.4250751, "tags": {"addr:postcode": "2800", "amenity": "library", "name": "V\u00e1rosi K\u00f6nyvt\u00e1r Tatab\u00e1nya", "wheelchair": "yes"}}, {"type": "node", "id": 2387443137, "lat": 47.6641759, "lon": 18.4522336, "tags": {"amenity": "library"}}, {"type": "node", "id": 2509276258, "lat": 47.5863393, "lon": 18.396982}, {"type": "node", "id": 2509276259, "lat": 47.5864402, "lon": 18.3967612}, {"type": "node", "id": 2509276260, "lat": 47.5866719, "lon": 18.3966005}, {"type": "node", "id": 2865740035, "lat": 47.7417335, "lon": 18.5050619}, {"type": "node", "id": 2865740039, "lat": 47.7417655, "lon": 18.504988}, {"type": "node", "id": 2865740046, "lat": 47.7418146, "lon": 18.5052466}, {"type": "node", "id": 2865740051, "lat": 47.7418596, "lon": 18.505183}, {"type": "node", "id": 2865740058, "lat": 47.7419173, "lon": 18.5054073}, {"type": "node", "id": 2865740062, "lat": 47.7419322, "lon": 18.5052966}, {"type": "node", "id": 2865740066, "lat": 47.7419623, "lon": 18.5053437}, {"type": "node", "id": 2865740070, "lat": 47.7419777, "lon": 18.5051917}, {"type": "node", "id": 2953573217, "lat": 47.5906486, "lon": 18.0028428, "tags": {"amenity": "library", "name": "Kult\u00farh\u00e1z \u2013 K\u00f6nyvt\u00e1r"}}, {"type": "node", "id": 3203589776, "lat": 47.4871785, "lon": 18.3168251}, {"type": "node", "id": 3203589777, "lat": 47.4873032, "lon": 18.3165977}, {"type": "node", "id": 3203589778, "lat": 47.4875146, "lon": 18.3168763}, {"type": "node", "id": 3203589779, "lat": 47.4876108, "lon": 18.3169917}, {"type": "node", "id": 3471788301, "lat": 47.6438102, "lon": 17.9749781, "tags": {"amenity": "library", "name": "B\u00e1bolna V\u00e1rosi K\u00f6nyvt\u00e1r", "source": "turistautak.hu", "source:date": "2010-01-18", "url": "http://turistautak.hu/poi.php?id=83374"}}, {"type": "node", "id": 3865651803, "lat": 47.6668088, "lon": 18.1848178, "tags": {"amenity": "library"}}, {"type": "node", "id": 4515915021, "lat": 47.7467933, "lon": 18.3659037, "tags": {"addr:city": "Radva\u0148 nad Dunajom", "addr:conscriptionnumber": "58", "addr:country": "SK", "addr:housenumber": "58", "addr:place": "Radva\u0148 nad Dunajom", "addr:postcode": "946 38", "amenity": "library", "contact:email": "obecradvan@pnet.sk", "contact:phone": "+421 908 447 848", "name": "Miestna kni\u017enica Radva\u0148 nad Dunajom"}}, {"type": "node", "id": 4640569889, "lat": 47.5011229, "lon": 18.0253251, "tags": {"amenity": "library", "name": "V\u00e1rosi K\u00f6nyvt\u00e1r"}}, {"type": "node", "id": 5367746905, "lat": 47.6497374, "lon": 18.3168063, "tags": {"addr:city": "Tata", "addr:housenumber": "4", "addr:postcode": "2890", "addr:street": "V\u00e1ralja utca", "amenity": "library", "facebook": "http://www.facebook.com/mzsvk", "name": "M\u00f3ricz Zsigmond V\u00e1rosi K\u00f6nyvt\u00e1r", "phone": "+36 34 380 281", "website": "http://www.mzsvktata.hu/"}}, {"type": "node", "id": 7938762787, "lat": 47.3921713, "lon": 18.4637491, "tags": {"amenity": "library", "name": "Floriana K\u00f6nyvt\u00e1r \u00e9s K\u00f6z\u00f6ss\u00e9gi T\u00e9r"}}, {"type": "node", "id": 8291888611, "lat": 47.5866185, "lon": 18.3972059}, {"type": "node", "id": 8291888612, "lat": 47.5867233, "lon": 18.3970285}, {"type": "node", "id": 8291888613, "lat": 47.5865746, "lon": 18.3973559}, {"type": "node", "id": 8291888614, "lat": 47.5865441, "lon": 18.397259}, {"type": "node", "id": 8291888615, "lat": 47.5864478, "lon": 18.3973258}, {"type": "node", "id": 8291888616, "lat": 47.5863269, "lon": 18.3969906}, {"type": "node", "id": 8291888617, "lat": 47.5862679, "lon": 18.3968035}, {"type": "node", "id": 8291888618, "lat": 47.5864202, "lon": 18.3966979}, {"type": "node", "id": 8291888619, "lat": 47.5867504, "lon": 18.3971145}, {"type": "node", "id": 8291888620, "lat": 47.5866494, "lon": 18.397304}, {"type": "node", "id": 8291888621, "lat": 47.5867918, "lon": 18.3969809}, {"type": "node", "id": 8304480878, "lat": 47.5867311, "lon": 18.397023}, {"type": "node", "id": 8304480880, "lat": 47.5866131, "lon": 18.3973292}, {"type": "node", "id": 8388679796, "lat": 47.54514, "lon": 18.2580065, "tags": {"amenity": "library", "name": "K\u00f6nyvt\u00e1r"}}, {"type": "node", "id": 8396171471, "lat": 47.5757089, "lon": 18.4079701, "tags": {"amenity": "library", "name": "V\u00e1rosi K\u00f6nyvt\u00e1r"}}, {"type": "node", "id": 8639553382, "lat": 47.6812062, "lon": 18.0880567, "tags": {"amenity": "library"}}, {"type": "node", "id": 9419279178, "lat": 47.6719693, "lon": 18.1827499, "tags": {"addr:city": "Mocsa", "addr:housenumber": "1", "addr:postcode": "2911", "addr:street": "H\u0151s\u00f6k tere", "amenity": "library", "name": "K\u00f6nyvt\u00e1r", "phone": "+36 34 349 511;+36 34 349 145", "townhall:type": "village", "website": "http://www.mocsa.hu/"}}, {"type": "way", "id": 224390011, "nodes": [2332046737, 3203589776, 3203589777, 2332046745, 2332046740, 2332046743, 3203589779, 3203589778, 2332046737], "tags": {"addr:city": "Oroszl\u00e1ny", "addr:housenumber": "1", "addr:postcode": "2840", "addr:street": "F\u0151 t\u00e9r", "amenity": "library", "building": "public", "name": "M\u0171vel\u0151d\u00e9si K\u00f6zpont \u00e9s K\u00f6nyvt\u00e1r Oroszl\u00e1ny", "phone": "+36 34 361 056"}}, {"type": "way", "id": 243537274, "nodes": [2509276258, 8291888616, 8291888617, 8291888618, 2509276259, 2509276260, 8291888621, 8304480878, 8291888612, 8291888619, 8291888611, 8291888620, 8304480880, 8291888613, 8291888614, 8291888615, 2509276258], "tags": {"addr:city": "Tatab\u00e1nya", "addr:housenumber": "2", "addr:postcode": "2800", "addr:street": "F\u0151 t\u00e9r", "amenity": "library", "building": "yes", "name": "J\u00f3zsef Attila Megyei \u00e9s V\u00e1rosi K\u00f6nyvt\u00e1r", "note": "Nyitva tart\u00e1s: H: z\u00e1rva K-P: 9:00-19:00 SZ: 9:00-17:00"}}, {"type": "way", "id": 282631338, "nodes": [2865740051, 2865740035, 2865740039, 2865740070, 2865740062, 2865740066, 2865740058, 2865740046, 2865740051], "tags": {"addr:city": "L\u00e1batlan", "addr:housenumber": "57", "addr:postcode": "2541", "addr:street": "Tulip\u00e1n utca", "amenity": "library", "building": "house", "name": "Vit\u00e9z S\u00e1ghy Antal V\u00e1rosi K\u00f6nyvt\u00e1r", "opening_hours": "Tu,Th 13:00-18:00; We,Fr 08:00-13:00; week 2-52/2 Fr 08:00-13:00; week 1-53/2 Fr 13:00-18:00", "operator": "L\u00e1batlan V\u00e1ros \u00d6nkorm\u00e1nyzata"}}]}