{"version": 0.6, "generator": "Overpass API 0.7.59 e21c39fe", "osm3s": {"timestamp_osm_base": "2023-01-20T17:57:01Z", "copyright": "The data included in this document is from www.openstreetmap.org. The data is made available under ODbL."}, "elements": [{"type": "node", "id": 910411733, "lat": 46.2495667, "lon": 20.1488055}, {"type": "node", "id": 910411734, "lat": 46.2492196, "lon": 20.148121}, {"type": "node", "id": 910411745, "lat": 46.2496429, "lon": 20.148604}, {"type": "node", "id": 910411746, "lat": 46.2490416, "lon": 20.1483852}, {"type": "node", "id": 1277339436, "lat": 46.2731121, "lon": 20.142606, "tags": {"addr:city": "Szeged", "addr:housenumber": "5", "addr:postcode": "6724", "addr:street": "V\u00e9rt\u00f3i \u00fat", "amenity": "library", "contact:phone": "+36 62 635 398", "contact:website": "http://www.sk-szeged.hu/rokus", "name": "R\u00f3kusi fi\u00f3kk\u00f6nyvt\u00e1r", "operator": "Somogyi K\u00e1roly V\u00e1rosi \u00e9s Megyei k\u00f6nyvt\u00e1r", "wheelchair": "limited"}}, {"type": "node", "id": 1865947154, "lat": 46.4149627, "lon": 20.3260983, "tags": {"amenity": "library", "name": "N\u00e9meth L\u00e1szl\u00f3 V\u00e1rosi K\u00f6nyvt\u00e1r", "toilets:wheelchair": "no", "wheelchair": "no", "wikidata": "Q12815536", "wikipedia": "hu:N\u00e9meth L\u00e1szl\u00f3 V\u00e1rosi K\u00f6nyvt\u00e1r \u00e9s P\u00f3sa Lajos Gyermekk\u00f6nyvt\u00e1r"}}, {"type": "node", "id": 1938441187, "lat": 46.2470624, "lon": 20.1597675, "tags": {"addr:city": "Szeged", "addr:housenumber": "11", "addr:postcode": "6726", "addr:street": "Sz\u00e9kely sor", "amenity": "library", "name": "Odesszai fi\u00f3kk\u00f6nyvt\u00e1r", "opening_hours": "Mo,We,Fr 10:00-12:00,13:00-18:00; Tu 10:00-12:00,13:00-16:00; Th 13:00-18:00", "operator": "Somogyi K\u00e1roly V\u00e1rosi \u00e9s Megyei K\u00f6nyvt\u00e1r, Szeged", "source": "http://www.sk-szeged.hu/", "website": "http://www.sk-szeged.hu/odessza"}}, {"type": "node", "id": 2361249724, "lat": 46.338666, "lon": 19.8446935, "tags": {"addr:city": "\u00dcll\u00e9s", "addr:housenumber": "48", "addr:postcode": "6794", "addr:street": "Dorozsmai \u00fat", "amenity": "library"}}, {"type": "node", "id": 2529336374, "lat": 46.3622324, "lon": 20.0975252}, {"type": "node", "id": 2529336376, "lat": 46.3623396, "lon": 20.0976975}, {"type": "node", "id": 2529336378, "lat": 46.3623679, "lon": 20.097514}, {"type": "node", "id": 2529336379, "lat": 46.3623879, "lon": 20.0973222}, {"type": "node", "id": 2529336380, "lat": 46.3624182, "lon": 20.0975948}, {"type": "node", "id": 2529336382, "lat": 46.3624448, "lon": 20.0974137}, {"type": "node", "id": 3210342098, "lat": 46.2158423, "lon": 19.8897906}, {"type": "node", "id": 3210342099, "lat": 46.2158897, "lon": 19.8899954}, {"type": "node", "id": 3210342100, "lat": 46.2161709, "lon": 19.8898594}, {"type": "node", "id": 3210342101, "lat": 46.2161236, "lon": 19.8896546}, {"type": "node", "id": 4322141040, "lat": 46.276175, "lon": 20.0628454}, {"type": "node", "id": 4322141041, "lat": 46.2761437, "lon": 20.0630015}, {"type": "node", "id": 4322141042, "lat": 46.2759722, "lon": 20.0629296}, {"type": "node", "id": 4322141048, "lat": 46.2760034, "lon": 20.0627735}, {"type": "node", "id": 4794112717, "lat": 46.2490739, "lon": 20.1482982}, {"type": "node", "id": 4794112718, "lat": 46.2490388, "lon": 20.148271}, {"type": "node", "id": 4794112719, "lat": 46.249087, "lon": 20.148141}, {"type": "node", "id": 4794112720, "lat": 46.2491224, "lon": 20.1481685}, {"type": "node", "id": 4794113021, "lat": 46.2491577, "lon": 20.1480731}, {"type": "node", "id": 4794113022, "lat": 46.2492074, "lon": 20.148154}, {"type": "node", "id": 4794113023, "lat": 46.2493099, "lon": 20.1482334}, {"type": "node", "id": 4794113024, "lat": 46.2493224, "lon": 20.1481996}, {"type": "node", "id": 4794113025, "lat": 46.249384, "lon": 20.1482473}, {"type": "node", "id": 4794113026, "lat": 46.2493512, "lon": 20.1483357}, {"type": "node", "id": 4794113027, "lat": 46.2494476, "lon": 20.1484104}, {"type": "node", "id": 4794113028, "lat": 46.2494795, "lon": 20.1483243}, {"type": "node", "id": 4794113029, "lat": 46.2495405, "lon": 20.1483716}, {"type": "node", "id": 4794113030, "lat": 46.2495268, "lon": 20.1484086}, {"type": "node", "id": 4794113031, "lat": 46.2496108, "lon": 20.1484737}, {"type": "node", "id": 4794113032, "lat": 46.2496215, "lon": 20.1484447}, {"type": "node", "id": 4794113033, "lat": 46.249684, "lon": 20.1484932}, {"type": "node", "id": 4794113034, "lat": 46.2495043, "lon": 20.1487572}, {"type": "node", "id": 4794113035, "lat": 46.2495107, "lon": 20.1487399}, {"type": "node", "id": 4794113036, "lat": 46.2494169, "lon": 20.1486672}, {"type": "node", "id": 4794113037, "lat": 46.2494114, "lon": 20.1486821}, {"type": "node", "id": 4794113038, "lat": 46.2493486, "lon": 20.1486333}, {"type": "node", "id": 4794113039, "lat": 46.2493528, "lon": 20.148622}, {"type": "node", "id": 4794113040, "lat": 46.2492592, "lon": 20.1485494}, {"type": "node", "id": 4794113041, "lat": 46.2492558, "lon": 20.1485585}, {"type": "node", "id": 4794113042, "lat": 46.2491925, "lon": 20.1485094}, {"type": "node", "id": 4794113043, "lat": 46.2491974, "lon": 20.1484961}, {"type": "node", "id": 4794113044, "lat": 46.249104, "lon": 20.1484237}, {"type": "node", "id": 4794113045, "lat": 46.2491011, "lon": 20.1484314}, {"type": "node", "id": 4794113046, "lat": 46.2496621, "lon": 20.148619}, {"type": "node", "id": 4794113047, "lat": 46.2496174, "lon": 20.1487397}, {"type": "node", "id": 4794113048, "lat": 46.2495969, "lon": 20.1487239}, {"type": "node", "id": 5271895911, "lat": 46.2475312, "lon": 20.1358318, "tags": {"amenity": "library", "level": "0", "name": "M\u00f3rav\u00e1rosi Fi\u00f3kk\u00f6nyvt\u00e1r", "opening_hours": "Mo,We,Fr 10:00-12:00,13:00-18:00; Tu 10:00-12:00,13:00-16:00; Th 13:00-18:00; PH closed", "operator": "Somogyi-k\u00f6nyvt\u00e1r", "toilets": "yes", "website": "http://sk-szeged.hu", "wheelchair": "yes"}}, {"type": "node", "id": 5440114541, "lat": 46.2471483, "lon": 20.141877, "tags": {"addr:city": "Szeged", "addr:housenumber": "10", "addr:postcode": "6722", "addr:street": "Ady t\u00e9r", "amenity": "library", "level": "1;2", "name": "Szegedi Tudom\u00e1nyegyetem Klebelsberg Kuno K\u00f6nyvt\u00e1r", "opening_hours": "Mo-Fr 08:00-22:00; Sa 09:00-20:00; Mo[1] 12:00-22:00 \"Karbantart\u00e1s miatt 12 \u00f3r\u00e1t\u00f3l nyit\"; PH off", "ref:isil": "HU-IL-001365-4", "website": "http://ek.szte.hu"}}, {"type": "node", "id": 5479999672, "lat": 46.2700417, "lon": 20.1525915, "tags": {"addr:city": "Szeged", "addr:housenumber": "6", "addr:postcode": "6723", "addr:street": "G\u00e1sp\u00e1r Zolt\u00e1n utca", "amenity": "library", "contact:phone": "+36 62 635 357", "name": "\u00c9szakv\u00e1rosi fi\u00f3kk\u00f6nyvt\u00e1r", "opening_hours": "Mo,We,Fr 10:00-12:00,13:00-18:00; Tu 10:00-12:00,13:00-16:00; Th 13:00-18:00; PH closed", "operator": "Somogyi K\u00e1roly V\u00e1rosi \u00e9s Megyei k\u00f6nyvt\u00e1r", "website": "http://www.sk-szeged.hu/eszakvaros"}}, {"type": "node", "id": 5512347002, "lat": 46.2490479, "lon": 20.1482464}, {"type": "node", "id": 5559923002, "lat": 46.2526364, "lon": 20.1512252, "tags": {"amenity": "library", "check_date:opening_hours": "2022-06-29", "name": "Stef\u00e1nia ifj\u00fas\u00e1gi fi\u00f3kk\u00f6nyvt\u00e1r-klub", "opening_hours": "Mo,We,Fr 10:00-12:00,13:00-18:00; Tu 10:00-12:00,13:00-16:00; Th 13:00-18:00; PH closed", "operator": "Somogyi K\u00f6nyvt\u00e1r"}}, {"type": "node", "id": 5818545298, "lat": 46.3327368, "lon": 20.2157506}, {"type": "node", "id": 5818545299, "lat": 46.332568, "lon": 20.2158737}, {"type": "node", "id": 5818545300, "lat": 46.332515, "lon": 20.2157213}, {"type": "node", "id": 5818545301, "lat": 46.3326838, "lon": 20.2155982}, {"type": "node", "id": 5834193109, "lat": 46.3432751, "lon": 20.0382886, "tags": {"amenity": "library"}}, {"type": "node", "id": 5834196232, "lat": 46.2619011, "lon": 20.1375114, "tags": {"addr:city": "Szeged", "addr:housenumber": "69-71", "addr:postcode": "6724", "addr:street": "Kossuth Lajos sug\u00e1r\u00fat", "amenity": "library", "contact:phone": "+36 62 635 361", "name": "Somogyi-k\u00f6nyvt\u00e1r Francia utcai fi\u00f3kk\u00f6nyvt\u00e1r"}}, {"type": "node", "id": 5940952865, "lat": 46.219577, "lon": 20.1956158, "tags": {"addr:city": "Szeged", "addr:housenumber": "14", "addr:postcode": "6771", "addr:street": "Magyar utca", "amenity": "library", "name": "Somogyi K\u00f6nyvt\u00e1r sz\u0151regi fi\u00f3kk\u00f6nyvt\u00e1ra", "opening_hours": "Mo-Fr 10:00-12:00,13:00-18:00; Tu,Th 13:00-18:00"}}, {"type": "node", "id": 6568585858, "lat": 46.2753378, "lon": 19.8893067, "tags": {"amenity": "library"}}, {"type": "node", "id": 6990690897, "lat": 46.5255705, "lon": 20.179036}, {"type": "node", "id": 6990690898, "lat": 46.5253425, "lon": 20.1789566}, {"type": "node", "id": 6990690899, "lat": 46.525319, "lon": 20.1790989}, {"type": "node", "id": 6990690900, "lat": 46.5253683, "lon": 20.1791161}, {"type": "node", "id": 6990690901, "lat": 46.525327, "lon": 20.1793668}, {"type": "node", "id": 6990690902, "lat": 46.525215, "lon": 20.1793278}, {"type": "node", "id": 6990690903, "lat": 46.5251746, "lon": 20.1795728}, {"type": "node", "id": 6990690904, "lat": 46.5252808, "lon": 20.1796097}, {"type": "node", "id": 6990690905, "lat": 46.5252756, "lon": 20.1796414}, {"type": "node", "id": 6990690906, "lat": 46.5254151, "lon": 20.1796899}, {"type": "node", "id": 6990690907, "lat": 46.5254998, "lon": 20.1791761}, {"type": "node", "id": 6990690908, "lat": 46.5255448, "lon": 20.1791918}, {"type": "node", "id": 7385601369, "lat": 46.1875269, "lon": 20.0385546, "tags": {"amenity": "library", "operator": "R\u00f6szke K\u00f6zs\u00e9g \u00d6nkorm\u00e1nyzata"}}, {"type": "node", "id": 8242771030, "lat": 46.2512408, "lon": 20.1418265, "tags": {"amenity": "library", "name": "Bibliot\u00e9ka"}}, {"type": "node", "id": 8303982120, "lat": 46.2187486, "lon": 20.2448327, "tags": {"amenity": "library", "name": "K\u00f6nyvt\u00e1r"}}, {"type": "node", "id": 8702085434, "lat": 46.3336442, "lon": 20.2176299, "tags": {"amenity": "library"}}, {"type": "node", "id": 8777512671, "lat": 46.3285132, "lon": 19.9738017, "tags": {"amenity": "library"}}, {"type": "node", "id": 9318429279, "lat": 46.2491045, "lon": 20.1481546}, {"type": "way", "id": 77346576, "nodes": [910411745, 4794113046, 4794113047, 4794113048, 910411733, 4794113034, 4794113035, 4794113036, 4794113037, 4794113038, 4794113039, 4794113040, 4794113041, 4794113042, 4794113043, 4794113044, 4794113045, 910411746, 4794112717, 4794112718, 5512347002, 4794112719, 9318429279, 4794112720, 4794113021, 910411734, 4794113022, 4794113023, 4794113024, 4794113025, 4794113026, 4794113027, 4794113028, 4794113029, 4794113030, 4794113031, 4794113032, 4794113033, 910411745], "tags": {"amenity": "library", "building": "public", "contact:phone": "+36 62 630 601", "contact:website": "http://www.sk-szeged.hu", "name": "Somogyi K\u00e1roly V\u00e1rosi \u00e9s Megyei K\u00f6nyvt\u00e1r", "name:en": "Somogyi Library", "opening_hours": "Mo-We,Fr 09:00-19:00; Th 13:00-19:00; Sa 10:00-16:00", "ref:isil": "HU-IL-001347-8", "short_name": "Somogyi K\u00f6nyvt\u00e1r", "toilets:wheelchair": "yes", "wheelchair": "yes", "wheelchair:description": "\u00c9p\u00fclet m\u00f6g\u00f6tt akad\u00e1lymentes bej\u00e1rat \u00e9s lift", "wheelchair:description:en": "Elevator and accessible entrance behind the building", "wikidata": "Q1290116", "wikipedia": "hu:Somogyi K\u00e1roly V\u00e1rosi \u00e9s Megyei K\u00f6nyvt\u00e1r"}}, {"type": "way", "id": 245817210, "nodes": [2529336379, 2529336374, 2529336376, 2529336380, 2529336378, 2529336382, 2529336379], "tags": {"amenity": "library", "building": "yes", "name": "Pet\u0151fi Eml\u00e9kk\u00f6nyvt\u00e1r"}}, {"type": "way", "id": 314952214, "nodes": [3210342098, 3210342099, 3210342100, 3210342101, 3210342098], "tags": {"amenity": "library", "building": "public", "name": "T\u00f3th Menyh\u00e9rt V\u00e1rosi K\u00f6nyvt\u00e1r \u00e9s K\u00f6z\u00f6ss\u00e9gi H\u00e1z"}}, {"type": "way", "id": 433530800, "nodes": [4322141040, 4322141041, 4322141042, 4322141048, 4322141040], "tags": {"addr:city": "Szeged", "addr:housenumber": "12", "addr:postcode": "6791", "addr:street": "Negyvennyolcas utca", "amenity": "library", "building": "yes", "name": "Somogyi K\u00e1roly V\u00e1rosi \u00e9s Megyei K\u00f6nyvt\u00e1r, Dorozsmai fi\u00f3kk\u00f6nyvt\u00e1r", "opening_hours": "Mo,We,Fr 10:00-12:00,13:00-18:00; Tu 10:00-12:00,13:00-16:00; Th 13:00-18:00", "phone": "+36 62 463 807", "website": "http://www.sk-szeged.hu/dorozsma"}}, {"type": "way", "id": 615311170, "nodes": [5818545301, 5818545300, 5818545299, 5818545298, 5818545301], "tags": {"addr:city": "Algy\u0151", "addr:housenumber": "63", "addr:postcode": "6750", "addr:street": "Kast\u00e9lykert utca", "amenity": "library", "name": "Algy\u0151i Faluh\u00e1z, K\u00f6nyvt\u00e1r \u00e9s T\u00e1jh\u00e1z", "wikidata": "Q646710", "wikipedia": "hu:Algy\u0151i K\u00f6nyvt\u00e1r"}}, {"type": "way", "id": 747102555, "nodes": [6990690897, 6990690898, 6990690899, 6990690900, 6990690901, 6990690902, 6990690903, 6990690904, 6990690905, 6990690906, 6990690907, 6990690908, 6990690897], "tags": {"amenity": "library", "building": "yes"}}]}