{"version": 0.6, "generator": "Overpass API 0.7.59 e21c39fe", "osm3s": {"timestamp_osm_base": "2023-01-21T09:47:07Z", "copyright": "The data included in this document is from www.openstreetmap.org. The data is made available under ODbL."}, "elements": [{"type": "node", "id": 2344347122, "lat": 48.1664146, "lon": 22.5795417, "tags": {"addr:housenumber": "105\u0431", "addr:street": "\u0414\u0440\u0443\u0436\u0431\u0438 \u041d\u0430\u0440\u043e\u0434\u0456\u0432 \u0432\u0443\u043b\u0438\u0446\u044f", "amenity": "fuel", "brand": "ANP", "name": "ANP"}}, {"type": "node", "id": 2344347143, "lat": 48.1677825, "lon": 22.5815057, "tags": {"addr:housenumber": "106\u0430", "addr:street": "\u0414\u0440\u0443\u0436\u0431\u0438 \u041d\u0430\u0440\u043e\u0434\u0456\u0432 \u0432\u0443\u043b\u0438\u0446\u044f", "amenity": "fuel", "brand": "ANP", "name": "ANP"}}, {"type": "node", "id": 2344347148, "lat": 48.1680549, "lon": 22.582201, "tags": {"addr:housenumber": "106", "addr:street": "\u0414\u0440\u0443\u0436\u0431\u0438 \u041d\u0430\u0440\u043e\u0434\u0456\u0432 \u0432\u0443\u043b\u0438\u0446\u044f", "amenity": "fuel", "brand": "\u041e\u041a\u041a\u041e", "brand:en": "OKKO", "brand:wikidata": "Q7072617", "brand:wikipedia": "en:OKKO", "name": "\u041e\u041a\u041a\u041e", "name:en": "OKKO"}}, {"type": "node", "id": 2440881484, "lat": 47.9474187, "lon": 22.3245802, "tags": {"addr:postcode": "4700", "addr:street": "Alkotm\u00e1ny \u00fat", "amenity": "fuel", "brand": "Shell", "brand:wikidata": "Q154950", "brand:wikipedia": "en:Royal Dutch Shell", "internet_access": "wlan", "name": "Shell", "name:en": "Shell", "name:hu": "Shell", "operator": "Shell"}}, {"type": "node", "id": 2984268838, "lat": 48.0911488, "lon": 22.8417731}, {"type": "node", "id": 2984270035, "lat": 48.0911059, "lon": 22.8417082}, {"type": "node", "id": 2984287433, "lat": 48.0910246, "lon": 22.8418284}, {"type": "node", "id": 2984287434, "lat": 48.0910914, "lon": 22.8418572}, {"type": "node", "id": 2984287633, "lat": 48.0910673, "lon": 22.841893}, {"type": "node", "id": 2984287833, "lat": 48.0911359, "lon": 22.8417921}, {"type": "node", "id": 3317598151, "lat": 48.1281067, "lon": 22.3035346, "tags": {"addr:city": "V\u00e1s\u00e1rosnam\u00e9ny", "addr:housenumber": "1", "addr:postcode": "4800", "addr:street": "Ilki \u00fat", "amenity": "fuel", "name": "K\u00e4rcher", "opening_hours": "05:30-21:30", "operator": "Grovi Kft.", "phone": "+36 45 570 043", "website": "https://grovi.hu/"}}, {"type": "node", "id": 3317600513, "lat": 48.116553, "lon": 22.3142473, "tags": {"addr:city": "V\u00e1s\u00e1rosnam\u00e9ny", "addr:housenumber": "1", "addr:postcode": "4800", "addr:street": "Ny\u00edregyh\u00e1zi \u00fat", "air_conditioning": "yes", "amenity": "fuel", "brand": "MOL", "brand:wikidata": "Q549181", "brand:wikipedia": "hu:MOL Magyar Olaj- \u00e9s G\u00e1zipari Nyrt.", "compressed_air": "yes", "contact:facebook": "https://www.facebook.com/mol.magyarorszag/", "contact:instagram": "https://www.instagram.com/mol.magyarorszag/", "contact:phone": "+36 45 470 126", "contact:website": "https://www.mol.hu", "contact:youtube": "https://www.youtube.com/user/molgrouptv", "food": "no", "fuel:GTL_diesel": "yes", "fuel:adblue": "no", "fuel:diesel": "yes", "fuel:lpg": "yes", "fuel:octane_100": "yes", "fuel:octane_95": "yes", "name": "MOL", "opening_hours": "06:00-22:00", "operator": "MOL Nyrt.", "operator:addr": "1117 Budapest, Domb\u00f3v\u00e1ri \u00fat 28.", "payment:cash": "yes", "payment:contactless": "yes", "payment:maestro": "yes", "payment:mastercard": "yes", "payment:mastercard_contactless": "yes", "payment:mastercard_electronic": "yes", "payment:visa": "yes", "payment:visa_electron": "yes", "ref:HU:company": "01-10-041683", "ref:HU:vatin": "10625790-4-44", "rent:lpg_bottles": "yes", "source": "website", "source:date": "2022-05-21", "truck": "no"}}, {"type": "node", "id": 3395154330, "lat": 47.9811942, "lon": 22.5033089}, {"type": "node", "id": 3395154331, "lat": 47.9811575, "lon": 22.5034568}, {"type": "node", "id": 3395154332, "lat": 47.9812639, "lon": 22.5035158}, {"type": "node", "id": 3395154333, "lat": 47.9812767, "lon": 22.5033546}, {"type": "node", "id": 4214999330, "lat": 47.8420552, "lon": 22.6673167}, {"type": "node", "id": 4214999331, "lat": 47.8420106, "lon": 22.6672581}, {"type": "node", "id": 4214999332, "lat": 47.8419569, "lon": 22.6673488}, {"type": "node", "id": 4257920924, "lat": 47.9627298, "lon": 22.3005544}, {"type": "node", "id": 4257920930, "lat": 47.9627748, "lon": 22.3002916}, {"type": "node", "id": 4344032789, "lat": 47.8518722, "lon": 22.7809901, "tags": {"amenity": "fuel", "contact:email": "infoline@rompetrol.com", "contact:phone": "+40 372 707 535", "contact:website": "https://www.rompetrol.ro/", "name": "Rompetrol", "opening_hours": "24/7"}}, {"type": "node", "id": 4623104992, "lat": 48.1167245, "lon": 22.3094905, "tags": {"amenity": "fuel"}}, {"type": "node", "id": 5104286584, "lat": 47.9883115, "lon": 22.5230621}, {"type": "node", "id": 5104286585, "lat": 47.9884508, "lon": 22.5229295}, {"type": "node", "id": 5104286586, "lat": 47.9883827, "lon": 22.5227697}, {"type": "node", "id": 5104286587, "lat": 47.9882433, "lon": 22.5229024}, {"type": "node", "id": 5126468873, "lat": 47.9366217, "lon": 22.6534709}, {"type": "node", "id": 5126468874, "lat": 47.9365013, "lon": 22.6536264}, {"type": "node", "id": 5126468875, "lat": 47.9364366, "lon": 22.6535165}, {"type": "node", "id": 5126468876, "lat": 47.9364672, "lon": 22.6534789}, {"type": "node", "id": 5126468877, "lat": 47.9364196, "lon": 22.6533931}, {"type": "node", "id": 5126468878, "lat": 47.936486, "lon": 22.6533059}, {"type": "node", "id": 5126468879, "lat": 47.9365364, "lon": 22.6533917}, {"type": "node", "id": 5126468880, "lat": 47.9365588, "lon": 22.6533596}, {"type": "node", "id": 5130044893, "lat": 47.9812893, "lon": 22.5035133}, {"type": "node", "id": 5130044894, "lat": 47.9813061, "lon": 22.5034976}, {"type": "node", "id": 5130044895, "lat": 47.9813253, "lon": 22.5034672}, {"type": "node", "id": 5130044898, "lat": 47.9812691, "lon": 22.5033855}, {"type": "node", "id": 5130044899, "lat": 47.9813356, "lon": 22.503421}, {"type": "node", "id": 5206515069, "lat": 47.9596697, "lon": 22.3203637}, {"type": "node", "id": 5206515073, "lat": 47.9597989, "lon": 22.3204007}, {"type": "node", "id": 5206515074, "lat": 47.9598284, "lon": 22.3200759}, {"type": "node", "id": 5206515075, "lat": 47.9598194, "lon": 22.3204031}, {"type": "node", "id": 5206515076, "lat": 47.9596691, "lon": 22.3203951}, {"type": "node", "id": 5206515077, "lat": 47.959678, "lon": 22.3200667}, {"type": "node", "id": 5442586866, "lat": 47.8836177, "lon": 22.565734, "tags": {"amenity": "fuel", "fuel:diesel": "yes", "fuel:octane_95": "yes", "name": "Grovi Benzink\u00fat", "opening_hours": "Mo-Su 06:00-20:00"}}, {"type": "node", "id": 7081724062, "lat": 47.7835343, "lon": 22.3682255}, {"type": "node", "id": 7081724063, "lat": 47.7834928, "lon": 22.3683543}, {"type": "node", "id": 7081724064, "lat": 47.7833878, "lon": 22.3682794}, {"type": "node", "id": 7081724065, "lat": 47.7834292, "lon": 22.3681506}, {"type": "node", "id": 8001530334, "lat": 47.8510536, "lon": 22.7827057}, {"type": "node", "id": 8001530335, "lat": 47.8506692, "lon": 22.7828813}, {"type": "node", "id": 8001530336, "lat": 47.8503847, "lon": 22.7830101}, {"type": "node", "id": 8001530337, "lat": 47.8502999, "lon": 22.783053}, {"type": "node", "id": 8001530338, "lat": 47.8502598, "lon": 22.7831006}, {"type": "node", "id": 8001530339, "lat": 47.8502363, "lon": 22.7832195}, {"type": "node", "id": 8001530340, "lat": 47.8502257, "lon": 22.7833606}, {"type": "node", "id": 8001530341, "lat": 47.8501946, "lon": 22.7833678}, {"type": "node", "id": 8001530342, "lat": 47.8502251, "lon": 22.7835436}, {"type": "node", "id": 8001530343, "lat": 47.8502728, "lon": 22.7835254}, {"type": "node", "id": 8001530344, "lat": 47.8503656, "lon": 22.7836775}, {"type": "node", "id": 8001530345, "lat": 47.8504784, "lon": 22.7836092}, {"type": "node", "id": 8001530379, "lat": 47.850963, "lon": 22.7830061}, {"type": "node", "id": 8001530380, "lat": 47.8508124, "lon": 22.783513}, {"type": "node", "id": 8001561688, "lat": 47.8507328, "lon": 22.7837692}, {"type": "node", "id": 8399446602, "lat": 47.9626049, "lon": 22.3005066}, {"type": "node", "id": 8399446603, "lat": 47.9626507, "lon": 22.3002441}, {"type": "node", "id": 8938523468, "lat": 47.8520129, "lon": 22.7807677}, {"type": "node", "id": 8938523469, "lat": 47.8519733, "lon": 22.7809018}, {"type": "node", "id": 8938523470, "lat": 47.8518313, "lon": 22.7808075}, {"type": "node", "id": 8938523471, "lat": 47.8518728, "lon": 22.7806723}, {"type": "node", "id": 8938523478, "lat": 47.8518967, "lon": 22.7808525}, {"type": "node", "id": 9190117564, "lat": 47.9798107, "lon": 22.5016684, "tags": {"amenity": "fuel", "name": "Karcher"}}, {"type": "node", "id": 9227073441, "lat": 47.9882539, "lon": 22.5228924}, {"type": "node", "id": 9248134262, "lat": 47.8420015, "lon": 22.6674074}, {"type": "node", "id": 9860707106, "lat": 47.939102, "lon": 22.3034383}, {"type": "node", "id": 9860707107, "lat": 47.9389843, "lon": 22.3032912}, {"type": "node", "id": 9863640193, "lat": 47.9391734, "lon": 22.3035843}, {"type": "node", "id": 9863640194, "lat": 47.9392237, "lon": 22.3035993}, {"type": "node", "id": 9863640195, "lat": 47.9392776, "lon": 22.3035037}, {"type": "node", "id": 9863640196, "lat": 47.9392514, "lon": 22.3033347}, {"type": "node", "id": 9863640197, "lat": 47.9392165, "lon": 22.3032936}, {"type": "node", "id": 9863640198, "lat": 47.9391704, "lon": 22.3033809}, {"type": "node", "id": 9863640199, "lat": 47.9391413, "lon": 22.3034353}, {"type": "node", "id": 9863640200, "lat": 47.939118, "lon": 22.3034079}, {"type": "node", "id": 9863640201, "lat": 47.9391415, "lon": 22.3033468}, {"type": "node", "id": 9863640202, "lat": 47.9391641, "lon": 22.303304}, {"type": "node", "id": 9863640203, "lat": 47.9390807, "lon": 22.3034786}, {"type": "node", "id": 9863640204, "lat": 47.9389602, "lon": 22.3033369}, {"type": "node", "id": 9863640205, "lat": 47.939049, "lon": 22.3031686}, {"type": "way", "id": 294806123, "nodes": [2984287434, 2984287633, 2984287433, 2984270035, 2984268838, 2984287833, 2984287434], "tags": {"amenity": "fuel", "building": "retail", "building:levels": "1", "roof:shape": "flat"}}, {"type": "way", "id": 332394724, "nodes": [3395154330, 3395154331, 3395154332, 5130044893, 5130044894, 5130044895, 5130044899, 5130044898, 3395154333, 3395154330], "tags": {"addr:city": "Feh\u00e9rgyarmat", "addr:housenumber": "38", "addr:postcode": "4900", "addr:street": "M\u00e1rt\u00edrok \u00fatja", "amenity": "fuel", "brand": "Shell", "brand:wikidata": "Q110716465", "brand:wikipedia": "en:Royal Dutch Shell", "building": "retail", "fuel:diesel": "yes", "fuel:octane_95": "yes", "name": "Shell", "operator": "Shell Hungary Zrt.", "phone": "+36 44 510 110", "website": "https://www.shell.hu/"}}, {"type": "way", "id": 421752364, "nodes": [4214999330, 4214999331, 4214999332, 9248134262, 4214999330], "tags": {"addr:city": "Csenger", "addr:housenumber": "127", "addr:postcode": "4765", "addr:street": "Ady Endre \u00fat", "air_conditioning": "yes", "amenity": "fuel", "brand": "MOL", "brand:wikidata": "Q549181", "brand:wikipedia": "hu:MOL Magyar Olaj- \u00e9s G\u00e1zipari Nyrt.", "building": "yes", "compressed_air": "yes", "contact:facebook": "https://www.facebook.com/mol.magyarorszag/", "contact:instagram": "https://www.instagram.com/mol.magyarorszag/", "contact:phone": "+36 20 225 92 68,+36 44 341 855", "contact:website": "https://www.mol.hu", "contact:youtube": "https://www.youtube.com/user/molgrouptv", "food": "no", "fuel:GTL_diesel": "yes", "fuel:adblue": "no", "fuel:diesel": "yes", "fuel:lpg": "no", "fuel:octane_100": "yes", "fuel:octane_95": "yes", "name": "MOL", "opening_hours": "Mo-Su 06:00-20:00", "operator": "MOL Nyrt.", "operator:addr": "1117 Budapest, Domb\u00f3v\u00e1ri \u00fat 28.", "payment:cash": "yes", "payment:contactless": "yes", "payment:maestro": "yes", "payment:mastercard": "yes", "payment:mastercard_contactless": "yes", "payment:mastercard_electronic": "yes", "payment:visa": "yes", "payment:visa_electron": "yes", "ref:HU:company": "01-10-041683", "ref:HU:vatin": "10625790-4-44", "rent:lpg_bottles": "yes", "source": "website", "source:date": "2022-05-21", "truck": "no"}}, {"type": "way", "id": 426499351, "nodes": [8399446603, 4257920930, 4257920924, 8399446602, 8399446603], "tags": {"addr:city": "M\u00e1t\u00e9szalka", "addr:housenumber": "20", "addr:postcode": "4700", "addr:street": "J\u00e1rmi \u00fat", "amenity": "fuel", "brand": "OMV", "brand:wikidata": "Q168238", "brand:wikipedia": "en:OMV", "building": "commercial", "contact:phone": "+36 44 502-638", "name": "OMV", "opening_hours": "05:30-21:00", "operator": "OMV"}}, {"type": "way", "id": 524522919, "nodes": [5104286584, 5104286585, 5104286586, 9227073441, 5104286587, 5104286584], "tags": {"addr:city": "Feh\u00e9rgyarmat", "addr:housenumber": "31", "addr:postcode": "4900", "addr:street": "Alkotm\u00e1ny utca", "air_conditioning": "yes", "amenity": "fuel", "brand": "MOL", "brand:wikidata": "Q549181", "brand:wikipedia": "hu:MOL Magyar Olaj- \u00e9s G\u00e1zipari Nyrt.", "building": "retail", "compressed_air": "yes", "contact:facebook": "https://www.facebook.com/mol.magyarorszag/", "contact:instagram": "https://www.instagram.com/mol.magyarorszag/", "contact:phone": "+36 44 364 788", "contact:website": "https://www.mol.hu", "contact:youtube": "https://www.youtube.com/user/molgrouptv", "food": "yes", "fuel:GTL_diesel": "yes", "fuel:adblue": "no", "fuel:diesel": "yes", "fuel:lpg": "no", "fuel:octane_100": "yes", "fuel:octane_95": "yes", "name": "MOL", "opening_hours": "24/7", "operator": "MOL Nyrt.", "operator:addr": "1117 Budapest, Domb\u00f3v\u00e1ri \u00fat 28.", "payment:cash": "yes", "payment:contactless": "yes", "payment:maestro": "yes", "payment:mastercard": "yes", "payment:mastercard_contactless": "yes", "payment:mastercard_electronic": "yes", "payment:visa": "yes", "payment:visa_electron": "yes", "ref:HU:company": "01-10-041683", "ref:HU:vatin": "10625790-4-44", "rent:lpg_bottles": "yes", "source": "website", "source:date": "2022-05-21", "truck": "no"}}, {"type": "way", "id": 527281187, "nodes": [5126468873, 5126468874, 5126468875, 5126468876, 5126468877, 5126468878, 5126468879, 5126468880, 5126468873], "tags": {"amenity": "fuel", "building": "retail"}}, {"type": "way", "id": 537740636, "nodes": [5206515077, 5206515074, 5206515075, 5206515073, 5206515076, 5206515069, 5206515077], "tags": {"addr:city": "M\u00e1t\u00e9szalka", "addr:housenumber": "5", "addr:postcode": "4700", "addr:street": "V\u00e1s\u00e1r t\u00e9r", "air_conditioning": "yes", "amenity": "fuel", "brand": "MOL", "brand:wikidata": "Q549181", "brand:wikipedia": "hu:MOL Magyar Olaj- \u00e9s G\u00e1zipari Nyrt.", "building": "roof", "compressed_air": "yes", "contact:facebook": "https://www.facebook.com/mol.magyarorszag/", "contact:instagram": "https://www.instagram.com/mol.magyarorszag/", "contact:website": "https://www.mol.hu", "contact:youtube": "https://www.youtube.com/user/molgrouptv", "food": "yes", "fuel:GTL_diesel": "yes", "fuel:adblue": "yes", "fuel:diesel": "yes", "fuel:lpg": "yes", "fuel:octane_100": "yes", "fuel:octane_95": "yes", "name": "MOL", "name:en": "Mol", "name:hu": "MOL", "operator": "MOL Nyrt.", "operator:addr": "1117 Budapest, Domb\u00f3v\u00e1ri \u00fat 28.", "payment:cash": "yes", "payment:contactless": "yes", "payment:maestro": "yes", "payment:mastercard": "yes", "payment:mastercard_contactless": "yes", "payment:mastercard_electronic": "yes", "payment:visa": "yes", "payment:visa_electron": "yes", "ref:HU:company": "01-10-041683", "ref:HU:vatin": "10625790-4-44", "rent:lpg_bottles": "yes", "source": "website", "source:date": "2022-05-21", "truck": "no"}}, {"type": "way", "id": 758290532, "nodes": [7081724065, 7081724062, 7081724063, 7081724064, 7081724065], "tags": {"addr:city": "M\u00e9rk", "addr:conscriptionnumber": "557/3", "addr:postcode": "4352", "addr:street": "B\u00e9ke utca", "amenity": "fuel", "brand": "Avia", "building": "yes", "building:colour": "orange", "building:levels": "1", "building:material": "plaster", "compressed_air": "yes", "contact:email": "avia@avia.hu", "contact:facebook": "https://www.facebook.com/AVIAHungary", "contact:phone": "+36 30 981 0583", "contact:website": "https://www.avia.hu/toltoallomas/?id=136", "contact:youtube": "https://www.youtube.com/channel/UCjvjkjf2RgmKBuTnKSXk-Rg", "food": "no", "fuel:diesel": "yes", "fuel:e85": "no", "fuel:lpg": "no", "fuel:octane_95": "no", "fuel:octane_98": "no", "name": "Avia", "operator": "AVIA Hung\u00e1ria Kft.", "operator:addr": "1021 Budapest, Szerb Antal utca 5. f\u00f6ldszint 2.", "payment:cash": "yes", "payment:contactless": "yes", "payment:maestro": "yes", "payment:mastercard": "yes", "payment:mastercard_contactless": "yes", "payment:mastercard_electronic": "yes", "payment:visa": "yes", "payment:visa_electron": "yes", "rent:lpg_bottles": "no", "restaurant": "no", "roof:colour": "red", "roof:material": "roof_tiles", "roof:shape": "pyramidal", "source:www.avia.hu:date": "2021-12-17", "truck": "no"}}, {"type": "way", "id": 858338635, "nodes": [8001530334, 8001530335, 8001530336, 8001530337, 8001530338, 8001530339, 8001530340, 8001530341, 8001530342, 8001530343, 8001530344, 8001530345, 8001561688, 8001530380, 8001530379, 8001530334], "tags": {"amenity": "fuel", "brand": "Petrom", "fuel:diesel": "yes", "fuel:unleaded": "yes", "operator": "OMV Petrom"}}, {"type": "way", "id": 966152386, "nodes": [8938523468, 8938523469, 8938523478, 8938523470, 8938523471, 8938523468], "tags": {"amenity": "fuel"}}, {"type": "way", "id": 1075500019, "nodes": [9863640199, 9863640200, 9860707106, 9863640203, 9863640204, 9860707107, 9863640205, 9863640202, 9863640201, 9863640198, 9863640197, 9863640196, 9863640195, 9863640194, 9863640193, 9863640199], "tags": {"addr:city": "M\u00e1t\u00e9szalka", "addr:housenumber": "1", "addr:postcode": "4700", "addr:street": "Meggyesi \u00fat", "amenity": "fuel", "building": "yes", "fuel:HGV_diesel": "yes", "fuel:adblue": "yes", "fuel:diesel": "yes", "fuel:octane_100": "yes", "fuel:octane_95": "yes", "name": "Grovi", "opening_hours": "Mo-Su 06:00-20:00, PH off", "operator": "Grovi Kft.", "phone": "+36 44 312 750", "shop": "yes", "website": "https://grovi.hu"}}]}