{"version": 0.6, "generator": "Overpass API 0.7.59 e21c39fe", "osm3s": {"timestamp_osm_base": "2023-01-21T09:22:38Z", "copyright": "The data included in this document is from www.openstreetmap.org. The data is made available under ODbL."}, "elements": [{"type": "node", "id": 59835783, "lat": 48.3359985, "lon": 19.6596485}, {"type": "node", "id": 59835788, "lat": 48.331137, "lon": 19.6643676, "tags": {"name": "PRIOR", "shop": "supermarket"}}, {"type": "node", "id": 59851584, "lat": 48.3258606, "lon": 19.6765607, "tags": {"name": "BILLA", "operator": "BILLA", "shop": "supermarket"}}, {"type": "node", "id": 158763926, "lat": 48.2116318, "lon": 19.3466171, "tags": {"name": "BILLA", "operator": "BILLA", "shop": "supermarket"}}, {"type": "node", "id": 158763929, "lat": 48.2110162, "lon": 19.3528139, "tags": {"name": "Lidl", "operator": "Lidl", "shop": "supermarket"}}, {"type": "node", "id": 170971118, "lat": 48.2065341, "lon": 19.3474167, "tags": {"name": "Obchodn\u00fd dom KOCKA", "shop": "supermarket"}}, {"type": "node", "id": 310503180, "lat": 48.3318138, "lon": 19.6548908}, {"type": "node", "id": 310503181, "lat": 48.3322288, "lon": 19.6550095}, {"type": "node", "id": 310503182, "lat": 48.3320666, "lon": 19.6562922}, {"type": "node", "id": 310503183, "lat": 48.33166, "lon": 19.6561068}, {"type": "node", "id": 660943309, "lat": 48.3321236, "lon": 19.6472985}, {"type": "node", "id": 660943313, "lat": 48.3322487, "lon": 19.6474498}, {"type": "node", "id": 660943315, "lat": 48.3322656, "lon": 19.6473744}, {"type": "node", "id": 660943319, "lat": 48.3323141, "lon": 19.6464788}, {"type": "node", "id": 660943322, "lat": 48.3325264, "lon": 19.6465888}, {"type": "node", "id": 660943343, "lat": 48.332318, "lon": 19.6474858}, {"type": "node", "id": 665711173, "lat": 48.3359182, "lon": 19.6591399}, {"type": "node", "id": 665711177, "lat": 48.3365804, "lon": 19.6589067}, {"type": "node", "id": 665711186, "lat": 48.3367453, "lon": 19.659966}, {"type": "node", "id": 665711319, "lat": 48.3360831, "lon": 19.6601996}, {"type": "node", "id": 868271248, "lat": 48.2998475, "lon": 19.1787868}, {"type": "node", "id": 1147214947, "lat": 48.394504, "lon": 19.7114335, "tags": {"brand": "COOP Jednota", "brand:wikidata": "Q41629254", "brand:wikipedia": "sk:COOP Jednota Slovensko", "name": "COOP Jednota", "shop": "supermarket"}}, {"type": "node", "id": 1148050243, "lat": 48.3932499, "lon": 19.7054106, "tags": {"brand": "COOP Jednota", "brand:wikidata": "Q41629254", "name": "COOP Jednota", "operator": "COOP Jednota Slovensko", "shop": "supermarket"}}, {"type": "node", "id": 1575210956, "lat": 48.2125389, "lon": 19.3529967, "tags": {"name": "CBA", "shop": "supermarket"}}, {"type": "node", "id": 1709261233, "lat": 48.3375292, "lon": 19.6446541, "tags": {"brand": "Billa", "brand:wikidata": "Q537781", "brand:wikipedia": "sk:BILLA", "email": "info@billa.sk", "name": "Billa", "opening_hours": "Mo-Sa 07:00-20:00; Su 08:00-18:00", "operator": "BILLA s.r.o.", "shop": "supermarket", "website": "https://www.billa.sk"}}, {"type": "node", "id": 2269748788, "lat": 48.3245232, "lon": 19.6671928, "tags": {"name": "Supermarket Cent", "shop": "supermarket", "source": "Personal"}}, {"type": "node", "id": 2269852103, "lat": 48.3345798, "lon": 19.6680747, "tags": {"brand": "Billa", "brand:wikidata": "Q537781", "brand:wikipedia": "sk:BILLA", "email": "info@billa.sk", "name": "Billa", "operator": "BILLA s.r.o.", "shop": "supermarket", "source": "survey", "website": "https://www.billa.sk"}}, {"type": "node", "id": 2306166898, "lat": 48.3316508, "lon": 19.6607987, "tags": {"name": "CBA", "shop": "supermarket", "source": "local knowledge"}}, {"type": "node", "id": 2670547658, "lat": 48.3271629, "lon": 19.6705135, "tags": {"name": "Delikates", "shop": "supermarket"}}, {"type": "node", "id": 3681326206, "lat": 48.2085909, "lon": 19.3514737, "tags": {"organic": "only", "shop": "supermarket"}}, {"type": "node", "id": 4158007814, "lat": 48.2995827, "lon": 19.1789662}, {"type": "node", "id": 4158007815, "lat": 48.2995827, "lon": 19.1787869}, {"type": "node", "id": 4158007822, "lat": 48.2997182, "lon": 19.1789662}, {"type": "node", "id": 4158007825, "lat": 48.2998476, "lon": 19.1789661}, {"type": "node", "id": 4269440993, "lat": 48.2141618, "lon": 19.3437721, "tags": {"addr:postcode": "99001", "addr:street": "Bo\u017eeny N\u011bmcovej", "name": "CBA", "shop": "supermarket"}}, {"type": "node", "id": 4340408696, "lat": 48.2063587, "lon": 19.3475485, "tags": {"addr:postcode": "99001", "addr:street": "Okru\u017en\u00e1", "name": "CBA", "shop": "supermarket"}}, {"type": "node", "id": 4729890500, "lat": 48.2127209, "lon": 19.3468948, "tags": {"addr:postcode": "99001", "name": "Sama", "name:sk": "Sama", "shop": "supermarket"}}, {"type": "node", "id": 4770538180, "lat": 48.22478, "lon": 19.5796369, "tags": {"name": "CBA", "shop": "supermarket"}}, {"type": "node", "id": 6377869237, "lat": 48.3309827, "lon": 19.661665, "tags": {"brand": "Billa", "brand:wikidata": "Q537781", "brand:wikipedia": "de:Billa", "name": "Billa", "operator": "BILLA", "shop": "supermarket", "website": "https://www.billa.sk"}}, {"type": "node", "id": 7518056992, "lat": 48.2049328, "lon": 19.3425408}, {"type": "node", "id": 7518056993, "lat": 48.2049069, "lon": 19.3425657}, {"type": "node", "id": 7518056994, "lat": 48.2049059, "lon": 19.3425669}, {"type": "node", "id": 7518056995, "lat": 48.2047722, "lon": 19.3426934}, {"type": "node", "id": 7518056996, "lat": 48.2046094, "lon": 19.3428475}, {"type": "node", "id": 7518056997, "lat": 48.2050075, "lon": 19.3437915}, {"type": "node", "id": 7518056998, "lat": 48.2050388, "lon": 19.3437626}, {"type": "node", "id": 7518056999, "lat": 48.205332, "lon": 19.3434848}, {"type": "node", "id": 7790688925, "lat": 48.3198395, "lon": 19.6692982, "tags": {"addr:city": "Lu\u010denec", "addr:conscriptionnumber": "21", "addr:housenumber": "21/83", "addr:postcode": "98401", "addr:street": "Vajansk\u00e9ho", "addr:streetnumber": "83", "description": "Predaj \u010derstv\u00e9ho pe\u010diva, chladen\u00fdch a mrazen\u00fdch v\u00fdrobkov, drog\u00e9rie, sladkost\u00ed, cigariet, alko a nealko n\u00e1pojov a z\u00e1kladn\u00fdch potrav\u00edn", "email": "mahomarket2022@gmail.com", "name": "LC Potraviny", "opening_hours": "Mo-Fr 07:00-17:00", "operator": "MAHO MARKET s.r.o.", "payment:cards": "yes", "payment:cash": "yes", "payment:coins": "yes", "payment:contactless": "yes", "payment:credit_cards": "yes", "payment:mastercard": "yes", "payment:notes": "yes", "payment:visa": "yes", "phone": "0950 259 769", "shop": "supermarket", "source:addr": "minvskaddress", "website": "https://lcpotraviny.webnode.sk/"}}, {"type": "node", "id": 9366157159, "lat": 48.3319646, "lon": 19.6562631}, {"type": "node", "id": 9366157167, "lat": 48.3318356, "lon": 19.6562261}, {"type": "node", "id": 9366157168, "lat": 48.331844, "lon": 19.6561594}, {"type": "node", "id": 9366195445, "lat": 48.3322785, "lon": 19.6464601}, {"type": "node", "id": 9366195446, "lat": 48.3322295, "lon": 19.6466706}, {"type": "node", "id": 9366195447, "lat": 48.3322652, "lon": 19.6466894}, {"type": "way", "id": 28275401, "nodes": [310503180, 310503181, 310503182, 9366157159, 9366157167, 9366157168, 310503183, 310503180], "tags": {"addr:city": "Lu\u010denec", "addr:conscriptionnumber": "5779", "addr:country": "SK", "addr:housenumber": "5779", "addr:postcode": "98401", "addr:street": "Dukelsk\u00fdch hrdinov", "brand": "Kaufland", "brand:wikidata": "Q685967", "brand:wikipedia": "sk:Kaufland", "building": "retail", "name": "Kaufland", "opening_hours": "Mo-Sa 07:00-21:00; Su 08:00-20:00", "operator": "Kaufland Slovensk\u00e1 republika v.o.s.", "shop": "supermarket", "website": "https://www.kaufland.sk/"}}, {"type": "way", "id": 51805946, "nodes": [660943319, 660943322, 660943343, 660943313, 660943315, 660943309, 9366195447, 9366195446, 9366195445, 660943319], "tags": {"building": "retail", "building:levels": "2", "name": "Lidl", "opening_hours": "Mo-Sa 07:00-21:00; Su 08:00-20:00", "operator": "Lidl", "roof:shape": "gabled", "shop": "supermarket"}}, {"type": "way", "id": 52326211, "nodes": [59835783, 665711173, 665711177, 665711186, 665711319, 59835783], "tags": {"addr:conscriptionnumber": "5364", "addr:housenumber": "5364", "addr:street": "\u013d. Podjavorinskej", "building": "retail", "building:levels": "2", "name": "TESCO", "roof:shape": "flat", "shop": "supermarket", "source": "kapor2", "wheelchair": "yes"}}, {"type": "way", "id": 414685202, "nodes": [4158007825, 4158007822, 4158007814, 4158007815, 868271248, 4158007825], "tags": {"addr:city": "Litava", "addr:conscriptionnumber": "95", "addr:housenumber": "95", "addr:place": "Litava", "building": "yes", "import": "budovy201004", "name": "COOP Jednota Krupina, Litava", "shop": "supermarket", "source": "Ortofotomozaika SR", "source:conscriptionnumber": "kapor2"}}, {"type": "way", "id": 803701009, "nodes": [7518056999, 7518056998, 7518056997, 7518056996, 7518056995, 7518056994, 7518056993, 7518056992, 7518056999], "tags": {"addr:city": "Velk\u00fd Krti\u0161", "addr:conscriptionnumber": "2779", "addr:country": "SK", "addr:housenumber": "2779", "addr:postcode": "99001", "addr:street": "A. H. \u0160kult\u00e9tyho", "brand": "Kaufland", "brand:wikidata": "Q685967", "brand:wikipedia": "sk:Kaufland", "building": "retail", "name": "Kaufland", "opening_hours": "Mo-Sa 07:00-21:00; Su 08:00-20:00", "operator": "Kaufland Slovensk\u00e1 republika v.o.s.", "shop": "supermarket", "source": "kapor2", "website": "https://www.kaufland.sk/"}}]}