{"version": 0.6, "generator": "Overpass API 0.7.59 e21c39fe", "osm3s": {"timestamp_osm_base": "2023-01-21T09:47:07Z", "copyright": "The data included in this document is from www.openstreetmap.org. The data is made available under ODbL."}, "elements": [{"type": "node", "id": 359944745, "lat": 47.8436781, "lon": 16.9306803, "tags": {"amenity": "fuel", "brand": "Eni", "brand:wikidata": "Q565594", "brand:wikipedia": "en:Eni", "fuel:diesel": "yes", "fuel:octane_95": "yes", "name": "Eni"}}, {"type": "node", "id": 369643442, "lat": 47.7258913, "lon": 16.9351373, "tags": {"addr:housenumber": "15", "addr:postcode": "7151", "addr:street": "Bahnstra\u00dfe", "amenity": "fuel", "brand": "Turm\u00f6l", "brand:wikidata": "Q1473279", "brand:wikipedia": "de:Turm\u00f6l", "name": "Turm\u00f6l", "opening_hours": "05:30-22:00"}}, {"type": "node", "id": 469271086, "lat": 47.8586526, "lon": 16.8435111, "tags": {"addr:city": "Podersdorf am See", "addr:country": "AT", "addr:housenumber": "67", "addr:postcode": "7141", "addr:street": "Neusiedler Stra\u00dfe", "amenity": "fuel", "at_bev:addr_date": "2019-10-01", "brand": "Turm\u00f6l", "brand:wikidata": "Q1473279", "brand:wikipedia": "de:Turm\u00f6l", "compressed_air": "yes", "name": "Turm\u00f6l"}}, {"type": "node", "id": 573126117, "lat": 47.7823203, "lon": 16.9453322, "tags": {"amenity": "fuel", "building": "roof", "fuel:diesel": "yes", "fuel:octane_95": "yes", "operator": "Raiffeisen Lagerhaus", "payment:cash": "yes"}}, {"type": "node", "id": 579734770, "lat": 47.8032855, "lon": 16.671622, "tags": {"amenity": "fuel", "name": "Turm\u00f6l"}}, {"type": "node", "id": 641273921, "lat": 47.9279262, "lon": 17.0974084}, {"type": "node", "id": 641273957, "lat": 47.9277052, "lon": 17.0976108}, {"type": "node", "id": 641273959, "lat": 47.9278906, "lon": 17.0976674}, {"type": "node", "id": 641280766, "lat": 47.928392, "lon": 17.1015362}, {"type": "node", "id": 641280768, "lat": 47.9285718, "lon": 17.1016553}, {"type": "node", "id": 641280771, "lat": 47.9283257, "lon": 17.1017692}, {"type": "node", "id": 1266490491, "lat": 47.9428488, "lon": 17.0618645}, {"type": "node", "id": 1266490496, "lat": 47.9428906, "lon": 17.0614279}, {"type": "node", "id": 1266490504, "lat": 47.9429582, "lon": 17.0614697}, {"type": "node", "id": 1266490507, "lat": 47.9427838, "lon": 17.0618133}, {"type": "node", "id": 1266490509, "lat": 47.9427827, "lon": 17.0618237}, {"type": "node", "id": 1418507890, "lat": 47.9911165, "lon": 17.1960557, "tags": {"addr:city": "Rajka", "addr:postcode": "9224", "addr:street": "Bem ap\u00f3 utca", "air_conditioning": "yes", "amenity": "fuel", "brand": "MOL", "brand:wikidata": "Q549181", "brand:wikipedia": "hu:MOL Magyar Olaj- \u00e9s G\u00e1zipari Nyrt.", "compressed_air": "yes", "contact:facebook": "https://www.facebook.com/mol.magyarorszag/", "contact:instagram": "https://www.instagram.com/mol.magyarorszag/", "contact:website": "https://www.mol.hu", "contact:youtube": "https://www.youtube.com/user/molgrouptv", "food": "no", "fuel:GTL_diesel": "yes", "fuel:adblue": "no", "fuel:diesel": "yes", "fuel:lpg": "yes", "fuel:octane_100": "yes", "fuel:octane_95": "yes", "name": "MOL", "operator": "MOL Nyrt.", "operator:addr": "1117 Budapest, Domb\u00f3v\u00e1ri \u00fat 28.", "payment:cash": "yes", "payment:contactless": "yes", "payment:maestro": "yes", "payment:mastercard": "yes", "payment:mastercard_contactless": "yes", "payment:mastercard_electronic": "yes", "payment:visa": "yes", "payment:visa_electron": "yes", "ref:HU:company": "01-10-041683", "ref:HU:vatin": "10625790-4-44", "rent:lpg_bottles": "yes", "source": "website", "source:date": "2022-05-21", "truck": "no"}}, {"type": "node", "id": 1978458912, "lat": 47.8660549, "lon": 17.2674653, "tags": {"addr:city": "Mosonmagyar\u00f3v\u00e1r", "addr:housenumber": "69", "addr:postcode": "9200", "addr:street": "Kossuth Lajos utca", "air_conditioning": "yes", "amenity": "fuel", "brand": "OMV", "brand:wikidata": "Q168238", "brand:wikipedia": "en:OMV", "compressed_air": "yes", "contact:email": "info.hungary@omv.com", "contact:facebook": "https://www.facebook.com/omvmagyarorszag", "contact:fax": "+36 1 381 9899", "contact:instagram": "https://www.instagram.com/omv/", "contact:linkedin": "https://www.linkedin.com/company/omv", "contact:phone": "+36 96 216 878", "contact:twitter": "omv", "contact:website": "https://www.omv.hu", "contact:youtube": "https://www.youtube.com/user/omvofficial", "fuel:GTL_diesel": "yes", "fuel:HGV_diesel": "yes", "fuel:diesel": "yes", "fuel:octane_100": "yes", "fuel:octane_95": "yes", "fuel:octane_98": "yes", "name": "OMV", "opening_hours": "24/7", "opening_hours:covid19": "same", "operator": "OMV Hung\u00e1ria Kft.", "operator:addr": "1117 Budapest, Okt\u00f3ber huszonharmadika utca 6-10 5. emelet 5/A.", "payment:cash": "yes", "payment:contactless": "yes", "payment:maestro": "yes", "payment:mastercard": "yes", "payment:mastercard_contactless": "yes", "payment:mastercard_electronic": "yes", "payment:visa": "yes", "payment:visa_electron": "yes", "ref:HU:company": "01-09-071584", "ref:HU:vatin": "10542925-2-44", "ref:vatin": "HU10542925", "source": "website", "source:date": "2020-10-03"}}, {"type": "node", "id": 1983293636, "lat": 47.8827808, "lon": 17.2440084}, {"type": "node", "id": 1983293639, "lat": 47.882856, "lon": 17.2438194}, {"type": "node", "id": 1983293641, "lat": 47.8830596, "lon": 17.244255}, {"type": "node", "id": 1983293643, "lat": 47.8829753, "lon": 17.2439249}, {"type": "node", "id": 1983293645, "lat": 47.8832548, "lon": 17.2437643}, {"type": "node", "id": 1983293647, "lat": 47.8830953, "lon": 17.2436231}, {"type": "node", "id": 1985590957, "lat": 47.9097714, "lon": 17.1709322}, {"type": "node", "id": 2094897454, "lat": 47.9285487, "lon": 17.1017331}, {"type": "node", "id": 2139966349, "lat": 47.9277195, "lon": 17.0975067}, {"type": "node", "id": 2139966351, "lat": 47.9277391, "lon": 17.0973634}, {"type": "node", "id": 2139966891, "lat": 47.9277407, "lon": 17.0973536}, {"type": "node", "id": 2291762259, "lat": 47.7658232, "lon": 16.8019257, "tags": {"addr:city": "Illmitz", "addr:country": "AT", "addr:housenumber": "67a", "addr:postcode": "7142", "addr:street": "Obere Hauptstra\u00dfe", "amenity": "fuel", "brand": "Turm\u00f6l", "brand:wikidata": "Q1473279", "brand:wikipedia": "en:OMV", "name": "Turm\u00f6l"}}, {"type": "node", "id": 2315906544, "lat": 47.7422895, "lon": 16.8323326, "tags": {"addr:city": "Apetlon", "addr:housenumber": "38", "addr:postcode": "7143", "addr:street": "Quergasse", "amenity": "fuel", "operator": "Bruck J."}}, {"type": "node", "id": 2320337405, "lat": 47.8930911, "lon": 16.9184051}, {"type": "node", "id": 2320337406, "lat": 47.8931404, "lon": 16.9184452}, {"type": "node", "id": 2320337407, "lat": 47.8932868, "lon": 16.9184006}, {"type": "node", "id": 2320337409, "lat": 47.8932034, "lon": 16.9186272}, {"type": "node", "id": 2320337410, "lat": 47.8931351, "lon": 16.9182848}, {"type": "node", "id": 2320337411, "lat": 47.8931045, "lon": 16.9185459}, {"type": "node", "id": 2320337412, "lat": 47.8932, "lon": 16.9183341}, {"type": "node", "id": 2394031665, "lat": 47.8422214, "lon": 16.9280768, "tags": {"addr:city": "Frauenkirchen", "addr:housenumber": "1", "addr:postcode": "7132", "addr:street": "Krautgartengasse", "amenity": "fuel", "fuel:cng": "yes", "fuel:diesel": "yes", "fuel:octane_95": "yes", "name": "Diesel Diskont"}}, {"type": "node", "id": 2480255333, "lat": 47.7658233, "lon": 16.9837488, "tags": {"addr:city": "Tadten", "addr:housenumber": "93", "addr:postcode": "7162", "addr:street": "Obere Hauptstra\u00dfe", "amenity": "fuel", "building": "yes", "name": "Karl Bors", "operator": "Karl Bors"}}, {"type": "node", "id": 2526408677, "lat": 47.8395871, "lon": 17.2243303, "tags": {"amenity": "fuel", "building": "yes", "name": "Agip benzink\u00fat", "operator": "Agip"}}, {"type": "node", "id": 2767963662, "lat": 47.7586171, "lon": 16.6701508, "tags": {"amenity": "fuel", "disused:amenity": "yes", "fuel:diesel": "yes", "fuel:octane_95": "yes"}}, {"type": "node", "id": 2963369014, "lat": 47.8767219, "lon": 17.2618504}, {"type": "node", "id": 2963369015, "lat": 47.8767858, "lon": 17.2616954}, {"type": "node", "id": 2963369016, "lat": 47.876628, "lon": 17.2615507}, {"type": "node", "id": 3056412374, "lat": 47.9098176, "lon": 17.1709686}, {"type": "node", "id": 3056412378, "lat": 47.9098471, "lon": 17.1708237}, {"type": "node", "id": 3056412379, "lat": 47.9098701, "lon": 17.1707104}, {"type": "node", "id": 3056422749, "lat": 47.9097499, "lon": 17.1709225}, {"type": "node", "id": 3056422759, "lat": 47.909821, "lon": 17.1706882}, {"type": "node", "id": 3056423374, "lat": 47.9097952, "lon": 17.1710791}, {"type": "node", "id": 3056425642, "lat": 47.9097246, "lon": 17.1710471}, {"type": "node", "id": 3456418451, "lat": 47.791103, "lon": 17.141817, "tags": {"amenity": "fuel", "name": "VOM", "source": "turistautak.hu", "source:date": "2015-01-30", "url": "http://turistautak.hu/poi.php?id=39047"}}, {"type": "node", "id": 3495664432, "lat": 47.9285066, "lon": 17.1018964}, {"type": "node", "id": 3500608589, "lat": 47.8772814, "lon": 16.9444085}, {"type": "node", "id": 3500610331, "lat": 47.8771827, "lon": 16.9442479}, {"type": "node", "id": 3500610376, "lat": 47.8771629, "lon": 16.9445704}, {"type": "node", "id": 3500610440, "lat": 47.8770642, "lon": 16.9444098}, {"type": "node", "id": 3725268023, "lat": 47.8715874, "lon": 17.2173248, "tags": {"addr:city": "Mosonmagyar\u00f3v\u00e1r", "addr:postcode": "9221", "addr:street": "M 1 - M 15. aut\u00f3p\u00e1lya", "air_conditioning": "yes", "amenity": "fuel", "brand": "MOL", "brand:wikidata": "Q549181", "brand:wikipedia": "hu:MOL Magyar Olaj- \u00e9s G\u00e1zipari Nyrt.", "compressed_air": "yes", "contact:facebook": "https://www.facebook.com/mol.magyarorszag/", "contact:instagram": "https://www.instagram.com/mol.magyarorszag/", "contact:website": "https://www.mol.hu", "contact:youtube": "https://www.youtube.com/user/molgrouptv", "food": "no", "fuel:GTL_diesel": "yes", "fuel:adblue": "yes", "fuel:diesel": "yes", "fuel:lpg": "yes", "fuel:octane_100": "yes", "fuel:octane_95": "yes", "name": "MOL", "operator": "MOL Nyrt.", "operator:addr": "1117 Budapest, Domb\u00f3v\u00e1ri \u00fat 28.", "payment:cash": "yes", "payment:contactless": "yes", "payment:maestro": "yes", "payment:mastercard": "yes", "payment:mastercard_contactless": "yes", "payment:mastercard_electronic": "yes", "payment:visa": "yes", "payment:visa_electron": "yes", "ref:HU:company": "01-10-041683", "ref:HU:vatin": "10625790-4-44", "rent:lpg_bottles": "no", "source": "website", "source:date": "2022-05-21", "truck": "no", "wheelchair": "yes"}}, {"type": "node", "id": 3725268116, "lat": 47.8714113, "lon": 17.2145707, "tags": {"amenity": "fuel", "brand": "MOL", "brand:wikidata": "Q549181", "brand:wikipedia": "en:MOL (company)", "fuel:diesel": "yes", "fuel:lpg": "yes", "fuel:octane_95": "yes", "name": "MOL", "operator": "MOL", "self_service": "yes", "website": "https://mol.hu/en/"}}, {"type": "node", "id": 4213336790, "lat": 47.8783525, "lon": 17.2576126, "tags": {"addr:postcode": "9200", "addr:street": "Lev\u00e9li \u00fat", "amenity": "fuel", "name": "Orange benzink\u00fat"}}, {"type": "node", "id": 4268612811, "lat": 47.9040764, "lon": 16.9197863, "tags": {"addr:city": "Gols", "addr:housenumber": "8", "addr:postcode": "7122", "addr:street": "Am Berg", "amenity": "fuel", "name": "Genol Tankstelle", "opening_hours": "24/7", "operator": "Raiffeisen Lagerhaus Frauenkirchen"}}, {"type": "node", "id": 4380050790, "lat": 47.9234188, "lon": 17.1140269, "tags": {"amenity": "fuel", "name": "HUNOIL", "operator": "Hunoil", "website": "http://hunoil.hu/"}}, {"type": "node", "id": 4420008121, "lat": 47.8358151, "lon": 16.9237293, "tags": {"amenity": "fuel", "source": "Survey"}}, {"type": "node", "id": 4736485248, "lat": 47.7958923, "lon": 17.1490938, "tags": {"addr:city": "J\u00e1nossomorja", "addr:conscriptionnumber": "0168/36", "addr:postcode": "9241", "addr:street": "86. sz\u00e1m\u00fa f\u0151k\u00f6zleked\u00e9si \u00fat", "air_conditioning": "yes", "amenity": "fuel", "brand": "OMV", "brand:wikidata": "Q168238", "brand:wikipedia": "en:OMV", "compressed_air": "yes", "contact:email": "info.hungary@omv.com", "contact:facebook": "https://www.facebook.com/omvmagyarorszag", "contact:fax": "+36 1 381 9899", "contact:instagram": "https://www.instagram.com/omv/", "contact:linkedin": "https://www.linkedin.com/company/omv", "contact:phone": "+36 96 702 028", "contact:twitter": "omv", "contact:website": "https://www.omv.hu", "contact:youtube": "https://www.youtube.com/user/omvofficial", "fuel:GTL_diesel": "yes", "fuel:diesel": "yes", "fuel:octane_100": "yes", "fuel:octane_95": "yes", "name": "OMV", "opening_hours": "Mo-Su 05:00-22:00; PH off", "opening_hours:covid19": "same", "operator": "OMV Hung\u00e1ria Kft.", "operator:addr": "1117 Budapest, Okt\u00f3ber huszonharmadika utca 6-10 5. emelet 5/A.", "payment:cash": "yes", "payment:contactless": "yes", "payment:maestro": "yes", "payment:mastercard": "yes", "payment:mastercard_contactless": "yes", "payment:mastercard_electronic": "yes", "payment:visa": "yes", "payment:visa_electron": "yes", "phone": "+36 96702 028", "ref:HU:company": "01-09-071584", "ref:HU:vatin": "10542925-2-44", "ref:vatin": "HU10542925", "source": "website", "source:date": "2020-10-03"}}, {"type": "node", "id": 4867973410, "lat": 47.8603314, "lon": 16.9749747, "tags": {"amenity": "fuel", "fixme": "correct Position", "source": "http://www.lagerhaus.at/standort-halbturn-26100703"}}, {"type": "node", "id": 5598394992, "lat": 47.8772326, "lon": 16.944329}, {"type": "node", "id": 5598394993, "lat": 47.8771123, "lon": 16.9444881}, {"type": "node", "id": 5981584944, "lat": 47.9050282, "lon": 16.9243827, "tags": {"addr:city": "Gols", "addr:housenumber": "7", "addr:postcode": "7122", "addr:street": "Hoch\u00e4cker", "amenity": "fuel", "compressed_air": "yes", "fuel:adblue": "yes", "fuel:diesel": "yes", "name": "Diesel Diskont Tankstelle", "opening_hours": "24/7", "operator": "LSC Wenzl GmbH", "payment:girocard": "yes", "payment:maestro": "yes", "payment:mastercard": "yes", "payment:visa": "yes", "self_service": "yes", "wheelchair": "yes"}}, {"type": "node", "id": 6910671935, "lat": 47.8505989, "lon": 17.2562057, "tags": {"addr:city": "Mosonmagyar\u00f3v\u00e1r", "amenity": "fuel", "name": "Oil!", "operator": "Oil!"}}, {"type": "node", "id": 6910672137, "lat": 47.8513131, "lon": 17.2637825, "tags": {"addr:city": "Mosonmagyar\u00f3v\u00e1r", "amenity": "fuel", "fuel:diesel": "yes", "name": "AS24"}}, {"type": "node", "id": 6952077175, "lat": 47.8765641, "lon": 17.2617057}, {"type": "node", "id": 7345672597, "lat": 47.8840087, "lon": 16.9449556, "tags": {"addr:city": "M\u00f6nchhof", "addr:housenumber": "7", "addr:postcode": "7123", "addr:street": "Sandh\u00f6he", "amenity": "fuel", "name": "Lagerhaus Genol Tankstelle", "self_service": "yes"}}, {"type": "node", "id": 7345776407, "lat": 47.8702247, "lon": 16.9759997, "tags": {"addr:city": "Halbturn", "addr:housenumber": "1", "addr:postcode": "7131", "addr:street": "Andauer Stra\u00dfe", "amenity": "fuel", "name": "Lagerhaus Genol Tankstelle"}}, {"type": "node", "id": 7966910577, "lat": 47.7639382, "lon": 16.9899542, "tags": {"addr:city": "Tadten", "addr:housenumber": "2", "addr:postcode": "7162", "addr:street": "Lagerplatz", "amenity": "fuel", "name": "Lagerhaus Genol Tankstelle"}}, {"type": "node", "id": 8124758598, "lat": 47.8766547, "lon": 17.2583167}, {"type": "node", "id": 8124758599, "lat": 47.8766929, "lon": 17.2583646}, {"type": "node", "id": 8124758600, "lat": 47.8767183, "lon": 17.2583197}, {"type": "node", "id": 8124758601, "lat": 47.8766801, "lon": 17.2582717}, {"type": "node", "id": 8436479498, "lat": 47.9283309, "lon": 17.1017729}, {"type": "node", "id": 9015156515, "lat": 47.7455041, "lon": 16.8295116, "tags": {"addr:city": "Apetlon", "addr:housenumber": "70", "addr:postcode": "7143", "addr:street": "Kirchengasse", "amenity": "fuel", "name": "Genol", "self_service": "yes"}}, {"type": "node", "id": 9381669961, "lat": 47.9012859, "lon": 17.197716, "tags": {"amenity": "fuel", "fuel:lpg": "yes", "name": "EDO", "operator": "EDO", "self_service": "yes"}}, {"type": "node", "id": 9381669969, "lat": 47.8997282, "lon": 17.2017778, "tags": {"addr:city": "Lev\u00e9l", "addr:housenumber": "8", "addr:postcode": "9221", "addr:street": "Szerviz utca", "amenity": "fuel", "brand": "Avia", "brand:wikidata": "Q300147", "brand:wikipedia": "de:Avia International", "compressed_air": "yes", "contact:email": "avia@avia.hu", "contact:facebook": "https://www.facebook.com/AVIAHungary", "contact:phone": "+36 96 229 393;+36 70 369 0589", "contact:website": "https://www.avia.hu/toltoallomas/?id=17", "contact:youtube": "https://www.youtube.com/channel/UCjvjkjf2RgmKBuTnKSXk-Rg", "food": "yes", "fuel:diesel": "yes", "fuel:e85": "no", "fuel:lpg": "yes", "fuel:octane_95": "yes", "fuel:octane_98": "no", "name": "Avia", "operator": "AVIA Hung\u00e1ria Kft.", "payment:cash": "yes", "payment:contactless": "yes", "payment:maestro": "yes", "payment:mastercard": "yes", "payment:mastercard_contactless": "yes", "payment:mastercard_electronic": "yes", "payment:visa": "yes", "payment:visa_electron": "yes", "rent:lpg_bottles": "yes", "restaurant": "no", "source:www.avia.hu:date": "2021-12-17", "truck": "no"}}, {"type": "node", "id": 9381669989, "lat": 47.895614, "lon": 17.2148326, "tags": {"amenity": "fuel", "brand": "OIL!", "brand:wikidata": "Q2007561", "brand:wikipedia": "de:OIL! Tankstellen", "name": "OIL benzink\u00fat", "operator": "Oil!"}}, {"type": "way", "id": 50433647, "nodes": [641273921, 641273959, 641273957, 2139966349, 2139966351, 2139966891, 641273921], "tags": {"addr:city": "Nickelsdorf", "addr:country": "AT", "addr:housenumber": "10", "addr:place": "Neuteilung", "addr:postcode": "2425", "addr:unit": "1", "amenity": "fuel", "at_bev:addr_date": "2020-10-01", "brand": "Shell", "brand:wikidata": "Q110716465", "brand:wikipedia": "en:Royal Dutch Shell", "building": "yes", "fuel:adblue": "yes", "name": "Shell", "opening_hours": "24/7", "operator": "Shell"}}, {"type": "way", "id": 50433648, "nodes": [641280768, 2094897454, 3495664432, 8436479498, 641280771, 641280766, 641280768], "tags": {"amenity": "fuel", "brand": "Shell", "brand:wikidata": "Q110716465", "brand:wikipedia": "en:Royal Dutch Shell", "building": "yes", "fuel:adblue": "yes", "name": "Shell", "opening_hours": "24/7", "operator": "Shell", "website": "https://www.shell.hu/"}}, {"type": "way", "id": 111092452, "nodes": [1266490504, 1266490491, 1266490509, 1266490507, 1266490496, 1266490504], "tags": {"addr:city": "Nickelsdorf", "addr:housenumber": "44", "addr:postcode": "2425", "addr:street": "Obere Hauptstra\u00dfe", "amenity": "fuel", "brand": "Eni", "brand:wikidata": "Q565594", "brand:wikipedia": "en:Eni", "building": "yes", "fuel:diesel": "yes", "fuel:octane_91": "yes", "fuel:octane_95": "yes", "layer": "-1", "name": "Eni"}}, {"type": "way", "id": 187697432, "nodes": [1983293645, 1983293647, 1983293643, 1983293639, 1983293636, 1983293641, 1983293645], "tags": {"addr:city": "Mosonmagyar\u00f3v\u00e1r", "addr:postcode": "9200", "addr:street": "1. sz\u00e1m\u00fa f\u0151k\u00f6zleked\u00e9si \u00fat", "air_conditioning": "yes", "amenity": "fuel", "brand": "OMV", "brand:wikidata": "Q168238", "brand:wikipedia": "en:OMV", "building": "yes", "compressed_air": "yes", "contact:email": "info.hungary@omv.com", "contact:facebook": "https://www.facebook.com/omvmagyarorszag", "contact:fax": "+36 1 381 9899", "contact:instagram": "https://www.instagram.com/omv/", "contact:linkedin": "https://www.linkedin.com/company/omv", "contact:phone": "+36 96 216 610", "contact:twitter": "omv", "contact:website": "https://www.omv.hu", "contact:youtube": "https://www.youtube.com/user/omvofficial", "fuel:GTL_diesel": "yes", "fuel:diesel": "yes", "fuel:octane_100": "yes", "fuel:octane_95": "yes", "layer": "1", "name": "OMV", "opening_hours": "24/7", "operator": "OMV Hung\u00e1ria Kft.", "operator:addr": "1117 Budapest, Okt\u00f3ber huszonharmadika utca 6-10 5. emelet 5/A.", "payment:cash": "yes", "payment:contactless": "yes", "payment:maestro": "yes", "payment:mastercard": "yes", "payment:mastercard_contactless": "yes", "payment:mastercard_electronic": "yes", "payment:visa": "yes", "payment:visa_electron": "yes", "ref:HU:company": "01-09-071584", "ref:HU:vatin": "10542925-2-44", "ref:vatin": "HU10542925", "source:www.omv.hu:date": "2020-10-03"}}, {"type": "way", "id": 223096187, "nodes": [2320337409, 2320337411, 2320337406, 2320337405, 2320337410, 2320337412, 2320337407, 2320337409], "tags": {"addr:city": "Gols", "addr:housenumber": "126", "addr:postcode": "7122", "addr:street": "Untere Hauptstra\u00dfe", "amenity": "fuel", "building": "yes", "fuel:diesel": "yes", "fuel:e10": "yes", "fuel:octane_98": "yes", "name": "Shell Gols", "opening_hours": "Mo-Fr 05:30-21:00; Sa 05:30-21:00; Su,PH 06:00-21:00", "operator": "IQ", "phone": "+432173 2437", "shop": "convenience"}}, {"type": "way", "id": 292800645, "nodes": [2963369015, 2963369016, 6952077175, 2963369014, 2963369015], "tags": {"addr:city": "Mosonmagyar\u00f3v\u00e1r", "addr:housenumber": "51", "addr:postcode": "9200", "addr:street": "Kir\u00e1lyhidai \u00fat", "air_conditioning": "yes", "amenity": "fuel", "brand": "MOL", "brand:wikidata": "Q549181", "brand:wikipedia": "hu:MOL Magyar Olaj- \u00e9s G\u00e1zipari Nyrt.", "building": "retail", "compressed_air": "yes", "contact:facebook": "https://www.facebook.com/mol.magyarorszag/", "contact:instagram": "https://www.instagram.com/mol.magyarorszag/", "contact:website": "https://www.mol.hu", "contact:youtube": "https://www.youtube.com/user/molgrouptv", "food": "yes", "fuel:GTL_diesel": "yes", "fuel:adblue": "no", "fuel:diesel": "yes", "fuel:lpg": "yes", "fuel:octane_100": "yes", "fuel:octane_95": "yes", "name": "MOL", "operator": "MOL Nyrt.", "operator:addr": "1117 Budapest, Domb\u00f3v\u00e1ri \u00fat 28.", "payment:cash": "yes", "payment:contactless": "yes", "payment:maestro": "yes", "payment:mastercard": "yes", "payment:mastercard_contactless": "yes", "payment:mastercard_electronic": "yes", "payment:visa": "yes", "payment:visa_electron": "yes", "ref:HU:company": "01-10-041683", "ref:HU:vatin": "10625790-4-44", "rent:lpg_bottles": "no", "source": "website", "source:date": "2022-05-21", "truck": "no"}}, {"type": "way", "id": 301575842, "nodes": [3056412378, 3056412379, 3056422759, 1985590957, 3056422749, 3056425642, 3056423374, 3056412374, 3056412378], "tags": {"addr:city": "Hegyeshalom", "addr:housenumber": "1", "addr:postcode": "9222", "addr:street": "F\u0151 utca", "air_conditioning": "yes", "amenity": "fuel", "brand": "MOL", "brand:wikidata": "Q549181", "brand:wikipedia": "hu:MOL Magyar Olaj- \u00e9s G\u00e1zipari Nyrt.", "building": "commercial", "compressed_air": "yes", "contact:facebook": "https://www.facebook.com/mol.magyarorszag/", "contact:instagram": "https://www.instagram.com/mol.magyarorszag/", "contact:website": "https://www.mol.hu", "contact:youtube": "https://www.youtube.com/user/molgrouptv", "food": "no", "fuel:GTL_diesel": "yes", "fuel:adblue": "no", "fuel:diesel": "yes", "fuel:lpg": "no", "fuel:octane_100": "yes", "fuel:octane_95": "yes", "name": "MOL", "operator": "MOL Nyrt.", "operator:addr": "1117 Budapest, Domb\u00f3v\u00e1ri \u00fat 28.", "payment:cash": "yes", "payment:contactless": "yes", "payment:maestro": "yes", "payment:mastercard": "yes", "payment:mastercard_contactless": "yes", "payment:mastercard_electronic": "yes", "payment:visa": "yes", "payment:visa_electron": "yes", "ref:HU:company": "01-10-041683", "ref:HU:vatin": "10625790-4-44", "rent:lpg_bottles": "yes", "source": "Bing", "source:date": "2022-05-21", "truck": "no"}}, {"type": "way", "id": 343169763, "nodes": [3500610331, 3500610440, 5598394993, 3500610376, 3500608589, 5598394992, 3500610331], "tags": {"addr:city": "M\u00f6nchhof", "addr:country": "AT", "addr:housenumber": "77", "addr:postcode": "7123", "addr:street": "Stiftsgasse", "amenity": "fuel", "building": "roof", "name": "Diskonttankstelle", "opening_hours": "24/7", "operator": "Moser Markus", "phone": "+43 2173 80523 0", "source": "geoimage.at", "website": "http://www.diskont-tanken.at"}}, {"type": "way", "id": 872329192, "nodes": [8124758601, 8124758600, 8124758599, 8124758598, 8124758601], "tags": {"amenity": "fuel", "brand": "OIL!", "brand:wikidata": "Q2007561", "brand:wikipedia": "de:OIL! Tankstellen", "building": "yes", "name": "OIL!"}}]}