{"version": 0.6, "generator": "Overpass API 0.7.59 e21c39fe", "osm3s": {"timestamp_osm_base": "2023-01-17T15:18:24Z", "copyright": "The data included in this document is from www.openstreetmap.org. The data is made available under ODbL."}, "elements": [{"type": "node", "id": 1805288168, "lat": 46.4868407, "lon": 17.3211117, "tags": {"amenity": "pub"}}, {"type": "node", "id": 2096039045, "lat": 46.4548615, "lon": 16.9950728, "tags": {"amenity": "pub", "level": "0", "name": "K\u00f3bor-l\u00f3", "toilets:wheelchair": "limited", "wheelchair": "yes"}}, {"type": "node", "id": 2096039058, "lat": 46.4539505, "lon": 16.9945172, "tags": {"amenity": "pub", "name": "Holsten", "opening_hours": "Mo-Fr 07:00-24:00; Sa 07:00-02:00; Su 08:00-24:00"}}, {"type": "node", "id": 2185446459, "lat": 46.4017962, "lon": 16.7935286, "tags": {"amenity": "pub"}}, {"type": "node", "id": 2271890055, "lat": 46.4395808, "lon": 16.9860522, "tags": {"amenity": "pub"}}, {"type": "node", "id": 2271890056, "lat": 46.4410679, "lon": 16.9867946, "tags": {"amenity": "pub"}}, {"type": "node", "id": 2271890145, "lat": 46.4557629, "lon": 16.9968203, "tags": {"amenity": "pub", "name": "Baur S\u00f6r\u00f6z\u0151"}}, {"type": "node", "id": 2366239580, "lat": 46.456739, "lon": 16.9892368, "tags": {"amenity": "pub", "name": "Corner Irish Pub", "theme": "irish"}}, {"type": "node", "id": 2366239595, "lat": 46.4559457, "lon": 16.9840123, "tags": {"amenity": "pub", "level": "0", "name": "Dreher"}}, {"type": "node", "id": 2366239670, "lat": 46.4564689, "lon": 17.0098514, "tags": {"amenity": "pub", "name": "Mang\u00f3 Esresso", "toilets:wheelchair": "limited", "wheelchair": "limited"}}, {"type": "node", "id": 2366239714, "lat": 46.4598907, "lon": 17.0100726, "tags": {"amenity": "pub", "name": "Vincell\u00e9r boroz\u00f3", "toilets:wheelchair": "no", "wheelchair": "limited"}}, {"type": "node", "id": 2366240053, "lat": 46.4566431, "lon": 17.009852, "tags": {"amenity": "pub"}}, {"type": "node", "id": 2452546989, "lat": 46.4673775, "lon": 16.9917191, "tags": {"amenity": "pub"}}, {"type": "node", "id": 2500598629, "lat": 46.4535205, "lon": 17.0025543, "tags": {"addr:city": "Nagykanizsa", "addr:country": "HU", "addr:housenumber": "46", "addr:postcode": "8800", "addr:street": "Teleki utca", "amenity": "pub", "name": "Kajli kocsma", "toilets:wheelchair": "no", "wheelchair": "no"}}, {"type": "node", "id": 2505720411, "lat": 46.4547045, "lon": 16.9978152, "tags": {"amenity": "pub", "name": "Fekete Sas Eszpressz\u00f3", "opening_hours": "Mo-Fr 06:00-21:00; Sa 08:00-21:00; Su 09:00-21:00"}}, {"type": "node", "id": 2526484701, "lat": 46.4600708, "lon": 17.0143688}, {"type": "node", "id": 2526484703, "lat": 46.4600711, "lon": 17.0143358}, {"type": "node", "id": 2526484705, "lat": 46.4600798, "lon": 17.0143868}, {"type": "node", "id": 2526484707, "lat": 46.4600804, "lon": 17.014311}, {"type": "node", "id": 2526484720, "lat": 46.4601469, "lon": 17.0143074}, {"type": "node", "id": 2526484721, "lat": 46.4601497, "lon": 17.0143864}, {"type": "node", "id": 2526484724, "lat": 46.4601591, "lon": 17.0143318}, {"type": "node", "id": 2526484725, "lat": 46.4601591, "lon": 17.014367}, {"type": "node", "id": 2624842664, "lat": 46.4563188, "lon": 16.9854955, "tags": {"amenity": "pub", "name": "Arizona S\u00f6r\u00f6z\u0151", "toilets:wheelchair": "no", "wheelchair": "limited"}}, {"type": "node", "id": 2624842665, "lat": 46.4566215, "lon": 16.9859878, "tags": {"amenity": "pub", "toilets:wheelchair": "no", "wheelchair": "no"}}, {"type": "node", "id": 3456438407, "lat": 46.331083, "lon": 16.939233, "tags": {"amenity": "pub", "source": "turistautak.hu", "source:date": "2012-10-14", "url": "http://turistautak.hu/poi.php?id=50419"}}, {"type": "node", "id": 3465200551, "lat": 46.181258, "lon": 17.30333, "tags": {"amenity": "pub", "name": "B\u00f6zsi pressz\u00f3", "source": "turistautak.hu", "source:date": "2012-10-14", "url": "http://turistautak.hu/poi.php?id=88491"}}, {"type": "node", "id": 3465200580, "lat": 46.224344, "lon": 17.362577, "tags": {"amenity": "pub", "name": "Pizza Nagyat\u00e1d Sarokv\u00e1r Italbolt \u00e9s Pizz\u00e1z\u00f3", "source": "turistautak.hu", "source:date": "2012-10-14", "url": "http://turistautak.hu/poi.php?id=88517"}}, {"type": "node", "id": 3465201713, "lat": 46.28423, "lon": 17.361161, "tags": {"amenity": "pub", "name": "Pressz\u00f3", "source": "turistautak.hu", "source:date": "2010-05-03", "url": "http://turistautak.hu/poi.php?id=92124"}}, {"type": "node", "id": 3465201819, "lat": 46.216874, "lon": 17.362573, "tags": {"amenity": "pub", "source": "turistautak.hu", "source:date": "2012-10-14", "url": "http://turistautak.hu/poi.php?id=88509"}}, {"type": "node", "id": 3465201830, "lat": 46.2292595, "lon": 17.3565901, "tags": {"amenity": "pub", "opening_hours": "Mo-Th 09:00-21:00; Fr-Sa 09:00-24:00", "source": "turistautak.hu", "source:date": "2010-12-01", "url": "http://turistautak.hu/poi.php?id=92099"}}, {"type": "node", "id": 3465201872, "lat": 46.347648, "lon": 17.346112, "tags": {"amenity": "pub", "source": "turistautak.hu", "source:date": "2012-10-14", "url": "http://turistautak.hu/poi.php?id=92154"}}, {"type": "node", "id": 3465201874, "lat": 46.351388, "lon": 17.344848, "tags": {"amenity": "pub", "source": "turistautak.hu", "source:date": "2012-10-14", "url": "http://turistautak.hu/poi.php?id=52836"}}, {"type": "node", "id": 3465219608, "lat": 46.421617, "lon": 16.804747, "tags": {"amenity": "pub", "name": "Sveti Martin Kr\u010dma", "source": "turistautak.hu", "source:date": "2011-09-19", "url": "http://turistautak.hu/poi.php?id=76022"}}, {"type": "node", "id": 3485076089, "lat": 46.266778, "lon": 17.095079, "tags": {"amenity": "pub", "name": "Csokonai Udvar", "source": "turistautak.hu", "source:date": "2012-10-14", "url": "http://turistautak.hu/poi.php?id=140739"}}, {"type": "node", "id": 3485076836, "lat": 46.385121, "lon": 17.062973, "tags": {"amenity": "pub", "name": "Stop pressz\u00f3", "source": "turistautak.hu", "source:date": "2012-10-14", "url": "http://turistautak.hu/poi.php?id=140744"}}, {"type": "node", "id": 3485076837, "lat": 46.240101, "lon": 17.110567, "tags": {"amenity": "pub", "name": "S\u00f6r\u00f6z\u0151", "source": "turistautak.hu", "source:date": "2014-03-24", "url": "http://turistautak.hu/poi.php?id=166931"}}, {"type": "node", "id": 3485076838, "lat": 46.254032, "lon": 17.097719, "tags": {"amenity": "pub", "name": "S\u00f6r\u00f6z\u0151", "source": "turistautak.hu", "source:date": "2012-10-14", "url": "http://turistautak.hu/poi.php?id=140736"}}, {"type": "node", "id": 3485076842, "lat": 46.297133, "lon": 16.893283, "tags": {"amenity": "pub", "description": "Az egys\u00e9g vezet\u0151je L\u00e9g\u00e1r Zolt\u00e1nn\u00e9, tel 30 630 6083 (2009-ben) T\u0151le lehet elk\u00e9rni a k\u00f6zeli turistasz\u00e1ll\u00f3 kulcs\u00e1t.", "name": "Vegyes- \u00e9s italbolt", "source": "turistautak.hu", "source:date": "2012-10-14", "url": "http://turistautak.hu/poi.php?id=76127"}}, {"type": "node", "id": 3485076845, "lat": 46.343483, "lon": 17.101758, "tags": {"amenity": "pub", "name": "Vend\u00e9gl\u0151", "source": "turistautak.hu", "source:date": "2012-10-14", "url": "http://turistautak.hu/poi.php?id=140757"}}, {"type": "node", "id": 3485076854, "lat": 46.236477, "lon": 17.009969, "tags": {"amenity": "pub", "source": "turistautak.hu", "source:date": "2012-10-14", "url": "http://turistautak.hu/poi.php?id=77260"}}, {"type": "node", "id": 3494635716, "lat": 46.4878055, "lon": 17.0553362, "tags": {"amenity": "pub"}}, {"type": "node", "id": 3503754146, "lat": 46.1217997, "lon": 17.2198269, "tags": {"amenity": "pub", "name": "Arizona B\u00fcf\u00e9", "opening_hours": "Mo-Su 07:00-21:00"}}, {"type": "node", "id": 3536012673, "lat": 46.4578666, "lon": 16.9958685}, {"type": "node", "id": 3536012676, "lat": 46.4578676, "lon": 16.9960214}, {"type": "node", "id": 4050309229, "lat": 46.2810561, "lon": 16.9254936, "tags": {"amenity": "pub"}}, {"type": "node", "id": 4174944325, "lat": 46.2327051, "lon": 17.3543414, "tags": {"amenity": "pub"}}, {"type": "node", "id": 4624276226, "lat": 46.4854222, "lon": 17.2455978}, {"type": "node", "id": 4624276227, "lat": 46.4854637, "lon": 17.2457078}, {"type": "node", "id": 4624276228, "lat": 46.485468, "lon": 17.2455613}, {"type": "node", "id": 4624276229, "lat": 46.4855096, "lon": 17.2456712}, {"type": "node", "id": 4625465077, "lat": 46.4984936, "lon": 16.9849935}, {"type": "node", "id": 4625465078, "lat": 46.4985001, "lon": 16.9848299}, {"type": "node", "id": 4625465079, "lat": 46.4986186, "lon": 16.9850039}, {"type": "node", "id": 4625465080, "lat": 46.4986251, "lon": 16.9848403}, {"type": "node", "id": 4939174929, "lat": 46.4540114, "lon": 16.994405, "tags": {"amenity": "pub", "fixme": "verify", "name": "Holstein S\u00f6r\u00f6z\u0151 Eszpressz\u00f3", "source": "route4u", "toilets:wheelchair": "no", "wheelchair": "no"}}, {"type": "node", "id": 4939175447, "lat": 46.2292787, "lon": 17.3619072, "tags": {"amenity": "pub", "fixme": "verify", "name": "M\u0171vh\u00e1z K\u00e1v\u00e9 B\u00e1r", "source": "route4u"}}, {"type": "node", "id": 4939178314, "lat": 46.4574673, "lon": 16.9604738, "tags": {"amenity": "pub", "name": "Capri Club", "toilets:wheelchair": "no", "wheelchair": "no"}}, {"type": "node", "id": 4939178757, "lat": 46.4565683, "lon": 16.9834422, "tags": {"amenity": "pub", "fixme": "verify", "name": "Boroz\u00f3", "source": "route4u", "toilets:wheelchair": "yes", "wheelchair": "yes"}}, {"type": "node", "id": 4939178814, "lat": 46.4565067, "lon": 16.98333, "tags": {"amenity": "pub", "fixme": "verify", "name": "G\u00f6sser S\u00f6r\u00f6z\u0151", "source": "route4u", "toilets:wheelchair": "yes", "wheelchair": "yes"}}, {"type": "node", "id": 4940561267, "lat": 46.4568528, "lon": 16.983004, "tags": {"amenity": "pub", "fixme": "verify", "name": "Pecsenyes\u00fct\u0151 / Beke Barnab\u00e1s", "source": "route4u", "wheelchair": "yes"}}, {"type": "node", "id": 4943281524, "lat": 46.456216, "lon": 16.989828, "tags": {"amenity": "pub", "name": "Clutch Pub", "toilets:wheelchair": "limited", "wheelchair": "yes"}}, {"type": "node", "id": 5273134545, "lat": 46.2280429, "lon": 17.3623792, "tags": {"addr:city": "Nagyat\u00e1d", "addr:postcode": "7500", "amenity": "pub", "name": "S\u00f6rpatika"}}, {"type": "node", "id": 5715935698, "lat": 46.4336461, "lon": 16.903631, "tags": {"amenity": "pub", "brewery": "yes", "opening_hours": "Mo-Su 07:00-21:00", "outdoor_seating": "yes", "payment:cash": "yes", "payment:coins": "yes", "payment:credit_cards": "yes", "smoking": "outside"}}, {"type": "node", "id": 6090867422, "lat": 46.4125351, "lon": 17.2892672, "tags": {"amenity": "pub", "name": "Italbolt", "source": "route4u"}}, {"type": "node", "id": 6090867423, "lat": 46.3944313, "lon": 17.1963555, "tags": {"amenity": "pub", "name": "Exkalibur", "source": "route4u"}}, {"type": "node", "id": 6090867426, "lat": 46.3685176, "lon": 17.0034581, "tags": {"amenity": "pub", "name": "Italbolt"}}, {"type": "node", "id": 6090867431, "lat": 46.3851182, "lon": 16.8325728, "tags": {"amenity": "pub", "name": "Kis Joy'S", "source": "route4u"}}, {"type": "node", "id": 6090867432, "lat": 46.3840931, "lon": 16.8317091, "tags": {"amenity": "pub", "name": "Club Africa", "source": "route4u"}}, {"type": "node", "id": 6090867435, "lat": 46.2498406, "lon": 16.9547609, "tags": {"amenity": "pub"}}, {"type": "node", "id": 6090867438, "lat": 46.2551124, "lon": 16.9439167, "tags": {"amenity": "pub", "name": "Club Havanna", "source": "route4u"}}, {"type": "node", "id": 6090867440, "lat": 46.2795359, "lon": 16.9469583, "tags": {"amenity": "pub", "name": "Italbolt", "source": "route4u"}}, {"type": "node", "id": 8518955166, "lat": 46.2925367, "lon": 17.3006542, "tags": {"addr:city": "Somogyszob", "addr:housenumber": "44", "addr:postcode": "7563", "addr:street": "Kossuth Lajos utca", "amenity": "pub", "name": "Italbolt", "opening_hours:covid19": "closed", "outdoor_seating": "yes", "payment:cash": "yes", "smoking": "outside"}}, {"type": "node", "id": 8528175516, "lat": 46.2286212, "lon": 17.3568072, "tags": {"addr:city": "Nagyat\u00e1d", "addr:postcode": "7500", "addr:street": "Piact\u00e9r", "amenity": "pub", "microbrewery": "no", "min_age": "18", "name": "Krigli", "outdoor_seating": "yes", "payment:cash": "yes", "payment:credit_cards": "yes", "payment:debit_cards": "yes", "payment:maestro": "yes", "payment:mastercard": "yes", "payment:visa": "yes", "wheelchair": "no"}}, {"type": "node", "id": 8528206133, "lat": 46.2313581, "lon": 17.3599082, "tags": {"addr:city": "Nagyat\u00e1d", "addr:postcode": "7500", "addr:street": "Beregsz\u00e1sz utca", "amenity": "pub", "name": "Fifa", "opening_hours": "Mo-Su 08:00-23:00"}}, {"type": "node", "id": 8532112074, "lat": 46.2901711, "lon": 17.3068947, "tags": {"addr:city": "Somogyszob", "addr:postcode": "7563", "addr:street": "Kolozsv\u00e1ri utca", "amenity": "pub", "name": "Hajnal pressz\u00f3"}}, {"type": "node", "id": 8532112076, "lat": 46.2934224, "lon": 17.2886472, "tags": {"addr:city": "Somogyszob", "addr:postcode": "7563", "addr:street": "R\u00e1k\u00f3czi utca", "amenity": "pub", "name": "D\u00f6ndi pressz\u00f3"}}, {"type": "node", "id": 9038024900, "lat": 46.4579201, "lon": 16.9958527}, {"type": "node", "id": 9038024904, "lat": 46.4578665, "lon": 16.9958533}, {"type": "node", "id": 9038024905, "lat": 46.457921, "lon": 16.9960206}, {"type": "node", "id": 9038024906, "lat": 46.4579208, "lon": 16.9960095}, {"type": "node", "id": 9048393879, "lat": 46.4604377, "lon": 17.0139533}, {"type": "node", "id": 9048393880, "lat": 46.4604486, "lon": 17.0141045}, {"type": "node", "id": 9048393881, "lat": 46.4603685, "lon": 17.0141167}, {"type": "node", "id": 9048393882, "lat": 46.4603653, "lon": 17.0140716}, {"type": "node", "id": 9048393883, "lat": 46.4603411, "lon": 17.0140752}, {"type": "node", "id": 9048393884, "lat": 46.4603335, "lon": 17.0139692}, {"type": "node", "id": 9053452979, "lat": 46.4525439, "lon": 17.0083534}, {"type": "node", "id": 9053452980, "lat": 46.4525298, "lon": 17.0084691}, {"type": "node", "id": 9053452981, "lat": 46.452483, "lon": 17.0084583}, {"type": "node", "id": 9053452982, "lat": 46.4524977, "lon": 17.0083425}, {"type": "node", "id": 9053453074, "lat": 46.4529169, "lon": 17.0062331}, {"type": "node", "id": 9053453075, "lat": 46.4529064, "lon": 17.0063411}, {"type": "node", "id": 9053453076, "lat": 46.4526238, "lon": 17.0062832}, {"type": "node", "id": 9053453077, "lat": 46.4526307, "lon": 17.0062126}, {"type": "node", "id": 9053453078, "lat": 46.4528124, "lon": 17.0062498}, {"type": "node", "id": 9053453079, "lat": 46.452816, "lon": 17.0062124}, {"type": "node", "id": 9053737621, "lat": 46.4516465, "lon": 17.0109899}, {"type": "node", "id": 9053737622, "lat": 46.4516146, "lon": 17.0109791}, {"type": "node", "id": 9053737623, "lat": 46.4516115, "lon": 17.0109979}, {"type": "node", "id": 9053737624, "lat": 46.4515638, "lon": 17.0109818}, {"type": "node", "id": 9053737625, "lat": 46.4515432, "lon": 17.0111105}, {"type": "node", "id": 9053737626, "lat": 46.4516228, "lon": 17.0111374}, {"type": "node", "id": 9054306498, "lat": 46.4573139, "lon": 17.0154141}, {"type": "node", "id": 9054306501, "lat": 46.4573459, "lon": 17.0154113}, {"type": "node", "id": 9054306502, "lat": 46.4573407, "lon": 17.0152868}, {"type": "node", "id": 9054306503, "lat": 46.4573087, "lon": 17.0152896}, {"type": "node", "id": 9074134306, "lat": 46.4496658, "lon": 16.9626516}, {"type": "node", "id": 9074134307, "lat": 46.4496679, "lon": 16.9627523}, {"type": "node", "id": 9074134308, "lat": 46.4496497, "lon": 16.9627531}, {"type": "node", "id": 9074134309, "lat": 46.4496515, "lon": 16.9628415}, {"type": "node", "id": 9074134310, "lat": 46.4495818, "lon": 16.9628445}, {"type": "node", "id": 9074134311, "lat": 46.4495794, "lon": 16.9627316}, {"type": "node", "id": 9074134312, "lat": 46.4495488, "lon": 16.962733}, {"type": "node", "id": 9074134313, "lat": 46.4495496, "lon": 16.9627716}, {"type": "node", "id": 9074134314, "lat": 46.4495199, "lon": 16.9627729}, {"type": "node", "id": 9074134315, "lat": 46.4495188, "lon": 16.9627169}, {"type": "node", "id": 9074134316, "lat": 46.4495316, "lon": 16.9627164}, {"type": "node", "id": 9074140117, "lat": 46.4495298, "lon": 16.9626303}, {"type": "node", "id": 9074140118, "lat": 46.4496101, "lon": 16.9626268}, {"type": "node", "id": 9074140119, "lat": 46.4496107, "lon": 16.962654}, {"type": "node", "id": 9242920553, "lat": 46.3965419, "lon": 16.9371696, "tags": {"amenity": "pub", "name": "bisztr\u00f3"}}, {"type": "node", "id": 9408515843, "lat": 46.4586172, "lon": 16.9991091, "tags": {"amenity": "pub", "name": "Mandula eszpressz\u00f3"}}, {"type": "way", "id": 245454102, "nodes": [2526484720, 2526484724, 2526484725, 2526484721, 2526484705, 2526484701, 2526484703, 2526484707, 2526484720], "tags": {"addr:city": "Nagykanizsa", "addr:housenumber": "6/B", "addr:postcode": "8800", "addr:street": "Kazanlak k\u00f6r\u00fat", "amenity": "pub", "building": "yes", "name": "Flamingo Presso", "name:en": "Flamingo Pub"}}, {"type": "way", "id": 467824725, "nodes": [4624276226, 4624276228, 4624276229, 4624276227, 4624276226], "tags": {"amenity": "pub", "building": "yes", "name": "Sheriff s\u00f6r\u00f6z\u0151"}}, {"type": "way", "id": 467989318, "nodes": [4625465077, 4625465078, 4625465080, 4625465079, 4625465077], "tags": {"amenity": "pub", "building": "yes", "name": "R\u00f3zsa eszpressz\u00f3"}}, {"type": "way", "id": 976680565, "nodes": [9038024905, 3536012676, 3536012673, 9038024904, 9038024900, 9038024906, 9038024905], "tags": {"amenity": "pub", "building": "yes", "name": "Berzsenyi Pressz\u00f3"}}, {"type": "way", "id": 977885315, "nodes": [9048393879, 9048393880, 9048393881, 9048393882, 9048393883, 9048393884, 9048393879], "tags": {"amenity": "pub", "building": "yes", "name": "Jerik\u00f3"}}, {"type": "way", "id": 978419419, "nodes": [9053452979, 9053452980, 9053452981, 9053452982, 9053452979], "tags": {"addr:city": "Nagykanizsa", "addr:housenumber": "118", "addr:postcode": "8800", "addr:street": "Teleki utca", "amenity": "pub", "building": "yes", "name": "V\u00edztorony Presso"}}, {"type": "way", "id": 978419433, "nodes": [9053453074, 9053453075, 9053453076, 9053453077, 9053453078, 9053453079, 9053453074], "tags": {"addr:city": "Nagykanizsa", "addr:housenumber": "94", "addr:postcode": "8800", "addr:street": "Teleki utca", "amenity": "pub", "building": "yes", "name": "Teleki S\u00f6r\u00f6z\u0151"}}, {"type": "way", "id": 978451234, "nodes": [9053737621, 9053737622, 9053737623, 9053737624, 9053737625, 9053737626, 9053737621], "tags": {"amenity": "pub", "building": "yes", "name": "M\u00e1rka Pressz\u00f3"}}, {"type": "way", "id": 978518947, "nodes": [9054306498, 9054306501, 9054306502, 9054306503, 9054306498], "tags": {"amenity": "pub", "building": "yes"}}, {"type": "way", "id": 980961818, "nodes": [9074134306, 9074134307, 9074134308, 9074134309, 9074134310, 9074134311, 9074134312, 9074134313, 9074134314, 9074134315, 9074134316, 9074140117, 9074140118, 9074140119, 9074134306], "tags": {"amenity": "pub", "building": "yes", "name": "Mocs\u00e1r Eszpressz\u00f3"}}]}