{"version": 0.6, "generator": "Overpass API 0.7.59 e21c39fe", "osm3s": {"timestamp_osm_base": "2023-01-21T09:46:07Z", "copyright": "The data included in this document is from www.openstreetmap.org. The data is made available under ODbL."}, "elements": [{"type": "node", "id": 195991752, "lat": 47.3249124, "lon": 18.9239899, "tags": {"amenity": "fuel", "created_by": "Potlatch 0.6"}}, {"type": "node", "id": 276494858, "lat": 47.3158768, "lon": 18.9638793, "tags": {"amenity": "fuel", "created_by": "Potlatch 0.9c"}}, {"type": "node", "id": 280371494, "lat": 47.2859528, "lon": 18.8619119, "tags": {"addr:city": "Ercsi", "addr:postcode": "2451", "air_conditioning": "yes", "amenity": "fuel", "brand": "MOL", "brand:wikidata": "Q549181", "brand:wikipedia": "hu:MOL Magyar Olaj- \u00e9s G\u00e1zipari Nyrt.", "contact:facebook": "https://www.facebook.com/mol.magyarorszag/", "contact:instagram": "https://www.instagram.com/mol.magyarorszag/", "contact:website": "https://www.mol.hu", "contact:youtube": "https://www.youtube.com/user/molgrouptv", "fuel:diesel": "yes", "fuel:octane_95": "yes", "name": "MOL", "operator": "MOL Nyrt.", "operator:addr": "1117 Budapest, Domb\u00f3v\u00e1ri \u00fat 28.", "payment:cash": "yes", "payment:contactless": "yes", "payment:maestro": "yes", "payment:mastercard": "yes", "payment:mastercard_contactless": "yes", "payment:mastercard_electronic": "yes", "payment:visa": "yes", "payment:visa_electron": "yes", "ref:HU:company": "01-10-041683", "ref:HU:vatin": "10625790-4-44", "source": "website", "source:date": "2019-11-06"}}, {"type": "node", "id": 280371495, "lat": 47.2845745, "lon": 18.8640479, "tags": {"addr:city": "Ercsi", "addr:postcode": "2451", "air_conditioning": "yes", "amenity": "fuel", "brand": "MOL", "brand:wikidata": "Q549181", "brand:wikipedia": "hu:MOL Magyar Olaj- \u00e9s G\u00e1zipari Nyrt.", "compressed_air": "yes", "contact:facebook": "https://www.facebook.com/mol.magyarorszag/", "contact:instagram": "https://www.instagram.com/mol.magyarorszag/", "contact:website": "https://www.mol.hu", "contact:youtube": "https://www.youtube.com/user/molgrouptv", "food": "no", "fuel:GTL_diesel": "yes", "fuel:adblue": "no", "fuel:diesel": "yes", "fuel:lpg": "yes", "fuel:octane_100": "yes", "fuel:octane_95": "yes", "name": "MOL", "opening_hours": "24/7", "operator": "MOL Nyrt.", "operator:addr": "1117 Budapest, Domb\u00f3v\u00e1ri \u00fat 28.", "payment:cash": "yes", "payment:contactless": "yes", "payment:maestro": "yes", "payment:mastercard": "yes", "payment:mastercard_contactless": "yes", "payment:mastercard_electronic": "yes", "payment:visa": "yes", "payment:visa_electron": "yes", "ref:HU:company": "01-10-041683", "ref:HU:vatin": "10625790-4-44", "rent:lpg_bottles": "no", "source": "website", "source:date": "2022-05-21", "truck": "no"}}, {"type": "node", "id": 320514510, "lat": 47.3169291, "lon": 18.8904457, "tags": {"amenity": "fuel", "ele": "143", "name": "Total", "wpt_description": "25-MAJ-08 18:38:53"}}, {"type": "node", "id": 320586750, "lat": 47.3222569, "lon": 18.7849953, "tags": {"addr:city": "Martonv\u00e1s\u00e1r", "addr:housenumber": "31", "addr:postcode": "2462", "addr:street": "Bajcsy-Zsilinszky Endre utca", "amenity": "fuel", "brand": "Avia", "compressed_air": "yes", "contact:email": "avia@avia.hu", "contact:facebook": "https://www.facebook.com/AVIAHungary", "contact:phone": "+36 30 680 3817", "contact:website": "https://www.avia.hu/toltoallomas/?id=137", "contact:youtube": "https://www.youtube.com/channel/UCjvjkjf2RgmKBuTnKSXk-Rg", "food": "yes", "fuel:diesel": "yes", "fuel:e85": "no", "fuel:lpg": "no", "fuel:octane_95": "yes", "fuel:octane_98": "no", "name": "Avia", "operator": "AVIA Hung\u00e1ria Kft.", "payment:cash": "yes", "payment:contactless": "yes", "payment:maestro": "yes", "payment:mastercard": "yes", "payment:mastercard_contactless": "yes", "payment:mastercard_electronic": "yes", "payment:visa": "yes", "payment:visa_electron": "yes", "rent:lpg_bottles": "no", "restaurant": "no", "source:www.avia.hu:date": "2021-12-17", "truck": "no", "wheelchair": "yes"}}, {"type": "node", "id": 323173684, "lat": 47.3465048, "lon": 19.1179724, "tags": {"addr:city": "Dunaharaszti", "addr:postcode": "2330", "addr:street": "51. sz\u00e1m\u00fa f\u0151k\u00f6zleked\u00e9si \u00fat", "air_conditioning": "yes", "amenity": "fuel", "brand": "OMV", "brand:wikidata": "Q168238", "brand:wikipedia": "en:OMV", "compressed_air": "yes", "contact:email": "info.hungary@omv.com", "contact:facebook": "https://www.facebook.com/omvmagyarorszag", "contact:fax": "+36 1 381 9899", "contact:instagram": "https://www.instagram.com/omv/", "contact:linkedin": "https://www.linkedin.com/company/omv", "contact:phone": "+36 24 491 774", "contact:twitter": "omv", "contact:website": "https://www.omv.hu", "contact:youtube": "https://www.youtube.com/user/omvofficial", "fuel:GTL_diesel": "yes", "fuel:diesel": "yes", "fuel:octane_100": "yes", "fuel:octane_95": "yes", "name": "OMV", "opening_hours": "24/7", "opening_hours:covid19": "same", "operator": "OMV Hung\u00e1ria Kft.", "operator:addr": "1117 Budapest, Okt\u00f3ber huszonharmadika utca 6-10 5. emelet 5/A.", "payment:cash": "yes", "payment:contactless": "yes", "payment:maestro": "yes", "payment:mastercard": "yes", "payment:mastercard_contactless": "yes", "payment:mastercard_electronic": "yes", "payment:visa": "yes", "payment:visa_electron": "yes", "ref:HU:company": "01-09-071584", "ref:HU:vatin": "10542925-2-44", "ref:vatin": "HU10542925", "source": "www.omv.hu", "source:date": "2020-10-03"}}, {"type": "node", "id": 686501231, "lat": 47.1133519, "lon": 18.5906658, "tags": {"amenity": "fuel", "brand": "MOL", "brand:wikidata": "Q549181", "brand:wikipedia": "en:MOL (company)", "name": "MOL", "operator": "MOL", "website": "https://mol.hu/", "wheelchair": "yes"}}, {"type": "node", "id": 1038256619, "lat": 46.963507, "lon": 18.8926561}, {"type": "node", "id": 1038256621, "lat": 46.9633774, "lon": 18.8927569}, {"type": "node", "id": 1038256672, "lat": 46.9633689, "lon": 18.8927021}, {"type": "node", "id": 1038272173, "lat": 46.9641326, "lon": 18.8905691}, {"type": "node", "id": 1038272359, "lat": 46.9639541, "lon": 18.890412}, {"type": "node", "id": 1038272498, "lat": 46.9641394, "lon": 18.8906184}, {"type": "node", "id": 1038272634, "lat": 46.9639886, "lon": 18.8906628}, {"type": "node", "id": 1365401663, "lat": 47.2441857, "lon": 18.6377854, "tags": {"addr:city": "Velence", "addr:postcode": "2481", "addr:street": "M 7. aut\u00f3p\u00e1lya", "air_conditioning": "yes", "amenity": "fuel", "brand": "MOL", "brand:wikidata": "Q549181", "brand:wikipedia": "hu:MOL Magyar Olaj- \u00e9s G\u00e1zipari Nyrt.", "compressed_air": "yes", "contact:facebook": "https://www.facebook.com/mol.magyarorszag/", "contact:instagram": "https://www.instagram.com/mol.magyarorszag/", "contact:website": "https://www.mol.hu", "contact:youtube": "https://www.youtube.com/user/molgrouptv", "food": "yes", "fuel:GTL_diesel": "yes", "fuel:adblue": "yes", "fuel:diesel": "yes", "fuel:e85": "no", "fuel:lpg": "yes", "fuel:octane_100": "yes", "fuel:octane_95": "yes", "fuel:octane_98": "yes", "name": "MOL", "opening_hours": "24/7", "operator": "MOL Nyrt.", "operator:addr": "1117 Budapest, Domb\u00f3v\u00e1ri \u00fat 28.", "payment:cash": "yes", "payment:contactless": "yes", "payment:maestro": "yes", "payment:mastercard": "yes", "payment:mastercard_contactless": "yes", "payment:mastercard_electronic": "yes", "payment:visa": "yes", "payment:visa_electron": "yes", "ref:HU:company": "01-10-041683", "ref:HU:vatin": "10625790-4-44", "rent:lpg_bottles": "yes", "source": "website", "source:date": "2022-05-21", "truck": "yes", "wheelchair": "yes"}}, {"type": "node", "id": 1365401664, "lat": 47.24141, "lon": 18.633233, "tags": {"amenity": "fuel", "brand": "MOL", "brand:wikidata": "Q549181", "name": "MOL", "operator": "MOL", "website": "https://mol.hu/", "wheelchair": "yes"}}, {"type": "node", "id": 1450968624, "lat": 46.9581053, "lon": 18.9197583, "tags": {"addr:city": "Duna\u00fajv\u00e1ros", "addr:postcode": "2400", "addr:street": "D\u00f3zsa Gy\u00f6rgy \u00fat", "air_conditioning": "yes", "amenity": "fuel", "brand": "OMV", "brand:wikidata": "Q168238", "brand:wikipedia": "en:OMV", "compressed_air": "yes", "contact:email": "info.hungary@omv.com", "contact:facebook": "https://www.facebook.com/omvmagyarorszag", "contact:fax": "+36 1 381 9899", "contact:instagram": "https://www.instagram.com/omv/", "contact:linkedin": "https://www.linkedin.com/company/omv", "contact:phone": "+36 25 522 410", "contact:twitter": "omv", "contact:website": "https://www.omv.hu", "contact:youtube": "https://www.youtube.com/user/omvofficial", "fuel:GTL_diesel": "yes", "fuel:diesel": "yes", "fuel:octane_100": "yes", "fuel:octane_95": "yes", "name": "OMV", "opening_hours": "Mo-Su 05:00-21:00; PH off", "opening_hours:covid19": "same", "operator": "OMV Hung\u00e1ria Kft.", "operator:addr": "1117 Budapest, Okt\u00f3ber huszonharmadika utca 6-10 5. emelet 5/A.", "payment:cash": "yes", "payment:contactless": "yes", "payment:maestro": "yes", "payment:mastercard": "yes", "payment:mastercard_contactless": "yes", "payment:mastercard_electronic": "yes", "payment:visa": "yes", "payment:visa_electron": "yes", "phone": "+36 25 522-410", "ref:HU:company": "01-09-071584", "ref:HU:vatin": "10542925-2-44", "ref:vatin": "HU10542925", "source": "website", "source:date": "2020-10-03", "wheelchair": "yes"}}, {"type": "node", "id": 1573870736, "lat": 46.955597, "lon": 18.9149922, "tags": {"amenity": "fuel"}}, {"type": "node", "id": 1573918735, "lat": 46.9970767, "lon": 18.9296904, "tags": {"addr:city": "Duna\u00fajv\u00e1ros", "addr:postcode": "2400", "air_conditioning": "yes", "amenity": "fuel", "brand": "MOL", "brand:wikidata": "Q549181", "brand:wikipedia": "hu:MOL Magyar Olaj- \u00e9s G\u00e1zipari Nyrt.", "compressed_air": "yes", "contact:facebook": "https://www.facebook.com/mol.magyarorszag/", "contact:instagram": "https://www.instagram.com/mol.magyarorszag/", "contact:website": "https://www.mol.hu", "contact:youtube": "https://www.youtube.com/user/molgrouptv", "food": "yes", "fuel:GTL_diesel": "yes", "fuel:adblue": "yes", "fuel:diesel": "yes", "fuel:lpg": "yes", "fuel:octane_100": "yes", "fuel:octane_95": "yes", "fuel:octane_98": "yes", "name": "MOL", "operator": "MOL Nyrt.", "operator:addr": "1117 Budapest, Domb\u00f3v\u00e1ri \u00fat 28.", "payment:cash": "yes", "payment:contactless": "yes", "payment:maestro": "yes", "payment:mastercard": "yes", "payment:mastercard_contactless": "yes", "payment:mastercard_electronic": "yes", "payment:visa": "yes", "payment:visa_electron": "yes", "ref:HU:company": "01-10-041683", "ref:HU:vatin": "10625790-4-44", "rent:lpg_bottles": "yes", "source": "website", "source:date": "2022-05-21", "truck": "no"}}, {"type": "node", "id": 1654317155, "lat": 47.337089, "lon": 19.0183957, "tags": {"amenity": "fuel"}}, {"type": "node", "id": 1780139067, "lat": 46.9559957, "lon": 18.8519915, "tags": {"amenity": "fuel", "name": "Benzink\u00fat"}}, {"type": "node", "id": 1810222680, "lat": 47.2852743, "lon": 19.0511046, "tags": {"amenity": "fuel", "brand": "OIL!", "brand:wikidata": "Q2007561", "brand:wikipedia": "de:OIL! Tankstellen", "name": "OIL!"}}, {"type": "node", "id": 1810222834, "lat": 47.3064561, "lon": 19.0369669, "tags": {"amenity": "fuel", "name": "Castrol", "shop": "yes"}}, {"type": "node", "id": 2068261307, "lat": 46.9610308, "lon": 18.9064032, "tags": {"amenity": "fuel", "brand": "Envi", "name": "Envi", "opening_hours": "Mo-Su 00:00-24:00"}}, {"type": "node", "id": 2171416657, "lat": 47.0511538, "lon": 18.6487922, "tags": {"amenity": "fuel"}}, {"type": "node", "id": 2410407241, "lat": 47.1718465, "lon": 18.9432066, "tags": {"addr:city": "R\u00e1ckeve", "addr:postcode": "2300", "addr:street": "Kossuth Lajos utca", "air_conditioning": "yes", "amenity": "fuel", "brand": "MOL", "brand:wikidata": "Q549181", "brand:wikipedia": "hu:MOL Magyar Olaj- \u00e9s G\u00e1zipari Nyrt.", "building": "yes", "compressed_air": "yes", "contact:facebook": "https://www.facebook.com/mol.magyarorszag/", "contact:instagram": "https://www.instagram.com/mol.magyarorszag/", "contact:website": "https://www.mol.hu", "contact:youtube": "https://www.youtube.com/user/molgrouptv", "food": "no", "fuel:GTL_diesel": "yes", "fuel:adblue": "no", "fuel:diesel": "yes", "fuel:lpg": "no", "fuel:octane_100": "yes", "fuel:octane_95": "yes", "name": "MOL", "operator": "MOL Nyrt.", "operator:addr": "1117 Budapest, Domb\u00f3v\u00e1ri \u00fat 28.", "payment:cash": "yes", "payment:contactless": "yes", "payment:maestro": "yes", "payment:mastercard": "yes", "payment:mastercard_contactless": "yes", "payment:mastercard_electronic": "yes", "payment:visa": "yes", "payment:visa_electron": "yes", "ref:HU:company": "01-10-041683", "ref:HU:vatin": "10625790-4-44", "rent:lpg_bottles": "yes", "source": "website", "source:date": "2022-05-21", "truck": "no"}}, {"type": "node", "id": 2508327311, "lat": 46.9736444, "lon": 18.9280554}, {"type": "node", "id": 2508327312, "lat": 46.9735391, "lon": 18.9282559}, {"type": "node", "id": 2508327313, "lat": 46.9737706, "lon": 18.9284743}, {"type": "node", "id": 2508327314, "lat": 46.97387, "lon": 18.9282708}, {"type": "node", "id": 2713519686, "lat": 47.332553, "lon": 19.001214}, {"type": "node", "id": 2713519687, "lat": 47.3325891, "lon": 19.0013653}, {"type": "node", "id": 2713519688, "lat": 47.3326292, "lon": 19.0013445}, {"type": "node", "id": 2713519689, "lat": 47.3326338, "lon": 19.0011721}, {"type": "node", "id": 2713519690, "lat": 47.3326416, "lon": 19.001205}, {"type": "node", "id": 2713519691, "lat": 47.3326488, "lon": 19.0014269}, {"type": "node", "id": 2713519692, "lat": 47.3328608, "lon": 19.0010912}, {"type": "node", "id": 2713519693, "lat": 47.3329086, "lon": 19.001292}, {"type": "node", "id": 2800706827, "lat": 47.3374194, "lon": 19.0287586}, {"type": "node", "id": 2800706828, "lat": 47.3373134, "lon": 19.0288567}, {"type": "node", "id": 2800706829, "lat": 47.3372675, "lon": 19.0287563}, {"type": "node", "id": 2800706830, "lat": 47.3372833, "lon": 19.0287446}, {"type": "node", "id": 2800706831, "lat": 47.3372485, "lon": 19.0286746}, {"type": "node", "id": 2800706832, "lat": 47.3372279, "lon": 19.0286932}, {"type": "node", "id": 2800706833, "lat": 47.3371852, "lon": 19.0285998}, {"type": "node", "id": 2800706834, "lat": 47.3372865, "lon": 19.0285018}, {"type": "node", "id": 2800706835, "lat": 47.3373308, "lon": 19.0285998}, {"type": "node", "id": 2800706836, "lat": 47.3373228, "lon": 19.0286045}, {"type": "node", "id": 2800706837, "lat": 47.3373542, "lon": 19.0286754}, {"type": "node", "id": 2800706838, "lat": 47.3373761, "lon": 19.0286538}, {"type": "node", "id": 2800706894, "lat": 47.337375, "lon": 19.0287997}, {"type": "node", "id": 2800706897, "lat": 47.337338, "lon": 19.0288339}, {"type": "node", "id": 2807019171, "lat": 47.3603493, "lon": 19.0476845}, {"type": "node", "id": 2807019172, "lat": 47.3603409, "lon": 19.0478971}, {"type": "node", "id": 2807019173, "lat": 47.3602524, "lon": 19.0478895}, {"type": "node", "id": 2807019174, "lat": 47.3602514, "lon": 19.0479162}, {"type": "node", "id": 2807019175, "lat": 47.3602735, "lon": 19.0479182}, {"type": "node", "id": 2807019176, "lat": 47.3602684, "lon": 19.048048}, {"type": "node", "id": 2807019177, "lat": 47.3601118, "lon": 19.0480345}, {"type": "node", "id": 2807019178, "lat": 47.3601169, "lon": 19.0479042}, {"type": "node", "id": 2807019179, "lat": 47.3601637, "lon": 19.0479083}, {"type": "node", "id": 2807019180, "lat": 47.360165, "lon": 19.0478765}, {"type": "node", "id": 2807019181, "lat": 47.3601527, "lon": 19.0478755}, {"type": "node", "id": 2807019182, "lat": 47.3601609, "lon": 19.0476683}, {"type": "node", "id": 2807020933, "lat": 47.3601552, "lon": 19.0478139}, {"type": "node", "id": 2807020934, "lat": 47.3603436, "lon": 19.04783}, {"type": "node", "id": 2887590656, "lat": 47.3557853, "lon": 18.9075257}, {"type": "node", "id": 2887590659, "lat": 47.3558303, "lon": 18.9073542}, {"type": "node", "id": 2887590661, "lat": 47.3558384, "lon": 18.9075561}, {"type": "node", "id": 2887590662, "lat": 47.3558415, "lon": 18.9075445}, {"type": "node", "id": 2887590664, "lat": 47.3558787, "lon": 18.9074029}, {"type": "node", "id": 2887590665, "lat": 47.3558835, "lon": 18.9073846}, {"type": "node", "id": 2887590669, "lat": 47.3560535, "lon": 18.9076659}, {"type": "node", "id": 2887590671, "lat": 47.3560907, "lon": 18.9075242}, {"type": "node", "id": 2887590676, "lat": 47.3563508, "lon": 18.9062793}, {"type": "node", "id": 2887590678, "lat": 47.3563911, "lon": 18.9061302}, {"type": "node", "id": 2887590681, "lat": 47.356551, "lon": 18.906412}, {"type": "node", "id": 2887590682, "lat": 47.3565544, "lon": 18.9063994}, {"type": "node", "id": 2887590684, "lat": 47.3565948, "lon": 18.9062503}, {"type": "node", "id": 2887590685, "lat": 47.3565977, "lon": 18.9062395}, {"type": "node", "id": 2887590686, "lat": 47.3566064, "lon": 18.9064446}, {"type": "node", "id": 2887590687, "lat": 47.3566531, "lon": 18.9062721}, {"type": "node", "id": 2938929818, "lat": 47.316729, "lon": 18.7910135, "tags": {"addr:city": "Martonv\u00e1s\u00e1r", "addr:housenumber": "32", "addr:postcode": "2462", "addr:street": "Budai \u00fat", "amenity": "fuel", "brand": "NK", "fuel:octane_95": "yes", "name": "NK", "operator": "NK", "phone": "+36 22 461 329"}}, {"type": "node", "id": 3059903058, "lat": 47.0219087, "lon": 19.1084629, "tags": {"addr:city": "Kunszentmikl\u00f3s", "addr:housenumber": "30", "addr:postcode": "6090", "addr:street": "Szabads\u00e1g utca", "air_conditioning": "yes", "amenity": "fuel", "brand": "MOL", "brand:wikidata": "Q549181", "brand:wikipedia": "hu:MOL Magyar Olaj- \u00e9s G\u00e1zipari Nyrt.", "compressed_air": "yes", "contact:facebook": "https://www.facebook.com/mol.magyarorszag/", "contact:instagram": "https://www.instagram.com/mol.magyarorszag/", "contact:website": "https://www.mol.hu", "contact:youtube": "https://www.youtube.com/user/molgrouptv", "food": "no", "fuel:GTL_diesel": "yes", "fuel:adblue": "no", "fuel:diesel": "yes", "fuel:lpg": "no", "fuel:octane_100": "yes", "fuel:octane_95": "yes", "name": "MOL", "operator": "MOL Nyrt.", "operator:addr": "1117 Budapest, Domb\u00f3v\u00e1ri \u00fat 28.", "payment:cash": "yes", "payment:contactless": "yes", "payment:maestro": "yes", "payment:mastercard": "yes", "payment:mastercard_contactless": "yes", "payment:mastercard_electronic": "yes", "payment:visa": "yes", "payment:visa_electron": "yes", "ref:HU:company": "01-10-041683", "ref:HU:vatin": "10625790-4-44", "rent:lpg_bottles": "yes", "source": "website", "source:date": "2022-05-21", "truck": "no"}}, {"type": "node", "id": 3114710088, "lat": 46.9634079, "lon": 18.8929574}, {"type": "node", "id": 3114710614, "lat": 46.9641049, "lon": 18.8903675}, {"type": "node", "id": 3119396183, "lat": 47.2522369, "lon": 18.8706653, "tags": {"addr:city": "Ercsi", "amenity": "fuel", "brand": "Independent", "opening_hours": "24/7", "shop": "no"}}, {"type": "node", "id": 3147156783, "lat": 47.3438485, "lon": 19.116779, "tags": {"addr:city": "Dunaharaszti", "addr:housenumber": "69", "addr:postcode": "2330", "addr:street": "N\u00e9medi \u00fat", "amenity": "fuel", "email": "vevokod@envikut.hu", "fuel:diesel": "yes", "fuel:octane_95": "yes", "name": "ENVi", "opening_hours": "24/7", "operator": "ENVI", "phone": "+36 21 311 1348;+36 21 311 1351", "self_service": "yes", "website": "http://www.envikut.hu"}}, {"type": "node", "id": 3162618512, "lat": 47.130549, "lon": 18.8649252, "tags": {"addr:city": "Adony", "addr:postcode": "2457", "addr:street": "6. sz\u00e1m\u00fa f\u0151k\u00f6zleked\u00e9si \u00fat", "air_conditioning": "yes", "amenity": "fuel", "brand": "MOL", "brand:wikidata": "Q549181", "brand:wikipedia": "hu:MOL Magyar Olaj- \u00e9s G\u00e1zipari Nyrt.", "compressed_air": "yes", "contact:facebook": "https://www.facebook.com/mol.magyarorszag/", "contact:instagram": "https://www.instagram.com/mol.magyarorszag/", "contact:website": "https://www.mol.hu", "contact:youtube": "https://www.youtube.com/user/molgrouptv", "food": "no", "fuel:GTL_diesel": "yes", "fuel:adblue": "no", "fuel:diesel": "yes", "fuel:lpg": "yes", "fuel:octane_100": "yes", "fuel:octane_95": "yes", "name": "MOL", "operator": "MOL Nyrt.", "operator:addr": "1117 Budapest, Domb\u00f3v\u00e1ri \u00fat 28.", "payment:cash": "yes", "payment:contactless": "yes", "payment:maestro": "yes", "payment:mastercard": "yes", "payment:mastercard_contactless": "yes", "payment:mastercard_electronic": "yes", "payment:visa": "yes", "payment:visa_electron": "yes", "ref:HU:company": "01-10-041683", "ref:HU:vatin": "10625790-4-44", "rent:lpg_bottles": "yes", "source": "website", "source:date": "2022-05-21", "truck": "yes", "wheelchair": "yes"}}, {"type": "node", "id": 3295037725, "lat": 47.1728009, "lon": 18.9929566, "tags": {"addr:city": "Kiskunlach\u00e1za", "addr:conscriptionnumber": "090/1", "addr:postcode": "2340", "addr:street": "R\u00e1ckevei \u00fat", "amenity": "fuel", "brand": "Avia", "brand:wikidata": "Q300147", "brand:wikipedia": "de:Avia International", "compressed_air": "yes", "contact:email": "avia@avia.hu", "contact:facebook": "https://www.facebook.com/AVIAHungary", "contact:phone": "+36 24 511 690;+36 20 282 5028", "contact:website": "https://www.avia.hu/toltoallomas/?id=16", "contact:youtube": "https://www.youtube.com/channel/UCjvjkjf2RgmKBuTnKSXk-Rg", "food": "no", "fuel:diesel": "yes", "fuel:e85": "no", "fuel:lpg": "yes", "fuel:octane_95": "yes", "fuel:octane_98": "no", "name": "Avia", "operator": "AVIA Hung\u00e1ria Kft.", "payment:cash": "yes", "payment:contactless": "yes", "payment:maestro": "yes", "payment:mastercard": "yes", "payment:mastercard_contactless": "yes", "payment:mastercard_electronic": "yes", "payment:visa": "yes", "payment:visa_electron": "yes", "rent:lpg_bottles": "yes", "restaurant": "no", "source": "website", "source:date": "2021-12-17", "truck": "no"}}, {"type": "node", "id": 3312383809, "lat": 47.08224, "lon": 19.0064557, "tags": {"amenity": "fuel"}}, {"type": "node", "id": 3334248903, "lat": 46.9669304, "lon": 18.9363312, "tags": {"addr:city": "Duna\u00fajv\u00e1ros", "addr:postcode": "2400", "addr:street": "Aranyv\u00f6lgyi \u00fat", "air_conditioning": "yes", "amenity": "fuel", "brand": "OMV", "brand:wikidata": "Q168238", "brand:wikipedia": "en:OMV", "compressed_air": "yes", "contact:email": "info.hungary@omv.com", "contact:facebook": "https://www.facebook.com/omvmagyarorszag", "contact:fax": "+36 1 381 9899", "contact:instagram": "https://www.instagram.com/omv/", "contact:linkedin": "https://www.linkedin.com/company/omv", "contact:phone": "+36 25 410 534", "contact:twitter": "omv", "contact:website": "https://www.omv.hu", "contact:youtube": "https://www.youtube.com/user/omvofficial", "fuel:GTL_diesel": "yes", "fuel:diesel": "yes", "fuel:octane_100": "yes", "fuel:octane_95": "yes", "fuel:octane_98": "yes", "name": "OMV", "opening_hours": "Mo-Su 05:00-22:00; PH off", "opening_hours:covid19": "same", "operator": "OMV Hung\u00e1ria Kft.", "operator:addr": "1117 Budapest, Okt\u00f3ber huszonharmadika utca 6-10 5. emelet 5/A.", "payment:cash": "yes", "payment:contactless": "yes", "payment:maestro": "yes", "payment:mastercard": "yes", "payment:mastercard_contactless": "yes", "payment:mastercard_electronic": "yes", "payment:visa": "yes", "payment:visa_electron": "yes", "ref:HU:company": "01-09-071584", "ref:HU:vatin": "10542925-2-44", "ref:vatin": "HU10542925", "source": "website", "source:date": "2020-10-03", "toilets:wheelchair": "yes", "wheelchair": "yes"}}, {"type": "node", "id": 3445466199, "lat": 47.3336419, "lon": 19.1070812, "tags": {"addr:city": "Dunaharaszti", "addr:conscriptionnumber": "8601", "addr:housenumber": "1", "addr:postcode": "2330", "addr:street": "Ganz \u00c1brah\u00e1m utca", "amenity": "fuel", "brand": "Benzink\u00fat", "fax": "+36 24 300 113", "fuel:diesel": "yes", "fuel:lpg": "yes", "fuel:octane_95": "yes", "name": "Benzink\u00fat", "opening_hours": "5:00 - 22:00", "phone": "+36 24 300 113", "source": "survey;Bing"}}, {"type": "node", "id": 3446961628, "lat": 47.2020326, "lon": 19.0118556}, {"type": "node", "id": 3446961629, "lat": 47.2020832, "lon": 19.0116607}, {"type": "node", "id": 3446961631, "lat": 47.202121, "lon": 19.0120965}, {"type": "node", "id": 3446966493, "lat": 47.2019628, "lon": 19.0120075}, {"type": "node", "id": 3446966494, "lat": 47.2020061, "lon": 19.0118407}, {"type": "node", "id": 3446966594, "lat": 47.2021643, "lon": 19.0119297}, {"type": "node", "id": 3446966595, "lat": 47.2021763, "lon": 19.0119365}, {"type": "node", "id": 3446966596, "lat": 47.202227, "lon": 19.0117416}, {"type": "node", "id": 3454477873, "lat": 47.1454147, "lon": 18.7516192, "tags": {"amenity": "fuel", "name": "One", "source": "turistautak.hu", "source:date": "2012-10-11", "url": "http://turistautak.hu/poi.php?id=123072", "wheelchair": "yes"}}, {"type": "node", "id": 3454477983, "lat": 46.9635466, "lon": 18.892911}, {"type": "node", "id": 3465805189, "lat": 47.315468, "lon": 18.97703, "tags": {"amenity": "fuel", "name": "AVIA - benzink\u00fat", "source": "turistautak.hu", "source:date": "2011-06-24", "url": "http://turistautak.hu/poi.php?id=25026"}}, {"type": "node", "id": 3471930925, "lat": 47.229889, "lon": 19.144456, "tags": {"amenity": "fuel", "source": "turistautak.hu", "source:date": "2011-06-24", "url": "http://turistautak.hu/poi.php?id=91593"}}, {"type": "node", "id": 3488444440, "lat": 47.31913, "lon": 19.163588, "tags": {"amenity": "fuel", "name": "LPG aut\u00f3g\u00e1z", "source": "turistautak.hu", "source:date": "2011-06-24", "url": "http://turistautak.hu/poi.php?id=97236"}}, {"type": "node", "id": 3488447729, "lat": 47.3168099, "lon": 18.9008177, "tags": {"addr:city": "Sz\u00e1zhalombatta", "addr:postcode": "2440", "addr:street": "V\u00e1roskapu utca", "air_conditioning": "yes", "amenity": "fuel", "brand": "MOL", "brand:wikidata": "Q549181", "brand:wikipedia": "hu:MOL Magyar Olaj- \u00e9s G\u00e1zipari Nyrt.", "compressed_air": "yes", "contact:facebook": "https://www.facebook.com/mol.magyarorszag/", "contact:instagram": "https://www.instagram.com/mol.magyarorszag/", "contact:website": "https://www.mol.hu", "contact:youtube": "https://www.youtube.com/user/molgrouptv", "food": "no", "fuel:GTL_diesel": "yes", "fuel:adblue": "no", "fuel:diesel": "yes", "fuel:lpg": "no", "fuel:octane_100": "yes", "fuel:octane_95": "yes", "name": "MOL", "operator": "MOL Nyrt.", "operator:addr": "1117 Budapest, Domb\u00f3v\u00e1ri \u00fat 28.", "payment:cash": "yes", "payment:contactless": "yes", "payment:maestro": "yes", "payment:mastercard": "yes", "payment:mastercard_contactless": "yes", "payment:mastercard_electronic": "yes", "payment:visa": "yes", "payment:visa_electron": "yes", "ref:HU:company": "01-10-041683", "ref:HU:vatin": "10625790-4-44", "rent:lpg_bottles": "yes", "source": "turistautak.hu", "source:date": "2022-05-21", "truck": "no", "url": "http://turistautak.hu/poi.php?id=35762"}}, {"type": "node", "id": 3659390740, "lat": 47.3382988, "lon": 18.9978887, "tags": {"amenity": "fuel", "name": "ENVI", "opening_hours": "24/7", "wheelchair": "yes"}}, {"type": "node", "id": 3933096548, "lat": 46.958048, "lon": 18.9198862}, {"type": "node", "id": 3933096554, "lat": 46.9580626, "lon": 18.9201245}, {"type": "node", "id": 3933096566, "lat": 46.958165, "lon": 18.9198658}, {"type": "node", "id": 3933096571, "lat": 46.9581802, "lon": 18.9201042}, {"type": "node", "id": 3949047481, "lat": 46.9765516, "lon": 18.9231048, "tags": {"amenity": "fuel", "brand": "OIL!", "brand:wikidata": "Q2007561", "brand:wikipedia": "de:OIL! Tankstellen", "fuel:GTL_diesel": "yes", "fuel:octane_95": "yes", "name": "OIL!", "opening_hours": "24/7"}}, {"type": "node", "id": 3978266644, "lat": 47.1718377, "lon": 18.8147899, "tags": {"amenity": "fuel"}}, {"type": "node", "id": 4518054216, "lat": 47.2455048, "lon": 18.6955395}, {"type": "node", "id": 4518054217, "lat": 47.2455663, "lon": 18.6954408}, {"type": "node", "id": 4518054218, "lat": 47.2455504, "lon": 18.6954194}, {"type": "node", "id": 4518054219, "lat": 47.245592, "lon": 18.6953526}, {"type": "node", "id": 4518054220, "lat": 47.2454759, "lon": 18.6951923}, {"type": "node", "id": 4518054221, "lat": 47.2453717, "lon": 18.6953597}, {"type": "node", "id": 4518054230, "lat": 47.2455787, "lon": 18.6953346}, {"type": "node", "id": 4518054231, "lat": 47.2454879, "lon": 18.6952086}, {"type": "node", "id": 4548815082, "lat": 47.2039371, "lon": 18.6229592}, {"type": "node", "id": 4548815083, "lat": 47.2040026, "lon": 18.6230809}, {"type": "node", "id": 4548815084, "lat": 47.2040775, "lon": 18.6229936}, {"type": "node", "id": 4548815085, "lat": 47.2040121, "lon": 18.6228719}, {"type": "node", "id": 4609572743, "lat": 47.3177929, "lon": 19.0185286, "tags": {"amenity": "fuel", "brand": "OIL!", "brand:wikidata": "Q2007561", "brand:wikipedia": "de:OIL! Tankstellen", "name": "OIL!"}}, {"type": "node", "id": 5023756673, "lat": 47.3148754, "lon": 18.913927}, {"type": "node", "id": 5023756674, "lat": 47.3149314, "lon": 18.9137698}, {"type": "node", "id": 5023756675, "lat": 47.3149424, "lon": 18.9139776}, {"type": "node", "id": 5023756678, "lat": 47.3149973, "lon": 18.9138195}, {"type": "node", "id": 5303264717, "lat": 47.3400486, "lon": 19.0702355}, {"type": "node", "id": 5303264718, "lat": 47.3399811, "lon": 19.0701337}, {"type": "node", "id": 5303264719, "lat": 47.3399075, "lon": 19.0702433}, {"type": "node", "id": 5303264720, "lat": 47.3399762, "lon": 19.0703435}, {"type": "node", "id": 5305992590, "lat": 47.0835429, "lon": 18.7118754}, {"type": "node", "id": 5305992591, "lat": 47.083494, "lon": 18.7118381}, {"type": "node", "id": 5305992592, "lat": 47.0834491, "lon": 18.7119543}, {"type": "node", "id": 5305992593, "lat": 47.0835039, "lon": 18.7120023}, {"type": "node", "id": 5452227893, "lat": 47.0204801, "lon": 19.0199478}, {"type": "node", "id": 5452227894, "lat": 47.0202963, "lon": 19.0198641}, {"type": "node", "id": 5452227895, "lat": 47.0203145, "lon": 19.019778}, {"type": "node", "id": 5452227896, "lat": 47.0204354, "lon": 19.019833}, {"type": "node", "id": 5452227897, "lat": 47.0204441, "lon": 19.0197923}, {"type": "node", "id": 5452227898, "lat": 47.0205069, "lon": 19.0198209}, {"type": "node", "id": 5463061456, "lat": 47.3080064, "lon": 18.7445512}, {"type": "node", "id": 5463061457, "lat": 47.3079217, "lon": 18.7444992}, {"type": "node", "id": 5463061458, "lat": 47.3078605, "lon": 18.7447162}, {"type": "node", "id": 5463061459, "lat": 47.3077636, "lon": 18.7446567}, {"type": "node", "id": 5463061460, "lat": 47.3078034, "lon": 18.7445159}, {"type": "node", "id": 5463061461, "lat": 47.3076799, "lon": 18.7444401}, {"type": "node", "id": 5463061462, "lat": 47.3076006, "lon": 18.7447211}, {"type": "node", "id": 5463061463, "lat": 47.3077276, "lon": 18.7447991}, {"type": "node", "id": 5463061464, "lat": 47.3077377, "lon": 18.7447635}, {"type": "node", "id": 5463061465, "lat": 47.3078272, "lon": 18.7448184}, {"type": "node", "id": 5463061466, "lat": 47.3078049, "lon": 18.7448975}, {"type": "node", "id": 5463061467, "lat": 47.3078933, "lon": 18.7449518}, {"type": "node", "id": 5463061468, "lat": 47.3066577, "lon": 18.744993}, {"type": "node", "id": 5463061469, "lat": 47.3067483, "lon": 18.7450498}, {"type": "node", "id": 5463061470, "lat": 47.3067331, "lon": 18.7451028}, {"type": "node", "id": 5463061471, "lat": 47.3069326, "lon": 18.7452277}, {"type": "node", "id": 5463061472, "lat": 47.3068489, "lon": 18.7455185}, {"type": "node", "id": 5463061473, "lat": 47.3067301, "lon": 18.7454441}, {"type": "node", "id": 5463061474, "lat": 47.3067749, "lon": 18.7452884}, {"type": "node", "id": 5463061475, "lat": 47.3066934, "lon": 18.7452374}, {"type": "node", "id": 5463061476, "lat": 47.3066298, "lon": 18.7454584}, {"type": "node", "id": 5463061477, "lat": 47.3065399, "lon": 18.7454021}, {"type": "node", "id": 5463224063, "lat": 46.9860635, "lon": 19.0082873}, {"type": "node", "id": 5463224064, "lat": 46.985983, "lon": 19.0083942}, {"type": "node", "id": 5463224065, "lat": 46.9859339, "lon": 19.0083147}, {"type": "node", "id": 5463224066, "lat": 46.9860143, "lon": 19.0082078}, {"type": "node", "id": 5463224069, "lat": 46.9859412, "lon": 19.008305}, {"type": "node", "id": 5912276036, "lat": 47.3156015, "lon": 18.5505211}, {"type": "node", "id": 5912276037, "lat": 47.31567, "lon": 18.5506664}, {"type": "node", "id": 5912276038, "lat": 47.3156087, "lon": 18.5507305}, {"type": "node", "id": 5912276039, "lat": 47.3155393, "lon": 18.550586}, {"type": "node", "id": 5912276040, "lat": 47.315613, "lon": 18.5505451}, {"type": "node", "id": 5912276043, "lat": 47.3156622, "lon": 18.5506501}, {"type": "node", "id": 6255737284, "lat": 47.3372696, "lon": 19.0285973, "tags": {"amenity": "fuel", "brand": "OMV", "brand:wikidata": "Q168238", "brand:wikipedia": "en:OMV", "name": "OMV"}}, {"type": "node", "id": 6547008243, "lat": 47.0822082, "lon": 19.0064373, "tags": {"addr:city": "D\u00f6ms\u00f6d", "addr:conscriptionnumber": "1319", "addr:postcode": "2344", "addr:street": "Tassi \u00fat", "air_conditioning": "yes", "amenity": "fuel", "brand": "OMV", "brand:wikidata": "Q168238", "brand:wikipedia": "en:OMV", "compressed_air": "yes", "contact:email": "info.hungary@omv.com", "contact:facebook": "https://www.facebook.com/omvmagyarorszag", "contact:fax": "+36 1 381 9899", "contact:instagram": "https://www.instagram.com/omv/", "contact:linkedin": "https://www.linkedin.com/company/omv", "contact:twitter": "omv", "contact:website": "https://www.omv.hu", "contact:youtube": "https://www.youtube.com/user/omvofficial", "fuel:GTL_diesel": "yes", "fuel:diesel": "yes", "fuel:octane_100": "yes", "fuel:octane_95": "yes", "name": "OMV", "opening_hours": "Mo-Su 06:00-21:00; PH off", "opening_hours:covid19": "same", "operator": "OMV Hung\u00e1ria Kft.", "operator:addr": "1117 Budapest, Okt\u00f3ber huszonharmadika utca 6-10 5. emelet 5/A.", "payment:cash": "yes", "payment:contactless": "yes", "payment:maestro": "yes", "payment:mastercard": "yes", "payment:mastercard_contactless": "yes", "payment:mastercard_electronic": "yes", "payment:visa": "yes", "payment:visa_electron": "yes", "ref:HU:company": "01-09-071584", "ref:HU:vatin": "10542925-2-44", "ref:vatin": "HU10542925", "source": "website", "source:date": "2020-10-03"}}, {"type": "node", "id": 7618594355, "lat": 47.2601328, "lon": 18.9676395, "tags": {"amenity": "fuel", "name": "Stop L benzink\u00fat"}}, {"type": "node", "id": 7813781802, "lat": 47.3325731, "lon": 19.0012036}, {"type": "node", "id": 7813781803, "lat": 47.3326062, "lon": 19.0013565}, {"type": "node", "id": 7813781812, "lat": 47.3327228, "lon": 19.0011628}, {"type": "node", "id": 7813781813, "lat": 47.3327645, "lon": 19.0013668}, {"type": "node", "id": 7813781817, "lat": 47.3328472, "lon": 19.0010982}, {"type": "node", "id": 7813781818, "lat": 47.3328928, "lon": 19.0013002}, {"type": "node", "id": 7813781826, "lat": 47.3327845, "lon": 19.0011308}, {"type": "node", "id": 7813781827, "lat": 47.3328272, "lon": 19.0013343}, {"type": "node", "id": 8128282857, "lat": 47.3349346, "lon": 19.0036652}, {"type": "node", "id": 8128282858, "lat": 47.3348058, "lon": 19.0036775}, {"type": "node", "id": 8128282859, "lat": 47.3348622, "lon": 19.0037637}, {"type": "node", "id": 8128282860, "lat": 47.3350036, "lon": 19.0035649}, {"type": "node", "id": 8128282861, "lat": 47.3349464, "lon": 19.0034774}, {"type": "node", "id": 8128305607, "lat": 46.9557856, "lon": 18.8520663}, {"type": "node", "id": 8128305608, "lat": 46.9558193, "lon": 18.8521171}, {"type": "node", "id": 8128305609, "lat": 46.9558784, "lon": 18.8520327}, {"type": "node", "id": 8128305610, "lat": 46.9558447, "lon": 18.851982}, {"type": "node", "id": 10237948551, "lat": 47.3566709, "lon": 18.9848318, "tags": {"amenity": "fuel", "name": "MYPETROL Hal\u00e1sztelek T\u00f6lt\u0151\u00e1llom\u00e1s"}}, {"type": "node", "id": 10536365368, "lat": 46.9610844, "lon": 18.9063876}, {"type": "node", "id": 10536365369, "lat": 46.9610188, "lon": 18.9062534}, {"type": "node", "id": 10536365370, "lat": 46.9609827, "lon": 18.906294}, {"type": "node", "id": 10536365371, "lat": 46.9610474, "lon": 18.906427}, {"type": "way", "id": 243419251, "nodes": [2508327311, 2508327312, 2508327313, 2508327314, 2508327311], "tags": {"addr:city": "Duna\u00fajv\u00e1ros", "addr:housenumber": "1", "addr:postcode": "2400", "addr:street": "Arany J\u00e1nos utca", "amenity": "fuel", "brand": "Shell", "brand:wikidata": "Q154950", "brand:wikipedia": "en:Royal Dutch Shell", "building": "yes", "name": "Shell", "operator": "Shell", "phone": "+36 25 281 081", "toilets:wheelchair": "yes", "wheelchair": "yes"}}, {"type": "way", "id": 265736719, "nodes": [2713519693, 7813781818, 7813781827, 7813781813, 2713519691, 2713519688, 7813781803, 2713519687, 2713519686, 7813781802, 2713519689, 2713519690, 7813781812, 7813781826, 7813781817, 2713519692, 2713519693], "tags": {"addr:city": "Szigethalom", "addr:housenumber": "64", "addr:postcode": "2315", "addr:street": "Pet\u0151fi utca", "air_conditioning": "yes", "amenity": "fuel", "brand": "MOL", "brand:wikidata": "Q549181", "brand:wikipedia": "hu:MOL Magyar Olaj- \u00e9s G\u00e1zipari Nyrt.", "building": "yes", "compressed_air": "yes", "contact:facebook": "https://www.facebook.com/mol.magyarorszag/", "contact:instagram": "https://www.instagram.com/mol.magyarorszag/", "contact:phone": "+36 24 402 865", "contact:website": "https://www.mol.hu", "contact:youtube": "https://www.youtube.com/user/molgrouptv", "food": "no", "fuel:GTL_diesel": "yes", "fuel:adblue": "no", "fuel:diesel": "yes", "fuel:lpg": "yes", "fuel:octane_100": "yes", "fuel:octane_95": "yes", "name": "MOL", "name:en": "MOL", "name:hu": "MOL", "opening_hours": "Mo-Su 06:00-22:00", "operator": "MOL Nyrt.", "operator:addr": "1117 Budapest, Domb\u00f3v\u00e1ri \u00fat 28.", "payment:cash": "yes", "payment:contactless": "yes", "payment:maestro": "yes", "payment:mastercard": "yes", "payment:mastercard_contactless": "yes", "payment:mastercard_electronic": "yes", "payment:visa": "yes", "payment:visa_electron": "yes", "ref:HU:company": "01-10-041683", "ref:HU:vatin": "10625790-4-44", "rent:lpg_bottles": "yes", "source": "website", "source:date": "2022-05-21", "truck": "no"}}, {"type": "way", "id": 275440304, "nodes": [2800706827, 2800706894, 2800706897, 2800706828, 2800706829, 2800706830, 2800706831, 2800706832, 2800706833, 2800706834, 2800706835, 2800706836, 2800706837, 2800706838, 2800706827], "tags": {"addr:city": "Szigetszentmikl\u00f3s", "addr:conscriptionnumber": "3237", "addr:postcode": "2310", "addr:street": "Gy\u00e1ri \u00fat", "air_conditioning": "yes", "amenity": "fuel", "brand": "OMV", "brand:wikidata": "Q168238", "brand:wikipedia": "en:OMV", "building": "roof", "compressed_air": "yes", "contact:email": "info.hungary@omv.com", "contact:facebook": "https://www.facebook.com/omvmagyarorszag", "contact:fax": "+36 1 381 9899", "contact:instagram": "https://www.instagram.com/omv/", "contact:linkedin": "https://www.linkedin.com/company/omv", "contact:phone": "+36 24 468 577", "contact:twitter": "omv", "contact:website": "https://www.omv.hu", "contact:youtube": "https://www.youtube.com/user/omvofficial", "fuel:GTL_diesel": "yes", "fuel:diesel": "yes", "fuel:octane_100": "yes", "fuel:octane_95": "yes", "name": "OMV", "opening_hours": "Mo-Su 06:00-22:00; PH off", "operator": "OMV Hung\u00e1ria Kft.", "operator:addr": "1117 Budapest, Okt\u00f3ber huszonharmadika utca 6-10 5. emelet 5/A.", "payment:cash": "yes", "payment:contactless": "yes", "payment:maestro": "yes", "payment:mastercard": "yes", "payment:mastercard_contactless": "yes", "payment:mastercard_electronic": "yes", "payment:visa": "yes", "payment:visa_electron": "yes", "ref:HU:company": "01-09-071584", "ref:HU:vatin": "10542925-2-44", "ref:vatin": "HU10542925", "source:www.omv.hu:date": "2020-10-03"}}, {"type": "way", "id": 276062372, "nodes": [2807019171, 2807020934, 2807019172, 2807019173, 2807019174, 2807019175, 2807019176, 2807019177, 2807019178, 2807019179, 2807019180, 2807019181, 2807020933, 2807019182, 2807019171], "tags": {"amenity": "fuel", "brand": "Shell", "brand:wikidata": "Q154950", "brand:wikipedia": "en:Royal Dutch Shell", "building": "roof", "name": "Shell", "operator": "Shell", "website": "https://www.shell.hu/"}}, {"type": "way", "id": 295640766, "nodes": [2887590687, 2887590686, 2887590681, 2887590682, 2887590676, 2887590678, 2887590684, 2887590685, 2887590687], "tags": {"addr:city": "\u00c9rd", "addr:postcode": "2030", "addr:street": "6. sz\u00e1m\u00fa f\u0151k\u00f6zleked\u00e9si \u00fat", "air_conditioning": "yes", "amenity": "fuel", "brand": "OMV", "brand:wikidata": "Q168238", "brand:wikipedia": "en:OMV", "building": "yes", "compressed_air": "yes", "contact:email": "info.hungary@omv.com", "contact:facebook": "https://www.facebook.com/omvmagyarorszag", "contact:fax": "+36 1 381 9899", "contact:instagram": "https://www.instagram.com/omv/", "contact:linkedin": "https://www.linkedin.com/company/omv", "contact:phone": "+36 23 368 811", "contact:twitter": "omv", "contact:website": "https://www.omv.hu", "contact:youtube": "https://www.youtube.com/user/omvofficial", "fuel:GTL_diesel": "yes", "fuel:diesel": "yes", "fuel:octane_100": "yes", "fuel:octane_95": "yes", "name": "OMV", "opening_hours": "Mo-Su 05:00-22:00; PH off", "operator": "OMV Hung\u00e1ria Kft.", "operator:addr": "1117 Budapest, Okt\u00f3ber huszonharmadika utca 6-10 5. emelet 5/A.", "payment:cash": "yes", "payment:contactless": "yes", "payment:maestro": "yes", "payment:mastercard": "yes", "payment:mastercard_contactless": "yes", "payment:mastercard_electronic": "yes", "payment:visa": "yes", "payment:visa_electron": "yes", "ref:HU:company": "01-09-071584", "ref:HU:vatin": "10542925-2-44", "ref:vatin": "HU10542925", "source:www.omv.hu:date": "2020-10-03"}}, {"type": "way", "id": 295640767, "nodes": [2887590656, 2887590661, 2887590662, 2887590669, 2887590671, 2887590664, 2887590665, 2887590659, 2887590656], "tags": {"amenity": "fuel", "brand": "OMV", "brand:wikidata": "Q168238", "brand:wikipedia": "en:OMV", "building": "yes", "contact:website": "http://www.omv.hu", "name": "OMV", "opening_hours": "Mo-Su 05:00-23:00", "operator": "OMV Hung\u00e1ria Kft.", "website": "http://www.omv.hu"}}, {"type": "way", "id": 306527963, "nodes": [1038272173, 3114710614, 1038272359, 1038272634, 1038272498, 1038272173], "tags": {"addr:city": "Duna\u00fajv\u00e1ros", "addr:housenumber": "70", "addr:postcode": "2400", "addr:street": "M6 aut\u00f3p\u00e1lya", "air_conditioning": "yes", "amenity": "fuel", "brand": "OMV", "brand:wikidata": "Q168238", "brand:wikipedia": "en:OMV", "building": "retail", "compressed_air": "yes", "contact:email": "info.hungary@omv.com", "contact:facebook": "https://www.facebook.com/omvmagyarorszag", "contact:fax": "+36 1 381 9899", "contact:instagram": "https://www.instagram.com/omv/", "contact:linkedin": "https://www.linkedin.com/company/omv", "contact:phone": "+36 25 281 442", "contact:twitter": "omv", "contact:website": "https://www.omv.hu", "contact:youtube": "https://www.youtube.com/user/omvofficial", "fuel:GTL_diesel": "yes", "fuel:diesel": "yes", "fuel:octane_100": "yes", "fuel:octane_95": "yes", "name": "OMV", "opening_hours": "24/7", "operator": "OMV Hung\u00e1ria Kft.", "operator:addr": "1117 Budapest, Okt\u00f3ber huszonharmadika utca 6-10 5. emelet 5/A.", "payment:cash": "yes", "payment:contactless": "yes", "payment:maestro": "yes", "payment:mastercard": "yes", "payment:mastercard_contactless": "yes", "payment:mastercard_electronic": "yes", "payment:visa": "yes", "payment:visa_electron": "yes", "ref:HU:company": "01-09-071584", "ref:HU:vatin": "10542925-2-44", "ref:vatin": "HU10542925", "source:www.omv.hu:date": "2020-10-03"}}, {"type": "way", "id": 306527965, "nodes": [1038256621, 1038256672, 1038256619, 3454477983, 3114710088, 1038256621], "tags": {"addr:city": "Duna\u00fajv\u00e1ros", "addr:housenumber": "70", "addr:postcode": "2400", "addr:street": "M6 aut\u00f3p\u00e1lya", "air_conditioning": "yes", "amenity": "fuel", "brand": "OMV", "brand:wikidata": "Q168238", "brand:wikipedia": "en:OMV", "building": "retail", "compressed_air": "yes", "contact:email": "info.hungary@omv.com", "contact:facebook": "https://www.facebook.com/omvmagyarorszag", "contact:fax": "+36 1 381 9899", "contact:instagram": "https://www.instagram.com/omv/", "contact:linkedin": "https://www.linkedin.com/company/omv", "contact:phone": "+36 25 281 445", "contact:twitter": "omv", "contact:website": "https://www.omv.hu", "contact:youtube": "https://www.youtube.com/user/omvofficial", "fuel:GTL_diesel": "yes", "fuel:diesel": "yes", "fuel:octane_100": "yes", "fuel:octane_95": "yes", "name": "OMV", "opening_hours": "24/7", "operator": "OMV Hung\u00e1ria Kft.", "operator:addr": "1117 Budapest, Okt\u00f3ber huszonharmadika utca 6-10 5. emelet 5/A.", "payment:cash": "yes", "payment:contactless": "yes", "payment:maestro": "yes", "payment:mastercard": "yes", "payment:mastercard_contactless": "yes", "payment:mastercard_electronic": "yes", "payment:visa": "yes", "payment:visa_electron": "yes", "ref:HU:company": "01-09-071584", "ref:HU:vatin": "10542925-2-44", "ref:vatin": "HU10542925", "source:www.omv.hu:date": "2020-04-04"}}, {"type": "way", "id": 337627278, "nodes": [3446961631, 3446966594, 3446966595, 3446966596, 3446961629, 3446961628, 3446966494, 3446966493, 3446961631], "tags": {"addr:city": "Kiskunlach\u00e1za", "addr:housenumber": "2", "addr:postcode": "2340", "addr:street": "Hath\u00e1z utca", "air_conditioning": "yes", "amenity": "fuel", "brand": "MOL", "brand:wikidata": "Q549181", "brand:wikipedia": "hu:MOL Magyar Olaj- \u00e9s G\u00e1zipari Nyrt.", "building": "yes", "compressed_air": "yes", "contact:facebook": "https://www.facebook.com/mol.magyarorszag/", "contact:instagram": "https://www.instagram.com/mol.magyarorszag/", "contact:website": "https://www.mol.hu", "contact:youtube": "https://www.youtube.com/user/molgrouptv", "food": "yes", "fuel:GTL_diesel": "yes", "fuel:adblue": "no", "fuel:diesel": "yes", "fuel:lpg": "yes", "fuel:octane_100": "yes", "fuel:octane_95": "yes", "name": "MOL", "operator": "MOL Nyrt.", "operator:addr": "1117 Budapest, Domb\u00f3v\u00e1ri \u00fat 28.", "payment:cash": "yes", "payment:contactless": "yes", "payment:maestro": "yes", "payment:mastercard": "yes", "payment:mastercard_contactless": "yes", "payment:mastercard_electronic": "yes", "payment:visa": "yes", "payment:visa_electron": "yes", "ref:HU:company": "01-10-041683", "ref:HU:vatin": "10625790-4-44", "rent:lpg_bottles": "yes", "source": "Bing;node #1814581157 by LLaci", "source:date": "2022-05-21", "truck": "no"}}, {"type": "way", "id": 390150145, "nodes": [3933096566, 3933096548, 3933096554, 3933096571, 3933096566], "tags": {"amenity": "fuel", "building": "yes", "fuel:diesel": "yes", "fuel:octane_100": "yes", "fuel:octane_95": "yes"}}, {"type": "way", "id": 455398698, "nodes": [4518054216, 4518054217, 4518054218, 4518054219, 4518054230, 4518054231, 4518054220, 4518054221, 4518054216], "tags": {"addr:city": "K\u00e1poln\u00e1sny\u00e9k", "addr:housenumber": "43. km", "addr:postcode": "2475", "addr:street": "7-es f\u0151\u00fat", "amenity": "fuel", "brand": "Avia", "brand:wikidata": "Q300147", "brand:wikipedia": "de:Avia International", "building": "retail", "compressed_air": "yes", "contact:email": "avia@avia.hu", "contact:facebook": "https://www.facebook.com/AVIAHungary", "contact:mobile": "+36 30 680 3817", "contact:website": "https://www.avia.hu/toltoallomas/?id=119", "contact:youtube": "https://www.youtube.com/channel/UCjvjkjf2RgmKBuTnKSXk-Rg", "fixme": "check house number", "food": "yes", "fuel:diesel": "yes", "fuel:e85": "no", "fuel:lpg": "yes", "fuel:octane_95": "yes", "fuel:octane_98": "no", "name": "Avia", "operator": "AVIA Hung\u00e1ria Kft.", "payment:cash": "yes", "payment:contactless": "yes", "payment:maestro": "yes", "payment:mastercard": "yes", "payment:mastercard_contactless": "yes", "payment:mastercard_electronic": "yes", "payment:visa": "yes", "payment:visa_electron": "yes", "rent:lpg_bottles": "no", "restaurant": "no", "source:www.avia.hu:date": "2021-12-17", "truck": "no"}}, {"type": "way", "id": 458959787, "nodes": [4548815082, 4548815083, 4548815084, 4548815085, 4548815082], "tags": {"addr:city": "G\u00e1rdony", "addr:housenumber": "32", "addr:postcode": "2483", "addr:street": "Szabads\u00e1g \u00fat", "air_conditioning": "yes", "amenity": "fuel", "brand": "MOL", "brand:wikidata": "Q549181", "brand:wikipedia": "hu:MOL Magyar Olaj- \u00e9s G\u00e1zipari Nyrt.", "building:part": "retail", "compressed_air": "yes", "contact:facebook": "https://www.facebook.com/mol.magyarorszag/", "contact:instagram": "https://www.instagram.com/mol.magyarorszag/", "contact:website": "https://www.mol.hu", "contact:youtube": "https://www.youtube.com/user/molgrouptv", "food": "yes", "fuel:GTL_diesel": "yes", "fuel:adblue": "no", "fuel:diesel": "yes", "fuel:lpg": "no", "fuel:octane_100": "yes", "fuel:octane_95": "yes", "internet_access:ssid": "MOL-HotSpot", "name": "MOL", "opening_hours": "Mo-Su 06:00-22:00", "operator": "MOL Nyrt.", "operator:addr": "1117 Budapest, Domb\u00f3v\u00e1ri \u00fat 28.", "payment:cash": "yes", "payment:contactless": "yes", "payment:maestro": "yes", "payment:mastercard": "yes", "payment:mastercard_contactless": "yes", "payment:mastercard_electronic": "yes", "payment:visa": "yes", "payment:visa_electron": "yes", "ref": "21279", "ref:HU:company": "01-10-041683", "ref:HU:vatin": "10625790-4-44", "ref:vatin": "HU10625790", "rent:lpg_bottles": "yes", "source": "website", "source:date": "2022-05-21", "truck": "no", "wheelchair": "yes"}}, {"type": "way", "id": 514139690, "nodes": [5023756674, 5023756678, 5023756675, 5023756673, 5023756674], "tags": {"amenity": "fuel", "brand": "Shell", "brand:wikidata": "Q154950", "brand:wikipedia": "en:Royal Dutch Shell", "building": "yes", "name": "Shell", "name:hu": "Shell"}}, {"type": "way", "id": 548992050, "nodes": [5303264717, 5303264718, 5303264719, 5303264720, 5303264717], "tags": {"addr:city": "Dunaharaszti", "addr:postcode": "2330", "addr:street": "F\u0151 \u00fat", "air_conditioning": "yes", "amenity": "fuel", "brand": "MOL", "brand:wikidata": "Q549181", "brand:wikipedia": "hu:MOL Magyar Olaj- \u00e9s G\u00e1zipari Nyrt.", "building": "yes", "compressed_air": "yes", "contact:facebook": "https://www.facebook.com/mol.magyarorszag/", "contact:instagram": "https://www.instagram.com/mol.magyarorszag/", "contact:website": "https://www.mol.hu", "contact:youtube": "https://www.youtube.com/user/molgrouptv", "food": "no", "fuel:GTL_diesel": "yes", "fuel:adblue": "no", "fuel:diesel": "yes", "fuel:lpg": "yes", "fuel:octane_100": "yes", "fuel:octane_95": "yes", "name": "MOL", "operator": "MOL Nyrt.", "operator:addr": "1117 Budapest, Domb\u00f3v\u00e1ri \u00fat 28.", "payment:cash": "yes", "payment:contactless": "yes", "payment:maestro": "yes", "payment:mastercard": "yes", "payment:mastercard_contactless": "yes", "payment:mastercard_electronic": "yes", "payment:visa": "yes", "payment:visa_electron": "yes", "ref:HU:company": "01-10-041683", "ref:HU:vatin": "10625790-4-44", "rent:lpg_bottles": "yes", "source": "website", "source:date": "2022-05-21", "truck": "no"}}, {"type": "way", "id": 549284069, "nodes": [5305992590, 5305992591, 5305992592, 5305992593, 5305992590], "tags": {"amenity": "fuel", "brand": "Mol", "building": "yes", "fixme": "T\u00e9nyleg Mol?", "name": "mag\u00e1n benzink\u00fat"}}, {"type": "way", "id": 566215432, "nodes": [5452227893, 5452227894, 5452227895, 5452227896, 5452227897, 5452227898, 5452227893], "tags": {"addr:city": "Tass", "amenity": "fuel", "building": "retail", "fuel:diesel": "yes", "fuel:octane_95": "yes", "name": "Twins", "opening_hours": "Mo-Su 06:00-21:00"}}, {"type": "way", "id": 567584111, "nodes": [5463061456, 5463061457, 5463061458, 5463061459, 5463061460, 5463061461, 5463061462, 5463061463, 5463061464, 5463061465, 5463061466, 5463061467, 5463061456], "tags": {"addr:city": "Kaj\u00e1sz\u00f3", "addr:housenumber": "33", "addr:postcode": "2472", "addr:street": "M7 aut\u00f3p\u00e1lya", "air_conditioning": "yes", "amenity": "fuel", "brand": "OMV", "brand:wikidata": "Q168238", "brand:wikipedia": "en:OMV", "building": "yes", "compressed_air": "yes", "contact:email": "info.hungary@omv.com", "contact:facebook": "https://www.facebook.com/omvmagyarorszag", "contact:fax": "+36 1 381 9899", "contact:instagram": "https://www.instagram.com/omv/", "contact:linkedin": "https://www.linkedin.com/company/omv", "contact:phone": "+36 22 454 463", "contact:twitter": "omv", "contact:website": "https://www.omv.hu", "contact:youtube": "https://www.youtube.com/user/omvofficial", "fuel:GTL_diesel": "yes", "fuel:diesel": "yes", "fuel:octane_100": "yes", "fuel:octane_95": "yes", "name": "OMV", "opening_hours": "24/7", "operator": "OMV Hung\u00e1ria Kft.", "operator:addr": "1117 Budapest, Okt\u00f3ber huszonharmadika utca 6-10 5. emelet 5/A.", "payment:cash": "yes", "payment:contactless": "yes", "payment:maestro": "yes", "payment:mastercard": "yes", "payment:mastercard_contactless": "yes", "payment:mastercard_electronic": "yes", "payment:visa": "yes", "payment:visa_electron": "yes", "ref:HU:company": "01-09-071584", "ref:HU:vatin": "10542925-2-44", "ref:vatin": "HU10542925", "source:www.omv.hu:date": "2020-10-03", "wheelchair": "yes"}}, {"type": "way", "id": 567584112, "nodes": [5463061468, 5463061469, 5463061470, 5463061471, 5463061472, 5463061473, 5463061474, 5463061475, 5463061476, 5463061477, 5463061468], "tags": {"addr:city": "Kaj\u00e1sz\u00f3", "addr:housenumber": "33", "addr:postcode": "2472", "addr:street": "M7 aut\u00f3p\u00e1lya", "air_conditioning": "yes", "amenity": "fuel", "brand": "OMV", "brand:wikidata": "Q168238", "brand:wikipedia": "en:OMV", "building": "yes", "compressed_air": "yes", "contact:email": "info.hungary@omv.com", "contact:facebook": "https://www.facebook.com/omvmagyarorszag", "contact:fax": "+36 1 381 9899", "contact:instagram": "https://www.instagram.com/omv/", "contact:linkedin": "https://www.linkedin.com/company/omv", "contact:phone": "+36 22 454 464", "contact:twitter": "omv", "contact:website": "https://www.omv.hu", "contact:youtube": "https://www.youtube.com/user/omvofficial", "fuel:GTL_diesel": "yes", "fuel:diesel": "yes", "fuel:octane_100": "yes", "fuel:octane_95": "yes", "name": "OMV", "opening_hours": "24/7", "operator": "OMV Hung\u00e1ria Kft.", "operator:addr": "1117 Budapest, Okt\u00f3ber huszonharmadika utca 6-10 5. emelet 5/A.", "payment:cash": "yes", "payment:contactless": "yes", "payment:maestro": "yes", "payment:mastercard": "yes", "payment:mastercard_contactless": "yes", "payment:mastercard_electronic": "yes", "payment:visa": "yes", "payment:visa_electron": "yes", "ref:HU:company": "01-09-071584", "ref:HU:vatin": "10542925-2-44", "ref:vatin": "HU10542925", "source:www.omv.hu:date": "2020-10-03", "wheelchair": "yes"}}, {"type": "way", "id": 567601781, "nodes": [5463224063, 5463224064, 5463224065, 5463224069, 5463224066, 5463224063], "tags": {"addr:city": "Szalkszentm\u00e1rton", "amenity": "fuel", "building": "retail", "fuel:diesel": "yes", "fuel:octane_95": "yes", "opening_hours": "Mo-Su 06:00-20:00"}}, {"type": "way", "id": 626246388, "nodes": [5912276036, 5912276040, 5912276043, 5912276037, 5912276038, 5912276039, 5912276036], "tags": {"addr:city": "Lovasber\u00e9ny", "addr:housenumber": "12", "addr:postcode": "8093", "addr:street": "V\u00f6r\u00f6smarty utca", "amenity": "fuel", "building": "retail", "contact:phone": "+36 20 444 2132", "contact:website": "https://www.kesv.hu/", "email": "janos.vali@kesv.hu", "name": "K&V", "old_name": "Agip", "opening_hours": "Mo-Fr 06:00-20:00;Sa-Su 08:00-20:00"}}, {"type": "way", "id": 872865422, "nodes": [8128282861, 8128282860, 8128282857, 8128282859, 8128282858, 8128282861], "tags": {"amenity": "fuel", "brand": "OIL!", "brand:wikidata": "Q2007561", "brand:wikipedia": "de:OIL! Tankstellen", "building": "yes", "name": "OIL!"}}, {"type": "way", "id": 872868033, "nodes": [8128305610, 8128305609, 8128305608, 8128305607, 8128305610], "tags": {"amenity": "fuel", "brand": "OIL!", "brand:wikidata": "Q2007561", "brand:wikipedia": "de:OIL! Tankstellen", "building": "yes", "name": "OIL!"}}, {"type": "way", "id": 1130560401, "nodes": [10536365368, 10536365369, 10536365370, 10536365371, 10536365368], "tags": {"amenity": "fuel"}}]}