{"version": 0.6, "generator": "Overpass API 0.7.59 e21c39fe", "osm3s": {"timestamp_osm_base": "2023-01-21T09:23:38Z", "copyright": "The data included in this document is from www.openstreetmap.org. The data is made available under ODbL."}, "elements": [{"type": "node", "id": 572502397, "lat": 48.4003308, "lon": 21.6708884, "tags": {"name": "Milk Agro", "shop": "supermarket"}}, {"type": "node", "id": 768332446, "lat": 48.418084, "lon": 22.0882402}, {"type": "node", "id": 768333982, "lat": 48.4177985, "lon": 22.0876883}, {"type": "node", "id": 768334401, "lat": 48.4179554, "lon": 22.0876154}, {"type": "node", "id": 768335891, "lat": 48.417926, "lon": 22.0883132}, {"type": "node", "id": 849853862, "lat": 48.4554703, "lon": 21.6818812, "tags": {"name": "Coop Jednota", "opening_hours": "Mo 06:00-11:00; Tu-Fr 06:00-17:00; Sa 06:00-12:00", "operator": "COOP Jednota Slovensko", "phone": "+421 56 679 3346", "shop": "supermarket"}}, {"type": "node", "id": 1300783565, "lat": 48.4313686, "lon": 21.9787107}, {"type": "node", "id": 1300785851, "lat": 48.4314477, "lon": 21.9790843}, {"type": "node", "id": 1300788043, "lat": 48.4309651, "lon": 21.978903}, {"type": "node", "id": 1300788816, "lat": 48.4310441, "lon": 21.9792762}, {"type": "node", "id": 2386883724, "lat": 48.3876691, "lon": 21.6546156}, {"type": "node", "id": 2386883726, "lat": 48.3878782, "lon": 21.6548175}, {"type": "node", "id": 2386883728, "lat": 48.3879354, "lon": 21.6539906}, {"type": "node", "id": 2386883729, "lat": 48.3881444, "lon": 21.6541926}, {"type": "node", "id": 2677822283, "lat": 48.2347931, "lon": 22.0636254, "tags": {"addr:city": "Kisv\u00e1rda", "addr:housenumber": "53", "addr:postcode": "4600", "addr:street": "V\u00e1rosmajor utca", "air_conditioning": "yes", "brand": "Aldi", "brand:wikidata": "Q125054", "brand:wikipedia": "hu:Aldi", "contact:facebook": "https://www.facebook.com/ALDI.Magyarorszag", "contact:instagram": "https://www.instagram.com/aldi.magyarorszag", "contact:phone": "+36 80 088 264", "contact:website": "https://www.aldi.hu", "contact:youtube": "https://www.youtube.com/user/ALDIMagyarorszag", "name": "Aldi", "opening_hours": "Mo-Sa 07:00-20:00; Su 07:00-19:00; PH off", "operator": "ALDI Magyarorsz\u00e1g \u00c9lelmiszer Bt.", "operator:addr": "2051 Biatorb\u00e1gy, M\u00e9sz\u00e1rosok \u00fatja 2.", "payment:cash": "yes", "payment:contactless": "yes", "payment:maestro": "yes", "payment:mastercard": "yes", "payment:mastercard_contactless": "yes", "payment:mastercard_electronic": "yes", "payment:visa": "yes", "payment:visa_electron": "yes", "ref:HU:company": "13-06-058506", "ref:HU:vatin": "22234663-2-44", "ref:vatin": "HU22234663", "shop": "supermarket", "source": "import;website", "source:date": "2022-10-14", "wheelchair": "yes"}}, {"type": "node", "id": 2678916031, "lat": 48.3000236, "lon": 21.702737, "tags": {"addr:city": "Bodroghalom", "addr:housenumber": "115", "addr:postcode": "3987", "addr:street": "Szabads\u00e1g utca", "brand": "Coop", "name": "Coop ABC", "operator": "NY\u00cdRZEM-COOP Zrt.", "shop": "supermarket", "website": "http://www.coop.hu"}}, {"type": "node", "id": 2678916040, "lat": 48.3013784, "lon": 21.7043958, "tags": {"addr:city": "Bodroghalom", "addr:postcode": "3987", "addr:street": "Szabads\u00e1g utca", "name": "KISG\u00d3LYA ABC", "operator": "FOR YOU 2 Kft.", "shop": "supermarket"}}, {"type": "node", "id": 2777486687, "lat": 48.2261752, "lon": 22.0842572, "tags": {"brand": "Coop Szuper", "brand:wikidata": "Q868980", "name": "Coop Szuper", "shop": "supermarket", "wheelchair": "yes"}}, {"type": "node", "id": 2777721177, "lat": 48.2305969, "lon": 22.0663638}, {"type": "node", "id": 2777721180, "lat": 48.2308773, "lon": 22.0667973}, {"type": "node", "id": 2777721184, "lat": 48.2309023, "lon": 22.0667609}, {"type": "node", "id": 2777721186, "lat": 48.2310056, "lon": 22.0669206}, {"type": "node", "id": 2777721189, "lat": 48.2308602, "lon": 22.0671324}, {"type": "node", "id": 2777721192, "lat": 48.2304765, "lon": 22.0665392}, {"type": "node", "id": 2777721208, "lat": 48.2321053, "lon": 22.0635312}, {"type": "node", "id": 2777721210, "lat": 48.2318736, "lon": 22.0645311}, {"type": "node", "id": 2777721211, "lat": 48.2312669, "lon": 22.0642143}, {"type": "node", "id": 2777721213, "lat": 48.2313554, "lon": 22.0638321}, {"type": "node", "id": 2777721214, "lat": 48.2314105, "lon": 22.0638608}, {"type": "node", "id": 2777721216, "lat": 48.2315536, "lon": 22.0632432}, {"type": "node", "id": 2789542734, "lat": 48.2100688, "lon": 22.076279}, {"type": "node", "id": 2789542735, "lat": 48.2095877, "lon": 22.0758012}, {"type": "node", "id": 2789542736, "lat": 48.2094155, "lon": 22.0761622}, {"type": "node", "id": 2789542737, "lat": 48.2099014, "lon": 22.07664}, {"type": "node", "id": 3050719465, "lat": 48.2289148, "lon": 22.0917521, "tags": {"name": "H\u00e1rmas \u00fati ABC", "shop": "supermarket", "wheelchair": "no"}}, {"type": "node", "id": 3377128289, "lat": 48.3991621, "lon": 21.6603035}, {"type": "node", "id": 3377128290, "lat": 48.3991742, "lon": 21.6604161}, {"type": "node", "id": 3377128291, "lat": 48.3992102, "lon": 21.6604074}, {"type": "node", "id": 3377128292, "lat": 48.3992325, "lon": 21.6606159}, {"type": "node", "id": 3377128793, "lat": 48.3987955, "lon": 21.6603187}, {"type": "node", "id": 3414845347, "lat": 48.3988391, "lon": 21.6607265}, {"type": "node", "id": 3789666997, "lat": 48.2159371, "lon": 22.1428734, "tags": {"addr:city": "Pap", "addr:postcode": "4631", "addr:street": "D\u00f3zsa Gy\u00f6rgy utca", "name": "Vegye-vigye ABC", "opening_hours": "6:00-19:30", "shop": "supermarket", "wheelchair": "limited"}}, {"type": "node", "id": 3959186796, "lat": 48.4257734, "lon": 21.9799681, "tags": {"addr:city": "Kr\u00e1\u013eovsk\u00fd Chlmec", "addr:conscriptionnumber": "1275", "addr:country": "SK", "addr:housenumber": "1275/5", "addr:postcode": "07701", "addr:street": "\u0160tef\u00e1nikova", "addr:streetnumber": "5", "addr:suburb": "Kr\u00e1\u013eovsk\u00fd Chlmec", "brand": "Lidl", "brand:wikidata": "Q151954", "name": "Lidl", "opening_hours": "Mo-Sa 07:00-20:00; Su 09:00-20:00", "ref:minvskaddress": "10840500", "shop": "supermarket", "source:streetnumber": "minvskaddress 2020-12", "website": "https://www.lidl.sk/"}}, {"type": "node", "id": 4792240133, "lat": 48.207274, "lon": 22.0884365, "tags": {"name": "G\u00f3lya ABC", "shop": "supermarket", "source": "survey", "wheelchair": "limited"}}, {"type": "node", "id": 5298167396, "lat": 48.4234167, "lon": 21.9785974, "tags": {"brand": "COOP Jednota", "brand:wikidata": "Q41629254", "name": "COOP Jednota", "shop": "supermarket"}}, {"type": "node", "id": 6718151121, "lat": 48.4171074, "lon": 22.0885277, "tags": {"name": "CBA", "opening_hours": "Mo-Sa 05:30-18:00; Su 08:00-12:00", "shop": "supermarket", "wheelchair": "yes"}}, {"type": "node", "id": 7537275043, "lat": 48.3989047, "lon": 21.6602976}, {"type": "node", "id": 7537275044, "lat": 48.3989118, "lon": 21.6603642}, {"type": "node", "id": 7537275045, "lat": 48.3989041, "lon": 21.6602924}, {"type": "node", "id": 7537275046, "lat": 48.3991978, "lon": 21.6606394}, {"type": "node", "id": 7537275047, "lat": 48.3991962, "lon": 21.6606247}, {"type": "node", "id": 7776302002, "lat": 48.2389302, "lon": 22.0802673}, {"type": "node", "id": 7776302003, "lat": 48.2387509, "lon": 22.0803471}, {"type": "node", "id": 7776302004, "lat": 48.2386141, "lon": 22.0797007}, {"type": "node", "id": 7776302005, "lat": 48.2387901, "lon": 22.0796093}, {"type": "node", "id": 9500786089, "lat": 48.4048474, "lon": 22.1678423}, {"type": "node", "id": 9500786090, "lat": 48.4047018, "lon": 22.1683053}, {"type": "node", "id": 9500786091, "lat": 48.4048473, "lon": 22.1684092}, {"type": "node", "id": 9500786092, "lat": 48.4048239, "lon": 22.1684838}, {"type": "node", "id": 9500786093, "lat": 48.4049022, "lon": 22.1685397}, {"type": "node", "id": 9500786094, "lat": 48.4050712, "lon": 22.168002}, {"type": "way", "id": 61611920, "nodes": [768335891, 768333982, 768334401, 768332446, 768335891], "tags": {"addr:city": "\u010cierna nad Tisou", "addr:conscriptionnumber": "146", "addr:country": "SK", "addr:housenumber": "146/22", "addr:street": "Dukelsk\u00fdch hrdinov", "addr:streetnumber": "22", "building": "yes", "import": "budovy201004", "shop": "supermarket", "source": "kapor2"}}, {"type": "way", "id": 114964741, "nodes": [1300785851, 1300788816, 1300788043, 1300783565, 1300785851], "tags": {"building": "yes", "name": "Tesco", "shop": "supermarket", "source": "kapor2"}}, {"type": "way", "id": 230160200, "nodes": [2386883726, 2386883724, 2386883728, 2386883729, 2386883726], "tags": {"brand": "Lidl", "brand:wikidata": "Q151954", "building": "retail", "name": "Lidl", "shop": "supermarket", "website": "https://www.lidl.hu/"}}, {"type": "way", "id": 272849431, "nodes": [2777721177, 2777721180, 2777721184, 2777721186, 2777721189, 2777721192, 2777721177], "tags": {"alt_name": "Penny Market", "brand": "PENNY", "brand:wikidata": "Q284688", "brand:wikipedia": "en:Penny (supermarket)", "building": "retail", "building:levels": "1", "name": "PENNY", "opening_hours": "Mo-Sa 06:30-20:30; Su 07:00-18:00; PH off", "shop": "supermarket", "website": "https://www.penny.hu/", "wheelchair": "yes"}}, {"type": "way", "id": 272849433, "nodes": [2777721208, 2777721210, 2777721211, 2777721213, 2777721214, 2777721216, 2777721208], "tags": {"addr:city": "Kisv\u00e1rda", "addr:housenumber": "72", "addr:postcode": "4600", "addr:street": "V\u00e1rosmajor \u00fat", "air_conditioning": "yes", "branch": "Kisv\u00e1rda Hipermarket", "brand": "Tesco", "brand:wikidata": "Q487494", "brand:wikipedia": "hu:Tesco", "building": "retail", "contact:facebook": "https://www.facebook.com/tescoaruhazak", "contact:pinterest": "https://www.pinterest.com/tescohungary/", "contact:website": "https://tesco.hu/aruhazak/aruhaz/tesco-kisvarda-hipermarket/", "contact:youtube": "https://www.youtube.com/user/TescoMagyarorszag", "import": "osm_poi_matchmaker", "internet_access": "wlan", "internet_access:fee": "no", "internet_access:ssid": "tesco-internet", "loyalty_card": "yes", "name": "Tesco", "opening_hours": "Mo-Sa 06:00-22:00; Su 08:00-20:00; PH off", "operator": "TESCO-GLOBAL \u00c1ruh\u00e1zak Zrt.", "operator:addr": "2040 Buda\u00f6rs, Kinizsi \u00fat 1-3.", "payment:american_express": "yes", "payment:cash": "yes", "payment:contactless": "yes", "payment:edenred_card": "yes", "payment:edenred_voucher": "yes", "payment:gift_card": "yes", "payment:jcb": "yes", "payment:maestro": "yes", "payment:mastercard": "yes", "payment:mastercard_contactless": "yes", "payment:mastercard_electronic": "yes", "payment:multipay": "yes", "payment:otp_bankpont": "yes", "payment:otp_cafeteria": "yes", "payment:unionpay": "yes", "payment:v_pay": "yes", "payment:visa": "yes", "payment:visa_electron": "yes", "payment:wire_transfer": "yes", "ref:HU:company": "13-10-040628", "ref:HU:vatin": "10307078-2-44", "ref:vatin": "HU10307078", "shop": "supermarket", "source": "website", "source:date": "2020-09-28", "source:wheelchair": "website", "toilets:wheelchair": "yes", "wheelchair": "yes"}}, {"type": "way", "id": 274193490, "nodes": [2789542734, 2789542735, 2789542736, 2789542737, 2789542734], "tags": {"addr:city": "Kisv\u00e1rda", "addr:housenumber": "2/A", "addr:postcode": "4600", "addr:street": "Attila \u00fat", "brand": "Lidl", "brand:wikidata": "Q151954", "brand:wikipedia": "hu:Lidl", "building": "retail", "name": "Lidl", "opening_hours": "Mo-Sa 07:00-21:00", "operator": "Lidl Magyarorsz\u00e1g Kereskedelmi Bt.", "phone": "+36 80 020 534", "shop": "supermarket", "website": "https://www.lidl.hu/", "wheelchair": "yes"}}, {"type": "way", "id": 330720155, "nodes": [3377128289, 3377128290, 3377128291, 3377128292, 7537275047, 7537275046, 3414845347, 3377128793, 7537275045, 7537275043, 7537275044, 3377128289], "tags": {"addr:city": "S\u00e1toralja\u00fajhely", "addr:housenumber": "34", "addr:postcode": "3980", "addr:street": "R\u00e1k\u00f3czi utca", "alt_name": "Penny Market", "brand": "Penny", "brand:wikidata": "Q284688", "brand:wikipedia": "en:Penny (supermarket)", "building": "retail", "building:levels": "1", "name": "Penny", "opening_hours": "Mo-Sa 06:30-20:00; Su 07:00-18:00; PH off", "shop": "supermarket", "website": "https://www.penny.hu"}}, {"type": "way", "id": 833005140, "nodes": [7776302002, 7776302003, 7776302004, 7776302005, 7776302002], "tags": {"building": "yes", "name": "Kiss B. Ker", "shop": "supermarket"}}, {"type": "way", "id": 1030707242, "nodes": [9500786094, 9500786093, 9500786092, 9500786091, 9500786090, 9500786089, 9500786094], "tags": {"alt_name": "Penny Market", "brand": "PENNY", "brand:wikidata": "Q284688", "brand:wikipedia": "en:Penny (supermarket)", "building": "retail", "building:levels": "1", "name": "PENNY", "opening_hours": "Mo-Sa 07:00-20:00; Su 07:00-18:00; PH off", "shop": "supermarket", "website": "https://www.penny.hu"}}]}