{"version": 0.6, "generator": "Overpass API 0.7.59 e21c39fe", "osm3s": {"timestamp_osm_base": "2023-01-21T09:22:38Z", "copyright": "The data included in this document is from www.openstreetmap.org. The data is made available under ODbL."}, "elements": [{"type": "node", "id": 666206631, "lat": 46.582395, "lon": 20.3584836, "tags": {"name": "\u00c9lelmiszer bolt (Coop)", "shop": "supermarket", "toilets:wheelchair": "no", "wheelchair": "no"}}, {"type": "node", "id": 666206633, "lat": 46.5823614, "lon": 20.3538014, "tags": {"name": "Husz\u00e1r ABC", "shop": "supermarket"}}, {"type": "node", "id": 666206662, "lat": 46.5826176, "lon": 20.3564915, "tags": {"name": "\u00c9lelmiszer bolt (Partner)", "shop": "supermarket"}}, {"type": "node", "id": 673334401, "lat": 46.6886307, "lon": 19.8490684}, {"type": "node", "id": 673334403, "lat": 46.6885106, "lon": 19.8480335}, {"type": "node", "id": 673334411, "lat": 46.6894093, "lon": 19.8478118}, {"type": "node", "id": 673334413, "lat": 46.6895295, "lon": 19.8488467}, {"type": "node", "id": 1847259856, "lat": 46.7058457, "lon": 19.8371131}, {"type": "node", "id": 1847259857, "lat": 46.7060109, "lon": 19.8374737}, {"type": "node", "id": 1847259858, "lat": 46.706176, "lon": 19.8372016}, {"type": "node", "id": 1847259859, "lat": 46.7062112, "lon": 19.8372786}, {"type": "node", "id": 1847259860, "lat": 46.7063846, "lon": 19.8365882}, {"type": "node", "id": 1847259861, "lat": 46.706396, "lon": 19.8367365}, {"type": "node", "id": 1847259862, "lat": 46.7064351, "lon": 19.8366984}, {"type": "node", "id": 1847259863, "lat": 46.7064754, "lon": 19.8369098}, {"type": "node", "id": 1847260073, "lat": 46.722014, "lon": 19.8451441}, {"type": "node", "id": 1847260074, "lat": 46.7220153, "lon": 19.8454751}, {"type": "node", "id": 1847260095, "lat": 46.722106, "lon": 19.8451173}, {"type": "node", "id": 1847260096, "lat": 46.7221061, "lon": 19.8451433}, {"type": "node", "id": 1847260114, "lat": 46.7222083, "lon": 19.8451164}, {"type": "node", "id": 1847260115, "lat": 46.7222084, "lon": 19.8451441}, {"type": "node", "id": 1847260118, "lat": 46.7222973, "lon": 19.8448383}, {"type": "node", "id": 1847260119, "lat": 46.7222984, "lon": 19.8454727}, {"type": "node", "id": 1847260120, "lat": 46.7222986, "lon": 19.8451433}, {"type": "node", "id": 1847260121, "lat": 46.7222986, "lon": 19.8455132}, {"type": "node", "id": 1847260124, "lat": 46.7224346, "lon": 19.8447678}, {"type": "node", "id": 1847260125, "lat": 46.7224348, "lon": 19.8448371}, {"type": "node", "id": 1847260128, "lat": 46.7225414, "lon": 19.8447669}, {"type": "node", "id": 1847260129, "lat": 46.7225417, "lon": 19.8448475}, {"type": "node", "id": 1847260134, "lat": 46.7226707, "lon": 19.8448464}, {"type": "node", "id": 1847260136, "lat": 46.7226733, "lon": 19.8455101}, {"type": "node", "id": 2270317545, "lat": 46.7116836, "lon": 19.8465442}, {"type": "node", "id": 2270317547, "lat": 46.7118657, "lon": 19.8468419}, {"type": "node", "id": 2270317548, "lat": 46.7118215, "lon": 19.8466917}, {"type": "node", "id": 2270317549, "lat": 46.7117259, "lon": 19.8467695}, {"type": "node", "id": 2270317550, "lat": 46.7117087, "lon": 19.8463387}, {"type": "node", "id": 2270317553, "lat": 46.7117627, "lon": 19.8464905}, {"type": "node", "id": 2270317554, "lat": 46.7115368, "lon": 19.8464731}, {"type": "node", "id": 2270317555, "lat": 46.7117056, "lon": 19.8465307}, {"type": "node", "id": 2270317556, "lat": 46.7116247, "lon": 19.8470001}, {"type": "node", "id": 2429826008, "lat": 46.7246592, "lon": 19.8470429}, {"type": "node", "id": 2429826091, "lat": 46.7247857, "lon": 19.8470443}, {"type": "node", "id": 2429826095, "lat": 46.7247877, "lon": 19.8466463}, {"type": "node", "id": 2429826099, "lat": 46.7243979, "lon": 19.8469969}, {"type": "node", "id": 2429826100, "lat": 46.7243996, "lon": 19.8466421}, {"type": "node", "id": 2429826122, "lat": 46.7246594, "lon": 19.8469997}, {"type": "node", "id": 2429826149, "lat": 46.7114981, "lon": 19.8514002, "tags": {"brand": "Spar", "brand:wikidata": "Q610492", "brand:wikipedia": "en:Spar (retailer)", "contact:website": "http://www.spar.hu", "name": "Spar", "shop": "supermarket", "toilets:wheelchair": "no", "website": "http://www.spar.hu", "wheelchair": "yes"}}, {"type": "node", "id": 3144080859, "lat": 46.6649829, "lon": 20.2339655}, {"type": "node", "id": 3144080860, "lat": 46.6650158, "lon": 20.2350161}, {"type": "node", "id": 3144080861, "lat": 46.6658901, "lon": 20.2339052}, {"type": "node", "id": 3144080862, "lat": 46.665923, "lon": 20.2349559}, {"type": "node", "id": 3203444032, "lat": 46.6516971, "lon": 20.263507, "tags": {"brand": "Coop", "name": "Coop ABC", "shop": "supermarket", "toilets:wheelchair": "no", "website": "http://www.coop.hu", "wheelchair": "no"}}, {"type": "node", "id": 3210911079, "lat": 46.6016462, "lon": 20.1129055, "tags": {"name": "K\u00f6r\u00f6storok Coop Vegyesbolt", "shop": "supermarket", "toilets:wheelchair": "no", "wheelchair": "no"}}, {"type": "node", "id": 3389557783, "lat": 46.8417508, "lon": 20.287525, "tags": {"brand": "Penny", "brand:wikidata": "Q284688", "brand:wikipedia": "en:Penny (supermarket)", "contact:website": "http://www.penny.hu", "name": "Penny", "shop": "supermarket", "source": "turistautak.hu", "url": "http://turistautak.hu/poi.php?id=61979", "website": "http://www.penny.hu"}}, {"type": "node", "id": 3488383730, "lat": 46.87103, "lon": 19.99518, "tags": {"name": "COOP", "shop": "supermarket", "source": "turistautak.hu", "source:date": "2011-06-24", "url": "http://turistautak.hu/poi.php?id=37494", "wheelchair": "yes"}}, {"type": "node", "id": 3743634390, "lat": 46.6518119, "lon": 20.267224}, {"type": "node", "id": 3743634391, "lat": 46.6517421, "lon": 20.2668715}, {"type": "node", "id": 3743634392, "lat": 46.6519887, "lon": 20.2667636}, {"type": "node", "id": 3743634393, "lat": 46.6519766, "lon": 20.2666999}, {"type": "node", "id": 3743634394, "lat": 46.6520385, "lon": 20.2666786}, {"type": "node", "id": 3743634395, "lat": 46.6520509, "lon": 20.2667372}, {"type": "node", "id": 3743634396, "lat": 46.652115, "lon": 20.2667105}, {"type": "node", "id": 3743634397, "lat": 46.6521709, "lon": 20.267006}, {"type": "node", "id": 3743634398, "lat": 46.65203, "lon": 20.2670697}, {"type": "node", "id": 3743634399, "lat": 46.6520616, "lon": 20.2672308}, {"type": "node", "id": 3743634400, "lat": 46.6518903, "lon": 20.2673175}, {"type": "node", "id": 3743634401, "lat": 46.6518627, "lon": 20.2671993}, {"type": "node", "id": 3940469187, "lat": 46.9429158, "lon": 20.0972321, "tags": {"addr:city": "Tiszak\u00e9cske", "addr:housenumber": "1", "addr:postcode": "6060", "addr:street": "Vincze J\u00e1nos N\u00e1ndor utca", "brand": "Penny", "brand:wikidata": "Q284688", "brand:wikipedia": "en:Penny (supermarket)", "name": "Penny", "operator": "Penny Market kft.", "shop": "supermarket"}}, {"type": "node", "id": 4306962603, "lat": 46.6539798, "lon": 20.2765975}, {"type": "node", "id": 4306962604, "lat": 46.653716, "lon": 20.2767561}, {"type": "node", "id": 4306962605, "lat": 46.6539603, "lon": 20.2776187}, {"type": "node", "id": 4306962606, "lat": 46.65416, "lon": 20.2774226}, {"type": "node", "id": 4306967009, "lat": 46.6616146, "lon": 20.2409532}, {"type": "node", "id": 4306967010, "lat": 46.6614599, "lon": 20.2406655}, {"type": "node", "id": 4306967011, "lat": 46.6619139, "lon": 20.2401476}, {"type": "node", "id": 4306967012, "lat": 46.6620852, "lon": 20.2404664}, {"type": "node", "id": 4580341777, "lat": 46.9370923, "lon": 20.0963569}, {"type": "node", "id": 4580341784, "lat": 46.9366336, "lon": 20.0963326}, {"type": "node", "id": 4580341889, "lat": 46.9370712, "lon": 20.0964861}, {"type": "node", "id": 4580341899, "lat": 46.93706, "lon": 20.0963455}, {"type": "node", "id": 4580341903, "lat": 46.9367014, "lon": 20.0959176}, {"type": "node", "id": 4580341907, "lat": 46.9371067, "lon": 20.0960597}, {"type": "node", "id": 4580956558, "lat": 46.9366925, "lon": 20.0959712, "tags": {"amenity": "atm", "brand": "Erste", "level": "0", "opening_hours": "24/7", "operator": "Erste Bank Hungary Zrt."}}, {"type": "node", "id": 4846085954, "lat": 46.6619172, "lon": 20.2406581}, {"type": "node", "id": 4846085955, "lat": 46.6619005, "lon": 20.240627}, {"type": "node", "id": 5302611881, "lat": 46.6540664, "lon": 20.276903}, {"type": "node", "id": 5302611882, "lat": 46.6540206, "lon": 20.2769305}, {"type": "node", "id": 5302611883, "lat": 46.6540019, "lon": 20.2775176}, {"type": "node", "id": 5302611884, "lat": 46.6540203, "lon": 20.2775827}, {"type": "node", "id": 5791807549, "lat": 46.7126133, "lon": 20.1345051}, {"type": "node", "id": 5791807550, "lat": 46.7125093, "lon": 20.1346237}, {"type": "node", "id": 5791807551, "lat": 46.7124861, "lon": 20.1345804}, {"type": "node", "id": 5791807552, "lat": 46.7123383, "lon": 20.1347488}, {"type": "node", "id": 5791808553, "lat": 46.712263, "lon": 20.1346082}, {"type": "node", "id": 5791808554, "lat": 46.712224, "lon": 20.1346526}, {"type": "node", "id": 5791808555, "lat": 46.7121602, "lon": 20.1345335}, {"type": "node", "id": 5791808556, "lat": 46.7124652, "lon": 20.1341858}, {"type": "node", "id": 5791808557, "lat": 46.7126072, "lon": 20.1344506}, {"type": "node", "id": 5791808558, "lat": 46.7125928, "lon": 20.134467}, {"type": "node", "id": 5791808774, "lat": 46.710363, "lon": 20.1369554}, {"type": "node", "id": 5791808775, "lat": 46.7103755, "lon": 20.1370986}, {"type": "node", "id": 5791808776, "lat": 46.7104242, "lon": 20.1370896}, {"type": "node", "id": 5791808777, "lat": 46.7104425, "lon": 20.1372999}, {"type": "node", "id": 5791808778, "lat": 46.7106062, "lon": 20.1373543}, {"type": "node", "id": 5914770391, "lat": 46.7299723, "lon": 19.8447511}, {"type": "node", "id": 6482235789, "lat": 46.8687692, "lon": 20.206087}, {"type": "node", "id": 6482243896, "lat": 46.8689844, "lon": 20.2062344}, {"type": "node", "id": 6482243986, "lat": 46.8686902, "lon": 20.2063337}, {"type": "node", "id": 6482244086, "lat": 46.8689054, "lon": 20.2064812}, {"type": "node", "id": 6737850338, "lat": 46.6227992, "lon": 19.861693}, {"type": "node", "id": 6737850339, "lat": 46.6228967, "lon": 19.8614629}, {"type": "node", "id": 6737850340, "lat": 46.6230489, "lon": 19.8615996}, {"type": "node", "id": 6737850341, "lat": 46.6229514, "lon": 19.8618298}, {"type": "node", "id": 6737875575, "lat": 46.7301154, "lon": 19.8444912, "tags": {"name": "Mez\u0151gazdas\u00e1gi \u00c1ruh\u00e1z, Farmers Store", "shop": "supermarket"}}, {"type": "node", "id": 6737875576, "lat": 46.7298683, "lon": 19.8444052}, {"type": "node", "id": 6737875577, "lat": 46.7302335, "lon": 19.8441684}, {"type": "node", "id": 6737875578, "lat": 46.7303367, "lon": 19.8444966}, {"type": "node", "id": 9210623549, "lat": 46.7107953, "lon": 20.1373216}, {"type": "node", "id": 9210623560, "lat": 46.7107951, "lon": 20.1373194}, {"type": "node", "id": 9210623561, "lat": 46.7105989, "lon": 20.137271}, {"type": "node", "id": 9509059668, "lat": 46.7109876, "lon": 20.1368401}, {"type": "node", "id": 9509059669, "lat": 46.7110257, "lon": 20.1372791}, {"type": "node", "id": 10086928999, "lat": 46.6652439, "lon": 20.235001, "tags": {"entrance": "main"}}, {"type": "node", "id": 10134887564, "lat": 46.6655082, "lon": 20.2348561, "tags": {"addr:city": "Szentes", "addr:housenumber": "67", "addr:postcode": "6600", "addr:street": "Csongr\u00e1di \u00fat", "brand": "Tesco", "brand:wikidata": "Q487494", "brand:wikipedia": "en:M\u00fcller (German trade company)", "name": "Tesco", "opening_hours": "Mo-Fr 09:00-19:00; Sa 09:00-19:30; PH closed", "phone": "+36 63 561 020", "shop": "supermarket"}}, {"type": "way", "id": 53199695, "nodes": [673334413, 673334401, 673334403, 673334411, 673334413], "tags": {"addr:city": "Kiskunf\u00e9legyh\u00e1za", "addr:housenumber": "8/B", "addr:postcode": "6100", "addr:street": "IX. k\u00f6rzet", "air_conditioning": "yes", "branch": "Kiskunf\u00e9legyh\u00e1za Hipermarket", "brand": "Tesco", "brand:wikidata": "Q487494", "brand:wikipedia": "hu:Tesco", "building": "retail", "contact:facebook": "https://www.facebook.com/tescoaruhazak", "contact:pinterest": "https://www.pinterest.com/tescohungary/", "contact:website": "https://tesco.hu/aruhazak/aruhaz/tesco-kiskunfelegyhaza-hipermarket/", "contact:youtube": "https://www.youtube.com/user/TescoMagyarorszag", "import": "osm_poi_matchmaker", "internet_access": "wlan", "internet_access:fee": "no", "internet_access:ssid": "tesco-internet", "loyalty_card": "yes", "name": "Tesco", "opening_hours": "Mo-Sa 06:00-20:00; Su 07:00-18:00; PH off", "operator": "TESCO-GLOBAL \u00c1ruh\u00e1zak Zrt.", "operator:addr": "2040 Buda\u00f6rs, Kinizsi \u00fat 1-3.", "payment:american_express": "yes", "payment:cash": "yes", "payment:contactless": "yes", "payment:edenred_card": "yes", "payment:edenred_voucher": "yes", "payment:gift_card": "yes", "payment:jcb": "yes", "payment:maestro": "yes", "payment:mastercard": "yes", "payment:mastercard_contactless": "yes", "payment:mastercard_electronic": "yes", "payment:multipay": "yes", "payment:otp_bankpont": "yes", "payment:otp_cafeteria": "yes", "payment:unionpay": "yes", "payment:v_pay": "yes", "payment:visa": "yes", "payment:visa_electron": "yes", "payment:wire_transfer": "yes", "ref:HU:company": "13-10-040628", "ref:HU:vatin": "10307078-2-44", "ref:vatin": "HU10307078", "shop": "supermarket", "source:tesco.hu:date": "2020-09-28", "source:wheelchair": "website", "toilets:wheelchair": "yes", "wheelchair": "yes"}}, {"type": "way", "id": 173984771, "nodes": [1847260134, 1847260129, 1847260128, 1847260124, 1847260125, 1847260118, 1847260120, 1847260115, 1847260114, 1847260095, 1847260096, 1847260073, 1847260074, 1847260119, 1847260121, 1847260136, 1847260134], "tags": {"brand": "Spar", "brand:wikidata": "Q610492", "building": "retail", "contact:website": "http://www.spar.hu", "name": "Spar", "shop": "supermarket", "source": "Bing", "toilets:wheelchair": "yes", "website": "http://www.spar.hu", "wheelchair": "yes"}}, {"type": "way", "id": 173984799, "nodes": [1847259860, 1847259856, 1847259857, 1847259859, 1847259858, 1847259863, 1847259861, 1847259862, 1847259860], "tags": {"addr:city": "Kiskunf\u00e9legyh\u00e1za", "addr:housenumber": "5", "addr:postcode": "6100", "addr:street": "Majsai \u00fat", "brand": "Lidl", "brand:wikidata": "Q151954", "brand:wikipedia": "en:Lidl", "building": "retail", "contact:website": "https://www.lidl.hu/", "name": "Lidl", "opening_hours": "Mo-Sa 07:00-21:00; Su 07:00-19:00", "shop": "supermarket", "source": "bing"}}, {"type": "way", "id": 217729382, "nodes": [2270317556, 2270317554, 2270317550, 2270317553, 2270317555, 2270317545, 2270317549, 2270317548, 2270317547, 2270317556], "tags": {"brand": "Spar", "brand:wikidata": "Q610492", "brand:wikipedia": "en:Spar (retailer)", "building": "retail", "contact:website": "http://www.spar.hu", "name": "Spar", "shop": "supermarket", "website": "http://www.spar.hu", "wheelchair": "yes"}}, {"type": "way", "id": 234858065, "nodes": [2429826100, 2429826099, 2429826122, 2429826008, 2429826091, 2429826095, 2429826100], "tags": {"addr:city": "Kiskunf\u00e9legyh\u00e1za", "addr:postcode": "6100", "alt_name": "Penny Market", "brand": "PENNY", "brand:wikidata": "Q284688", "brand:wikipedia": "en:Penny (supermarket)", "building": "retail", "contact:website": "https://www.penny.hu", "name": "PENNY", "opening_hours": "Mo-Sa 07:00-20:00; Su 07:00-18:00; PH off", "shop": "supermarket"}}, {"type": "way", "id": 309096191, "nodes": [3144080861, 3144080862, 10086928999, 3144080860, 3144080859, 3144080861], "tags": {"addr:city": "Szentes", "addr:housenumber": "258", "addr:postcode": "6600", "addr:street": "Als\u00f3r\u00e9t", "air_conditioning": "yes", "branch": "Szentes Hipermarket", "brand": "Tesco", "brand:wikidata": "Q487494", "brand:wikipedia": "en:Tesco", "building": "retail", "contact:facebook": "https://www.facebook.com/tescoaruhazak", "contact:pinterest": "https://www.pinterest.com/tescohungary/", "contact:website": "https://tesco.hu/aruhazak/aruhaz/tesco-szentes-hipermarket/", "contact:youtube": "https://www.youtube.com/user/TescoMagyarorszag", "import": "osm_poi_matchmaker", "internet_access": "wlan", "internet_access:fee": "no", "internet_access:ssid": "tesco-internet", "loyalty_card": "yes", "name": "Tesco", "opening_hours": "Mo-Sa 06:00-21:00; Su 07:00-18:00; PH off", "operator": "TESCO-GLOBAL \u00c1ruh\u00e1zak Zrt.", "operator:addr": "2040 Buda\u00f6rs, Kinizsi \u00fat 1-3.", "payment:american_express": "yes", "payment:cash": "yes", "payment:contactless": "yes", "payment:edenred_card": "yes", "payment:edenred_voucher": "yes", "payment:gift_card": "yes", "payment:jcb": "yes", "payment:maestro": "yes", "payment:mastercard": "yes", "payment:mastercard_contactless": "yes", "payment:mastercard_electronic": "yes", "payment:multipay": "yes", "payment:otp_bankpont": "yes", "payment:otp_cafeteria": "yes", "payment:unionpay": "yes", "payment:v_pay": "yes", "payment:visa": "yes", "payment:visa_electron": "yes", "payment:wire_transfer": "yes", "ref:HU:company": "13-10-040628", "ref:HU:vatin": "10307078-2-44", "ref:vatin": "HU10307078", "shop": "supermarket", "source": "website", "source:date": "2020-09-28", "source:wheelchair": "website", "toilets:wheelchair": "yes", "wheelchair": "yes"}}, {"type": "way", "id": 370667740, "nodes": [3743634390, 3743634391, 3743634392, 3743634393, 3743634394, 3743634395, 3743634396, 3743634397, 3743634398, 3743634399, 3743634400, 3743634401, 3743634390], "tags": {"addr:city": "Szentes", "addr:housenumber": "29-31", "addr:postcode": "6600", "addr:street": "Kossuth Lajos utca", "brand": "Penny", "brand:wikidata": "Q284688", "brand:wikipedia": "en:Penny (supermarket)", "building": "retail", "name": "Penny", "opening_hours": "Mo-Sa 07:00-21:00; Su off", "shop": "supermarket", "website": "https://www.penny.hu/"}}, {"type": "way", "id": 431486608, "nodes": [4306962603, 4306962604, 4306962605, 5302611884, 5302611883, 4306962606, 5302611882, 5302611881, 4306962603], "tags": {"addr:city": "Szentes", "addr:housenumber": "2-6", "addr:postcode": "6600", "addr:street": "Ipartelepi \u00fat", "brand": "Lidl", "brand:wikidata": "Q151954", "brand:wikipedia": "en:Lidl", "building": "retail", "building:levels": "1", "name": "Lidl", "opening_hours": "Mo-Sa 07:00-21:00; Su 07:00-19:00", "operator": "Lidl Magyarorsz\u00e1g Bt.", "shop": "supermarket", "website": "https://www.lidl.hu/"}}, {"type": "way", "id": 431487049, "nodes": [4306967009, 4306967010, 4306967011, 4306967012, 4846085954, 4846085955, 4306967009], "tags": {"addr:city": "Szentes", "addr:housenumber": "65", "addr:postcode": "6600", "addr:street": "Csongr\u00e1di \u00fat", "air_conditioning": "yes", "brand": "Aldi", "brand:wikidata": "Q125054", "brand:wikipedia": "hu:Aldi", "building": "retail", "building:levels": "1", "contact:facebook": "https://www.facebook.com/ALDI.Magyarorszag", "contact:instagram": "https://www.instagram.com/aldi.magyarorszag", "contact:phone": "+36 80 088 264", "contact:website": "https://www.aldi.hu", "contact:youtube": "https://www.youtube.com/user/ALDIMagyarorszag", "name": "Aldi", "opening_hours": "Mo-Sa 07:00-20:00; Su 07:00-19:00; PH off", "operator": "ALDI Magyarorsz\u00e1g \u00c9lelmiszer Bt.", "operator:addr": "2051 Biatorb\u00e1gy, M\u00e9sz\u00e1rosok \u00fatja 2.", "payment:cash": "yes", "payment:contactless": "yes", "payment:maestro": "yes", "payment:mastercard": "yes", "payment:mastercard_contactless": "yes", "payment:mastercard_electronic": "yes", "payment:visa": "yes", "payment:visa_electron": "yes", "ref:HU:company": "13 06 058506", "ref:HU:vatin": "22234663-2-44", "ref:vatin": "HU22234663", "shop": "supermarket", "source": "import;website", "source:date": "2022-10-14"}}, {"type": "way", "id": 462661637, "nodes": [4580341903, 4580956558, 4580341784, 4580341889, 4580341777, 4580341899, 4580341907, 4580341903], "tags": {"brand": "Spar", "brand:wikidata": "Q610492", "brand:wikipedia": "en:SPAR (retailer)", "building": "retail", "level": "0", "name": "Spar", "shop": "supermarket", "wheelchair": "yes"}}, {"type": "way", "id": 611761413, "nodes": [5791807549, 5791807550, 5791807551, 5791807552, 5791808553, 5791808554, 5791808555, 5791808556, 5791808557, 5791808558, 5791807549], "tags": {"addr:city": "Csongr\u00e1d", "addr:housenumber": "61/A", "addr:postcode": "6640", "addr:street": "F\u0151 utca", "alt_name": "Penny Market", "brand:wikidata": "Q284688", "brand:wikipedia": "en:Penny (supermarket)", "building": "retail", "name": "Penny", "opening_hours": "Mo-Sa 07:00-20:00; Su 07:00-18:00", "shop": "supermarket", "website": "https://www.penny.hu/"}}, {"type": "way", "id": 611761440, "nodes": [5791808774, 5791808775, 5791808776, 5791808777, 9210623561, 5791808778, 9210623560, 9210623549, 9509059669, 9509059668, 5791808774], "tags": {"addr:city": "Csongr\u00e1d", "addr:housenumber": "59", "addr:postcode": "6640", "addr:street": "F\u0151 utca", "building": "retail", "name": "Lidl", "opening_hours": "Mo-Sa 07:00-21:00, Su 07:00-17:00", "shop": "supermarket", "website": "https://www.lidl.hu/"}}, {"type": "way", "id": 690878586, "nodes": [6482235789, 6482243986, 6482244086, 6482243896, 6482235789], "tags": {"addr:city": "Cserkesz\u0151l\u0151", "addr:postcode": "5465", "addr:street": "Szinyei Merse P\u00e1l utca", "brand": "Coop Szuper", "brand:wikidata": "Q868980", "brand:wikipedia": "hu:Coop (magyar \u00fczletl\u00e1nc)", "building": "yes", "name": "Coop Szuper", "shop": "supermarket", "source": "F\u00d6MI ortofot\u00f3 2005;Mapbox", "wheelchair": "yes"}}, {"type": "way", "id": 717451273, "nodes": [6737850338, 6737850339, 6737850340, 6737850341, 6737850338], "tags": {"building": "yes", "shop": "supermarket"}}, {"type": "way", "id": 717452316, "nodes": [6737875576, 6737875577, 6737875578, 5914770391, 6737875576], "tags": {"building": "yes", "shop": "supermarket"}}]}