{"version": 0.6, "generator": "Overpass API 0.7.59 e21c39fe", "osm3s": {"timestamp_osm_base": "2023-01-20T17:55:59Z", "copyright": "The data included in this document is from www.openstreetmap.org. The data is made available under ODbL."}, "elements": [{"type": "node", "id": 263550928, "lat": 47.4925747, "lon": 19.0566217}, {"type": "node", "id": 263711442, "lat": 47.5015511, "lon": 19.0467024}, {"type": "node", "id": 263711443, "lat": 47.5014729, "lon": 19.0459541}, {"type": "node", "id": 263711447, "lat": 47.5015022, "lon": 19.0462342}, {"type": "node", "id": 263711448, "lat": 47.5014899, "lon": 19.0461165}, {"type": "node", "id": 263711451, "lat": 47.5015344, "lon": 19.0465426}, {"type": "node", "id": 263711453, "lat": 47.5015207, "lon": 19.0464115}, {"type": "node", "id": 263712319, "lat": 47.5016393, "lon": 19.0459055}, {"type": "node", "id": 263712320, "lat": 47.5017127, "lon": 19.0466194}, {"type": "node", "id": 263714064, "lat": 47.5070292, "lon": 19.0532673, "tags": {"addr:city": "Budapest", "addr:housenumber": "42", "addr:postcode": "1054", "addr:street": "Vad\u00e1sz utca", "amenity": "library", "name": "Belv\u00e1rosi K\u00f6nyvt\u00e1r", "opening_hours": "Mo,We,Th 14:00-19:00; Tu 12:00-16:00; Fr 11:00-16:00", "operator": "Szab\u00f3 Ervin K\u00f6nyvt\u00e1r", "operator:type": "public", "phone": "+36 1 332 7392", "website": "http://www.fszek.hu/konyvtaraink/vadasz_u__42_", "wheelchair": "limited", "wheelchair:description": "A bej\u00e1ratn\u00e1l 90cm-es kicsit meredek r\u00e1mpa."}}, {"type": "node", "id": 263757914, "lat": 47.5064257, "lon": 19.0452978, "tags": {"amenity": "library", "name": "Orsz\u00e1ggy\u0171l\u00e9si K\u00f6nyvt\u00e1r", "name:de": "Parlamentsbibliothek", "name:en": "Parliamentary Library", "website": "http://www.ogyk.hu/", "wheelchair": "yes", "wikidata": "Q1226045", "wikipedia": "hu:Orsz\u00e1ggy\u0171l\u00e9si K\u00f6nyvt\u00e1r"}}, {"type": "node", "id": 263770697, "lat": 47.4926166, "lon": 19.0567423}, {"type": "node", "id": 263770701, "lat": 47.4925725, "lon": 19.0567896}, {"type": "node", "id": 263770703, "lat": 47.4926281, "lon": 19.0569247}, {"type": "node", "id": 263770706, "lat": 47.4923147, "lon": 19.056942}, {"type": "node", "id": 263770709, "lat": 47.4923206, "lon": 19.0568915}, {"type": "node", "id": 263770714, "lat": 47.4926437, "lon": 19.0570202}, {"type": "node", "id": 263770718, "lat": 47.4926397, "lon": 19.0571017}, {"type": "node", "id": 263770723, "lat": 47.4926041, "lon": 19.0571433}, {"type": "node", "id": 263770728, "lat": 47.4925699, "lon": 19.0571388}, {"type": "node", "id": 263770730, "lat": 47.4925328, "lon": 19.0571151}, {"type": "node", "id": 263770733, "lat": 47.4925102, "lon": 19.0571519}, {"type": "node", "id": 263770737, "lat": 47.4925948, "lon": 19.0573956}, {"type": "node", "id": 263770742, "lat": 47.4927233, "lon": 19.0573047}, {"type": "node", "id": 263770748, "lat": 47.4927718, "lon": 19.0574715}, {"type": "node", "id": 263770752, "lat": 47.492568, "lon": 19.0576169}, {"type": "node", "id": 263770755, "lat": 47.4924448, "lon": 19.0567596, "tags": {"entrance": "main"}}, {"type": "node", "id": 318618591, "lat": 47.4583461, "lon": 19.1419012, "tags": {"addr:city": "Budapest", "addr:country": "HU", "addr:housenumber": "255", "addr:postcode": "1191", "addr:street": "\u00dcll\u0151i \u00fat", "amenity": "library", "club": "board_games", "email": "fszek1901@fszek.hu", "facebook": "https://www.facebook.com/fszekulloi", "name": "\u00dcll\u0151i \u00fati k\u00f6nyvt\u00e1r", "opening_hours": "Mo,We,Fr 13:00-19:00; Tu,Th 09:00-15:00; Sa 09:00-14:00", "operator": "F\u0151v\u00e1rosi Szab\u00f3 Ervin K\u00f6nyvt\u00e1r", "operator:type": "public", "phone": "+36 1 281 1163", "website": "http://www.fszek.hu/konyvtaraink/ulloi_ut_255_", "wheelchair": "yes"}}, {"type": "node", "id": 329695794, "lat": 47.4642242, "lon": 19.0315563, "tags": {"addr:city": "Budapest", "addr:housenumber": "55/a", "addr:postcode": "1119", "addr:street": "Etele \u00fat", "amenity": "library", "name": "Kelenf\u00f6ldi K\u00f6nyvt\u00e1r", "opening_hours": "Mo,We,Fr 12:00-19:00; Tu,Th 09:00-16:00; Sa 13:00-18:00", "operator": "F\u0151v\u00e1rosi Szab\u00f3 Ervin K\u00f6nyvt\u00e1r", "operator:type": "public", "phone": "+36 1 371 2788", "wheelchair": "no"}}, {"type": "node", "id": 370995036, "lat": 47.7181079, "lon": 18.7316744, "tags": {"addr:city": "Dorog", "addr:housenumber": "42", "addr:postcode": "2510", "addr:street": "B\u00e9csi \u00fat", "amenity": "library", "name": "Dorogi G\u00e1thy Zolt\u00e1n V\u00e1rosi K\u00f6nyvt\u00e1r"}}, {"type": "node", "id": 600390562, "lat": 47.6008749, "lon": 19.0594313, "tags": {"addr:city": "Budapest", "addr:housenumber": "26", "addr:postcode": "1039", "addr:street": "F\u00fcst Mil\u00e1n utca", "amenity": "library", "name": "B\u00e9k\u00e1smegyeri K\u00f6nyvt\u00e1r", "operator": "F\u0151v\u00e1rosi Szab\u00f3 Ervin K\u00f6nyvt\u00e1r", "operator:type": "public"}}, {"type": "node", "id": 650854022, "lat": 47.4293393, "lon": 19.128702, "tags": {"addr:city": "Budapest", "addr:housenumber": "157/B", "addr:postcode": "1204", "addr:street": "Pacsirta utca", "amenity": "library", "name": "V\u00e9csey lak\u00f3telepi K\u00f6nyvt\u00e1r", "operator": "F\u0151v\u00e1rosi Szab\u00f3 Ervin K\u00f6nyvt\u00e1r", "operator:type": "public", "url": "http://www.fszek.hu/konyvtaraink/pacsirta_u__157b", "wikidata": "Q620968", "wikipedia": "hu:F\u0151v\u00e1rosi Szab\u00f3 Ervin K\u00f6nyvt\u00e1r"}}, {"type": "node", "id": 735205817, "lat": 47.4953335, "lon": 19.0395462, "tags": {"amenity": "library", "name": "Orsz\u00e1gos Sz\u00e9ch\u00e9nyi K\u00f6nyvt\u00e1r", "name:de": "Sz\u00e9ch\u00e9nyi-Nationalbibliothek", "name:en": "National Sz\u00e9ch\u00e9nyi Library", "name:ru": "\u041d\u0430\u0446\u0438\u043e\u043d\u0430\u043b\u044c\u043d\u0430\u044f \u0431\u0438\u0431\u043b\u0438\u043e\u0442\u0435\u043a\u0430 \u0438\u043c.\u0421\u0435\u0447\u0435\u043d\u0438", "phone": "+36 1 224 3700", "website": "http://www.oszk.hu/", "wheelchair": "limited", "wikidata": "Q1063819", "wikipedia": "hu:Orsz\u00e1gos Sz\u00e9ch\u00e9nyi K\u00f6nyvt\u00e1r"}}, {"type": "node", "id": 839145049, "lat": 47.5233886, "lon": 19.0567587, "tags": {"addr:city": "Budapest", "addr:housenumber": "88-90", "addr:postcode": "1133", "addr:street": "Pann\u00f3nia utca", "amenity": "library", "name": "Radn\u00f3ti Mikl\u00f3s K\u00f6nyvt\u00e1r", "operator": "F\u0151v\u00e1rosi Szab\u00f3 Ervin K\u00f6nyvt\u00e1r", "website": "http://www.fszek.hu/konyvtaraink/pannonia_u__88-90", "wheelchair": "yes"}}, {"type": "node", "id": 847032299, "lat": 47.63054, "lon": 19.1390742}, {"type": "node", "id": 1147310443, "lat": 47.4018436, "lon": 19.1135485, "tags": {"addr:city": "Budapest", "addr:housenumber": "128", "addr:postcode": "1238", "addr:street": "Grassalkovich \u00fat", "amenity": "library", "operator": "F\u0151v\u00e1rosi Szab\u00f3 Ervin K\u00f6nyvt\u00e1r", "operator:type": "public", "wheelchair": "yes"}}, {"type": "node", "id": 1296653993, "lat": 47.5330929, "lon": 19.0718607}, {"type": "node", "id": 1296654001, "lat": 47.5327397, "lon": 19.0708592}, {"type": "node", "id": 1296654016, "lat": 47.5327478, "lon": 19.070638}, {"type": "node", "id": 1296654021, "lat": 47.5325929, "lon": 19.0710913}, {"type": "node", "id": 1296654043, "lat": 47.5328252, "lon": 19.0705784}, {"type": "node", "id": 1296654048, "lat": 47.5325858, "lon": 19.0705674}, {"type": "node", "id": 1296654052, "lat": 47.532943, "lon": 19.0716325}, {"type": "node", "id": 1296654062, "lat": 47.5324121, "lon": 19.0708239}, {"type": "node", "id": 1296654076, "lat": 47.5331009, "lon": 19.071397}, {"type": "node", "id": 1296654079, "lat": 47.53338, "lon": 19.0714113}, {"type": "node", "id": 1296654090, "lat": 47.5326605, "lon": 19.070634}, {"type": "node", "id": 1387103603, "lat": 47.5372091, "lon": 19.0661307}, {"type": "node", "id": 1387103644, "lat": 47.537381, "lon": 19.0662029}, {"type": "node", "id": 1387103667, "lat": 47.5374522, "lon": 19.0658306}, {"type": "node", "id": 1387103702, "lat": 47.5372802, "lon": 19.0657585}, {"type": "node", "id": 1421615988, "lat": 47.5330299, "lon": 19.0716332}, {"type": "node", "id": 1421616008, "lat": 47.5332429, "lon": 19.0716197}, {"type": "node", "id": 1421616012, "lat": 47.5331585, "lon": 19.0716355}, {"type": "node", "id": 1421616036, "lat": 47.5330897, "lon": 19.0715394}, {"type": "node", "id": 1421616095, "lat": 47.5330987, "lon": 19.0717293}, {"type": "node", "id": 1421616115, "lat": 47.533259, "lon": 19.0716457}, {"type": "node", "id": 1649336125, "lat": 47.5015528, "lon": 19.0461026}, {"type": "node", "id": 1649336126, "lat": 47.5015636, "lon": 19.0462174}, {"type": "node", "id": 1649336128, "lat": 47.5015802, "lon": 19.0463951}, {"type": "node", "id": 1649336129, "lat": 47.501592, "lon": 19.0465209}, {"type": "node", "id": 1720319165, "lat": 47.498881, "lon": 19.1072226, "tags": {"addr:city": "Budapest", "addr:street": "Sz\u00f6r\u00e9ny utca", "amenity": "library", "name": "Szab\u00f3 Ervin k\u00f6nyvt\u00e1r"}}, {"type": "node", "id": 1775002969, "lat": 47.4953825, "lon": 19.1109824}, {"type": "node", "id": 1775002971, "lat": 47.4954839, "lon": 19.1110208}, {"type": "node", "id": 1775002973, "lat": 47.4959047, "lon": 19.1110154}, {"type": "node", "id": 1775002975, "lat": 47.4961852, "lon": 19.1111254}, {"type": "node", "id": 1775002977, "lat": 47.4961867, "lon": 19.1110205}, {"type": "node", "id": 1775002979, "lat": 47.4950942, "lon": 19.1110769}, {"type": "node", "id": 1775002981, "lat": 47.4950961, "lon": 19.1109752}, {"type": "node", "id": 1775002983, "lat": 47.4954774, "lon": 19.1110719}, {"type": "node", "id": 1775002985, "lat": 47.4959061, "lon": 19.1110744}, {"type": "node", "id": 1775002987, "lat": 47.4958108, "lon": 19.1110746}, {"type": "node", "id": 1775002989, "lat": 47.4958083, "lon": 19.1110262}, {"type": "node", "id": 1775002991, "lat": 47.4962885, "lon": 19.1111254}, {"type": "node", "id": 1775002993, "lat": 47.4950054, "lon": 19.1110771}, {"type": "node", "id": 1775002995, "lat": 47.4953806, "lon": 19.1110718}, {"type": "node", "id": 1775002997, "lat": 47.4962877, "lon": 19.1108309}, {"type": "node", "id": 1775003002, "lat": 47.4950116, "lon": 19.1108037}, {"type": "node", "id": 1783569905, "lat": 47.490143, "lon": 19.0533287}, {"type": "node", "id": 1783569917, "lat": 47.4901385, "lon": 19.0537999}, {"type": "node", "id": 1783569922, "lat": 47.4899888, "lon": 19.053525}, {"type": "node", "id": 1783569925, "lat": 47.4902979, "lon": 19.0536005}, {"type": "node", "id": 1851386729, "lat": 47.4260215, "lon": 19.0383733, "tags": {"addr:city": "Budapest", "addr:country": "HU", "addr:housenumber": "30", "addr:postcode": "1221", "addr:street": "Kossuth Lajos utca", "amenity": "library", "contact:email": "fszek2203@fszek.hu", "contact:phone": "+36 1 411 5000", "contact:website": "http://www.fszek.hu/konyvtaraink/kossuth_lajos_utca_30_", "internet_access:ssid": "FSzEK", "name": "Budafoki K\u00f6nyvt\u00e1r", "opening_hours": "Mo,We,Fr 13:00-19:00; Tu,Th 10:00-16:00; Sa 09:00-14:00", "operator": "F\u0151v\u00e1rosi Szab\u00f3 Ervin K\u00f6nyvt\u00e1r", "operator:type": "public"}}, {"type": "node", "id": 1944736720, "lat": 47.426987, "lon": 19.0679037}, {"type": "node", "id": 1944736721, "lat": 47.4271644, "lon": 19.0679159}, {"type": "node", "id": 1944736722, "lat": 47.427172, "lon": 19.0676745}, {"type": "node", "id": 1944736725, "lat": 47.4269946, "lon": 19.0676623}, {"type": "node", "id": 1949927391, "lat": 47.4945502, "lon": 19.0203339, "tags": {"addr:city": "Budapest", "addr:housenumber": "10", "addr:postcode": "1126", "addr:street": "Ugocsa utca", "amenity": "library", "name": "F\u0151v\u00e1rosi Szab\u00f3 Ervin K\u00f6nyvt\u00e1r XII./1. sz. k\u00f6nyvt\u00e1ra", "operator": "F\u0151v\u00e1rosi Szab\u00f3 Ervin K\u00f6nyvt\u00e1r", "operator:type": "public"}}, {"type": "node", "id": 1956872650, "lat": 47.4722936, "lon": 19.0598209, "tags": {"amenity": "library", "name": "BME I k\u00f6nyvt\u00e1r", "opening_hours": "Mo-Th 08:30-16:30; Fr 08:30-14:00", "wheelchair": "yes"}}, {"type": "node", "id": 1967127043, "lat": 47.575575, "lon": 18.8806037}, {"type": "node", "id": 1967127044, "lat": 47.5755754, "lon": 18.8804923}, {"type": "node", "id": 1967127047, "lat": 47.5756241, "lon": 18.8807711}, {"type": "node", "id": 1967127048, "lat": 47.5756249, "lon": 18.8806449}, {"type": "node", "id": 1967127058, "lat": 47.5758588, "lon": 18.8806153}, {"type": "node", "id": 1967127059, "lat": 47.5758593, "lon": 18.8806587}, {"type": "node", "id": 1967127066, "lat": 47.5759467, "lon": 18.8807958}, {"type": "node", "id": 1967127067, "lat": 47.5759498, "lon": 18.8804754}, {"type": "node", "id": 2052560997, "lat": 47.4585135, "lon": 18.9581791}, {"type": "node", "id": 2052560999, "lat": 47.4587638, "lon": 18.9587025}, {"type": "node", "id": 2052561000, "lat": 47.4586487, "lon": 18.9587654}, {"type": "node", "id": 2052561001, "lat": 47.4586449, "lon": 18.9581136}, {"type": "node", "id": 2111258916, "lat": 47.4897774, "lon": 19.0668686}, {"type": "node", "id": 2111258927, "lat": 47.4896207, "lon": 19.0667278}, {"type": "node", "id": 2111258931, "lat": 47.4895504, "lon": 19.0668347}, {"type": "node", "id": 2111258937, "lat": 47.4895064, "lon": 19.0669282}, {"type": "node", "id": 2111258952, "lat": 47.4895369, "lon": 19.0667291}, {"type": "node", "id": 2111258968, "lat": 47.489644, "lon": 19.0666949}, {"type": "node", "id": 2111258980, "lat": 47.4897519, "lon": 19.0666614}, {"type": "node", "id": 2111258981, "lat": 47.4894836, "lon": 19.0667461}, {"type": "node", "id": 2111258986, "lat": 47.4896318, "lon": 19.0668111}, {"type": "node", "id": 2111258996, "lat": 47.4896473, "lon": 19.0667201}, {"type": "node", "id": 2295482500, "lat": 47.476801, "lon": 19.0501134, "tags": {"addr:city": "Budapest", "addr:housenumber": "11", "addr:postcode": "1117", "addr:street": "Karinthy Frigyes \u00fat", "amenity": "library", "name": "Karinthy Frigyes K\u00f6nyvt\u00e1r", "operator": "Szab\u00f3 Ervin K\u00f6nyvt\u00e1r", "wheelchair": "limited"}}, {"type": "node", "id": 2319758028, "lat": 47.4269894, "lon": 19.0678269}, {"type": "node", "id": 2412145033, "lat": 47.706644, "lon": 19.1482086, "tags": {"addr:city": "G\u00f6d", "addr:housenumber": "21", "addr:postcode": "2132", "addr:street": "K\u00e1lm\u00e1n utca", "amenity": "library", "name": "Ady Klub"}}, {"type": "node", "id": 2510567122, "lat": 47.5037106, "lon": 19.0761221}, {"type": "node", "id": 2510567125, "lat": 47.5037813, "lon": 19.0762926}, {"type": "node", "id": 2510567126, "lat": 47.503442, "lon": 19.0766011}, {"type": "node", "id": 2510567128, "lat": 47.5033713, "lon": 19.0764306}, {"type": "node", "id": 2510737091, "lat": 47.4900748, "lon": 19.0535342}, {"type": "node", "id": 2510737094, "lat": 47.4901068, "lon": 19.0535899}, {"type": "node", "id": 2510737100, "lat": 47.4901299, "lon": 19.0534647}, {"type": "node", "id": 2510737103, "lat": 47.490162, "lon": 19.0535204}, {"type": "node", "id": 2543170905, "lat": 47.3921556, "lon": 18.9843295}, {"type": "node", "id": 2543170909, "lat": 47.3921901, "lon": 18.9844336}, {"type": "node", "id": 2543170911, "lat": 47.3922977, "lon": 18.9842424}, {"type": "node", "id": 2543170913, "lat": 47.3923277, "lon": 18.9843485}, {"type": "node", "id": 2550833380, "lat": 47.5625237, "lon": 19.0913639, "tags": {"addr:city": "Budapest", "addr:housenumber": "5", "addr:postcode": "1042", "addr:street": "Kir\u00e1ly utca", "amenity": "library", "name": "FSZEK Kir\u00e1ly", "opening_hours": "Mo-Tu 09:00-19:00; We 14:00-19:00; Th-Fr 09:00-19:00; Sa 09:00-14:00", "operator": "F\u0151v\u00e1rosi Szab\u00f3 Ervin K\u00f6nyvt\u00e1r", "operator:type": "public", "phone": "+36 1 369 4979", "website": "http://www.fszek.hu/konyvtaraink/kiraly_u__5_", "wheelchair": "yes"}}, {"type": "node", "id": 2561847213, "lat": 47.3789374, "lon": 18.918542}, {"type": "node", "id": 2561847215, "lat": 47.3787081, "lon": 18.9185936}, {"type": "node", "id": 2561847216, "lat": 47.3787252, "lon": 18.9187601}, {"type": "node", "id": 2561847217, "lat": 47.3789545, "lon": 18.9187085}, {"type": "node", "id": 2561847218, "lat": 47.3785909, "lon": 18.9188108}, {"type": "node", "id": 2561847219, "lat": 47.378698, "lon": 18.9187872}, {"type": "node", "id": 2561847220, "lat": 47.3786759, "lon": 18.9185684}, {"type": "node", "id": 2561847221, "lat": 47.3785688, "lon": 18.918592}, {"type": "node", "id": 2565898317, "lat": 47.5000337, "lon": 19.0300955}, {"type": "node", "id": 2565898332, "lat": 47.5001157, "lon": 19.0302452}, {"type": "node", "id": 2565898397, "lat": 47.5005846, "lon": 19.0293252}, {"type": "node", "id": 2565898410, "lat": 47.5006831, "lon": 19.0294779}, {"type": "node", "id": 2597300852, "lat": 47.4547953, "lon": 19.1245727, "tags": {"addr:city": "Budapest", "addr:housenumber": "9", "addr:postcode": "1192", "addr:street": "K\u00f3s K\u00e1roly t\u00e9r", "amenity": "library", "name": "Wekerlei K\u00f6nyvt\u00e1r", "opening_hours": "Mo 15:00-18:00; Tu 09:00-14:00; We 11:00-17:00; Th 09:00-14:00", "phone": "+36 1 282 9895", "wheelchair": "yes"}}, {"type": "node", "id": 2598780812, "lat": 47.4896221, "lon": 19.0648219}, {"type": "node", "id": 2598780815, "lat": 47.4896354, "lon": 19.0649201}, {"type": "node", "id": 2598780819, "lat": 47.489724, "lon": 19.0645089}, {"type": "node", "id": 2598780829, "lat": 47.4898509, "lon": 19.064853}, {"type": "node", "id": 2598780834, "lat": 47.489952, "lon": 19.0648182}, {"type": "node", "id": 2598780839, "lat": 47.4899701, "lon": 19.0644327}, {"type": "node", "id": 2598780841, "lat": 47.4899997, "lon": 19.0646478}, {"type": "node", "id": 2598780843, "lat": 47.4900064, "lon": 19.0646985}, {"type": "node", "id": 2600111673, "lat": 47.4896498, "lon": 19.0668967}, {"type": "node", "id": 2600111744, "lat": 47.4897167, "lon": 19.066882}, {"type": "node", "id": 2628339300, "lat": 47.5708445, "lon": 19.0560497}, {"type": "node", "id": 2628339301, "lat": 47.5708676, "lon": 19.0557723}, {"type": "node", "id": 2628339303, "lat": 47.5705047, "lon": 19.0557058}, {"type": "node", "id": 2634679006, "lat": 47.5143827, "lon": 19.0721144}, {"type": "node", "id": 2634679011, "lat": 47.5144118, "lon": 19.0721683}, {"type": "node", "id": 2634679015, "lat": 47.5144256, "lon": 19.072152}, {"type": "node", "id": 2634679025, "lat": 47.5144954, "lon": 19.0723253}, {"type": "node", "id": 2634679026, "lat": 47.5145013, "lon": 19.071974}, {"type": "node", "id": 2634679029, "lat": 47.5145099, "lon": 19.0723082}, {"type": "node", "id": 2634679030, "lat": 47.5145233, "lon": 19.072377}, {"type": "node", "id": 2634679035, "lat": 47.5145726, "lon": 19.0718896}, {"type": "node", "id": 2634679060, "lat": 47.514714, "lon": 19.0721514}, {"type": "node", "id": 2688334785, "lat": 47.4895857, "lon": 19.0645516}, {"type": "node", "id": 2688618073, "lat": 47.4897559, "lon": 19.0666936, "tags": {"entrance": "main"}}, {"type": "node", "id": 2789805671, "lat": 47.481172, "lon": 19.0665897, "tags": {"addr:city": "Budapest", "addr:housenumber": "2", "addr:postcode": "1093", "addr:street": "Bor\u00e1ros t\u00e9r", "amenity": "library", "check_date:opening_hours": "2022-05-02", "name": "F\u0151v. Szab\u00f3 Ervin IX./2. k\u00f6nyvt\u00e1r", "opening_hours": "Mo,We,Fr 13:00-19:00; Tu 09:00-16:00; Th 09:00-14:00", "operator": "F\u0151v\u00e1rosi Szab\u00f3 Ervin K\u00f6nyvt\u00e1r", "operator:type": "public", "website": "http://fszek.hu/konyvtaraink/boraros_ter_2_"}}, {"type": "node", "id": 2876703981, "lat": 47.3750395, "lon": 18.9223284}, {"type": "node", "id": 2876703983, "lat": 47.3750807, "lon": 18.9224335}, {"type": "node", "id": 2876703984, "lat": 47.37515, "lon": 18.9223743}, {"type": "node", "id": 2876703985, "lat": 47.375176, "lon": 18.9222117}, {"type": "node", "id": 2876703986, "lat": 47.3751936, "lon": 18.9224856}, {"type": "node", "id": 2876703987, "lat": 47.3752235, "lon": 18.92246}, {"type": "node", "id": 2876703989, "lat": 47.3752396, "lon": 18.922501}, {"type": "node", "id": 2876703991, "lat": 47.3752769, "lon": 18.9224691}, {"type": "node", "id": 2894522235, "lat": 47.591167, "lon": 18.9300332}, {"type": "node", "id": 2894522236, "lat": 47.5911377, "lon": 18.9303755}, {"type": "node", "id": 2894522237, "lat": 47.5908385, "lon": 18.9303194}, {"type": "node", "id": 2894522238, "lat": 47.5908486, "lon": 18.9302013}, {"type": "node", "id": 2894522239, "lat": 47.5910526, "lon": 18.9302396}, {"type": "node", "id": 2894522240, "lat": 47.5910622, "lon": 18.9301282}, {"type": "node", "id": 2894522241, "lat": 47.5906962, "lon": 18.9300595}, {"type": "node", "id": 2894522242, "lat": 47.5906793, "lon": 18.9302304}, {"type": "node", "id": 2894522243, "lat": 47.5906007, "lon": 18.9302157}, {"type": "node", "id": 2894522244, "lat": 47.590625, "lon": 18.9299314}, {"type": "node", "id": 2900802518, "lat": 47.5110848, "lon": 19.1423601}, {"type": "node", "id": 2900802519, "lat": 47.5111066, "lon": 19.1425649}, {"type": "node", "id": 2900802520, "lat": 47.5111468, "lon": 19.1425555}, {"type": "node", "id": 2900802521, "lat": 47.511155, "lon": 19.1426325}, {"type": "node", "id": 2900802522, "lat": 47.5112157, "lon": 19.1426695}, {"type": "node", "id": 2900802525, "lat": 47.5112337, "lon": 19.1423255}, {"type": "node", "id": 2900802526, "lat": 47.5112421, "lon": 19.1424037}, {"type": "node", "id": 2900802529, "lat": 47.5112787, "lon": 19.1423162}, {"type": "node", "id": 2900802530, "lat": 47.5112869, "lon": 19.1423932}, {"type": "node", "id": 2900802540, "lat": 47.5113432, "lon": 19.1423006}, {"type": "node", "id": 2900802543, "lat": 47.5113733, "lon": 19.1425836}, {"type": "node", "id": 2905548903, "lat": 47.5302581, "lon": 18.6567215, "tags": {"addr:city": "M\u00e1ny", "addr:housenumber": "2", "addr:postcode": "2065", "addr:street": "Mester sor", "amenity": "library", "name": "M\u00e1nyi K\u00f6zs\u00e9gi K\u00f6nyvt\u00e1r", "operator": "M\u00e1ny K\u00f6zs\u00e9g \u00d6nkorm\u00e1nyzata"}}, {"type": "node", "id": 2960184346, "lat": 47.4074472, "lon": 18.9505071}, {"type": "node", "id": 2960184347, "lat": 47.4073715, "lon": 18.9505841}, {"type": "node", "id": 2960184348, "lat": 47.4073133, "lon": 18.9504591}, {"type": "node", "id": 2960184349, "lat": 47.407389, "lon": 18.9503821}, {"type": "node", "id": 2964312943, "lat": 47.7534815, "lon": 19.0908339}, {"type": "node", "id": 2964312946, "lat": 47.7535311, "lon": 19.0907668}, {"type": "node", "id": 2964312948, "lat": 47.7535373, "lon": 19.0907583}, {"type": "node", "id": 2964312950, "lat": 47.7535815, "lon": 19.090997}, {"type": "node", "id": 2964312952, "lat": 47.7536372, "lon": 19.0909214}, {"type": "node", "id": 2967501442, "lat": 47.4900204, "lon": 19.0647997}, {"type": "node", "id": 3029278980, "lat": 47.4696739, "lon": 19.1467568}, {"type": "node", "id": 3029278981, "lat": 47.4697761, "lon": 19.146842}, {"type": "node", "id": 3029278984, "lat": 47.4695989, "lon": 19.1473451}, {"type": "node", "id": 3029278985, "lat": 47.4694857, "lon": 19.1472508}, {"type": "node", "id": 3133276230, "lat": 47.5166518, "lon": 19.1086605, "tags": {"addr:city": "Budapest", "addr:housenumber": "1/A", "addr:postcode": "1145", "addr:street": "Bosny\u00e1k utca", "amenity": "library", "name": "Bosny\u00e1k K\u00f6nyvt\u00e1r", "opening_hours": "Mo 14:00-19:00; Tu 09:00-14:00; We 14:00-19:00; Th 10:00-14:00; Fr 14:00-19:00", "operator": "F\u0151v\u00e1rosi Szab\u00f3 Ervin K\u00f6nyvt\u00e1r", "operator:type": "public", "wheelchair:description": "1. emeleten"}}, {"type": "node", "id": 3159246899, "lat": 47.5918464, "lon": 18.7604396, "tags": {"amenity": "library", "name": "K\u00f6nyvt\u00e1r"}}, {"type": "node", "id": 3200411992, "lat": 47.5416685, "lon": 19.142415, "tags": {"addr:city": "Budapest", "addr:housenumber": "28", "addr:postcode": "1157", "addr:street": "Zs\u00f3kav\u00e1r utca", "amenity": "library", "name": "Zs\u00f3kav\u00e1r utcai K\u00f6nyvt\u00e1r", "operator": "F\u0151v\u00e1rosi Szab\u00f3 Ervin K\u00f6nyvt\u00e1r", "operator:type": "public"}}, {"type": "node", "id": 3304883545, "lat": 47.5455249, "lon": 19.0817551, "tags": {"addr:city": "Budapest", "addr:housenumber": "40/a", "addr:postcode": "1131", "addr:street": "Mosoly utca", "amenity": "library", "name": "Angyalf\u00f6ldi Kertv\u00e1rosi K\u00f6nyvt\u00e1r", "official_name": "F\u0151v\u00e1rosi Szab\u00f3 Ervin K\u00f6nyvt\u00e1r XIII./6. sz\u00e1m\u00fa Angyalf\u00f6ldi Kertv\u00e1rosi K\u00f6nyvt\u00e1ra", "opening_hours": "Mo-Fr 14:00-19:00; Tu 11:00-16:00; Th 12:00-16:00", "operator": "F\u0151v\u00e1rosi Szab\u00f3 Ervin K\u00f6nyvt\u00e1r", "operator:type": "public", "phone": "+36 1 349 1532", "website": "http://www.fszek.hu/", "wheelchair": "yes"}}, {"type": "node", "id": 3385769493, "lat": 47.4780038, "lon": 19.0997743, "tags": {"addr:city": "Budapest", "addr:housenumber": "40", "addr:postcode": "1087", "addr:street": "K\u00f6nyves K\u00e1lm\u00e1n k\u00f6r\u00fat", "amenity": "library", "email": "olvasoszolgalat@opkm.hu", "facebook": "https://www.facebook.com/ofi.pedagogiai.konyvtar.es.muzeum", "name": "Orsz\u00e1gos Pedag\u00f3giai K\u00f6nyvt\u00e1r \u00e9s M\u00fazeum", "opening_hours": "Tu-Fr 10:00-19:00, Sa 10:00-14:00", "phone": "+36 1 323 5572", "website": "http://www.opkm.hu/"}}, {"type": "node", "id": 3398914628, "lat": 47.7160547, "lon": 19.0891853}, {"type": "node", "id": 3398914629, "lat": 47.7160569, "lon": 19.0895541}, {"type": "node", "id": 3398914630, "lat": 47.7159406, "lon": 19.0895556}, {"type": "node", "id": 3398914631, "lat": 47.7159385, "lon": 19.0891868}, {"type": "node", "id": 3409773478, "lat": 47.5716772, "lon": 19.0131329}, {"type": "node", "id": 3409774001, "lat": 47.5718321, "lon": 19.0134467}, {"type": "node", "id": 3409774037, "lat": 47.5720385, "lon": 19.0132228}, {"type": "node", "id": 3409774039, "lat": 47.5720493, "lon": 19.0132448}, {"type": "node", "id": 3409774069, "lat": 47.5721795, "lon": 19.0130699}, {"type": "node", "id": 3409774071, "lat": 47.5721903, "lon": 19.0130918}, {"type": "node", "id": 3409774076, "lat": 47.5722318, "lon": 19.0125315}, {"type": "node", "id": 3409774080, "lat": 47.5723867, "lon": 19.0128452}, {"type": "node", "id": 3448731782, "lat": 47.5074548, "lon": 19.0655468, "tags": {"addr:city": "Budapest", "addr:housenumber": "32", "addr:postcode": "1064", "addr:street": "V\u00f6r\u00f6smarty utca", "amenity": "library", "name": "Ernesto Sabato K\u00f6nyvt\u00e1r", "opening_hours": "Mo-Th 10:00-13:30,15:00-19:00;Fr 15:00-18:30;Sa 10:00-13:00", "phone": "+36 1 354 3674", "website": "http://budapest.cervantes.es/hu/konyvtar_spanyol/konyvtar_spanyol.htm", "wikidata": "Q85726755"}}, {"type": "node", "id": 3452472086, "lat": 47.4896287, "lon": 19.0648703, "tags": {"addr:city": "Budapest", "addr:housenumber": "2", "addr:postcode": "1088", "addr:street": "Reviczky utca"}}, {"type": "node", "id": 3478500299, "lat": 47.4626484, "lon": 19.1123993, "tags": {"addr:city": "Budapest", "addr:housenumber": "13", "addr:postcode": "1098", "addr:street": "B\u00f6rzs\u00f6ny utca", "air_conditioning": "no", "amenity": "library", "internet_access": "wlan", "internet_access:fee": "no", "name": "B\u00f6rzs\u00f6ny utcai K\u00f6nyvt\u00e1r", "opening_hours": "Mo 13:00-18:00; Tu 09:00-15:00; We 13:00-19:00; Fr 10:00-17:00; PH,Th,Sa,Su off", "operator": "Szab\u00f3 Ervin k\u00f6nyvt\u00e1r", "operator:type": "public"}}, {"type": "node", "id": 3481801609, "lat": 47.5088854, "lon": 19.0745591, "tags": {"addr:city": "Budapest", "addr:housenumber": "18", "addr:postcode": "1062", "addr:street": "Bajza utca", "amenity": "library", "name": "Magyar \u00cdr\u00f3sz\u00f6vets\u00e9g K\u00f6nyvt\u00e1ra", "opening_hours": "Mo 09:00-17:00;Tu 09:00-18:00;We 13:00-18:00;Th 09:00-18:00", "phone": "+36 1 342 8146", "website": "http://exlibris.ambientintelligence.hu/magyar_iroszovetseg_konyvtara.htm"}}, {"type": "node", "id": 3487749567, "lat": 47.5118017, "lon": 19.0308828, "tags": {"addr:city": "Budapest", "addr:housenumber": "5", "addr:postcode": "1024", "addr:street": "Keleti K\u00e1roly utca", "amenity": "library", "club": "board_games", "contact:phone": "Beiratkoz\u00e1s: +36 (1) 345-6110; K\u00f6lcs\u00f6nz\u00e9s: +36 (1) 345-6339", "email": "konyvtar@ksh.hu", "facebook": "https://www.facebook.com/kshkonyvtar", "name": "KSH K\u00f6nyvt\u00e1r", "official_name": "K\u00f6zponti Statisztikai Hivatal K\u00f6nyvt\u00e1r", "opening_hours": "Mo-Th 09:00-17:00; Fr 08:00-16:00", "operator": "K\u00f6zponti Statisztikai Hivatal", "phone": "+36 1 345 6036", "short_name": "KSH K\u00f6nyvt\u00e1r", "tourism": "gallery", "url": "http://konyvtar.ksh.hu/index.php?s=kapcsolat", "website": "http://konyvtar.ksh.hu/", "wikidata": "Q1125962", "wikipedia": "hu:K\u00f6zponti Statisztikai Hivatal K\u00f6nyvt\u00e1r"}}, {"type": "node", "id": 3488447732, "lat": 47.375909, "lon": 18.845484, "tags": {"amenity": "library", "name": "M\u0171vel\u0151d\u00e9si h\u00e1z \u00e9s k\u00f6nyvt\u00e1r", "source": "turistautak.hu", "source:date": "2011-06-29", "url": "http://turistautak.hu/poi.php?id=64311"}}, {"type": "node", "id": 3512115595, "lat": 47.5032037, "lon": 19.0638266, "tags": {"addr:city": "Budapest", "addr:housenumber": "6", "addr:postcode": "1061", "addr:street": "Liszt Ferenc t\u00e9r", "amenity": "library", "name": "Ter\u00e9zv\u00e1rosi Gyermekk\u00f6nyvt\u00e1r", "name:en": "Children's Library", "opening_hours": "Mo,We,Fr 14:00-19:00; Tu 10:00-16:00; Th 13:00-16:00", "operator": "Szab\u00f3 Ervin K\u00f6nyvt\u00e1r", "operator:type": "public", "phone": "+36 1 342 1948", "website": "http://www.fszek.hu/gyerekeknek/gyerekkonyvtarak__reszlegek/terezvarosi_gyermekkonyvtar"}}, {"type": "node", "id": 3514098924, "lat": 47.5242125, "lon": 19.1117465, "tags": {"amenity": "library", "name": "Magyarorsz\u00e1gi Ruszinok K\u00f6nyvt\u00e1ra", "opening_hours:signed": "no", "website": "http://www.rusyn.hu/hu/kulturalis-ertekeink-es-hagyomanyaink/koenyvtar"}}, {"type": "node", "id": 3535130937, "lat": 47.5193895, "lon": 19.1149261, "tags": {"addr:city": "Budapest", "addr:housenumber": "3", "addr:postcode": "1141", "addr:street": "R\u00f3zsav\u00f6lgyi k\u00f6z", "amenity": "library", "name": "Evang\u00e9likus Hittudom\u00e1nyi Egyetem K\u00f6nyvt\u00e1ra", "website": "https://teol.lutheran.hu/index.php/hu/rolunk1/szerv/konyvtar"}}, {"type": "node", "id": 3546934983, "lat": 47.4996544, "lon": 19.0682365, "tags": {"addr:city": "Budapest", "addr:housenumber": "15", "addr:postcode": "1073", "addr:street": "Kert\u00e9sz utca", "amenity": "library", "opening_hours": "Mo,We 14:00-19:00; Tu 10:00-16:00; Th 12:00-16:00; Fr 14:00-18:00", "operator": "Szab\u00f3 Ervin K\u00f6nyvt\u00e1r", "operator:type": "public", "phone": "+36 1 322 6656", "website": "http://www.fszek.hu/konyvtaraink/kertesz_u__15_"}}, {"type": "node", "id": 3548164107, "lat": 47.5010477, "lon": 19.0779769, "tags": {"addr:city": "Budapest", "addr:housenumber": "10", "addr:postcode": "1074", "addr:street": "Rottenbiller utca", "amenity": "library", "check_date:opening_hours": "2021-01-03", "name": "De\u00e1k Ferenc K\u00f6nyvt\u00e1r", "opening_hours": "Mo,We 13:00-19:00; Tu,Th 10:00-16:00; Fr 11:00-17:00", "operator": "Szab\u00f3 Ervin K\u00f6nyvt\u00e1r", "operator:type": "public", "phone": "+36 1 342 5362", "website": "http://www.fszek.hu/konyvtaraink/rottenbiller_u__10_"}}, {"type": "node", "id": 3548194755, "lat": 47.5205669, "lon": 19.0689069, "tags": {"addr:city": "Budapest", "addr:housenumber": "31", "addr:postcode": "1134", "addr:street": "Lehel utca", "amenity": "library", "opening_hours": "Mo,We,Th 14:00-19:00; Tu 10:00-15:00; Fr 11:00-15:00", "operator": "Szab\u00f3 Ervin K\u00f6nyvt\u00e1r", "operator:type": "public", "phone": "+36 1 320 8829", "website": "http://www.fszek.hu/konyvtaraink/lehel_u__31_"}}, {"type": "node", "id": 3561683483, "lat": 47.5481998, "lon": 18.7185853, "tags": {"amenity": "library", "name": "V\u00e1rosi k\u00f6nyvt\u00e1r"}}, {"type": "node", "id": 3642191388, "lat": 47.5017685, "lon": 18.7522038}, {"type": "node", "id": 3642191389, "lat": 47.501831, "lon": 18.7525637}, {"type": "node", "id": 3642191390, "lat": 47.5018786, "lon": 18.7521618}, {"type": "node", "id": 3642191391, "lat": 47.50191, "lon": 18.7523526}, {"type": "node", "id": 3642191694, "lat": 47.5019408, "lon": 18.7525219}, {"type": "node", "id": 3655196004, "lat": 47.5144277, "lon": 18.8238368}, {"type": "node", "id": 3655196005, "lat": 47.5143993, "lon": 18.8237596}, {"type": "node", "id": 3655196006, "lat": 47.5138007, "lon": 18.8242338}, {"type": "node", "id": 3655196007, "lat": 47.5138314, "lon": 18.8243173}, {"type": "node", "id": 3662162217, "lat": 47.5140197, "lon": 18.824037}, {"type": "node", "id": 3662162218, "lat": 47.5140255, "lon": 18.8240527}, {"type": "node", "id": 3662162221, "lat": 47.5141816, "lon": 18.8239066}, {"type": "node", "id": 3662162222, "lat": 47.5141896, "lon": 18.8239286}, {"type": "node", "id": 3812473392, "lat": 47.4902176, "lon": 19.053701, "tags": {"entrance": "main"}}, {"type": "node", "id": 3877232682, "lat": 47.4381776, "lon": 19.1001897}, {"type": "node", "id": 3877232693, "lat": 47.4382568, "lon": 19.1003319}, {"type": "node", "id": 3877232694, "lat": 47.4382694, "lon": 19.100247}, {"type": "node", "id": 3877232695, "lat": 47.4382919, "lon": 19.1002197}, {"type": "node", "id": 3877232696, "lat": 47.4382925, "lon": 19.1002884}, {"type": "node", "id": 3877232699, "lat": 47.4383169, "lon": 19.1004398}, {"type": "node", "id": 3877232700, "lat": 47.4383526, "lon": 19.1003963}, {"type": "node", "id": 3877232707, "lat": 47.4383733, "lon": 19.1004334}, {"type": "node", "id": 3877232708, "lat": 47.4383952, "lon": 19.1005803}, {"type": "node", "id": 3877232709, "lat": 47.4383954, "lon": 19.1000976}, {"type": "node", "id": 3877232710, "lat": 47.4383958, "lon": 19.1004061}, {"type": "node", "id": 3877232711, "lat": 47.4384009, "lon": 19.0999176}, {"type": "node", "id": 3877232712, "lat": 47.4384163, "lon": 19.100072}, {"type": "node", "id": 3877232717, "lat": 47.4384401, "lon": 19.1001148}, {"type": "node", "id": 3877232720, "lat": 47.4384822, "lon": 19.1000636}, {"type": "node", "id": 3877232723, "lat": 47.4384996, "lon": 19.1002216}, {"type": "node", "id": 3877232724, "lat": 47.4385007, "lon": 19.1002866}, {"type": "node", "id": 3877232729, "lat": 47.4385216, "lon": 19.1002611}, {"type": "node", "id": 3877232730, "lat": 47.4385417, "lon": 19.1001703}, {"type": "node", "id": 3877232737, "lat": 47.4386186, "lon": 19.1003083}, {"type": "node", "id": 3899945015, "lat": 47.4386014, "lon": 18.6427636}, {"type": "node", "id": 3899945016, "lat": 47.4385175, "lon": 18.6429072}, {"type": "node", "id": 3899945017, "lat": 47.4383207, "lon": 18.6426557}, {"type": "node", "id": 3899945018, "lat": 47.4384046, "lon": 18.6425122}, {"type": "node", "id": 4002908718, "lat": 47.4166237, "lon": 19.0671692, "tags": {"addr:city": "Budapest", "addr:housenumber": "4-8", "addr:postcode": "1214", "addr:street": "Simon Bolivar s\u00e9t\u00e1ny", "amenity": "library", "name": "Szab\u00f3 Magda K\u00f6z\u00f6ss\u00e9gi T\u00e9r K\u00f6nyvt\u00e1r - K\u00f6zm\u0171vel\u0151d\u00e9s", "operator": "Budapest XXI. Ker\u00fclet, Csepel \u00d6nkorm\u00e1nyzata"}}, {"type": "node", "id": 4009348869, "lat": 47.4010342, "lon": 19.0953591, "tags": {"addr:city": "Budapest", "addr:housenumber": "230", "addr:postcode": "1213", "addr:street": "Szent Istv\u00e1n \u00fat", "amenity": "library", "name": "Kir\u00e1lyerdei K\u00f6nyvt\u00e1r", "operator": "F\u0151v\u00e1rosi Szab\u00f3 Ervin K\u00f6nyvt\u00e1r", "operator:type": "public", "phone": "+36 1 277 5278", "website": "http://www.fszek.hu/konyvtaraink/szent_istvan_ut_230_"}}, {"type": "node", "id": 4009348870, "lat": 47.4122909, "lon": 19.0626176, "tags": {"addr:city": "Budapest", "addr:housenumber": "2", "addr:postcode": "1214", "addr:street": "V\u00e9nusz utca", "amenity": "library", "name": "Csillagtelepi K\u00f6nyvt\u00e1r", "operator": "F\u0151v\u00e1rosi Szab\u00f3 Ervin K\u00f6nyvt\u00e1r", "operator:type": "public", "phone": "+36 1 276 8953", "website": "http://www.fszek.hu/konyvtaraink/venusz_u__2_"}}, {"type": "node", "id": 4024527099, "lat": 47.5019266, "lon": 18.7524456}, {"type": "node", "id": 4142995391, "lat": 47.4926261, "lon": 18.6320935}, {"type": "node", "id": 4142995392, "lat": 47.492794, "lon": 18.6323702}, {"type": "node", "id": 4142995393, "lat": 47.4928029, "lon": 18.6321072}, {"type": "node", "id": 4142995394, "lat": 47.4928851, "lon": 18.6319979}, {"type": "node", "id": 4142995395, "lat": 47.4928015, "lon": 18.6318603}, {"type": "node", "id": 4163647960, "lat": 47.6844199, "lon": 18.6010981}, {"type": "node", "id": 4163647961, "lat": 47.6843764, "lon": 18.6010703}, {"type": "node", "id": 4163647962, "lat": 47.6843204, "lon": 18.6012521}, {"type": "node", "id": 4163647963, "lat": 47.684366, "lon": 18.6013291}, {"type": "node", "id": 4238445019, "lat": 47.7129974, "lon": 18.7940073, "tags": {"amenity": "library", "contact:email": "konyvtar@kesztolc.hu", "contact:phone": "+36 33 555 587", "note": "Minden h\u00f3nap m\u00e1sodik keddj\u00e9n 21:00-ig nyitva", "opening_hours": "Mo 16:00-18:00; Tu 09:00-14:00,15:00-18:00; We-Fr 08:00-12:00,15:00-18:00; Sa 12:00-18:00; Su 08:30-09:30; PH off"}}, {"type": "node", "id": 4278563296, "lat": 47.518649, "lon": 18.612591, "tags": {"amenity": "library", "name": "V\u00f6r\u00f6smarty Mih\u00e1ly K\u00f6nyvt\u00e1r"}}, {"type": "node", "id": 4353989794, "lat": 47.5336531, "lon": 19.1220853, "tags": {"addr:city": "Budapest", "addr:housenumber": "45", "addr:postcode": "1158", "addr:street": "Sz\u0171cs Istv\u00e1n utca", "amenity": "library", "operator": "F\u0151v\u00e1rosi Szab\u00f3 Ervin K\u00f6nyvt\u00e1r", "operator:type": "public"}}, {"type": "node", "id": 4394809553, "lat": 47.47137, "lon": 19.0184095, "tags": {"amenity": "library"}}, {"type": "node", "id": 4407759800, "lat": 47.3632616, "lon": 18.6789612}, {"type": "node", "id": 4407765892, "lat": 47.3632083, "lon": 18.6788495}, {"type": "node", "id": 4407778797, "lat": 47.3630579, "lon": 18.679006}, {"type": "node", "id": 4407797289, "lat": 47.3631112, "lon": 18.6791176}, {"type": "node", "id": 4417928628, "lat": 47.5710528, "lon": 19.0558065}, {"type": "node", "id": 4417928629, "lat": 47.5710302, "lon": 19.0560841}, {"type": "node", "id": 4417928639, "lat": 47.5704806, "lon": 19.0559831}, {"type": "node", "id": 4417928640, "lat": 47.5710361, "lon": 19.0560043, "tags": {"access": "destination", "barrier": "gate"}}, {"type": "node", "id": 4572174198, "lat": 47.4655917, "lon": 19.0037926, "tags": {"addr:city": "Budapest", "addr:housenumber": "1", "addr:postcode": "1118", "addr:street": "Nagyszeben t\u00e9r", "amenity": "library", "name": "M\u00f3ricz Zsigmond K\u00f6nyvt\u00e1r", "opening_hours": "Mo-Fr 13:00-19:00; Tu,Th 10:00-16:00", "operator": "F\u0151v\u00e1rosi Szab\u00f3 Ervin K\u00f6nyvt\u00e1r", "operator:type": "public", "payment:debit_cards": "yes", "phone": "+36 1 248 1207", "survey:date": "2016-12-23", "website": "http://www.fszek.hu/konyvtaraink/nagyszeben_ter_1_"}}, {"type": "node", "id": 4700376177, "lat": 47.4809314, "lon": 19.0545385, "tags": {"amenity": "library", "name": "Orsz\u00e1gos M\u0171szaki Inform\u00e1ci\u00f3s K\u00f6zpont \u00e9s K\u00f6nyvt\u00e1r", "name:de": "Nationales Informationszentrum und Bibliothek f\u00fcr Technik", "name:en": "National Technical Information Centre and Library", "official_name": "Budapesti M\u0171szaki \u00e9s Gazdas\u00e1gtudom\u00e1nyi Egyetem, Orsz\u00e1gos M\u0171szaki Inform\u00e1ci\u00f3s K\u00f6zpont \u00e9s K\u00f6nyvt\u00e1r", "opening_hours": "Mo-Fr 09:00-20:00", "phone": "+36 1 463 3534", "short_name": "BME OMIKK", "website": "https://www.omikk.bme.hu/", "wheelchair": "yes"}}, {"type": "node", "id": 4728983588, "lat": 47.5849754, "lon": 19.050888}, {"type": "node", "id": 4728983591, "lat": 47.5849824, "lon": 19.0507971}, {"type": "node", "id": 4728983592, "lat": 47.584957, "lon": 19.0511705}, {"type": "node", "id": 4728983593, "lat": 47.5850473, "lon": 19.0511834}, {"type": "node", "id": 4728983594, "lat": 47.5850717, "lon": 19.0508072}, {"type": "node", "id": 4837486924, "lat": 47.7228987, "lon": 18.9886067, "tags": {"addr:city": "Pilisszentl\u00e1szl\u00f3", "addr:housenumber": "1", "addr:postcode": "2009", "addr:street": "Szabads\u00e1g t\u00e9r", "amenity": "library", "name": "K\u00f6zs\u00e9gi K\u00f6nyvt\u00e1r"}}, {"type": "node", "id": 4859932549, "lat": 47.5258117, "lon": 18.984861}, {"type": "node", "id": 4859932550, "lat": 47.525963, "lon": 18.9846598}, {"type": "node", "id": 4859932551, "lat": 47.5260635, "lon": 18.9848256}, {"type": "node", "id": 4859932552, "lat": 47.5259123, "lon": 18.9850268}, {"type": "node", "id": 5000308503, "lat": 47.4989697, "lon": 19.0643648, "tags": {"addr:city": "Budapest", "addr:housenumber": "5", "addr:postcode": "1072", "addr:street": "Klauz\u00e1l t\u00e9r", "amenity": "library", "name": "BGE KVIK Idegenforgalmi Szakk\u00f6nyvt\u00e1r", "wheelchair": "no"}}, {"type": "node", "id": 5049527153, "lat": 47.4586165, "lon": 18.9586057}, {"type": "node", "id": 5049527154, "lat": 47.4586391, "lon": 18.9585816}, {"type": "node", "id": 5049527155, "lat": 47.4586037, "lon": 18.9584046}, {"type": "node", "id": 5049527156, "lat": 47.4585358, "lon": 18.9582811}, {"type": "node", "id": 5219524836, "lat": 47.6453468, "lon": 19.0250762, "tags": {"amenity": "library"}}, {"type": "node", "id": 5268841938, "lat": 47.7180353, "lon": 18.7314163}, {"type": "node", "id": 5268841939, "lat": 47.7181848, "lon": 18.731626}, {"type": "node", "id": 5268841940, "lat": 47.7181193, "lon": 18.7317292}, {"type": "node", "id": 5268841941, "lat": 47.718079, "lon": 18.7316728}, {"type": "node", "id": 5268841942, "lat": 47.7180132, "lon": 18.7317766}, {"type": "node", "id": 5268841943, "lat": 47.7180401, "lon": 18.7318143}, {"type": "node", "id": 5268841944, "lat": 47.717992, "lon": 18.7318901}, {"type": "node", "id": 5268841945, "lat": 47.71785, "lon": 18.731691}, {"type": "node", "id": 5268841946, "lat": 47.7179084, "lon": 18.7315991}, {"type": "node", "id": 5268841947, "lat": 47.7179476, "lon": 18.7316541}, {"type": "node", "id": 5268841948, "lat": 47.7180029, "lon": 18.731567}, {"type": "node", "id": 5268841949, "lat": 47.7179694, "lon": 18.73152}, {"type": "node", "id": 5275979808, "lat": 47.4696658, "lon": 19.1471316}, {"type": "node", "id": 5281715143, "lat": 47.4293902, "lon": 18.9129219}, {"type": "node", "id": 5281715144, "lat": 47.4293162, "lon": 18.9130405}, {"type": "node", "id": 5281715145, "lat": 47.4292286, "lon": 18.912925}, {"type": "node", "id": 5281715146, "lat": 47.4293016, "lon": 18.9128018}, {"type": "node", "id": 5281715147, "lat": 47.4293464, "lon": 18.9128649}, {"type": "node", "id": 5281715148, "lat": 47.4293725, "lon": 18.9128973}, {"type": "node", "id": 5500591921, "lat": 47.4125152, "lon": 18.8816424, "tags": {"amenity": "library", "name": "Parkv\u00e1rosi K\u00f6nyvt\u00e1r", "operator": "Csuka Zolt\u00e1n V\u00e1rosi K\u00f6nyvt\u00e1r"}}, {"type": "node", "id": 5658557707, "lat": 47.4850363, "lon": 19.0610642, "tags": {"addr:city": "Budapest", "addr:housenumber": "4-6", "addr:postcode": "1093", "addr:street": "K\u00f6zrakt\u00e1r utca", "amenity": "library", "name": "BCE Egyetemi K\u00f6nyvt\u00e1r", "name:en": "CUB University Library", "operator": "Budapesti Corvinus Egyetem", "website": "http://www.lib.uni-corvinus.hu/"}}, {"type": "node", "id": 5679952285, "lat": 47.6201993, "lon": 18.9080809, "tags": {"amenity": "library"}}, {"type": "node", "id": 5810503758, "lat": 47.4955952, "lon": 19.0344428, "tags": {"addr:city": "Budapest", "addr:housenumber": "87-89", "addr:postcode": "1016", "addr:street": "Krisztina k\u00f6r\u00fat", "amenity": "library", "name": "M\u00e1rai S\u00e1ndor K\u00f6nyvt\u00e1r", "opening_hours": "Mo 13:00-19:00; Tu 10:00-16:00; We 13:00-19:00; Th 10:00-16:00; Fr 13:00-19:00", "operator": "F\u0151v\u00e1rosi Szab\u00f3 Ervin K\u00f6nyvt\u00e1r", "operator:type": "public", "phone": "+36 1 356 4694", "wheelchair": "no"}}, {"type": "node", "id": 6342046809, "lat": 47.6698109, "lon": 19.0752383, "tags": {"amenity": "library", "name": "Pest Megyei K\u00f6nyvt\u00e1r", "opening_hours": "Mo,Tu,Th,Fr 09:00-19:00; Sa 09:00-13:00"}}, {"type": "node", "id": 6358914558, "lat": 47.5326202, "lon": 19.0706077}, {"type": "node", "id": 6358914559, "lat": 47.5327891, "lon": 19.0706155}, {"type": "node", "id": 6358914560, "lat": 47.532704, "lon": 19.0706443, "tags": {"access": "yes", "entrance": "main", "wheelchair": "yes"}}, {"type": "node", "id": 6499552537, "lat": 47.4657448, "lon": 18.8084409, "tags": {"addr:city": "Biatorb\u00e1gy", "addr:housenumber": "3", "addr:postcode": "2051", "addr:street": "Szabads\u00e1g \u00fat", "addr:suburb": "Bia", "amenity": "library", "contact:facebook": "https://www.facebook.com/karikojanoskonyvtar/", "contact:instagram": "http://instagram.com/karikojanoskonyvtar", "contact:phone": "+36 23 310 636", "contact:website": "https://3konyvtar.hu/", "internet_access:fee": "yes", "name": "Karik\u00f3 J\u00e1nos K\u00f6nyvt\u00e1r", "opening_hours": "Mo-Fr 10:00-22:00; Sa 08:00-14:00"}}, {"type": "node", "id": 6689564064, "lat": 47.5146417, "lon": 19.0720175, "tags": {"addr:city": "Budapest", "addr:country": "HU", "addr:housenumber": "77", "addr:postcode": "1068", "addr:street": "Szondi utca", "entrance": "main", "wheelchair": "no"}}, {"type": "node", "id": 6797164974, "lat": 47.5113643, "lon": 19.1425001}, {"type": "node", "id": 6798081906, "lat": 47.485749, "lon": 19.1335589, "tags": {"addr:city": "Budapest", "addr:housenumber": "7-14", "addr:postcode": "1105", "addr:street": "Szent L\u00e1szl\u00f3 t\u00e9r", "amenity": "library", "name": "K\u0151b\u00e1nyai K\u00f6nyvt\u00e1r", "operator": "F\u0151v\u00e1rosi Szab\u00f3 Ervin K\u00f6nyvt\u00e1r", "operator:type": "public"}}, {"type": "node", "id": 6800527179, "lat": 47.5157635, "lon": 19.0368044, "tags": {"addr:city": "Budapest", "addr:housenumber": "7-9", "addr:postcode": "1023", "addr:street": "T\u00f6r\u00f6k utca", "amenity": "library", "contact:email": "fszek0204@fszek.hu", "contact:fax": "+36 1 212 1103", "contact:phone": "+36 1 212 1103", "name": "K\u00f6nyvt\u00e1r", "opening_hours": "Mo-Fr 11:00-19:00; Tu,Th 10:00-16:00; Sa 10:00-14:00", "operator": "F\u0151v\u00e1rosi Szab\u00f3 Ervin K\u00f6nyvt\u00e1r", "operator:type": "public", "website": "http://fszek.hu/konyvtaraink/torok_utca_7-9_"}}, {"type": "node", "id": 6800527180, "lat": 47.5413214, "lon": 19.0446183, "tags": {"addr:city": "Budapest", "addr:housenumber": "5", "addr:postcode": "1033", "addr:street": "F\u0151 t\u00e9r", "amenity": "library", "name": "Kr\u00fady Gyula K\u00f6nyvt\u00e1r", "operator": "F\u0151v\u00e1rosi Szab\u00f3 Ervin K\u00f6nyvt\u00e1r", "operator:type": "public"}}, {"type": "node", "id": 6800527181, "lat": 47.5802461, "lon": 19.1141914, "tags": {"addr:city": "Budapest", "addr:housenumber": "5a", "addr:postcode": "1048", "addr:street": "L\u00f3verseny t\u00e9r", "amenity": "library", "name": "Babits Mih\u00e1ly K\u00f6nyvt\u00e1r", "operator": "F\u0151v\u00e1rosi Szab\u00f3 Ervin K\u00f6nyvt\u00e1r", "operator:type": "public"}}, {"type": "node", "id": 6800527182, "lat": 47.4883299, "lon": 19.0874797, "tags": {"addr:city": "Budapest", "addr:housenumber": "12", "addr:postcode": "1089", "addr:street": "K\u00e1lv\u00e1ria t\u00e9r", "amenity": "library", "name": "K\u00e1lv\u00e1ria t\u00e9ri K\u00f6nyvt\u00e1r", "operator": "F\u0151v\u00e1rosi Szab\u00f3 Ervin K\u00f6nyvt\u00e1r", "operator:type": "public"}}, {"type": "node", "id": 6800527183, "lat": 47.5224069, "lon": 19.0971581, "tags": {"addr:city": "Budapest", "addr:housenumber": "57", "addr:postcode": "1145", "addr:street": "Uzsoki utca", "amenity": "library", "name": "Kass\u00e1k K\u00f6nyvt\u00e1r", "operator": "F\u0151v\u00e1rosi Szab\u00f3 Ervin K\u00f6nyvt\u00e1r", "operator:type": "public"}}, {"type": "node", "id": 7022728035, "lat": 47.4928873, "lon": 18.6322462}, {"type": "node", "id": 7072162581, "lat": 47.5003703, "lon": 19.0211226, "tags": {"amenity": "library", "name": "Orvosi K\u00f6nyvt\u00e1r", "operator": "Orsz\u00e1gos Onkol\u00f3giai Int\u00e9zet"}}, {"type": "node", "id": 7074643515, "lat": 47.5616427, "lon": 19.1156922}, {"type": "node", "id": 7074643516, "lat": 47.5616567, "lon": 19.1156237}, {"type": "node", "id": 7074643517, "lat": 47.5615233, "lon": 19.1156385}, {"type": "node", "id": 7074643518, "lat": 47.5617011, "lon": 19.1156437}, {"type": "node", "id": 7074643520, "lat": 47.5615664, "lon": 19.115428}, {"type": "node", "id": 7074643521, "lat": 47.5616783, "lon": 19.1157548}, {"type": "node", "id": 7074643522, "lat": 47.5616784, "lon": 19.1157549}, {"type": "node", "id": 7074643525, "lat": 47.5617308, "lon": 19.1157784}, {"type": "node", "id": 7074643531, "lat": 47.56175, "lon": 19.1156864}, {"type": "node", "id": 7074643537, "lat": 47.5617764, "lon": 19.1155584}, {"type": "node", "id": 7091895430, "lat": 47.4585648, "lon": 18.9584085}, {"type": "node", "id": 7128162703, "lat": 47.502812, "lon": 19.0297848, "tags": {"addr:city": "Budapest", "addr:country": "HU", "addr:housenumber": "49", "addr:postcode": "1014", "addr:street": "\u00dari utca", "amenity": "library", "description": "K\u00f6nyvt\u00e1r a templom f\u00f6ldszintj\u00e9n, \u00e9s a Klarissza kolostor \u00e9p\u00fclet emelet\u00e9n.", "name": "MTA K\u00f6nyvt\u00e1r", "operator": "MTA T\u00e1rsadalomtudom\u00e1nyi Kutat\u00f3k\u00f6zpont"}}, {"type": "node", "id": 7128162704, "lat": 47.5037089, "lon": 19.029699, "tags": {"amenity": "library", "description": "K\u00f6nyvt\u00e1r a tet\u0151t\u00e9rben", "name": "MTA K\u00f6nyvt\u00e1r \u00e9s olvas\u00f3terem", "operator": "MTA T\u00e1rsadalomtudom\u00e1nyi Kutat\u00f3k\u00f6zpont"}}, {"type": "node", "id": 7159497348, "lat": 47.6928194, "lon": 18.8991184, "tags": {"addr:city": "Pilisszentkereszt", "addr:housenumber": "7/F", "addr:postcode": "2098", "addr:street": "Forr\u00e1s utca", "amenity": "library", "name": "K\u00f6z\u00f6ss\u00e9gi H\u00e1z \u00e9s K\u00f6nyvt\u00e1r"}}, {"type": "node", "id": 7508680578, "lat": 47.6305006, "lon": 19.1392945}, {"type": "node", "id": 7508680579, "lat": 47.6304134, "lon": 19.1392602}, {"type": "node", "id": 7508680580, "lat": 47.6303772, "lon": 19.1394626}, {"type": "node", "id": 7508680581, "lat": 47.630222, "lon": 19.1394015}, {"type": "node", "id": 7508680582, "lat": 47.6302427, "lon": 19.1392858}, {"type": "node", "id": 7508680583, "lat": 47.6303142, "lon": 19.139314}, {"type": "node", "id": 7508680584, "lat": 47.6303543, "lon": 19.1390898}, {"type": "node", "id": 7508696285, "lat": 47.6302729, "lon": 19.1390577}, {"type": "node", "id": 7508696286, "lat": 47.6302878, "lon": 19.1389748}, {"type": "node", "id": 7519527590, "lat": 47.5617832, "lon": 19.1155255}, {"type": "node", "id": 8143520668, "lat": 47.511275, "lon": 19.1426586, "tags": {"entrance": "yes"}}, {"type": "node", "id": 8144914854, "lat": 47.5111311, "lon": 19.1425592, "tags": {"entrance": "yes"}}, {"type": "node", "id": 8296331198, "lat": 47.4927739, "lon": 19.0523849, "tags": {"addr:city": "Budapest", "addr:housenumber": "2", "addr:postcode": "1052", "addr:street": "Piarista k\u00f6z", "amenity": "library", "image": "http://pkk.piarista.hu/sites/pkk.piarista.hu/files/styles/colorbox_nagy/public/field/beillesztett_kepek/2016/muzealis_terem_4.jpg?itok=J8ymFt5j", "name": "Piarista Rend Magyar Tartom\u00e1nya K\u00f6zponti K\u00f6nyvt\u00e1ra"}}, {"type": "node", "id": 8485470788, "lat": 47.5113273, "lon": 19.1426339}, {"type": "node", "id": 8494441408, "lat": 47.5113226, "lon": 19.1425947}, {"type": "node", "id": 8494441409, "lat": 47.511212, "lon": 19.1426221}, {"type": "node", "id": 8494441411, "lat": 47.5111747, "lon": 19.1426289}, {"type": "node", "id": 8494441412, "lat": 47.5112376, "lon": 19.1426655}, {"type": "node", "id": 8494441413, "lat": 47.5113288, "lon": 19.1426487}, {"type": "node", "id": 8622895383, "lat": 47.590694, "lon": 18.9300854}, {"type": "node", "id": 8622895384, "lat": 47.5907297, "lon": 18.9300921}, {"type": "node", "id": 8622895385, "lat": 47.5907203, "lon": 18.9302022}, {"type": "node", "id": 8622895386, "lat": 47.5906823, "lon": 18.9301951}, {"type": "node", "id": 8741352902, "lat": 47.5980617, "lon": 19.0518761, "tags": {"amenity": "library", "name": "Csob\u00e1nka t\u00e9ri k\u00f6nyvmeg\u00e1ll\u00f3", "opening_hours": "24/7", "phone": "+36 1 439-0936", "website": "facebook.com/obudai.konyvmegallok"}}, {"type": "node", "id": 8861024565, "lat": 47.4894505, "lon": 19.0648989, "tags": {"addr:city": "Budapest", "addr:housenumber": "1", "addr:postcode": "1088", "addr:street": "Szab\u00f3 Ervin t\u00e9r", "amenity": "library", "check_date:opening_hours": "2022-10-08", "email": "info@fszek.hu", "facebook": "https://www.facebook.com/kozpontikonyvtar", "fee": "yes", "name": "Szab\u00f3 Ervin K\u00f6nyvt\u00e1r", "official_name": "F\u0151v\u00e1rosi Szab\u00f3 Ervin K\u00f6nyvt\u00e1r K\u00f6zponti K\u00f6nyvt\u00e1ra", "opening_hours": "Mo-Fr 10:00-20:00; Sa 10:00-16:00", "phone": "+36 1 411 5000", "website": "http://www.fszek.hu/konyvtaraink/kozponti_konyvtar", "wheelchair": "yes", "wikidata": "Q620968", "wikipedia": "hu:F\u0151v\u00e1rosi Szab\u00f3 Ervin K\u00f6nyvt\u00e1r"}}, {"type": "node", "id": 9150596209, "lat": 47.4696186, "lon": 19.1469018, "tags": {"entrance": "main"}}, {"type": "node", "id": 9150596211, "lat": 47.4697698, "lon": 19.1468367, "tags": {"man_made": "surveillance"}}, {"type": "node", "id": 9150596212, "lat": 47.4697721, "lon": 19.1468527, "tags": {"man_made": "surveillance"}}, {"type": "node", "id": 9150596213, "lat": 47.4696695, "lon": 19.1467683, "tags": {"man_made": "surveillance"}}, {"type": "node", "id": 9150596214, "lat": 47.4694961, "lon": 19.1472235, "tags": {"man_made": "surveillance"}}, {"type": "node", "id": 9150596215, "lat": 47.4695133, "lon": 19.1472738, "tags": {"man_made": "surveillance"}}, {"type": "node", "id": 9196603892, "lat": 47.4697439, "lon": 19.1471968}, {"type": "node", "id": 9484726609, "lat": 47.5095458, "lon": 19.0476346, "tags": {"amenity": "library", "name": "Magyar Sakksz\u00f6vets\u00e9g T\u00f3th L\u00e1szl\u00f3 K\u00f6nyvt\u00e1ra"}}, {"type": "node", "id": 9856197856, "lat": 47.4258579, "lon": 18.6022759, "tags": {"addr:city": "Alcs\u00fatdoboz", "addr:housenumber": "105", "addr:postcode": "8087", "addr:street": "Szabads\u00e1g utca", "amenity": "library", "name": "K\u00f6nyvt\u00e1r Alcs\u00fatdoboz"}}, {"type": "node", "id": 9881642618, "lat": 47.5909145, "lon": 18.9303336}, {"type": "node", "id": 9881642621, "lat": 47.590883, "lon": 18.9303277}, {"type": "node", "id": 9881991556, "lat": 47.6838351, "lon": 19.1341576, "tags": {"amenity": "library", "contact:website": "http://www.godikonyvtar.hu/", "fixme": "resurvey exact position, based on wifi", "internet_access:ssid": "God Varosi Konyvtar", "name": "G\u00f6di V\u00e1rosi K\u00f6nyvt\u00e1r"}}, {"type": "node", "id": 10008135938, "lat": 47.627522, "lon": 18.8431552}, {"type": "node", "id": 10008135939, "lat": 47.627778, "lon": 18.8433943}, {"type": "node", "id": 10008135940, "lat": 47.6271885, "lon": 18.8447839}, {"type": "node", "id": 10008135941, "lat": 47.6269323, "lon": 18.8445446}, {"type": "node", "id": 10009102221, "lat": 47.5035525, "lon": 19.0650854, "tags": {"addr:city": "Budapest", "addr:housenumber": "2-4", "addr:postcode": "1066", "addr:street": "Ter\u00e9z k\u00f6r\u00fat", "air_conditioning": "yes", "amenity": "library", "contact:email": "fszek0601@fszek.hu", "contact:phone": "+36 322 6656", "contact:website": "https://fszek.hu/", "internet_access": "yes", "internet_access:fee": "no", "internet_access:ssid": "FSzEK", "name": "K\u00f6r\u00fati K\u00f6nyvt\u00e1r", "name:en": "Boulevard Library", "opening_hours": "Mo-Fr 09:00-19:00; Sa 10:00-15:00", "operator": "F\u0151v\u00e1rosi Szab\u00f3 Ervin K\u00f6nyvt\u00e1r", "wheelchair": "yes"}}, {"type": "node", "id": 10258574876, "lat": 47.4696108, "lon": 19.1473137}, {"type": "node", "id": 10258574877, "lat": 47.469678, "lon": 19.1473697}, {"type": "way", "id": 24324326, "nodes": [263770742, 263770748, 263770752, 263770706, 263770709, 263770755, 263550928, 263770697, 263770701, 263770703, 263770714, 263770718, 263770723, 263770728, 263770730, 263770733, 263770737, 263770742], "tags": {"addr:city": "Budapest", "addr:housenumber": "6", "addr:postcode": "1053", "addr:street": "Ferenciek tere", "amenity": "library", "building": "apartments", "building:levels": "3", "name": "ELTE Egyetemi K\u00f6nyvt\u00e1r", "name:de": "ELTE Universit\u00e4tsbibliothek", "name:en": "ELTE University Library", "opening_hours": "Mo-Fr 10:00-20:00", "operator": "E\u00f6tv\u00f6s Lor\u00e1nd Tudom\u00e1nyegyetem", "phone": "+36 1 411 6500", "toilets:wheelchair": "no", "website": "https://www.konyvtar.elte.hu/", "wheelchair": "no", "wheelchair:description": "Bej\u00e1rat nem akad\u00e1lymentes. Akad\u00e1lymentes mosd\u00f3 nincs. Lift k\u00e9sz\u00fcl a 2017-es \u00e9vben.", "wikidata": "Q772557", "wikipedia": "hu:Egyetemi K\u00f6nyvt\u00e1r (E\u00f6tv\u00f6s Lor\u00e1nd Tudom\u00e1nyegyetem)"}}, {"type": "way", "id": 114465300, "nodes": [1296654048, 1296654062, 1296654021, 1296654001, 1296654076, 1296654052, 1296653993, 1421616115, 1421616008, 1296654079, 1296654043, 6358914559, 1296654016, 6358914560, 1296654090, 6358914558, 1296654048], "tags": {"addr:city": "Budapest", "addr:housenumber": "3-5", "addr:postcode": "1139", "addr:street": "Teve utca", "building": "public", "building:levels": "8", "height": "24", "name": "Budapest F\u0151v\u00e1ros Lev\u00e9lt\u00e1ra", "office": "government", "opening_hours": "Mo,We 09:00-16:00; Tu,Th 10:00-19:00"}}, {"type": "way", "id": 124696509, "nodes": [1387103667, 1387103644, 1387103603, 1387103702, 1387103667], "tags": {"addr:city": "Budapest", "addr:housenumber": "9", "addr:postcode": "1138", "addr:street": "Dag\u00e1ly utca", "amenity": "library", "building": "public", "operator": "F\u0151v\u00e1rosi Szab\u00f3 Ervin K\u00f6nyvt\u00e1r", "operator:type": "public"}}, {"type": "way", "id": 128695050, "nodes": [1421616012, 1421616036, 1421615988, 1421616095, 1421616012]}, {"type": "way", "id": 166010265, "nodes": [1775002993, 1775002979, 1775002981, 1775002969, 1775002995, 1775002983, 1775002971, 1775002989, 1775002987, 1775002985, 1775002973, 1775002977, 1775002975, 1775002991, 1775002997, 1775003002, 1775002993], "tags": {"amenity": "library", "building": "yes", "building:levels": "2", "name": "Egyetemi K\u00f6nyvt\u00e1r \u00e9s tanulm\u00e1nyi \u00e9p\u00fclet", "roof:levels": "1"}}, {"type": "way", "id": 166967805, "nodes": [1783569917, 1783569922, 1783569905, 1783569925, 3812473392, 1783569917]}, {"type": "way", "id": 184042447, "nodes": [1944736722, 1944736721, 1944736720, 2319758028, 1944736725, 1944736722], "tags": {"addr:city": "Budapest", "addr:housenumber": "106", "addr:postcode": "1211", "addr:street": "II. R\u00e1k\u00f3czi Ferenc \u00fat", "amenity": "library", "building": "yes", "name": "S\u00e9t\u00e1l\u00f3 Utcai K\u00f6nyvt\u00e1r", "operator": "F\u0151v\u00e1rosi Szab\u00f3 Ervin K\u00f6nyvt\u00e1r", "operator:type": "public", "phone": "+36 1 276 3512", "website": "http://www.fszek.hu/konyvtaraink/ii__rakoczi_f__ut_106_"}}, {"type": "way", "id": 186014585, "nodes": [1967127044, 1967127043, 1967127058, 1967127059, 1967127048, 1967127047, 1967127066, 1967127067, 1967127044], "tags": {"addr:city": "Nagykov\u00e1csi", "addr:country": "HU", "addr:housenumber": "78", "addr:postcode": "2094", "addr:street": "Kossuth Lajos utca", "amenity": "library", "building": "yes", "email": "kozossegihaz@nagykovacsi.hu", "internet_access": "yes", "internet_access:fee": "customers", "name": "\u00d6regiskola K\u00f6z\u00f6ss\u00e9gi H\u00e1z \u00e9s K\u00f6nyvt\u00e1r", "operator": "Nagykov\u00e1csi \u00d6nkorm\u00e1nyzat", "operator:type": "government_facility-public", "phone": "0626356362", "website": "www.oregiskola.hu"}}, {"type": "way", "id": 194748047, "nodes": [2052560999, 2052561001, 2052560997, 5049527156, 7091895430, 5049527155, 5049527154, 5049527153, 2052561000, 2052560999], "tags": {"addr:city": "Buda\u00f6rs", "addr:housenumber": "20", "addr:postcode": "2040", "addr:street": "K\u00e1roly kir\u00e1ly utca", "amenity": "library", "building": "yes", "contact:email": "info@budaorskonyvtar.hu", "contact:phone": "+36 23 415-405", "contact:website": "http://www.budaorskonyvtar.hu", "name": "V\u00e1rosi k\u00f6nyvt\u00e1r", "opening_hours": "Mo-Th 10:00-18:30; Fr 10:00-16:00; Sa 09:00-13:00", "opening_hours:covid19": "off"}}, {"type": "way", "id": 201175243, "nodes": [2111258980, 2688618073, 2111258916, 2600111744, 2600111673, 2111258937, 2111258981, 2111258952, 2111258931, 2111258986, 2111258927, 2111258996, 2111258968, 2111258980], "tags": {"addr:city": "Budapest", "addr:housenumber": "5", "addr:postcode": "1088", "addr:street": "Miksz\u00e1th K\u00e1lm\u00e1n t\u00e9r", "alt_name": "Semmelweis Egyetem K\u00f6zponti K\u00f6nyvt\u00e1r (Miksz\u00e1th t\u00e9ri t\u00f6mb)", "amenity": "library", "building": "university", "building:levels": "4", "name": "Semmelweis Egyetem K\u00f6zponti K\u00f6nyvt\u00e1r", "website": "https://lib.semmelweis.hu/"}}, {"type": "way", "id": 241012661, "nodes": [263711442, 263711451, 1649336129, 1649336128, 263711453, 263711447, 1649336126, 1649336125, 263711448, 263711443, 263712319, 263712320, 263711442], "tags": {"addr:city": "Budapest", "addr:housenumber": "1", "addr:postcode": "1051", "addr:street": "Arany J\u00e1nos utca", "amenity": "library", "building": "yes", "name": "MTA k\u00f6nyvt\u00e1ra", "phone": "+36 1 411 6100", "website": "https://konyvtar.mta.hu/", "wikidata": "Q458921", "wikipedia": "hu:Magyar Tudom\u00e1nyos Akad\u00e9mia K\u00f6nyvt\u00e1r \u00e9s Inform\u00e1ci\u00f3s K\u00f6zpont"}}, {"type": "way", "id": 243681244, "nodes": [2510567122, 2510567125, 2510567126, 2510567128, 2510567122], "tags": {"amenity": "library", "building": "yes", "name": "\u00c1llatorvos-tudom\u00e1nyi K\u00f6nyvt\u00e1r, Lev\u00e9lt\u00e1r \u00e9s M\u00fazeum"}}, {"type": "way", "id": 243699782, "nodes": [2510737100, 2510737091, 2510737094, 2510737103, 2510737100]}, {"type": "way", "id": 247434249, "nodes": [2543170909, 2543170905, 2543170911, 2543170913, 2543170909], "tags": {"addr:city": "Budapest", "addr:housenumber": "283", "addr:postcode": "1225", "addr:street": "Nagyt\u00e9t\u00e9nyi \u00fat", "amenity": "library", "building": "yes", "name": "Nagyt\u00e9t\u00e9nyi K\u00f6nyvt\u00e1r", "old_name": "Zsinag\u00f3ga", "operator": "F\u0151v\u00e1rosi Szab\u00f3 Ervin K\u00f6nyvt\u00e1r", "operator:type": "public"}}, {"type": "way", "id": 249598694, "nodes": [2561847213, 2561847215, 2561847216, 2561847217, 2561847213], "tags": {"addr:city": "\u00c9rd", "addr:country": "HU", "addr:housenumber": "14", "addr:postcode": "2030", "addr:street": "Hivatalnok utca", "amenity": "library", "building": "yes", "name": "Csuka Zolt\u00e1n V\u00e1rosi K\u00f6nyvt\u00e1r, feln\u0151tt k\u00f6nyvt\u00e1r", "opening_hours": "Mo-Tu 10:00-19:00; Th-Fr 10:00-18:00; Sa 8:00-13:00; PH closed", "operator": "Csuka Zolt\u00e1n V\u00e1rosi K\u00f6nyvt\u00e1r", "phone": "+36 23 365 470", "source": "Bing; survey", "website": "http://www.csukalib.hu/"}}, {"type": "way", "id": 249598695, "nodes": [2561847218, 2561847219, 2561847220, 2561847221, 2561847218], "tags": {"addr:city": "\u00c9rd", "addr:country": "HU", "addr:housenumber": "14", "addr:postcode": "2030", "addr:street": "Hivatalnok utca", "amenity": "library", "building": "yes", "name": "Csuka Zolt\u00e1n V\u00e1rosi K\u00f6nyvt\u00e1r, gyermek k\u00f6nyvt\u00e1r", "opening_hours": "Mo-Tu 10:00-18:00; Th-Fr 10:00-17:00; Sa 8:00-13:00; PH closed", "operator": "Csuka Zolt\u00e1n V\u00e1rosi K\u00f6nyvt\u00e1r", "phone": "+36 23 365 470", "source": "Bing; survey", "website": "http://www.csukalib.hu/"}}, {"type": "way", "id": 250075784, "nodes": [2565898397, 2565898317, 2565898332, 2565898410, 2565898397], "tags": {"addr:city": "Budapest", "addr:housenumber": "93-97", "addr:postcode": "1012", "addr:street": "Attila \u00fat", "amenity": "library", "building": "yes", "club": "cinema", "email": "omgkref@omgk.hu", "facebook": "https://www.facebook.com/202179179796883", "name": "Orsz\u00e1gos Mez\u0151gazdas\u00e1gi K\u00f6nyvt\u00e1r", "opening_hours": "Mo,We,Fr 09:00-16:30, Tu,Th 09:00-19:00", "phone": "+36 1 489 4900", "source": "Bing", "website": "http://www.omgk.hu/"}}, {"type": "way", "id": 258039964, "nodes": [2634679030, 2634679025, 2634679029, 2634679015, 2634679011, 2634679006, 2634679026, 2634679035, 6689564064, 2634679060, 2634679030], "tags": {"amenity": "library", "building": "civic", "name": "Sz\u00e9pm\u0171v\u00e9szeti M\u00fazeum K\u00f6nyvt\u00e1r", "opening_hours:covid19": "closed", "source": "Bing", "wheelchair": "no"}}, {"type": "way", "id": 283852459, "nodes": [2876703986, 2876703987, 2876703989, 2876703991, 2876703985, 2876703981, 2876703983, 2876703984, 2876703986], "tags": {"addr:city": "\u00c9rd", "addr:country": "HU", "addr:housenumber": "27", "addr:postcode": "2030", "addr:street": "Als\u00f3 utca", "amenity": "library", "building": "house", "name": "Zenei K\u00f6nyvt\u00e1r", "opening_hours": "Mo 10:00-18:00; Tu,Th 12:00-17:00; Fr 10:00-17:00; PH closed", "operator": "Csuka Zolt\u00e1n V\u00e1rosi K\u00f6nyvt\u00e1r", "phone": "+36 23 524 070"}}, {"type": "way", "id": 285823812, "nodes": [2894522235, 2894522236, 9881642618, 9881642621, 2894522237, 2894522238, 2894522239, 2894522240, 2894522241, 8622895383, 8622895384, 8622895385, 8622895386, 2894522242, 2894522243, 2894522244, 2894522235], "tags": {"addr:city": "Solym\u00e1r", "addr:housenumber": "25", "addr:postcode": "2083", "addr:street": "Templom t\u00e9r", "amenity": "library", "building": "yes", "fax": "+36 26 362 240", "name": "Ap\u00e1czai Csere J\u00e1nos M\u0171vel\u0151d\u00e9si H\u00e1z", "opening_hours": "Mo-Fr 09:00-21:00; Sa,Su \"call us\"", "phone": "+36 26 360 100"}}, {"type": "way", "id": 286414845, "nodes": [8494441408, 2900802543, 6797164974, 2900802540, 2900802529, 2900802530, 2900802526, 2900802525, 2900802518, 2900802519, 8144914854, 2900802520, 2900802521, 8494441411, 8494441409, 2900802522, 8494441412, 8143520668, 8494441413, 8485470788, 8494441408], "tags": {"addr:city": "Budapest", "addr:housenumber": "10", "addr:postcode": "1144", "addr:street": "Csert\u0151 park", "amenity": "library", "building": "yes", "name": "F\u00fcredi K\u00f6nyvt\u00e1r (XIV./4. sz.)", "note": "A R\u00e1kosfalva park 1-3 fel\u00faj\u00edt\u00e1s\u00e1nak idej\u00e9re.", "opening_hours:covid19": "closed", "operator": "F\u0151v\u00e1rosi Szab\u00f3 Ervin K\u00f6nyvt\u00e1r", "operator:type": "public", "start_date": "2019-11-18"}}, {"type": "way", "id": 292465899, "nodes": [2960184349, 2960184346, 2960184347, 2960184348, 2960184349], "tags": {"addr:city": "Di\u00f3sd", "addr:housenumber": "9", "addr:postcode": "2049", "addr:street": "Sashegyi \u00fat", "amenity": "library", "building": "yes", "building:colour": "yellow", "building:levels": "1", "name": "K\u00e9k G\u00e9za M\u0171vel\u0151d\u00e9si H\u00e1z \u00e9s K\u00f6nyvt\u00e1r", "operator": "Di\u00f3sd", "roof:colour": "red", "roof:shape": "pyramidal"}}, {"type": "way", "id": 292875013, "nodes": [2964312946, 2964312943, 2964312950, 2964312952, 2964312948, 2964312946], "tags": {"addr:city": "Tahit\u00f3tfalu", "addr:housenumber": "14", "addr:postcode": "2021", "addr:street": "B\u00e9ke \u00fat", "amenity": "library", "building": "yes", "name": "K\u00f6nyvt\u00e1r"}}, {"type": "way", "id": 293178614, "nodes": [2598780839, 2598780819, 2688334785, 2598780812, 3452472086, 2598780815, 2598780829, 2598780834, 2967501442, 2598780843, 2598780841, 2598780839], "tags": {"addr:city": "Budapest", "addr:housenumber": "4", "addr:postcode": "1088", "addr:street": "\u00d6tpacsirta utca", "amenity": "library", "name": "F\u0151v\u00e1rosi Szab\u00f3 Ervin K\u00f6nyvt\u00e1r Zenei Gy\u0171jtem\u00e9nye", "opening_hours": "Mo-Fr 10:00-20:00; Sa 10:00-16:00", "operator": "F\u0151v\u00e1rosi Szab\u00f3 Ervin K\u00f6nyvt\u00e1r", "operator:type": "public", "website": "http://www.fszek.hu/konyvtaraink/kozponti_konyvtar/zenei_gyujtemeny"}}, {"type": "way", "id": 298998743, "nodes": [3029278980, 9150596211, 3029278981, 9150596212, 5275979808, 9196603892, 10258574877, 10258574876, 3029278984, 9150596215, 3029278985, 9150596214, 9150596209, 9150596213, 3029278980], "tags": {"amenity": "library", "building": "yes", "building:levels": "1", "name": "Szent P\u00e1l Akad\u00e9mia K\u00f6nyvt\u00e1r", "operator": "Hit Gy\u00fclekezete", "website": "https://www.szpa.hu/konyvtar"}}, {"type": "way", "id": 332757742, "nodes": [3398914628, 3398914629, 3398914630, 3398914631, 3398914628], "tags": {"addr:city": "Le\u00e1nyfalu", "addr:housenumber": "124", "addr:postcode": "2016", "addr:street": "M\u00f3ricz Zsigmond \u00fat", "amenity": "library", "building": "yes", "name": "Ravasz L\u00e1szl\u00f3 K\u00f6nyvt\u00e1r"}}, {"type": "way", "id": 333929633, "nodes": [3409774076, 3409774080, 3409774069, 3409774071, 3409774039, 3409774037, 3409774001, 3409773478, 3409774076], "tags": {"addr:city": "Budapest", "addr:housenumber": "4", "addr:postcode": "1037", "addr:street": "L\u00e1ngliliom utca", "amenity": "library", "building": "yes", "name": "Magyar Orsz\u00e1gos Lev\u00e9lt\u00e1r", "source": "turistautak.hu", "source:date": "2014-02-04", "url": "http://turistautak.hu/poi.php?id=145734"}}, {"type": "way", "id": 360984865, "nodes": [3655196004, 3655196005, 3662162222, 3662162221, 3662162217, 3662162218, 3655196006, 3655196007, 3655196004], "tags": {"addr:city": "P\u00e1ty", "addr:housenumber": "37", "addr:postcode": "2071", "addr:street": "R\u00e1k\u00f3czi Ferenc utca", "amenity": "library", "building": "yes", "contact:phone": "+36 23 344 348", "contact:website": "http://bocskaisuli.hu/index.php/hu/informaciok/konyvtar", "internet_access": "yes", "name": "Iskolai \u00e9s K\u00f6zs\u00e9gi K\u00f6nyvt\u00e1r"}}, {"type": "way", "id": 384432910, "nodes": [3877232711, 3877232720, 3877232717, 3877232712, 3877232709, 3877232724, 3877232729, 3877232723, 3877232730, 3877232737, 3877232708, 3877232699, 3877232700, 3877232707, 3877232710, 3877232695, 3877232694, 3877232696, 3877232693, 3877232682, 3877232711], "tags": {"addr:city": "Budapest", "addr:country": "HU", "addr:housenumber": "7", "addr:postcode": "1203", "addr:street": "B\u00edr\u00f3 Mih\u00e1ly utca", "air_conditioning": "no", "alt_name": "F\u0151v\u00e1rosi Szab\u00f3 Ervin K\u00f6nyvt\u00e1r B\u00edr\u00f3 Mih\u00e1ly utcai tagk\u00f6nyvt\u00e1ra", "amenity": "library", "building": "yes", "email": "fszek2002@fszek.hu", "facebook": "https://www.facebook.com/fszek20", "internet_access": "terminal", "name": "B\u00edr\u00f3 Mih\u00e1ly utcai K\u00f6nyvt\u00e1r", "opening_hours": "Mo 09:00-16:00; Tu 09:00-14:00; We-Th 13:00-19:00; Fr 09:00-16:00; PH off; Sa 09:00-13:00", "operator": "F\u0151v\u00e1rosi Szab\u00f3 Ervin K\u00f6nyvt\u00e1r", "operator:type": "public", "phone": "+36 1 283 0872", "source": "Bing", "website": "http://www.fszek.hu/konyvtaraink/biro_mihaly_u__7_"}}, {"type": "way", "id": 386640984, "nodes": [3899945015, 3899945016, 3899945017, 3899945018, 3899945015], "tags": {"amenity": "library", "building": "yes", "name": "K\u00f6nyvt\u00e1r"}}, {"type": "way", "id": 399760477, "nodes": [3642191391, 4024527099, 3642191694, 3642191389, 3642191388, 3642191390, 3642191391], "tags": {"amenity": "library", "building": "yes", "name": "K\u00f6zs\u00e9gi K\u00f6nyvt\u00e1r"}}, {"type": "way", "id": 412979017, "nodes": [4142995391, 4142995392, 7022728035, 4142995393, 4142995394, 4142995395, 4142995391], "tags": {"amenity": "library", "building": "yes", "name": "Nagy K\u00e1roly V\u00e1rosi K\u00f6nyvt\u00e1r"}}, {"type": "way", "id": 415320687, "nodes": [4163647960, 4163647961, 4163647962, 4163647963, 4163647960], "tags": {"addr:city": "Nagys\u00e1p", "addr:housenumber": "1", "addr:postcode": "2524", "addr:street": "K\u00f6zt\u00e1rsas\u00e1g t\u00e9r", "amenity": "library", "building": "yes", "description": "Szolg\u00e1ltat\u00e1s: k\u00f6lcs\u00f6nz\u00e9s, sz\u00e1m\u00edt\u00f3g\u00e9p- \u00e9s internethaszn\u00e1lat", "name": "Nagys\u00e1pi K\u00f6zs\u00e9gi K\u00f6nyvt\u00e1r", "opening_hours": "Mo, Th 16:30-18:30"}}, {"type": "way", "id": 443148843, "nodes": [4407778797, 4407797289, 4407759800, 4407765892, 4407778797], "tags": {"amenity": "library", "building": "yes", "name": "V\u00e1l k\u00f6zs\u00e9gi k\u00f6nyvt\u00e1r"}}, {"type": "way", "id": 444305643, "nodes": [4417928628, 4417928640, 4417928629, 4417928639, 2628339303, 4417928628], "tags": {"addr:city": "Budapest", "addr:housenumber": "1", "addr:postcode": "1031", "addr:street": "Arat\u00f3 Emil t\u00e9r", "amenity": "library", "name": "Plat\u00e1n K\u00f6nyvt\u00e1r", "opening_hours": "Mo, Fr 12:00-18:00; Tu, Th 10:00-19:00; week 01-51/2: Sa 10:00-14:00", "operator": "\u00d3buda\u2013B\u00e9k\u00e1smegyer \u00d6nkorm\u00e1nyzata", "phone": "+36 1 439 0936", "website": "https://platankonyvtar.hu/", "wheelchair": "limited"}}, {"type": "way", "id": 444305646, "nodes": [2628339301, 2628339300, 4417928639, 2628339303, 2628339301], "tags": {"building": "school"}}, {"type": "way", "id": 479857203, "nodes": [4728983594, 4728983593, 4728983592, 4728983588, 4728983591, 4728983594], "tags": {"addr:city": "Budapest", "addr:housenumber": "5-7", "addr:postcode": "1039", "addr:street": "Baj\u00e1ki Elem\u00e9r utca", "amenity": "library", "building": "yes", "name": "Csillaghegyi K\u00f6nyvt\u00e1r", "operator": "F\u0151v\u00e1rosi Szab\u00f3 Ervin K\u00f6nyvt\u00e1r", "operator:type": "public"}}, {"type": "way", "id": 494206748, "nodes": [4859932552, 4859932549, 4859932550, 4859932551, 4859932552], "tags": {"addr:city": "Budapest", "addr:country": "HU", "addr:housenumber": "85", "addr:postcode": "1021", "addr:street": "H\u0171v\u00f6sv\u00f6lgyi \u00fat", "amenity": "library", "building": "yes", "name": "F\u0151v\u00e1rosi Szab\u00f3 Ervin k\u00f6nyvt\u00e1r II./1.sz k\u00f6nyvt\u00e1ra", "opening_hours": "Mo,We 12:00-18:00; Tu,Fr 10:00-16:00"}}, {"type": "way", "id": 545117872, "nodes": [5268841938, 5268841939, 5268841940, 5268841941, 5268841942, 5268841943, 5268841944, 5268841945, 5268841946, 5268841947, 5268841948, 5268841949, 5268841938], "tags": {"amenity": "library", "building": "yes", "name": "Dorogi G\u00e1thy Zolt\u00e1n V\u00e1rosi K\u00f6nyvt\u00e1r"}}, {"type": "way", "id": 546543935, "nodes": [5281715143, 5281715144, 5281715145, 5281715146, 5281715147, 5281715148, 5281715143], "tags": {"addr:city": "T\u00f6r\u00f6kb\u00e1lint", "addr:housenumber": "83", "addr:postcode": "2045", "addr:street": "Munk\u00e1csy Mih\u00e1ly utca", "amenity": "library", "building": "yes", "name": "Volf Gy\u00f6rgy K\u00f6nyvt\u00e1r"}}, {"type": "way", "id": 757551747, "nodes": [7074643525, 7074643522, 7074643521, 7074643518, 7074643516, 7074643515, 7074643517, 7074643520, 7519527590, 7074643537, 7074643531, 7074643525], "tags": {"addr:city": "Budapest", "addr:housenumber": "8", "addr:postcode": "1153", "addr:street": "E\u00f6tv\u00f6s utca", "amenity": "library", "building": "yes", "name": "E\u00f6tv\u00f6s K\u00f6nyvt\u00e1r", "operator": "F\u0151v\u00e1rosi Szab\u00f3 Ervin K\u00f6nyvt\u00e1r", "operator:type": "public"}}, {"type": "way", "id": 802707731, "nodes": [847032299, 7508680578, 7508680579, 7508680580, 7508680581, 7508680582, 7508680583, 7508680584, 7508696285, 7508696286, 847032299], "tags": {"amenity": "library", "building": "yes", "name": "K\u00f6lcsey Ferenc V\u00e1rosi K\u00f6nyvt\u00e1r", "wheelchair": "yes"}}, {"type": "way", "id": 1092804217, "nodes": [10008135938, 10008135939, 10008135940, 10008135941, 10008135938], "tags": {"amenity": "library", "building": "yes", "name": "Orsz\u00e1gos Sz\u00e9chenyi K\u00f6nyvt\u00e1r Dokumentum Archiv\u00e1l\u00f3 \u00e9p\u00fclete"}}, {"type": "relation", "id": 1737323, "members": [{"type": "way", "ref": 114465300, "role": "outer"}, {"type": "way", "ref": 128695050, "role": "inner"}], "tags": {"amenity": "library", "building": "yes", "type": "multipolygon"}}, {"type": "relation", "id": 3294999, "members": [{"type": "way", "ref": 166967805, "role": "outer"}, {"type": "way", "ref": 243699782, "role": "inner"}], "tags": {"addr:city": "Budapest", "addr:housenumber": "11", "addr:postcode": "1056", "addr:street": "Moln\u00e1r utca", "amenity": "library", "building": "public", "building:levels": "5", "name": "Orsz\u00e1gos Idegennyelv\u0171 K\u00f6nyvt\u00e1r", "name:en": "National Library of Foreign Literature", "opening_hours": "Mo-Fr 10:00-20:00; We 12:00-20:00", "phone": "+36 1 318 3688", "type": "multipolygon", "website": "https://www.oik.hu/", "wikidata": "Q1226119", "wikipedia": "hu:Orsz\u00e1gos Idegennyelv\u0171 K\u00f6nyvt\u00e1r"}}, {"type": "relation", "id": 6609748, "members": [{"type": "way", "ref": 444305646, "role": ""}, {"type": "way", "ref": 444305643, "role": ""}], "tags": {"addr:city": "Budapest", "addr:housenumber": "1", "addr:postcode": "1031", "addr:street": "Arat\u00f3 Emil t\u00e9r", "amenity": "library", "email": "platan@kszki.obuda.hu", "facebook": "https://www.facebook.com/platan.konyvtar", "name": "\u00d3budai Plat\u00e1n K\u00f6nyvt\u00e1r", "opening_hours": "Mo,Fr 12:00-18:00; Tu,Th 10:00-19:00", "phone": "+36 1 439 0936", "tourism": "gallery", "type": "site", "website": "https://platankonyvtar.hu/"}}]}