{"version": 0.6, "generator": "Overpass API 0.7.59 e21c39fe", "osm3s": {"timestamp_osm_base": "2023-01-17T15:17:22Z", "copyright": "The data included in this document is from www.openstreetmap.org. The data is made available under ODbL."}, "elements": [{"type": "node", "id": 1750316782, "lat": 47.8751948, "lon": 19.2435907, "tags": {"amenity": "pub", "opening_hours": "Mo-Th, Su 07:00-11:00, 14:00-20:00; Fr-Sa 07:00-11:00, 14:00-21:00", "toilets:wheelchair": "yes", "wheelchair": "yes"}}, {"type": "node", "id": 2294152359, "lat": 47.9107522, "lon": 19.3760174, "tags": {"amenity": "pub", "name": "Vad\u00e1sz pressz\u00f3", "opening_hours": "Mo-Sa 06:30-09:30; Mo-Th 15:30-21:30; Fr-Sa 15:30-22:30; Su 15:30-21:30"}}, {"type": "node", "id": 2294152541, "lat": 47.9191412, "lon": 19.2626937}, {"type": "node", "id": 2294152542, "lat": 47.9191512, "lon": 19.2628616}, {"type": "node", "id": 2294152544, "lat": 47.9192492, "lon": 19.2626792}, {"type": "node", "id": 2294152545, "lat": 47.9192593, "lon": 19.2628471}, {"type": "node", "id": 2294152806, "lat": 47.9362764, "lon": 19.285695, "tags": {"amenity": "pub", "opening_hours": "Mo-Sa 06:30-22:00; Su 07:00-21:30"}}, {"type": "node", "id": 2324617973, "lat": 48.1335657, "lon": 19.2719636, "tags": {"amenity": "pub"}}, {"type": "node", "id": 2340407019, "lat": 48.0891097, "lon": 19.1526017, "tags": {"amenity": "pub", "name": "Dajana Pohostinstvo"}}, {"type": "node", "id": 2377255013, "lat": 47.9495796, "lon": 19.1977895, "tags": {"amenity": "pub"}}, {"type": "node", "id": 2406360825, "lat": 47.7968899, "lon": 19.3820053, "tags": {"amenity": "pub", "name": "Sarokh\u00e1z"}}, {"type": "node", "id": 2425981150, "lat": 47.8064591, "lon": 19.1770261, "tags": {"amenity": "pub", "name": "P\u00e1lma pressz\u00f3"}}, {"type": "node", "id": 2497573226, "lat": 48.0377688, "lon": 19.1706723}, {"type": "node", "id": 2497573227, "lat": 48.037845, "lon": 19.1704298}, {"type": "node", "id": 2564103520, "lat": 48.0378878, "lon": 19.170756}, {"type": "node", "id": 2564103521, "lat": 48.037964, "lon": 19.1705135}, {"type": "node", "id": 2677035604, "lat": 48.0696628, "lon": 19.2477242, "tags": {"amenity": "pub", "name": "U M\u00f3rica"}}, {"type": "node", "id": 2677339795, "lat": 48.0754576, "lon": 19.1739951, "tags": {"amenity": "pub", "name": "Putyi Pub"}}, {"type": "node", "id": 2677607467, "lat": 48.1058872, "lon": 19.2501124, "tags": {"amenity": "pub"}}, {"type": "node", "id": 2692476065, "lat": 48.1144926, "lon": 19.2743421, "tags": {"amenity": "pub"}}, {"type": "node", "id": 2773229120, "lat": 48.1116404, "lon": 19.3392555, "tags": {"amenity": "pub"}}, {"type": "node", "id": 2870526741, "lat": 48.0380601, "lon": 19.1625118}, {"type": "node", "id": 2870526742, "lat": 48.0381216, "lon": 19.1622613}, {"type": "node", "id": 2870526743, "lat": 48.038238, "lon": 19.1623252}, {"type": "node", "id": 2870526744, "lat": 48.0381765, "lon": 19.1625757}, {"type": "node", "id": 2872777910, "lat": 47.9674711, "lon": 19.3516665, "tags": {"amenity": "pub", "name": "Kiss Kocsma"}}, {"type": "node", "id": 2872777912, "lat": 47.9673855, "lon": 19.3484195, "tags": {"amenity": "pub", "name": "Pressz\u00f3"}}, {"type": "node", "id": 2937088029, "lat": 47.8517034, "lon": 19.6944749, "tags": {"amenity": "pub", "name": "Hangulat b\u00fcf\u00e9", "toilets:wheelchair": "no", "wheelchair": "limited"}}, {"type": "node", "id": 2951595420, "lat": 48.1465294, "lon": 19.7462038}, {"type": "node", "id": 2951595422, "lat": 48.1465826, "lon": 19.7463086}, {"type": "node", "id": 2951595423, "lat": 48.1466312, "lon": 19.7464042}, {"type": "node", "id": 2951595424, "lat": 48.1466747, "lon": 19.7460379}, {"type": "node", "id": 2951595425, "lat": 48.1467765, "lon": 19.7462383}, {"type": "node", "id": 2969951111, "lat": 48.1058732, "lon": 19.5610559, "tags": {"amenity": "pub"}}, {"type": "node", "id": 3280588766, "lat": 48.0631053, "lon": 19.3512946, "tags": {"amenity": "pub"}}, {"type": "node", "id": 3330855828, "lat": 47.9758869, "lon": 19.4259919, "tags": {"amenity": "pub", "name": "Flaming\u00f3 eszpressz\u00f3", "opening_hours": "Tu-Fr 14:00-21:00; Sa-Su 07:00-10:00,14:00-22:00", "source": "turistautak.hu", "url": "http://turistautak.hu/poi.php?id=156632"}}, {"type": "node", "id": 3348639489, "lat": 48.0536758, "lon": 19.2294559, "tags": {"amenity": "pub", "name": "Feh\u00e9r gy\u00f6ngy pressz\u00f3"}}, {"type": "node", "id": 3387958195, "lat": 47.9679652, "lon": 19.608991, "tags": {"amenity": "pub"}}, {"type": "node", "id": 3391610598, "lat": 47.996747, "lon": 19.19939, "tags": {"amenity": "pub", "name": "Bokr\u00e9ta pressz\u00f3", "toilets:wheelchair": "yes", "wheelchair": "limited"}}, {"type": "node", "id": 3391610600, "lat": 47.9955497, "lon": 19.3434051, "tags": {"amenity": "pub", "name": "M\u00e1mor b\u00fcf\u00e9", "toilets:wheelchair": "no", "wheelchair": "no"}}, {"type": "node", "id": 3391610604, "lat": 47.9993807, "lon": 19.1921009, "tags": {"amenity": "pub", "name": "R\u00f3zsabimb\u00f3", "opening_hours:covid19": "closed", "toilets:wheelchair": "yes", "wheelchair": "yes"}}, {"type": "node", "id": 3391610605, "lat": 48.0008899, "lon": 19.1890334, "tags": {"amenity": "pub", "name": "Western", "opening_hours:covid19": "closed"}}, {"type": "node", "id": 3404190830, "lat": 47.7995275, "lon": 19.6922858, "tags": {"amenity": "pub", "fixme": "position", "name": "Park pressz\u00f3", "source": "turistautak.hu", "url": "http://turistautak.hu/poi.php?id=131737"}}, {"type": "node", "id": 3410320744, "lat": 47.776943, "lon": 19.744055, "tags": {"amenity": "pub", "name": "Horg\u00e1szt\u00f3 boroz\u00f3", "source": "turistautak.hu", "url": "http://turistautak.hu/poi.php?id=144420"}}, {"type": "node", "id": 3427548251, "lat": 47.9601454, "lon": 19.6858556, "tags": {"amenity": "pub", "toilets:wheelchair": "no", "wheelchair": "no"}}, {"type": "node", "id": 3446873469, "lat": 47.883504, "lon": 19.548714, "tags": {"amenity": "pub", "name": "Cserh\u00e1t Gy\u00f6ngye", "url": "http://turistautak.hu/poi.php?id=72750"}}, {"type": "node", "id": 3446873480, "lat": 47.922044, "lon": 19.700465, "tags": {"amenity": "pub", "name": "Eszpressz\u00f3", "source": "turistautak.hu", "source:date": "2013-06-22", "toilets:wheelchair": "no", "url": "http://turistautak.hu/poi.php?id=151172", "wheelchair": "no"}}, {"type": "node", "id": 3446891204, "lat": 47.896267, "lon": 19.606811, "tags": {"amenity": "pub", "name": "Italbolt", "source": "turistautak.hu", "source:date": "2011-07-10", "url": "http://turistautak.hu/poi.php?id=60305"}}, {"type": "node", "id": 3446891218, "lat": 47.940621, "lon": 19.578544, "tags": {"amenity": "pub", "note": "tekep\u00e1ly\u00e1val", "source": "turistautak.hu", "source:date": "2011-07-10", "url": "http://turistautak.hu/poi.php?id=83746", "wheelchair": "no"}}, {"type": "node", "id": 3446891268, "lat": 47.8822, "lon": 19.541833, "tags": {"amenity": "pub", "description": "cukr\u00e1szda + s\u00f6r\u00f6z\u0151", "name": "Pressz\u00f3", "source": "turistautak.hu", "source:date": "2011-07-10", "url": "http://turistautak.hu/poi.php?id=21725"}}, {"type": "node", "id": 3446892721, "lat": 47.7970548, "lon": 19.5592869, "tags": {"amenity": "pub", "name": "Sz\u00f6vetkezeti italbolt", "source": "turistautak.hu", "source:date": "2011-07-10", "url": "http://turistautak.hu/poi.php?id=44868"}}, {"type": "node", "id": 3446892725, "lat": 47.794117, "lon": 19.5957, "tags": {"amenity": "pub", "name": "S\u00f6r\u00f6z\u0151", "source": "turistautak.hu", "source:date": "2011-07-10", "url": "http://turistautak.hu/poi.php?id=27055"}}, {"type": "node", "id": 3446892726, "lat": 47.954583, "lon": 19.597283, "tags": {"amenity": "pub", "name": "S\u00f6r\u00f6z\u0151", "source": "turistautak.hu", "source:date": "2011-07-10", "url": "http://turistautak.hu/poi.php?id=56188"}}, {"type": "node", "id": 3446893916, "lat": 47.7728939, "lon": 19.4597288, "tags": {"amenity": "pub", "source": "turistautak.hu", "source:date": "2011-07-10", "toilets:wheelchair": "no", "url": "http://turistautak.hu/poi.php?id=58586", "wheelchair": "no"}}, {"type": "node", "id": 3446893929, "lat": 47.820361, "lon": 19.456586, "tags": {"amenity": "pub", "source": "turistautak.hu", "source:date": "2011-07-10", "url": "http://turistautak.hu/poi.php?id=58595"}}, {"type": "node", "id": 3446893938, "lat": 47.825767, "lon": 19.44857, "tags": {"amenity": "pub", "opening_hours": "Mo-Su 15:00-20:00", "source": "turistautak.hu", "source:date": "2011-07-10", "url": "http://turistautak.hu/poi.php?id=73632"}}, {"type": "node", "id": 3446893940, "lat": 47.8270791, "lon": 19.5340739, "tags": {"amenity": "pub", "source": "turistautak.hu", "source:date": "2011-07-10", "url": "http://turistautak.hu/poi.php?id=72756"}}, {"type": "node", "id": 3446893950, "lat": 47.848264, "lon": 19.699452, "tags": {"amenity": "pub", "source": "turistautak.hu", "source:date": "2011-08-21", "url": "http://turistautak.hu/poi.php?id=66718"}}, {"type": "node", "id": 3446893963, "lat": 47.85805, "lon": 19.693578, "tags": {"amenity": "pub", "source": "turistautak.hu", "source:date": "2010-11-11", "url": "http://turistautak.hu/poi.php?id=48754"}}, {"type": "node", "id": 3446893966, "lat": 47.86225, "lon": 19.692667, "tags": {"amenity": "pub", "name": "Jakabi s\u00f6r\u00f6z\u0151", "toilets:wheelchair": "no", "url": "http://turistautak.hu/poi.php?id=48755", "wheelchair": "no"}}, {"type": "node", "id": 3446893968, "lat": 47.86475, "lon": 19.6954, "tags": {"amenity": "pub", "source": "turistautak.hu", "source:date": "2011-08-21", "url": "http://turistautak.hu/poi.php?id=48758"}}, {"type": "node", "id": 3446894998, "lat": 47.896523, "lon": 19.600296, "tags": {"amenity": "pub", "source": "turistautak.hu", "source:date": "2013-11-26", "url": "http://turistautak.hu/poi.php?id=163333"}}, {"type": "node", "id": 3446895079, "lat": 47.9298623, "lon": 19.5397671, "tags": {"amenity": "pub", "source": "turistautak.hu", "source:date": "2013-11-26", "url": "http://turistautak.hu/poi.php?id=163331"}}, {"type": "node", "id": 3456335651, "lat": 47.8785048, "lon": 19.3113589, "tags": {"amenity": "pub", "name": "Vad\u00e1sz b\u00fcf\u00e9", "source": "turistautak.hu", "source:date": "2011-07-10", "url": "http://turistautak.hu/poi.php?id=98455"}}, {"type": "node", "id": 3456335674, "lat": 47.8370564, "lon": 19.2368748}, {"type": "node", "id": 3456335679, "lat": 47.839772, "lon": 19.355233, "tags": {"amenity": "pub", "source": "turistautak.hu", "source:date": "2011-07-10", "url": "http://turistautak.hu/poi.php?id=98456"}}, {"type": "node", "id": 3456376446, "lat": 47.7901704, "lon": 19.2163632, "tags": {"amenity": "pub", "source": "turistautak.hu", "source:date": "2014-03-05", "url": "http://turistautak.hu/poi.php?id=166419"}}, {"type": "node", "id": 3456376463, "lat": 47.8034245, "lon": 19.2511128, "tags": {"amenity": "pub", "source": "turistautak.hu", "source:date": "2011-07-10", "url": "http://turistautak.hu/poi.php?id=86838"}}, {"type": "node", "id": 3456376470, "lat": 47.81017, "lon": 19.179858, "tags": {"amenity": "pub", "source": "turistautak.hu", "source:date": "2014-01-03", "url": "http://turistautak.hu/poi.php?id=28770"}}, {"type": "node", "id": 3456376474, "lat": 47.8127775, "lon": 19.3225545, "tags": {"amenity": "pub", "toilets:wheelchair": "yes", "wheelchair": "limited"}}, {"type": "node", "id": 3456392041, "lat": 47.8903, "lon": 19.198879, "tags": {"amenity": "pub", "name": "Feny\u0151 b\u00fcf\u00e9", "source": "turistautak.hu", "source:date": "2012-07-06", "url": "http://turistautak.hu/poi.php?id=141059"}}, {"type": "node", "id": 3456392042, "lat": 47.89062, "lon": 19.19914, "tags": {"amenity": "pub", "name": "Feny\u0151 b\u00fcf\u00e9", "source": "turistautak.hu", "source:date": "2011-07-30", "url": "http://turistautak.hu/poi.php?id=6007"}}, {"type": "node", "id": 3456392562, "lat": 47.9666974, "lon": 19.2832692, "tags": {"amenity": "pub", "source": "turistautak.hu", "source:date": "2012-07-29", "url": "http://turistautak.hu/poi.php?id=142232"}}, {"type": "node", "id": 3459928908, "lat": 47.9457343, "lon": 19.4412852, "tags": {"amenity": "pub", "name": "Asszony Bosszant\u00f3 italbolt", "source": "turistautak.hu", "source:date": "2011-11-30", "url": "http://turistautak.hu/poi.php?id=130071"}}, {"type": "node", "id": 3459928913, "lat": 48.0197144, "lon": 19.1480617, "tags": {"amenity": "pub", "name": "Becsali kocsma", "source": "turistautak.hu", "source:date": "2011-10-08", "toilets:wheelchair": "no", "url": "http://turistautak.hu/poi.php?id=125927", "wheelchair": "no"}}, {"type": "node", "id": 3459928941, "lat": 47.84549, "lon": 19.388189, "tags": {"amenity": "pub", "name": "F\u00e9szek eszpressz\u00f3", "source": "turistautak.hu", "source:date": "2010-02-22", "url": "http://turistautak.hu/poi.php?id=71766"}}, {"type": "node", "id": 3459928981, "lat": 47.926517, "lon": 19.4388, "tags": {"amenity": "pub", "name": "K\u0151v\u00e1r boroz\u00f3", "source": "turistautak.hu", "source:date": "2010-01-27", "url": "http://turistautak.hu/poi.php?id=76463"}}, {"type": "node", "id": 3459930158, "lat": 47.850956, "lon": 19.388705, "tags": {"amenity": "pub", "source": "turistautak.hu", "source:date": "2011-07-10", "url": "http://turistautak.hu/poi.php?id=71765"}}, {"type": "node", "id": 3459930181, "lat": 47.9056619, "lon": 19.3331085, "tags": {"amenity": "pub", "source": "turistautak.hu", "source:date": "2011-07-10", "url": "http://turistautak.hu/poi.php?id=12461"}}, {"type": "node", "id": 3459930641, "lat": 47.980239, "lon": 19.377757, "tags": {"amenity": "pub", "source": "turistautak.hu", "source:date": "2011-07-10", "url": "http://turistautak.hu/poi.php?id=87577"}}, {"type": "node", "id": 3459930670, "lat": 48.021267, "lon": 19.148287, "tags": {"amenity": "pub", "source": "turistautak.hu", "source:date": "2011-07-10", "url": "http://turistautak.hu/poi.php?id=53014"}}, {"type": "node", "id": 3459931097, "lat": 48.042854, "lon": 19.41503, "tags": {"amenity": "pub", "source": "turistautak.hu", "source:date": "2011-07-10", "url": "http://turistautak.hu/poi.php?id=111702"}}, {"type": "node", "id": 3459931124, "lat": 48.054336, "lon": 19.429442, "tags": {"amenity": "pub", "source": "turistautak.hu", "source:date": "2011-07-10", "url": "http://turistautak.hu/poi.php?id=74959"}}, {"type": "node", "id": 3469960206, "lat": 48.084455, "lon": 19.70734, "tags": {"amenity": "pub", "opening_hours": "Mo-Su 06:00-22:00", "source": "turistautak.hu", "source:date": "2012-07-06", "url": "http://turistautak.hu/poi.php?id=20759"}}, {"type": "node", "id": 3469960209, "lat": 48.016557, "lon": 19.685679, "tags": {"amenity": "pub", "name": "Kocsma \u00e9s vegyesbolt", "source": "turistautak.hu", "source:date": "2012-11-25", "url": "http://turistautak.hu/poi.php?id=147784"}}, {"type": "node", "id": 3469960230, "lat": 48.163001, "lon": 19.695685, "tags": {"amenity": "pub", "name": "Pressz\u00f3", "source": "turistautak.hu", "source:date": "2014-06-26", "url": "http://turistautak.hu/poi.php?id=169611"}}, {"type": "node", "id": 3469960256, "lat": 47.987262, "lon": 19.723044, "tags": {"amenity": "pub", "source": "turistautak.hu", "source:date": "2010-12-12", "url": "http://turistautak.hu/poi.php?id=52784"}}, {"type": "node", "id": 3469960828, "lat": 47.997151, "lon": 19.700798, "tags": {"amenity": "pub", "source": "turistautak.hu", "source:date": "2011-07-10", "url": "http://turistautak.hu/poi.php?id=106968"}}, {"type": "node", "id": 3469960846, "lat": 48.031236, "lon": 19.690249, "tags": {"amenity": "pub", "source": "turistautak.hu", "source:date": "2011-07-10", "url": "http://turistautak.hu/poi.php?id=69684"}}, {"type": "node", "id": 3469960883, "lat": 48.128676, "lon": 19.7599533, "tags": {"amenity": "pub", "name": "Karancsalja Cseng\u0151 Cs\u00e1rda", "source": "turistautak.hu", "source:date": "2010-04-16", "toilets:wheelchair": "no", "url": "http://turistautak.hu/poi.php?id=17285", "wheelchair": "no"}}, {"type": "node", "id": 3469961599, "lat": 48.160767, "lon": 19.708533, "tags": {"amenity": "pub", "source": "turistautak.hu", "source:date": "2012-07-06", "url": "http://turistautak.hu/poi.php?id=17290"}}, {"type": "node", "id": 3469995875, "lat": 47.996633, "lon": 19.62018, "tags": {"amenity": "pub", "opening_hours": "Mo-Su 07:00-10:00,15:00-19:00", "source": "turistautak.hu", "source:date": "2011-07-10", "url": "http://turistautak.hu/poi.php?id=69691"}}, {"type": "node", "id": 3469996000, "lat": 48.037798, "lon": 19.528668, "tags": {"amenity": "pub", "name": "Pressz\u00f3", "source": "turistautak.hu", "source:date": "2014-12-18", "url": "http://turistautak.hu/poi.php?id=106510"}}, {"type": "node", "id": 3469996116, "lat": 48.0398079, "lon": 19.4890772, "tags": {"amenity": "pub", "name": "P\u00f3ker", "opening_hours": "Z\u00c1RVA", "source": "turistautak.hu", "source:date": "2010-12-02", "url": "http://turistautak.hu/poi.php?id=13535"}}, {"type": "node", "id": 3469996141, "lat": 48.0813763, "lon": 19.5159597, "tags": {"amenity": "pub", "source": "turistautak.hu", "source:date": "2011-07-10", "toilets:wheelchair": "limited", "url": "http://turistautak.hu/poi.php?id=53024", "wheelchair": "yes"}}, {"type": "node", "id": 3469996142, "lat": 48.0814868, "lon": 19.523877, "tags": {"amenity": "pub", "name": "Ali Pressz\u00f3", "toilets:wheelchair": "limited", "wheelchair": "yes"}}, {"type": "node", "id": 3479961276, "lat": 47.7891955, "lon": 19.7386484, "tags": {"amenity": "pub", "name": "R\u00f3zsa pressz\u00f3", "url": "http://turistautak.hu/poi.php?id=144511"}}, {"type": "node", "id": 3479961318, "lat": 47.7848, "lon": 19.743483, "tags": {"amenity": "pub", "name": "O\u00e1zis pressz\u00f3", "source": "turistautak.hu", "source:date": "2010-04-17", "url": "http://turistautak.hu/poi.php?id=13919"}}, {"type": "node", "id": 3488287724, "lat": 48.0366358, "lon": 19.3206402, "tags": {"addr:city": "Sz\u00fcgy", "addr:housenumber": "2/a", "addr:postcode": "2699", "addr:street": "Miksz\u00e1th K\u00e1lm\u00e1n utca", "amenity": "pub", "name": "Italbolt"}}, {"type": "node", "id": 3488287725, "lat": 48.034144, "lon": 19.3213839, "tags": {"addr:city": "Sz\u00fcgy", "addr:housenumber": "21", "addr:postcode": "2699", "addr:street": "Miksz\u00e1th K\u00e1lm\u00e1n utca", "amenity": "pub", "name": "Barna S\u00f6r\u00f6z\u0151", "toilets:wheelchair": "limited", "wheelchair": "limited"}}, {"type": "node", "id": 3571123920, "lat": 47.8557163, "lon": 19.694058, "tags": {"amenity": "pub", "name": "\u00c1szok S\u00f6r\u00f6z\u0151"}}, {"type": "node", "id": 3608320961, "lat": 48.0763284, "lon": 19.3970202, "tags": {"amenity": "pub", "name": "Lesz Vigasz S\u00f6r\u00f6z\u0151"}}, {"type": "node", "id": 3750085232, "lat": 48.0898583, "lon": 19.4084491, "tags": {"amenity": "pub", "name": "Pohostinstvo \u00c9den"}}, {"type": "node", "id": 3926950655, "lat": 47.948894, "lon": 19.6957509}, {"type": "node", "id": 3926950656, "lat": 47.9489525, "lon": 19.6956644}, {"type": "node", "id": 3926950657, "lat": 47.9489671, "lon": 19.6958609}, {"type": "node", "id": 3926950658, "lat": 47.9490255, "lon": 19.6957744}, {"type": "node", "id": 4063564384, "lat": 47.8807133, "lon": 19.3088658, "tags": {"addr:city": "Leg\u00e9nd", "addr:housenumber": "22", "addr:postcode": "2619", "addr:street": "Pet\u0151fi S\u00e1ndor \u00fat", "amenity": "pub", "mapillary": "2794194197509134", "name": "F\u0171zfa Kert", "opening_hours": "Mo-Su 12:00-20:00; Sa 12:00-21:00"}}, {"type": "node", "id": 4377658817, "lat": 47.8394138, "lon": 19.3551673, "tags": {"amenity": "pub", "toilets:wheelchair": "no", "wheelchair": "no"}}, {"type": "node", "id": 4469275386, "lat": 47.7956364, "lon": 19.3836649, "tags": {"amenity": "pub", "name": "Vadkan s\u00f6r\u00f6z\u0151"}}, {"type": "node", "id": 4469284975, "lat": 47.7933592, "lon": 19.3844786, "tags": {"amenity": "pub", "name": "Bik\u00e1s S\u00f6r\u00f6z\u0151"}}, {"type": "node", "id": 4479411812, "lat": 48.0043211, "lon": 19.5104479}, {"type": "node", "id": 4479411820, "lat": 48.0043786, "lon": 19.5103238}, {"type": "node", "id": 4479411831, "lat": 48.0044468, "lon": 19.510578}, {"type": "node", "id": 4479411840, "lat": 48.0045043, "lon": 19.5104539}, {"type": "node", "id": 4543438416, "lat": 47.9975837, "lon": 19.5907338, "tags": {"amenity": "pub", "name": "Feh\u00e9r Holl\u00f3 - Pressz\u00f3 \u00e9s Terasz", "toilets:wheelchair": "yes", "wheelchair": "yes"}}, {"type": "node", "id": 4768241671, "lat": 48.0763523, "lon": 19.5218708, "tags": {"amenity": "pub"}}, {"type": "node", "id": 4842061860, "lat": 47.8013688, "lon": 19.2508306}, {"type": "node", "id": 4842061861, "lat": 47.8014433, "lon": 19.2507092}, {"type": "node", "id": 4842061862, "lat": 47.8013739, "lon": 19.2506149}, {"type": "node", "id": 4842061863, "lat": 47.8012995, "lon": 19.2507363}, {"type": "node", "id": 4897990956, "lat": 48.0714014, "lon": 19.2834266, "tags": {"addr:city": "Balassagyarmat", "addr:postcode": "2660", "addr:street": "Mad\u00e1ch liget", "amenity": "pub", "name": "Pedro kocsm\u00e1ja"}}, {"type": "node", "id": 4933475486, "lat": 47.7828714, "lon": 19.5852719, "tags": {"amenity": "pub", "fixme": "verify", "name": "K\u00e9k Angyal S\u00f6r\u00f6z\u0151", "source": "route4u", "toilets:wheelchair": "no", "wheelchair": "no"}}, {"type": "node", "id": 4933475517, "lat": 47.818991, "lon": 19.6371818, "tags": {"amenity": "pub", "name": "Bet\u00e9r\u0151 Kocsma"}}, {"type": "node", "id": 4933476650, "lat": 47.877008, "lon": 19.397958, "tags": {"amenity": "pub", "name": "Retro Pub", "toilets:wheelchair": "no", "wheelchair": "yes"}}, {"type": "node", "id": 4933476684, "lat": 47.9182362, "lon": 19.6979472, "tags": {"amenity": "pub", "fixme": "verify", "name": "S-Club", "source": "route4u", "toilets:wheelchair": "no", "wheelchair": "no"}}, {"type": "node", "id": 4933476700, "lat": 47.9251909, "lon": 19.2591191, "tags": {"amenity": "pub", "name": "Aranykakas Boroz\u00f3", "toilets:wheelchair": "no", "wheelchair": "yes"}}, {"type": "node", "id": 4933476934, "lat": 47.8036965, "lon": 19.7634934, "tags": {"amenity": "pub", "name": "F\u00fcst\u00f6s Kocsma", "toilets:wheelchair": "no", "wheelchair": "no"}}, {"type": "node", "id": 4933476980, "lat": 47.8450564, "lon": 19.3491085, "tags": {"amenity": "pub", "name": "Tsz. Club", "toilets:wheelchair": "no", "wheelchair": "yes"}}, {"type": "node", "id": 4933477023, "lat": 47.7941858, "lon": 19.6653364, "tags": {"amenity": "pub", "name": "Aut\u00f3s Pihen\u0151", "toilets:wheelchair": "no", "wheelchair": "limited"}}, {"type": "node", "id": 4933477227, "lat": 47.8228403, "lon": 19.5863072, "tags": {"amenity": "pub", "fixme": "verify", "name": "Vikt\u00f3ria S\u00f6r\u00f6z\u0151", "source": "route4u", "toilets:wheelchair": "no", "wheelchair": "yes"}}, {"type": "node", "id": 4933477633, "lat": 47.9145507, "lon": 19.7056403, "tags": {"amenity": "pub", "fixme": "verify", "name": "Flaming\u00f3", "source": "route4u", "toilets:wheelchair": "no", "wheelchair": "no"}}, {"type": "node", "id": 4933477644, "lat": 47.9172003, "lon": 19.7046556, "tags": {"amenity": "pub", "fixme": "verify", "name": "R\u00f3zsa S\u00f6r\u00f6z\u0151", "source": "route4u", "toilets:wheelchair": "no", "wheelchair": "no"}}, {"type": "node", "id": 4933477810, "lat": 48.0412532, "lon": 19.5281557, "tags": {"amenity": "pub", "fixme": "verify", "name": "Kiskerti Italbolt", "source": "route4u", "toilets:wheelchair": "no", "wheelchair": "yes"}}, {"type": "node", "id": 4933477815, "lat": 48.0650253, "lon": 19.2912881, "tags": {"addr:city": "Balassagyarmat", "addr:housenumber": "16/a", "addr:postcode": "2660", "addr:street": "Dar\u00f3czi Guszt\u00e1v utca", "amenity": "pub", "name": "Pince Boroz\u00f3", "source": "https://balassagyarmat.cylex.hu/ceg-info/pince-boroz%C3%B3-940285.html#", "toilets:wheelchair": "no", "wheelchair": "no"}}, {"type": "node", "id": 4933477959, "lat": 48.0782668, "lon": 19.5137822, "tags": {"amenity": "pub", "name": "Iparos Kocsma", "outdoor_seating": "yes"}}, {"type": "node", "id": 4933477970, "lat": 48.0811256, "lon": 19.2892918, "tags": {"addr:city": "Balassagyarmat", "addr:housenumber": "12", "addr:postcode": "2660", "addr:street": "Ipolypart utca", "amenity": "pub", "brewery": "yes", "name": "Spiler SportPub", "outdoor_seating": "yes", "smoking": "outside", "source": "route4u"}}, {"type": "node", "id": 4933477971, "lat": 48.0814896, "lon": 19.5113561, "tags": {"amenity": "pub", "name": "S\u00f6rd\u00f6nt\u0151 S\u00f6r\u00f6z\u0151"}}, {"type": "node", "id": 4933478074, "lat": 48.1042472, "lon": 19.6790797, "tags": {"amenity": "pub", "name": "Bisztr\u00f3", "source": "route4u", "toilets:wheelchair": "no", "wheelchair": "no"}}, {"type": "node", "id": 4933478076, "lat": 48.1335407, "lon": 19.6040353, "tags": {"addr:city": "Piliny", "addr:conscriptionnumber": "161", "addr:country": "HU", "addr:district": "Sz\u00e9cs\u00e9nyi j\u00e1r\u00e1s", "addr:housenumber": "46", "addr:postcode": "3134", "addr:province": "N\u00f3gr\u00e1d megye", "addr:street": "Tarj\u00e1ni utca", "amenity": "pub", "fixme": "verify", "name": "Amnesia S\u00f6r\u00f6z\u0151", "opening_hours": "Mo 14:00-22:00; Tu-Su 07:00-12:30,15:00-22:00; Fr,Sa 07:00-12:30,15:00-24:00", "operator": "T\u0151zs\u00e9r R\u00f3bertn\u00e9; 3134 Piliny Tarj\u00e1ni \u00fat 46.", "ref": "M-2/2009 nyilv\u00e1ntart\u00e1sba v\u00e9tel, Lud\u00e1nyhal\u00e1szi K\u00f6z\u00f6s \u00d6nkorm\u00e1nyzati Hivatal Jegyz\u0151je", "source": "route4u", "start_date": "2007-02-01", "toilets:wheelchair": "no", "url": "https://www.nyitvatartas24.hu/uzlet/Piliny-Amnesia%2520s%25C3%25B6r%25C3%25B6z%25C5%2591%252018%252B-553397Q.html", "wheelchair": "yes"}}, {"type": "node", "id": 4933478094, "lat": 48.1414156, "lon": 19.5988385, "tags": {"addr:city": "Piliny", "addr:conscriptionnumber": "347", "addr:country": "HU", "addr:district": "Sz\u00e9cs\u00e9nyi j\u00e1r\u00e1s", "addr:housenumber": "44", "addr:postcode": "3134", "addr:province": "N\u00f3gr\u00e1d megye", "addr:street": "Iskola utca", "amenity": "pub", "fixme": "verify", "name": "Anna Mulat\u00f3", "opening_hours": "Mo-Su 07:00-22:00", "operator": "Szab\u00f3 P\u00e1ln\u00e9; 3134 Piliny Iskola \u00fat 44.", "ref": "M-3/2009 nyilv\u00e1ntart\u00e1sba v\u00e9tel, Lud\u00e1nyhal\u00e1szi K\u00f6z\u00f6s \u00d6nkorm\u00e1nyzati Hivatal Jegyz\u0151je", "source": "route4u", "start_date": "2007-10-28", "toilets:wheelchair": "no", "url": "https://www.nyitvatartas24.hu/uzlet/Piliny-Amnesia%2520s%25C3%25B6r%25C3%25B6z%25C5%2591%252018%252B-553397Q.html", "wheelchair": "yes"}}, {"type": "node", "id": 4933478229, "lat": 48.1635441, "lon": 19.6978316, "tags": {"amenity": "pub", "fixme": "verify", "name": "F\u00e9nyes S\u00f6r\u00f6z\u0151", "source": "route4u", "toilets:wheelchair": "no", "wheelchair": "no"}}, {"type": "node", "id": 4936968069, "lat": 47.7739358, "lon": 19.1500499, "tags": {"amenity": "pub", "name": "Toporg\u00f3 b\u00fcf\u00e9", "opening_hours": "Mo-Fr 05:00-18:30; Sa 05:00-14:30; Su 05:50-13:30"}}, {"type": "node", "id": 4939174029, "lat": 48.0754291, "lon": 19.2916541, "tags": {"amenity": "pub", "name": "Mozi Pizz\u00e9ria/S\u00f6r\u00f6z\u0151", "opening_hours": "Mo-Tu 11:00-21:00, Fr-Sa 11:00-22:00", "source": "route4u", "toilets:wheelchair": "yes", "wheelchair": "yes"}}, {"type": "node", "id": 4939174265, "lat": 47.9237588, "lon": 19.1767612, "tags": {"amenity": "pub", "name": "Harcsa Kocsma", "toilets:wheelchair": "no", "wheelchair": "no"}}, {"type": "node", "id": 4939175423, "lat": 47.873028, "lon": 19.4015303, "tags": {"amenity": "pub", "fixme": "verify", "name": "Ar\u00e9na S\u00f6r\u00f6z\u0151", "source": "route4u", "toilets:wheelchair": "no", "wheelchair": "no"}}, {"type": "node", "id": 4939177045, "lat": 48.0378668, "lon": 19.5291776, "tags": {"amenity": "pub", "fixme": "verify", "name": "Marcsi S\u00f6r\u00f6z\u0151", "source": "route4u", "toilets:wheelchair": "yes", "wheelchair": "limited"}}, {"type": "node", "id": 4939178641, "lat": 47.8456464, "lon": 19.2950425, "tags": {"amenity": "pub", "name": "O\u00e1zis s\u00f6r\u00f6z\u0151 pizz\u00e9ria", "source": "route4u"}}, {"type": "node", "id": 4939178704, "lat": 47.9601337, "lon": 19.6855149, "tags": {"amenity": "pub", "name": "R\u00e9zorr\u00fa Italbolt", "toilets:wheelchair": "no", "wheelchair": "no"}}, {"type": "node", "id": 4939179576, "lat": 48.0210392, "lon": 19.1479925, "tags": {"amenity": "pub", "fixme": "verify", "name": "K\u0151h\u00edd Italbolt", "source": "route4u", "toilets:wheelchair": "no", "wheelchair": "no"}}, {"type": "node", "id": 4940563248, "lat": 48.1129244, "lon": 19.7169661, "tags": {"amenity": "pub", "fixme": "verify", "name": "Little Csik\u00f3s Pub", "source": "route4u", "toilets:wheelchair": "no", "wheelchair": "limited"}}, {"type": "node", "id": 4940563381, "lat": 48.090193, "lon": 19.5227823, "tags": {"amenity": "pub", "name": "Tr\u00f3fea S\u00f6r\u00f6z\u0151", "outdoor_seating": "yes", "toilets:wheelchair": "yes"}}, {"type": "node", "id": 5141323481, "lat": 47.8020634, "lon": 19.1780977, "tags": {"amenity": "pub"}}, {"type": "node", "id": 5270045849, "lat": 48.1265665, "lon": 19.5911908, "tags": {"amenity": "pub"}}, {"type": "node", "id": 5426804671, "lat": 48.1632299, "lon": 19.7115262}, {"type": "node", "id": 5426804672, "lat": 48.163373, "lon": 19.7116201}, {"type": "node", "id": 5426804673, "lat": 48.1633375, "lon": 19.7117418}, {"type": "node", "id": 5426804674, "lat": 48.1631944, "lon": 19.7116479}, {"type": "node", "id": 5779322261, "lat": 48.0348369, "lon": 19.5726382}, {"type": "node", "id": 5779322262, "lat": 48.0347731, "lon": 19.5727261}, {"type": "node", "id": 5779322263, "lat": 48.0346781, "lon": 19.5725503}, {"type": "node", "id": 5779322264, "lat": 48.0347443, "lon": 19.572468}, {"type": "node", "id": 5963567920, "lat": 48.0677904, "lon": 19.2984527}, {"type": "node", "id": 5963567921, "lat": 48.0678644, "lon": 19.2986242}, {"type": "node", "id": 5963567922, "lat": 48.0677436, "lon": 19.2987409}, {"type": "node", "id": 5963567923, "lat": 48.0676697, "lon": 19.2985693}, {"type": "node", "id": 6020832921, "lat": 47.79038, "lon": 19.39021, "tags": {"amenity": "pub", "name": "Italbolt"}}, {"type": "node", "id": 7821461963, "lat": 48.1531584, "lon": 19.7347565, "tags": {"amenity": "pub", "name": "Piszke B\u00fcf\u00e9"}}, {"type": "node", "id": 7821461964, "lat": 48.1542083, "lon": 19.7320434, "tags": {"amenity": "pub", "name": "D\u00e9zsa B\u00fcf\u00e9"}}, {"type": "node", "id": 7886788005, "lat": 48.1396198, "lon": 19.5983165, "tags": {"addr:city": "Piliny", "addr:conscriptionnumber": "362/A/2", "addr:country": "HU", "addr:district": "Sz\u00e9cs\u00e9nyi j\u00e1r\u00e1s", "addr:housenumber": "23", "addr:postcode": "3134", "addr:province": "N\u00f3gr\u00e1d megye", "addr:street": "Losonci utca", "amenity": "pub", "name": "V\u00e1rhegy S\u00f6r\u00f6z\u0151 \u00e9s J\u00e1t\u00e9kterem", "official_name": "Vegyesbolt", "opening_hours": "Mo-Su 08:00-20:00", "operator": "SPORI BARI Kft, 3134 Piliny, Losonci \u00fat 23.; Cg.12-09-009132", "ref": "B-1/2015 nyilv\u00e1ntart\u00e1sba v\u00e9tel, Lud\u00e1nyhal\u00e1szi K\u00f6z\u00f6s \u00d6nkorm\u00e1nyzati Hivatal Jegyz\u0151je", "shop": "convenience", "source": "route4u", "start_date": "2015-02-20", "wheelchair": "limited"}}, {"type": "node", "id": 7954641477, "lat": 48.0283548, "lon": 19.3848368, "tags": {"amenity": "pub"}}, {"type": "node", "id": 8263771119, "lat": 47.7770507, "lon": 19.3590222, "tags": {"amenity": "pub"}}, {"type": "node", "id": 8411545668, "lat": 48.0819532, "lon": 19.6061047, "tags": {"amenity": "pub", "name": "Pressz\u00f3"}}, {"type": "node", "id": 8953464614, "lat": 48.0825317, "lon": 19.3002471}, {"type": "node", "id": 8953464615, "lat": 48.0825973, "lon": 19.3003088}, {"type": "node", "id": 8953464616, "lat": 48.0825584, "lon": 19.3004012}, {"type": "node", "id": 8953473617, "lat": 48.0824928, "lon": 19.3003395}, {"type": "node", "id": 9013368797, "lat": 47.8370636, "lon": 19.2370156}, {"type": "node", "id": 9013368798, "lat": 47.8368745, "lon": 19.237037}, {"type": "node", "id": 9013368799, "lat": 47.8368673, "lon": 19.2368963}, {"type": "node", "id": 9073370207, "lat": 48.073717, "lon": 19.2892443, "tags": {"addr:city": "Balassagyarmat", "addr:housenumber": "27", "addr:postcode": "2660", "addr:street": "Ady Endre \u00fat", "amenity": "pub", "internet_access": "yes", "internet_access:fee": "no", "name": "Liget", "outdoor_seating": "yes", "smoking": "dedicated"}}, {"type": "node", "id": 9118349856, "lat": 48.0788441, "lon": 19.2963179, "tags": {"amenity": "pub", "name": "Boroz\u00f3"}}, {"type": "node", "id": 9130497823, "lat": 48.0681505, "lon": 19.2989024, "tags": {"amenity": "pub", "name:signed": "no", "opening_hours": "Mo-Th 05:00-23:00; Fr 05:00-24:00; Sa 06:00-24:00; Su 06:00-22:00"}}, {"type": "node", "id": 9310833380, "lat": 48.078725, "lon": 19.2960316, "tags": {"alt_name": "T\u00fckr\u00f6s", "amenity": "pub", "name": "Korona"}}, {"type": "node", "id": 9358190032, "lat": 48.0801424, "lon": 19.2999342, "tags": {"amenity": "pub", "name": "S\u00f6r\u00f6z\u0151", "opening_hours": "Fr,Sa 05:00-03:30, Su-Th 05:00-23:30"}}, {"type": "node", "id": 9420429855, "lat": 48.0867834, "lon": 19.428575, "tags": {"amenity": "pub"}}, {"type": "node", "id": 9483575089, "lat": 48.0796093, "lon": 19.2971729, "tags": {"amenity": "pub"}}, {"type": "node", "id": 10225392645, "lat": 47.9227885, "lon": 19.7005114}, {"type": "node", "id": 10225392646, "lat": 47.9228123, "lon": 19.7003974}, {"type": "node", "id": 10225392647, "lat": 47.9228815, "lon": 19.7004296}, {"type": "node", "id": 10225392648, "lat": 47.9228572, "lon": 19.7005369}, {"type": "node", "id": 10225392649, "lat": 47.9228878, "lon": 19.700553}, {"type": "node", "id": 10225392650, "lat": 47.9228707, "lon": 19.7006147}, {"type": "node", "id": 10225392651, "lat": 47.9227332, "lon": 19.7005449}, {"type": "node", "id": 10225392652, "lat": 47.9227467, "lon": 19.7004886}, {"type": "node", "id": 10231920292, "lat": 47.9192734, "lon": 19.6902421}, {"type": "node", "id": 10231920293, "lat": 47.9192725, "lon": 19.6904835}, {"type": "node", "id": 10231920294, "lat": 47.9191673, "lon": 19.6904827}, {"type": "node", "id": 10231920295, "lat": 47.9191682, "lon": 19.6902413}, {"type": "node", "id": 10560110072, "lat": 47.9147544, "lon": 19.6911076}, {"type": "node", "id": 10560110076, "lat": 47.9147241, "lon": 19.691121}, {"type": "node", "id": 10560110077, "lat": 47.9147439, "lon": 19.6912605}, {"type": "node", "id": 10560110078, "lat": 47.9150405, "lon": 19.6911237}, {"type": "node", "id": 10560110079, "lat": 47.9150189, "lon": 19.6909909}, {"type": "way", "id": 220287500, "nodes": [2294152545, 2294152542, 2294152541, 2294152544, 2294152545], "tags": {"amenity": "pub", "building": "yes", "name": "Lila pressz\u00f3", "opening_hours": "Mo-Su 07:00-21:00"}}, {"type": "way", "id": 242245703, "nodes": [2564103520, 2497573226, 2497573227, 2564103521, 2564103520], "tags": {"amenity": "pub", "building": "yes", "name": "Andi Pressz\u00f3", "toilets:wheelchair": "no", "wheelchair": "no"}}, {"type": "way", "id": 283140576, "nodes": [2870526741, 2870526742, 2870526743, 2870526744, 2870526741], "tags": {"addr:city": "Dejt\u00e1r", "addr:housenumber": "1", "addr:postcode": "2649", "addr:street": "Ifj\u00fas\u00e1g \u00fatja", "amenity": "pub", "building": "yes", "name": "Hull\u00e1m S\u00f6r\u00f6z\u0151", "toilets:wheelchair": "limited", "wheelchair": "yes"}}, {"type": "way", "id": 291689405, "nodes": [2951595424, 2951595425, 2951595423, 2951595422, 2951595420, 2951595424], "tags": {"amenity": "pub", "building": "yes", "name": "Malom S\u00f6r\u00f6z\u0151"}}, {"type": "way", "id": 389530030, "nodes": [3926950658, 3926950657, 3926950655, 3926950656, 3926950658], "tags": {"amenity": "pub", "building": "yes", "name": "\u00dcvegtigris2", "source": "F\u0150MI Ortofot\u00f3 2005"}}, {"type": "way", "id": 451073891, "nodes": [4479411840, 4479411831, 4479411812, 4479411820, 4479411840], "tags": {"amenity": "pub", "building": "yes", "name": "Korona pressz\u00f3", "opening_hours": "Mo-Su 07:00-12:00,17:00-20:00"}}, {"type": "way", "id": 492160969, "nodes": [4842061860, 4842061861, 4842061862, 4842061863, 4842061860], "tags": {"addr:city": "Penc", "addr:postcode": "2614", "amenity": "pub", "building": "yes", "name": "Duca Pressz\u00f3", "outdoor_seating": "yes", "source": "survey"}}, {"type": "way", "id": 563051476, "nodes": [5426804674, 5426804671, 5426804672, 5426804673, 5426804674], "tags": {"amenity": "pub", "building": "yes", "name": "Sziszi", "source": "route4u", "toilets:wheelchair": "no", "wheelchair": "no"}}, {"type": "way", "id": 610227163, "nodes": [5779322261, 5779322262, 5779322263, 5779322264, 5779322261], "tags": {"amenity": "pub", "building": "yes", "name": "Pity\u00f3ka", "outdoor_seating": "yes", "toilets:wheelchair": "yes", "wheelchair": "yes"}}, {"type": "way", "id": 631494144, "nodes": [5963567920, 5963567921, 5963567922, 5963567923, 5963567920], "tags": {"amenity": "pub", "building": "yes"}}, {"type": "way", "id": 967784181, "nodes": [8953464614, 8953464615, 8953464616, 8953473617, 8953464614], "tags": {"alt_name": "Lila s\u00f6r\u00f6z\u0151", "amenity": "pub", "building": "yes", "name": "Amico s\u00f6r\u00f6z\u0151"}}, {"type": "way", "id": 973950265, "nodes": [9013368799, 9013368798, 9013368797, 3456335674, 9013368799], "tags": {"amenity": "pub", "name": "B\u00fafelejt\u0151", "source": "turistautak.hu", "source:date": "2011-07-10", "toilets:wheelchair": "no", "url": "http://turistautak.hu/poi.php?id=17900", "wheelchair": "no"}}, {"type": "way", "id": 1118030461, "nodes": [10225392652, 10225392651, 10225392650, 10225392649, 10225392648, 10225392647, 10225392646, 10225392645, 10225392652], "tags": {"addr:city": "P\u00e1szt\u00f3", "addr:housenumber": "96", "addr:postcode": "3060", "addr:street": "F\u0151 utca", "amenity": "pub", "building": "retail", "contact:facebook": "https://www.facebook.com/corner96.paszto/", "name": "Corner96 Cafe & Cocktail Bar", "opening_hours": "Fr-Sa 18:00-04:00"}}, {"type": "way", "id": 1118763071, "nodes": [10231920295, 10231920292, 10231920293, 10231920294, 10231920295], "tags": {"addr:city": "P\u00e1szt\u00f3", "addr:postcode": "3060", "addr:street": "Sport utca", "amenity": "pub", "building": "yes", "name": "\u00c1gasv\u00e1r S\u00f6r\u00f6z\u0151", "smoking": "outside", "toilets:wheelchair": "no", "wheelchair": "no"}}, {"type": "way", "id": 1132551557, "nodes": [10560110079, 10560110078, 10560110077, 10560110076, 10560110072, 10560110079], "tags": {"addr:city": "P\u00e1szt\u00f3", "addr:housenumber": "1", "addr:postcode": "3060", "addr:street": "Haj\u00f3s Alfr\u00e9d utca", "amenity": "pub", "building": "retail", "name": "Pizza Italia & Sport Pub", "source": "local knowledge"}}]}