{"version": 0.6, "generator": "Overpass API 0.7.59 e21c39fe", "osm3s": {"timestamp_osm_base": "2023-01-17T15:17:22Z", "copyright": "The data included in this document is from www.openstreetmap.org. The data is made available under ODbL."}, "elements": [{"type": "node", "id": 1532677303, "lat": 46.9640096, "lon": 17.873007, "tags": {"amenity": "pub", "name": "Joker Pub"}}, {"type": "node", "id": 1684505945, "lat": 46.9741457, "lon": 17.9311353, "tags": {"addr:city": "Csopak", "addr:housenumber": "2", "addr:postcode": "8229", "addr:street": "F\u00fcrd\u0151 utca", "amenity": "pub", "contact:facebook": "https://www.facebook.com/stop.csopak/", "name": "Stop s\u00f6r\u00f6z\u0151", "toilets:wheelchair": "no", "wheelchair": "no"}}, {"type": "node", "id": 1693567245, "lat": 47.1350384, "lon": 17.5475653, "tags": {"amenity": "pub", "name": "Kuck\u00f3 Pressz\u00f3", "toilets:wheelchair": "no", "wheelchair": "no", "wheelchair:description": "l\u00e9pcs\u0151 nem akad\u00e1lymentes"}}, {"type": "node", "id": 1710107048, "lat": 47.096088, "lon": 17.5346947, "tags": {"amenity": "pub"}}, {"type": "node", "id": 1710107081, "lat": 47.0957659, "lon": 17.534902, "tags": {"amenity": "pub"}}, {"type": "node", "id": 1710107290, "lat": 47.0954181, "lon": 17.5349722, "tags": {"amenity": "pub", "toilets:wheelchair": "no", "wheelchair": "no", "wheelchair:description": "nem akadalymentes"}}, {"type": "node", "id": 1710124673, "lat": 47.0998778, "lon": 17.5433993, "tags": {"amenity": "pub"}}, {"type": "node", "id": 1710124690, "lat": 47.0927795, "lon": 17.5323376, "tags": {"amenity": "pub"}}, {"type": "node", "id": 1710149745, "lat": 47.1038304, "lon": 17.5543102, "tags": {"amenity": "pub"}}, {"type": "node", "id": 1777235129, "lat": 47.1024383, "lon": 17.8993302, "tags": {"amenity": "pub", "name": "Orgona", "toilets:wheelchair": "no", "wheelchair": "no"}}, {"type": "node", "id": 1778391601, "lat": 47.1022007, "lon": 17.9018331, "tags": {"amenity": "pub", "name": "Bagoly", "toilets:wheelchair": "no", "wheelchair": "no"}}, {"type": "node", "id": 1796822462, "lat": 47.0859456, "lon": 17.9083553, "tags": {"amenity": "pub", "name": "H\u00f3vir\u00e1g pressz\u00f3"}}, {"type": "node", "id": 1796822493, "lat": 47.093201, "lon": 17.9090639, "tags": {"amenity": "pub", "name": "S\u00f6rpince", "opening_hours": "Mo,Tu 10:00-24:00; We-Fr 00:00-02:00,10:00-24:00; Sa,Su 00:00-04:00,16:00-24:00", "toilets:wheelchair": "no", "wheelchair": "no"}}, {"type": "node", "id": 1796875630, "lat": 47.0926655, "lon": 17.9099879, "tags": {"amenity": "pub", "level": "-1", "name": "Grand Canyon", "opening_hours": "Tu,We 18:00-24:00; Th 00:00-02:00,18:00-24:00; Fr,Sa 00:00-04:00,18:00-24:00; Su 00:00-04:00", "toilets:wheelchair": "no", "wheelchair": "no"}}, {"type": "node", "id": 1796875632, "lat": 47.0915116, "lon": 17.9119419, "tags": {"amenity": "pub", "name": "Metr\u00f3", "wheelchair": "yes"}}, {"type": "node", "id": 1868851930, "lat": 47.0869877, "lon": 17.4744352}, {"type": "node", "id": 1868851979, "lat": 47.0870589, "lon": 17.4743984}, {"type": "node", "id": 1868852005, "lat": 47.0865878, "lon": 17.4748921}, {"type": "node", "id": 1868852047, "lat": 47.0871122, "lon": 17.4746206}, {"type": "node", "id": 1868852077, "lat": 47.0865544, "lon": 17.4747529}, {"type": "node", "id": 1868852097, "lat": 47.0870076, "lon": 17.4745183}, {"type": "node", "id": 1878134107, "lat": 47.0661209, "lon": 17.3494454}, {"type": "node", "id": 1878134117, "lat": 47.0660367, "lon": 17.3492913}, {"type": "node", "id": 1878134168, "lat": 47.0659533, "lon": 17.3494951}, {"type": "node", "id": 1878134308, "lat": 47.0659393, "lon": 17.3493936}, {"type": "node", "id": 1878134330, "lat": 47.0660972, "lon": 17.3492733}, {"type": "node", "id": 1878134367, "lat": 47.0660464, "lon": 17.3493619}, {"type": "node", "id": 1905595258, "lat": 47.0698679, "lon": 17.3612078}, {"type": "node", "id": 1905595263, "lat": 47.069856, "lon": 17.3611076}, {"type": "node", "id": 1905595290, "lat": 47.0697643, "lon": 17.3612343}, {"type": "node", "id": 1905595325, "lat": 47.0697722, "lon": 17.3613013}, {"type": "node", "id": 1905595335, "lat": 47.0696498, "lon": 17.3613326}, {"type": "node", "id": 1905595404, "lat": 47.0696299, "lon": 17.3611655}, {"type": "node", "id": 1916197009, "lat": 46.9279544, "lon": 17.669459, "tags": {"amenity": "pub", "toilets:wheelchair": "no", "wheelchair": "no"}}, {"type": "node", "id": 1949295413, "lat": 47.0045211, "lon": 17.4547253, "tags": {"addr:postcode": "8454", "amenity": "pub", "name": "Dallas vend\u00e9gl\u0151"}}, {"type": "node", "id": 1952208025, "lat": 47.0051347, "lon": 17.4511978, "tags": {"amenity": "pub", "name": "Fagy\u00f6ngy", "toilets:wheelchair": "no", "wheelchair": "no", "wheelchair:description": "l\u00e9pcs\u0151 nem akad\u00e1lymentes"}}, {"type": "node", "id": 1952211867, "lat": 47.003264, "lon": 17.4462335, "tags": {"amenity": "pub"}}, {"type": "node", "id": 2018604532, "lat": 47.0842866, "lon": 17.9127719}, {"type": "node", "id": 2018604544, "lat": 47.0842126, "lon": 17.912642}, {"type": "node", "id": 2018604557, "lat": 47.0842648, "lon": 17.9126941}, {"type": "node", "id": 2018604559, "lat": 47.0841431, "lon": 17.9128707}, {"type": "node", "id": 2018604580, "lat": 47.0841114, "lon": 17.9127573}, {"type": "node", "id": 2018604637, "lat": 47.0842688, "lon": 17.9128674}, {"type": "node", "id": 2018769485, "lat": 47.0839205, "lon": 17.9194531}, {"type": "node", "id": 2018769488, "lat": 47.0838651, "lon": 17.9192957}, {"type": "node", "id": 2018769530, "lat": 47.083736, "lon": 17.9195932}, {"type": "node", "id": 2018769547, "lat": 47.0836805, "lon": 17.9194358}, {"type": "node", "id": 2122637116, "lat": 47.1006008, "lon": 17.8921856, "tags": {"amenity": "pub", "name": "111. italbolt", "toilets:wheelchair": "limited", "wheelchair": "yes"}}, {"type": "node", "id": 2155068038, "lat": 47.0942771, "lon": 17.9087788, "tags": {"amenity": "pub", "name": "Sax pub", "smoking": "no", "toilets:wheelchair": "no", "wheelchair": "limited"}}, {"type": "node", "id": 2213721707, "lat": 47.2521237, "lon": 17.7283191}, {"type": "node", "id": 2213745279, "lat": 47.2521392, "lon": 17.7283953}, {"type": "node", "id": 2213745281, "lat": 47.2521861, "lon": 17.7283745}, {"type": "node", "id": 2213747057, "lat": 47.2521558, "lon": 17.7283879}, {"type": "node", "id": 2213803012, "lat": 47.2540504, "lon": 17.7326411}, {"type": "node", "id": 2213803013, "lat": 47.2538934, "lon": 17.73232}, {"type": "node", "id": 2213803014, "lat": 47.2541098, "lon": 17.7325902}, {"type": "node", "id": 2213803015, "lat": 47.25409, "lon": 17.7321514}, {"type": "node", "id": 2231916034, "lat": 47.0929325, "lon": 17.9072352, "tags": {"addr:city": "Veszpr\u00e9m", "addr:housenumber": "2", "addr:postcode": "8200", "addr:street": "Szabads\u00e1g t\u00e9r", "amenity": "pub", "contact:email": "info.feszeksorozo@gmail.com", "contact:facebook": "https://www.facebook.com/veszpremfeszeksorozo/", "contact:phone": "+36 70 220 8246", "name": "F\u00e9szek s\u00f6r\u00f6z\u0151", "outdoor_seating": "yes", "toilets:wheelchair": "no", "wheelchair": "no"}}, {"type": "node", "id": 2231916260, "lat": 47.0929146, "lon": 17.9070095, "tags": {"addr:city": "Veszpr\u00e9m", "addr:housenumber": "1", "addr:postcode": "8200", "addr:street": "Vir\u00e1g Benedek utca", "amenity": "pub", "contact:phone": "+36 88 420 319", "contact:website": "http://www.irpub.hu/", "name": "Skorpi\u00f3 Irish Pub", "old_name": "Lok\u00e1l patri\u00f3ta b\u00e1r", "opening_hours": "Mo-Sa 11:00-01:00", "operator": "M\u00fcller M\u00f3nika", "operator:addr": "8200 Veszpr\u00e9m, Endr\u0151di S\u00e1ndor utca 40. 2. emelet 10. ajt\u00f3", "outdoor_seating": "yes", "toilets:wheelchair": "no", "wheelchair": "no"}}, {"type": "node", "id": 2231992543, "lat": 47.1035108, "lon": 17.9129434, "tags": {"amenity": "pub", "level": "0", "name": "V\u00f6r\u00f6s b\u00f6l\u00e9ny"}}, {"type": "node", "id": 2231992568, "lat": 47.1036732, "lon": 17.9201985, "tags": {"amenity": "pub", "name": "Napf\u00e9ny pressz\u00f3", "toilets:wheelchair": "no", "wheelchair": "no"}}, {"type": "node", "id": 2231992569, "lat": 47.0919224, "lon": 17.9126894, "tags": {"amenity": "pub", "name": "\u00c1d\u00e1m s\u00f6r\u00f6z\u0151"}}, {"type": "node", "id": 2299916131, "lat": 47.2539348, "lon": 17.7324248}, {"type": "node", "id": 2299916132, "lat": 47.2539574, "lon": 17.7324055}, {"type": "node", "id": 2299916133, "lat": 47.254007, "lon": 17.7323298}, {"type": "node", "id": 2299916134, "lat": 47.2541216, "lon": 17.7322315}, {"type": "node", "id": 2348191905, "lat": 47.0848864, "lon": 17.905194, "tags": {"amenity": "pub"}}, {"type": "node", "id": 2354480773, "lat": 47.1091266, "lon": 17.9200172, "tags": {"addr:city": "Veszpr\u00e9m", "addr:country": "HU", "addr:postcode": "8200", "addr:suburb": "Bakonyalja", "amenity": "pub", "name": "Amigo pressz\u00f3", "toilets:wheelchair": "no", "wheelchair": "yes"}}, {"type": "node", "id": 2354480797, "lat": 47.1087813, "lon": 17.9205752, "tags": {"amenity": "pub"}}, {"type": "node", "id": 2355007294, "lat": 47.1031684, "lon": 17.9299535, "tags": {"addr:city": "Veszpr\u00e9m", "addr:housenumber": "55", "addr:postcode": "8200", "addr:street": "K\u00e1d\u00e1rtai \u00fat", "amenity": "pub", "name": "T\u00f6lgyfa s\u00f6r\u00f6z\u0151", "opening_hours": "07:00-21:00", "smoking": "outside"}}, {"type": "node", "id": 2355071160, "lat": 47.1056693, "lon": 17.9153317, "tags": {"amenity": "pub", "toilets:wheelchair": "no", "wheelchair": "no"}}, {"type": "node", "id": 2362065611, "lat": 47.10397, "lon": 17.9171014, "tags": {"amenity": "pub", "name": "Pezsg\u0151b\u00e1r"}}, {"type": "node", "id": 2380145221, "lat": 46.9542592, "lon": 17.6044216, "tags": {"addr:city": "Kapolcs", "addr:country": "HU", "addr:postcode": "8294", "amenity": "pub", "name": "Pokol-lik korcsma"}}, {"type": "node", "id": 2380145234, "lat": 46.9553415, "lon": 17.6072539, "tags": {"addr:city": "Kapolcs", "addr:country": "HU", "addr:postcode": "8294", "amenity": "pub", "name": "Kir\u00e1lyk\u0151 kocsma"}}, {"type": "node", "id": 2414313886, "lat": 47.0536115, "lon": 17.874428, "tags": {"amenity": "pub", "toilets:wheelchair": "no", "wheelchair": "no"}}, {"type": "node", "id": 2473769401, "lat": 47.2521705, "lon": 17.7282983}, {"type": "node", "id": 2482128001, "lat": 47.255623, "lon": 17.722408}, {"type": "node", "id": 2482128002, "lat": 47.2555642, "lon": 17.7222705}, {"type": "node", "id": 2482128003, "lat": 47.2554862, "lon": 17.7223429}, {"type": "node", "id": 2482128004, "lat": 47.255545, "lon": 17.7224804}, {"type": "node", "id": 2482128007, "lat": 47.2555977, "lon": 17.7223489}, {"type": "node", "id": 2499504514, "lat": 47.1076874, "lon": 17.9227139, "tags": {"amenity": "pub", "toilets:wheelchair": "no", "wheelchair": "no"}}, {"type": "node", "id": 2520850567, "lat": 47.2519875, "lon": 17.7289691, "tags": {"addr:city": "Bakonyb\u00e9l", "addr:housenumber": "4", "addr:postcode": "8427", "addr:street": "F\u0151 utca", "amenity": "pub", "name": "Beli", "wheelchair": "limited"}}, {"type": "node", "id": 2624792804, "lat": 47.1070315, "lon": 17.9118351}, {"type": "node", "id": 2624792805, "lat": 47.1070412, "lon": 17.9119418}, {"type": "node", "id": 2624792806, "lat": 47.1071022, "lon": 17.9118213}, {"type": "node", "id": 2624792807, "lat": 47.1071119, "lon": 17.911928}, {"type": "node", "id": 2665386443, "lat": 47.2333402, "lon": 17.785036, "tags": {"addr:city": "P\u00e9nzesgy\u0151r", "addr:housenumber": "10/A", "addr:postcode": "8426", "addr:street": "B\u00e9ke utca", "amenity": "pub", "name": "Hajni Pressz\u00f3", "opening_hours": "Mo-Fr 06:00-09:00,15:30-21:00; Sa-Su 06:00-12:00,15:30-21:00"}}, {"type": "node", "id": 2666819869, "lat": 47.2298105, "lon": 17.7897825}, {"type": "node", "id": 2666819870, "lat": 47.2296973, "lon": 17.7897639}, {"type": "node", "id": 2666819871, "lat": 47.2296804, "lon": 17.7899868}, {"type": "node", "id": 2666819872, "lat": 47.2297936, "lon": 17.7900054}, {"type": "node", "id": 2751991788, "lat": 47.1482753, "lon": 17.6536353, "tags": {"amenity": "pub", "wheelchair": "yes"}}, {"type": "node", "id": 2828704264, "lat": 47.0063409, "lon": 17.7876559}, {"type": "node", "id": 2828704268, "lat": 47.0064039, "lon": 17.7875984}, {"type": "node", "id": 2828704277, "lat": 47.0065265, "lon": 17.7880931}, {"type": "node", "id": 2828704280, "lat": 47.0065895, "lon": 17.7880355}, {"type": "node", "id": 2841969308, "lat": 46.9886334, "lon": 17.7018402}, {"type": "node", "id": 2841969309, "lat": 46.988649, "lon": 17.7016482}, {"type": "node", "id": 2841969314, "lat": 46.988748, "lon": 17.7018602}, {"type": "node", "id": 2841969316, "lat": 46.9887636, "lon": 17.7016682}, {"type": "node", "id": 2892428412, "lat": 47.092786, "lon": 17.9100054, "tags": {"amenity": "pub", "level": "1", "name": "Hangulat"}}, {"type": "node", "id": 2903328048, "lat": 46.9461629, "lon": 17.6998628, "tags": {"amenity": "pub", "source": "survey", "wheelchair": "yes"}}, {"type": "node", "id": 2936572947, "lat": 47.1323488, "lon": 17.7523632, "tags": {"addr:city": "Herend", "addr:housenumber": "138", "addr:postcode": "8440", "addr:street": "Kossuth Lajos utca", "amenity": "pub", "name": "Rodeo Pub", "opening_hours": "Mo-Th 14:00-22:00; Fr-Sa 14:00-03:00; Su 14:00-21:30", "wheelchair": "no"}}, {"type": "node", "id": 2936577254, "lat": 47.1314866, "lon": 17.7521615, "tags": {"addr:city": "Herend", "addr:housenumber": "6", "addr:postcode": "8440", "addr:street": "Fischer M\u00f3r s\u00e9t\u00e1ny", "amenity": "pub", "name": "Imbisz s\u00e9t\u00e1ny S\u00f6r\u00f6z\u0151", "wheelchair": "no"}}, {"type": "node", "id": 2936944268, "lat": 47.1325427, "lon": 17.7580037, "tags": {"addr:city": "Herend", "addr:housenumber": "7/b", "addr:postcode": "8440", "addr:street": "Fasor utca", "amenity": "pub", "name": "Fasor s\u00f6r\u00f6z\u0151"}}, {"type": "node", "id": 2936944269, "lat": 47.1319488, "lon": 17.7565258, "tags": {"addr:city": "Herend", "addr:housenumber": "3", "addr:postcode": "8440", "addr:street": "Fasor utca", "amenity": "pub", "name": "Kapufa kiskocsma", "wheelchair": "yes"}}, {"type": "node", "id": 2940514321, "lat": 47.1345277, "lon": 17.7390951, "tags": {"addr:city": "Herend", "addr:housenumber": "14", "addr:postcode": "8440", "addr:street": "Kossuth Lajos utca", "amenity": "pub", "name": "H\u00e1rsfa B\u00fcf\u00e9", "wheelchair": "no"}}, {"type": "node", "id": 2956283928, "lat": 46.955897, "lon": 17.8783087, "tags": {"amenity": "pub"}}, {"type": "node", "id": 2960277500, "lat": 46.9548297, "lon": 17.8944426, "tags": {"addr:city": "Balatonf\u00fcred", "addr:housenumber": "5", "addr:postcode": "8230", "addr:street": "Kisfaludy utca", "alt_name": "Borh\u00e1z \u00e9s Pizzah\u00e1z", "amenity": "pub", "contact:instagram": "https://www.instagram.com/borhazpizza/", "cuisine": "pizza;gyros", "delivery": "Mo-Su 12:00-22:00", "email": "info@borhazpizzahaz.hu", "name": "K\u00f6nig Borh\u00e1z", "name:de": "K\u00f6nig Weinhaus", "opening_hours": "Mo-Su 11:00-23:00", "opening_hours:kitchen": "Mo-Su 12:00-22:00", "operator": "DAVI-PLAY Kft.", "operator:addr": "1027 Budapest, Bem J\u00f3zsef utca 6. f\u00f6ldszint", "outdoor_seating": "yes", "payment:cash": "yes", "payment:credit_cards": "no", "payment:debit_cards": "no", "phone": "+36 70 230 9873", "ref:HU:vatin": "23993596-2-41", "self_service": "yes", "smoking": "outside", "source": "route4u", "takeaway": "yes", "toilets:wheelchair": "no", "website": "http://borhazpizzahaz.hu/", "wheelchair": "limited"}}, {"type": "node", "id": 2980086797, "lat": 47.2098129, "lon": 17.487722, "tags": {"amenity": "pub", "name": "Kisvad\u00e1sz B\u00fcf\u00e9 - Falatoz\u00f3", "wheelchair": "no"}}, {"type": "node", "id": 2996260891, "lat": 46.9551646, "lon": 17.891495, "tags": {"amenity": "pub", "name": "R\u00e9zangyal p\u00e1linkah\u00e1z", "wheelchair": "limited"}}, {"type": "node", "id": 2996260901, "lat": 46.9622752, "lon": 17.8771856, "tags": {"amenity": "pub", "toilets:wheelchair": "no", "wheelchair": "no"}}, {"type": "node", "id": 3128962978, "lat": 46.9714095, "lon": 17.7231732}, {"type": "node", "id": 3128962979, "lat": 46.9715083, "lon": 17.7231276}, {"type": "node", "id": 3128967932, "lat": 46.9713943, "lon": 17.7231024}, {"type": "node", "id": 3128967933, "lat": 46.9714932, "lon": 17.7230568}, {"type": "node", "id": 3251758133, "lat": 47.2803106, "lon": 17.5222775}, {"type": "node", "id": 3251758134, "lat": 47.2803194, "lon": 17.5224335}, {"type": "node", "id": 3251758146, "lat": 47.2804748, "lon": 17.5224145}, {"type": "node", "id": 3251758148, "lat": 47.2804825, "lon": 17.5225532}, {"type": "node", "id": 3251758156, "lat": 47.2805585, "lon": 17.5222473}, {"type": "node", "id": 3251758157, "lat": 47.280575, "lon": 17.522542}, {"type": "node", "id": 3257238347, "lat": 47.2299577, "lon": 17.834648, "tags": {"amenity": "pub"}}, {"type": "node", "id": 3327448961, "lat": 47.0893194, "lon": 17.5653906, "tags": {"amenity": "pub", "name": "P\u00e1tkai kocsma", "source": "turistautak.hu", "url": "http://turistautak.hu/poi.php?id=19715"}}, {"type": "node", "id": 3327566811, "lat": 47.2070551, "lon": 17.6238473, "tags": {"amenity": "pub", "fixme": "resurvey", "name": "Bor\u00f3ka bet\u00e9r\u0151", "source": "turistautak.hu", "url": "http://turistautak.hu/poi.php?id=37460", "wheelchair": "no"}}, {"type": "node", "id": 3353580320, "lat": 47.11261, "lon": 17.733976, "tags": {"amenity": "pub", "source": "turistautak.hu", "url": "http://turistautak.hu/poi.php?id=97008"}}, {"type": "node", "id": 3354794869, "lat": 47.0584874, "lon": 17.8729208, "tags": {"amenity": "pub", "name": "Sport Club s\u00f6r\u00f6z\u0151", "source": "turistautak.hu", "url": "http://turistautak.hu/poi.php?id=77574"}}, {"type": "node", "id": 3354808121, "lat": 47.059899, "lon": 17.916732, "tags": {"amenity": "pub", "fixme": "which building?", "name": "Marika pressz\u00f3", "source": "turistautak.hu", "toilets:wheelchair": "no", "url": "http://turistautak.hu/poi.php?id=139674", "wheelchair": "no"}}, {"type": "node", "id": 3382443161, "lat": 47.2633195, "lon": 17.8717419, "tags": {"amenity": "pub", "name": "Liget pressz\u00f3", "wheelchair": "no"}}, {"type": "node", "id": 3382443696, "lat": 47.2900567, "lon": 17.8364845}, {"type": "node", "id": 3382443703, "lat": 47.2900928, "lon": 17.8364209}, {"type": "node", "id": 3382443709, "lat": 47.290112, "lon": 17.8365506}, {"type": "node", "id": 3382443712, "lat": 47.2901472, "lon": 17.8364845}, {"type": "node", "id": 3439475595, "lat": 47.0976, "lon": 17.909117, "tags": {"addr:city": "Veszpr\u00e9m", "addr:housenumber": "15", "addr:postcode": "8200", "addr:street": "Fenyves utca", "amenity": "pub", "description": "R\u00e9szletes inform\u00e1ci\u00f3 el\u00e9rhet\u0151 <a href=\"http://www.hotelmalomkert.hu/Sorhaz\"> innen</a>.", "email": "sales@hotelmalomkert.hu", "name": "Malomkert s\u00f6rh\u00e1z", "phone": "+36 88 579 230", "source": "turistautak.hu", "source:date": "2012-10-22", "url": "http://turistautak.hu/poi.php?id=146238", "website": "https://www.hotelmalomkert.hu/Sorhaz", "wheelchair": "yes"}}, {"type": "node", "id": 3439475650, "lat": 47.0771738, "lon": 17.9101183, "tags": {"amenity": "pub", "source": "turistautak.hu", "source:date": "2012-06-25", "toilets:wheelchair": "no", "url": "http://turistautak.hu/poi.php?id=140601", "wheelchair": "no"}}, {"type": "node", "id": 3439631853, "lat": 46.9822617, "lon": 17.6959912, "tags": {"amenity": "pub", "name": "Kinizsi s\u00f6r\u00f6z\u0151", "source": "turistautak.hu", "source:date": "2013-08-13", "url": "http://turistautak.hu/poi.php?id=157874", "wheelchair": "yes"}}, {"type": "node", "id": 3448565438, "lat": 46.924067, "lon": 17.551834, "tags": {"amenity": "pub", "name": "Mostori bet\u00e9r\u0151", "source": "turistautak.hu", "source:date": "2012-03-19", "url": "http://turistautak.hu/poi.php?id=135843"}}, {"type": "node", "id": 3448565553, "lat": 46.979833, "lon": 17.568733, "tags": {"amenity": "pub", "name": "Klastrom kocsma, fagyiz\u00f3", "source": "turistautak.hu", "source:date": "2011-05-26", "url": "http://turistautak.hu/poi.php?id=26104"}}, {"type": "node", "id": 3458274094, "lat": 47.223732, "lon": 17.599042, "tags": {"amenity": "pub", "name": "CLUB 83", "source": "turistautak.hu", "source:date": "2013-04-14", "url": "http://turistautak.hu/poi.php?id=11907"}}, {"type": "node", "id": 3458274131, "lat": 47.229203, "lon": 17.423033, "tags": {"amenity": "pub", "name": "Italbolt", "source": "turistautak.hu", "source:date": "2011-06-25", "url": "http://turistautak.hu/poi.php?id=28022"}}, {"type": "node", "id": 3458274149, "lat": 47.313578, "lon": 17.602587, "tags": {"amenity": "pub", "description": "H-V 6-22", "name": "Magdi pressz\u00f3", "source": "turistautak.hu", "source:date": "2011-06-25", "url": "http://turistautak.hu/poi.php?id=10423"}}, {"type": "node", "id": 3458274342, "lat": 47.315417, "lon": 17.433783, "tags": {"amenity": "pub", "name": "Piccolo", "source": "turistautak.hu", "source:date": "2013-06-16", "url": "http://turistautak.hu/poi.php?id=155012"}}, {"type": "node", "id": 3458274501, "lat": 47.22515, "lon": 17.597908, "tags": {"amenity": "pub", "name": "Vadgesztenye", "source": "turistautak.hu", "source:date": "2012-03-29", "url": "http://turistautak.hu/poi.php?id=12940"}}, {"type": "node", "id": 3458341820, "lat": 46.955017, "lon": 17.7881, "tags": {"amenity": "pub", "description": "kocsma a buszmeg\u00e1ll\u00f3 mellett", "name": "Z\u00e1dor Bisztr\u00f3", "source": "turistautak.hu", "source:date": "2010-09-26", "toilets:wheelchair": "no", "url": "http://turistautak.hu/poi.php?id=12911", "wheelchair": "no"}}, {"type": "node", "id": 3459862563, "lat": 47.261247, "lon": 17.866343, "tags": {"amenity": "pub", "name": "Anita eszpressz\u00f3", "source": "turistautak.hu", "source:date": "2011-06-25", "url": "http://turistautak.hu/poi.php?id=43844"}}, {"type": "node", "id": 3459862579, "lat": 47.256575, "lon": 17.865593, "tags": {"amenity": "pub", "name": "Berger s\u00f6r\u00f6z\u0151", "source": "turistautak.hu", "source:date": "2011-06-25", "url": "http://turistautak.hu/poi.php?id=90837"}}, {"type": "node", "id": 3459881569, "lat": 47.28335, "lon": 17.904167, "tags": {"amenity": "pub", "source": "turistautak.hu", "source:date": "2011-06-25", "url": "http://turistautak.hu/poi.php?id=6732"}}, {"type": "node", "id": 3459883882, "lat": 47.26584, "lon": 17.862829, "tags": {"amenity": "pub", "name": "Sziklakert s\u00f6r\u00f6z\u0151", "source": "turistautak.hu", "source:date": "2013-06-21", "url": "http://turistautak.hu/poi.php?id=155276"}}, {"type": "node", "id": 3459885311, "lat": 47.290237, "lon": 17.82981, "tags": {"amenity": "pub", "name": "Ziccer s\u00f6r\u00f6z\u0151 (b\u00e9lyegz\u0151hely)", "source": "turistautak.hu", "source:date": "2011-06-25", "url": "http://turistautak.hu/poi.php?id=20610"}}, {"type": "node", "id": 3466279798, "lat": 47.006773, "lon": 17.454478, "tags": {"amenity": "pub", "name": "S\u00f6rkert", "source": "turistautak.hu", "source:date": "2011-05-26", "url": "http://turistautak.hu/poi.php?id=26700"}}, {"type": "node", "id": 3466280196, "lat": 47.063638, "lon": 17.552541, "tags": {"amenity": "pub", "name": "K\u00fati Pressz\u00f3", "source": "local knowledge", "source:date": "2011-05-26", "url": "http://turistautak.hu/poi.php?id=99466"}}, {"type": "node", "id": 3466280207, "lat": 47.13605, "lon": 17.572017, "tags": {"amenity": "pub", "name": "Romantika s\u00f6r\u00f6z\u0151", "source": "turistautak.hu", "source:date": "2011-06-25", "url": "http://turistautak.hu/poi.php?id=23519"}}, {"type": "node", "id": 3466280212, "lat": 47.182017, "lon": 17.683746, "tags": {"amenity": "pub", "name": "Sziti", "source": "turistautak.hu", "source:date": "2011-06-25", "url": "http://turistautak.hu/poi.php?id=81968"}}, {"type": "node", "id": 3466293410, "lat": 47.142289, "lon": 17.376588, "tags": {"amenity": "pub", "name": "Ede b\u00e1csi pinc\u00e9je", "source": "turistautak.hu", "source:date": "2013-04-20", "tourism": "wine_cellar", "url": "http://turistautak.hu/poi.php?id=57694"}}, {"type": "node", "id": 3466293415, "lat": 47.158697, "lon": 17.361713, "tags": {"amenity": "pub", "name": "Hegyk\u00fat vend\u00e9gl\u0151", "source": "turistautak.hu", "source:date": "2013-04-20", "toilets:wheelchair": "no", "url": "http://turistautak.hu/poi.php?id=21196", "wheelchair": "no"}}, {"type": "node", "id": 3466293426, "lat": 47.123902, "lon": 17.369256, "tags": {"amenity": "pub", "name": "Pedr\u00f3 b\u00e1r", "source": "turistautak.hu", "source:date": "2011-06-25", "url": "http://turistautak.hu/poi.php?id=98653"}}, {"type": "node", "id": 3466293427, "lat": 47.142244, "lon": 17.376339, "tags": {"amenity": "pub", "name": "Puchinger pince (Feri papa pinc\u00e9je)", "source": "turistautak.hu", "source:date": "2013-04-20", "tourism": "wine_cellar", "url": "http://turistautak.hu/poi.php?id=80003"}}, {"type": "node", "id": 3466293436, "lat": 47.154563, "lon": 17.379558, "tags": {"amenity": "pub", "name": "Szent M\u00e1rton boroz\u00f3", "source": "turistautak.hu", "source:date": "2013-04-20", "url": "http://turistautak.hu/poi.php?id=59972"}}, {"type": "node", "id": 3466293442, "lat": 47.060008, "lon": 17.450073, "tags": {"amenity": "pub", "source": "turistautak.hu", "source:date": "2011-05-26", "url": "http://turistautak.hu/poi.php?id=18442"}}, {"type": "node", "id": 3651274235, "lat": 47.2306156, "lon": 17.525938, "tags": {"amenity": "pub"}}, {"type": "node", "id": 3777964499, "lat": 47.1056617, "lon": 17.5722209, "tags": {"amenity": "pub", "contact:facebook": "https://facebook.com/smaragdbufe", "contact:phone": "+36 88 201 088", "name": "Smaragd B\u00fcf\u00e9", "source": "survey", "wheelchair": "limited"}}, {"type": "node", "id": 3806371262, "lat": 46.9752249, "lon": 17.9331736, "tags": {"addr:city": "Csopak", "addr:housenumber": "2", "addr:postcode": "8229", "addr:street": "Mandulavir\u00e1g utca", "amenity": "pub", "name": "J\u00e1sdi Vinot\u00e9ka \u00e9s Borb\u00e1r", "website": "http://www.jasdipince.hu/"}}, {"type": "node", "id": 3813013472, "lat": 46.95227, "lon": 17.8914599, "tags": {"addr:city": "Balatonf\u00fcred", "addr:housenumber": "4", "addr:postcode": "8230", "addr:street": "Z\u00e1konyi Ferenc utca", "amenity": "pub", "name": "FELIX", "website": "https://www.facebook.com/felixwinebar.balatonfured/"}}, {"type": "node", "id": 4353606623, "lat": 46.9817276, "lon": 17.9282832, "tags": {"amenity": "pub", "name": "J\u00e1sdi Borterasz", "website": "http://www.jasdipince.hu/?hu_j%E1sdi-borterasz,27"}}, {"type": "node", "id": 4533855679, "lat": 47.3034404, "lon": 17.5415764, "tags": {"addr:city": "Ad\u00e1sztevel", "addr:housename": "Vadgesztenye Pressz\u00f3", "addr:housenumber": "56", "addr:postcode": "8561", "addr:street": "\u00c1rp\u00e1d utca", "amenity": "pub", "name": "Vadgesztenye Pressz\u00f3", "wheelchair": "no", "wifi": "no"}}, {"type": "node", "id": 4547896564, "lat": 47.3047105, "lon": 17.5390235, "tags": {"addr:city": "Ad\u00e1sztevel", "addr:housenumber": "2", "addr:postcode": "8561", "addr:street": "\u00c1rp\u00e1d utca", "amenity": "pub", "name": "Sutton Boroz\u00f3", "smoking": "outside", "wheelchair": "limited"}}, {"type": "node", "id": 4632545037, "lat": 47.1478644, "lon": 17.6538891}, {"type": "node", "id": 4632545038, "lat": 47.147875, "lon": 17.6537478}, {"type": "node", "id": 4632545039, "lat": 47.1478985, "lon": 17.6536703}, {"type": "node", "id": 4632545040, "lat": 47.147902, "lon": 17.6537655}, {"type": "node", "id": 4632545041, "lat": 47.1479289, "lon": 17.6539315}, {"type": "node", "id": 4632545042, "lat": 47.14799, "lon": 17.6537304}, {"type": "node", "id": 4933469042, "lat": 46.965971, "lon": 17.890129, "tags": {"amenity": "pub", "fixme": "verify", "name": "Bodor Boroz\u00f3", "source": "route4u", "toilets:wheelchair": "no", "wheelchair": "no"}}, {"type": "node", "id": 4933469054, "lat": 46.9688699, "lon": 17.9305482, "tags": {"amenity": "pub", "fixme": "verify", "name": "Hotel Holiday B\u00e1r", "source": "route4u", "toilets:wheelchair": "no", "wheelchair": "no"}}, {"type": "node", "id": 4933469057, "lat": 46.9707932, "lon": 17.9379016, "tags": {"amenity": "pub", "fixme": "verify", "name": "Csopak Boroz\u00f3", "source": "route4u", "toilets:wheelchair": "no", "wheelchair": "yes"}}, {"type": "node", "id": 4933472018, "lat": 47.0994755, "lon": 17.9107936, "tags": {"amenity": "pub", "fixme": "verify", "name": "M\u00fcf\u00fc B\u00fcf\u00fc", "source": "route4u", "toilets:wheelchair": "no", "wheelchair": "no"}}, {"type": "node", "id": 4933472310, "lat": 47.1130635, "lon": 17.736417, "tags": {"amenity": "pub", "name": "Bakony S\u00f6r\u00f6z\u0151", "wheelchair": "no"}}, {"type": "node", "id": 4933472555, "lat": 47.1660835, "lon": 17.3785062, "tags": {"amenity": "pub", "fixme": "verify", "name": "Italbolt", "opening_hours": "Mo-Su 06:00-21:00", "source": "route4u", "toilets:wheelchair": "no", "wheelchair": "no"}}, {"type": "node", "id": 4933472844, "lat": 47.2989181, "lon": 17.4474015, "tags": {"addr:city": "P\u00e1pa", "addr:postcode": "8591", "amenity": "pub", "name": "Aranyf\u00fcrt Boroz\u00f3", "source": "route4u"}}, {"type": "node", "id": 4933472869, "lat": 47.3068276, "lon": 17.3406775, "tags": {"amenity": "pub", "fixme": "verify", "name": "Italbolt", "source": "route4u", "toilets:wheelchair": "no", "wheelchair": "no"}}, {"type": "node", "id": 4933472960, "lat": 47.2730788, "lon": 17.4568427, "tags": {"amenity": "pub", "name": "45 sz Italbolt", "wheelchair": "no"}}, {"type": "node", "id": 4933472974, "lat": 47.2796927, "lon": 17.3624519, "tags": {"amenity": "pub", "name": "Steffl S\u00f6r\u00f6z\u0151", "wheelchair": "no"}}, {"type": "node", "id": 4939174835, "lat": 47.093161, "lon": 17.9067696, "tags": {"addr:city": "Veszpr\u00e9m", "addr:housenumber": "3", "addr:postcode": "8200", "addr:street": "Horgos utca", "air_conditioning": "yes", "amenity": "pub", "brewery": "Soproni;Kru\u0161ovice;Soproni_IPA;Mort_Suibite", "email": "grundbar2016@gmail.com", "internet_access": "wlan", "internet_access:ssid": "Grund", "name": "Grund-A Sport B\u00e1r", "outdoor_seating": "no", "payment:cash": "yes", "payment:maestro": "yes", "payment:mastercard": "yes", "payment:visa": "yes", "phone": "+36 88 875 217", "smoking": "outside", "toilets:wheelchair": "no", "wheelchair": "limited"}}, {"type": "node", "id": 4939176012, "lat": 46.9624214, "lon": 17.8763308, "tags": {"amenity": "pub", "fixme": "verify", "name": "Luca Pecseny\u00e9z\u0151", "source": "route4u"}}, {"type": "node", "id": 4939176798, "lat": 47.2848161, "lon": 17.3636997, "tags": {"amenity": "pub", "name": "Ny\u00edrfa Kocsma", "wheelchair": "no"}}, {"type": "node", "id": 4939178042, "lat": 46.9527821, "lon": 17.8902021, "tags": {"amenity": "pub", "fixme": "verify", "name": "Terasz Dance Pub", "source": "route4u", "toilets:wheelchair": "no", "wheelchair": "yes"}}, {"type": "node", "id": 4939178294, "lat": 47.1037733, "lon": 17.5546206, "tags": {"amenity": "pub", "name": "M\u00e1ty\u00e1s Boroz\u00f3", "toilets:wheelchair": "no", "wheelchair": "no", "wheelchair:description": "l\u00e9pcs\u0151 nem akad\u00e1lymentes."}}, {"type": "node", "id": 4939178484, "lat": 46.9691866, "lon": 17.9344606, "tags": {"amenity": "pub", "fixme": "verify", "name": "Klasszik", "source": "route4u", "toilets:wheelchair": "no", "wheelchair": "no"}}, {"type": "node", "id": 4939178977, "lat": 47.3209211, "lon": 17.4684584, "tags": {"addr:city": "P\u00e1pa", "addr:housenumber": "25", "addr:postcode": "8500", "addr:street": "Somlai \u00fat", "alt_name": "Kacsa", "amenity": "pub", "loc_name": "Vadkacsa Italbolt", "name": "Vadkacsa B\u00fcf\u00e9", "toilets:wheelchair": "no", "wheelchair": "no"}}, {"type": "node", "id": 4939179121, "lat": 47.1088747, "lon": 17.916591, "tags": {"amenity": "pub", "fixme": "verify", "name": "Fenyves S\u00f6r\u00f6z\u0151", "source": "route4u", "toilets:wheelchair": "no", "wheelchair": "yes"}}, {"type": "node", "id": 4939179363, "lat": 47.106752, "lon": 17.9222481, "tags": {"amenity": "pub", "fixme": "Itt van ez a s\u00f6r\u00f6z\u0151?", "name": "Pintes S\u00f6r\u00f6z\u0151", "toilets:wheelchair": "limited", "wheelchair": "limited"}}, {"type": "node", "id": 4939179645, "lat": 47.2299825, "lon": 17.8346192, "tags": {"amenity": "pub", "name": "S\u00e1ra S\u00f6r\u00f6z\u0151", "wheelchair": "no"}}, {"type": "node", "id": 4939179732, "lat": 46.9701965, "lon": 17.9342713, "tags": {"addr:city": "Csopak", "addr:housenumber": "1", "addr:postcode": "8229", "addr:street": "Gy\u00f6ngyvir\u00e1g utca", "amenity": "pub", "fixme": "verify", "name": "Orange Caf\u00e9 B\u00e1r", "source": "route4u", "toilets:wheelchair": "no", "wheelchair": "no"}}, {"type": "node", "id": 4939179858, "lat": 47.1047882, "lon": 17.5544823, "tags": {"amenity": "pub", "name": "Priv\u00e1t Bisztr\u00f3", "toilets:wheelchair": "no", "wheelchair": "no"}}, {"type": "node", "id": 4939180251, "lat": 47.0959533, "lon": 17.9185041, "tags": {"addr:city": "Veszpr\u00e9m", "addr:housenumber": "20-28", "addr:postcode": "8200", "addr:street": "Budapest \u00fat", "amenity": "pub", "contact:email": "gastro.fured@gmail.com", "contact:facebook": "https://www.facebook.com/cafeorange.vp", "fixme": "resurvey position", "name": "Orange Cafe B\u00e1r", "name:it": "Orange", "source": "route4u"}}, {"type": "node", "id": 4939279878, "lat": 47.1141056, "lon": 17.8832026, "tags": {"amenity": "pub", "fixme": "verify", "name": "Piros Hetes", "source": "route4u", "toilets:wheelchair": "no", "wheelchair": "yes"}}, {"type": "node", "id": 4940559042, "lat": 46.9574912, "lon": 17.8840717, "tags": {"amenity": "pub", "fixme": "verify", "name": "M Club", "source": "route4u"}}, {"type": "node", "id": 4940559058, "lat": 46.9549878, "lon": 17.883244, "tags": {"amenity": "pub", "name": "Lazy Jack", "source": "route4u", "toilets:wheelchair": "no", "wheelchair": "yes"}}, {"type": "node", "id": 4940560197, "lat": 47.1066778, "lon": 17.9142183, "tags": {"amenity": "pub", "fixme": "verify", "name": "Pikol\u00f3 S\u00f6rb\u00e1r", "source": "route4u", "toilets:wheelchair": "no", "wheelchair": "no"}}, {"type": "node", "id": 4940561034, "lat": 47.1135135, "lon": 17.9166934, "tags": {"addr:city": "Veszpr\u00e9m", "addr:country": "HU", "addr:postcode": "8200", "addr:suburb": "Bakonyalja", "amenity": "pub", "fixme": "verify", "name": "Kakukk Boroz\u00f3", "source": "route4u", "toilets:wheelchair": "no", "wheelchair": "no"}}, {"type": "node", "id": 4940563933, "lat": 47.1068517, "lon": 17.9171384, "tags": {"amenity": "pub", "fixme": "verify", "name": "Sy-D\u00f3 Drink", "source": "route4u", "toilets:wheelchair": "no", "wheelchair": "no"}}, {"type": "node", "id": 4940565924, "lat": 47.1237704, "lon": 17.3702613, "tags": {"amenity": "pub", "fixme": "verify", "name": "Jo\u00f3 Kocsma", "source": "route4u", "toilets:wheelchair": "no", "wheelchair": "no"}}, {"type": "node", "id": 4972621525, "lat": 46.9646038, "lon": 17.6287843, "tags": {"amenity": "pub", "name": "Szerpentin Italbolt"}}, {"type": "node", "id": 5790518142, "lat": 47.2613717, "lon": 17.8754819, "tags": {"amenity": "pub", "wheelchair": "no"}}, {"type": "node", "id": 5924566624, "lat": 47.138742, "lon": 17.3786598, "tags": {"amenity": "pub", "name": "Fekete pince", "tourism": "wine_cellar"}}, {"type": "node", "id": 5924566625, "lat": 47.1396579, "lon": 17.3806259, "tags": {"amenity": "pub", "name": "Z\u00e1szl\u00f3 pince", "tourism": "wine_cellar"}}, {"type": "node", "id": 5961996366, "lat": 47.3087769, "lon": 17.8134325, "tags": {"amenity": "pub", "checkpoint": "hiking", "checkpoint:type": "stamp", "course": "R\u00f3mer Fl\u00f3ris Eml\u00e9k\u00fat", "name": "Penics B\u00fcf\u00e9 \u00e9s Falatoz\u00f3", "opening_hours": "Mo-Fr 05:00-18:00; Sa 05:00-13:00; Su 07:00-13:00", "outdoor_seating": "yes", "smoking": "outside"}}, {"type": "node", "id": 6903041355, "lat": 47.108992, "lon": 17.9164573, "tags": {"amenity": "pub", "name": "Pedr\u00f3 K\u00e1v\u00e9z\u00f3ja"}}, {"type": "node", "id": 6988185590, "lat": 47.0624959, "lon": 17.546908, "tags": {"amenity": "pub", "name": "Csill\u00e1m Pressz\u00f3"}}, {"type": "node", "id": 8198495660, "lat": 47.1190251, "lon": 17.9123021, "tags": {"amenity": "pub"}}, {"type": "node", "id": 10249427524, "lat": 47.266567, "lon": 17.4849303}, {"type": "node", "id": 10249427525, "lat": 47.2665037, "lon": 17.4849924}, {"type": "node", "id": 10249427526, "lat": 47.2665749, "lon": 17.4851467}, {"type": "node", "id": 10249427527, "lat": 47.2666687, "lon": 17.4850573}, {"type": "node", "id": 10249427528, "lat": 47.2666176, "lon": 17.4849567}, {"type": "node", "id": 10249427529, "lat": 47.2665923, "lon": 17.4849838}, {"type": "way", "id": 176350973, "nodes": [1868852005, 1868852077, 1868852097, 1868851930, 1868851979, 1868852047, 1868852005], "tags": {"amenity": "pub", "building": "yes", "name": "Di\u00f3fa vend\u00e9gl\u0151", "toilets:wheelchair": "no", "wheelchair": "no", "wheelchair:description": "l\u00e9pcs\u0151 nem akad\u00e1lymentes"}}, {"type": "way", "id": 177368955, "nodes": [1878134168, 1878134308, 1878134367, 1878134117, 1878134330, 1878134107, 1878134168], "tags": {"amenity": "pub", "building": "yes", "name": "Gy\u00f3gyg\u00f6d\u00f6r kocsma"}}, {"type": "way", "id": 180126070, "nodes": [1905595335, 1905595404, 1905595263, 1905595258, 1905595290, 1905595325, 1905595335], "tags": {"addr:city": "Nemeshany", "addr:postcode": "8471", "addr:street": "Pet\u0151fi utca", "amenity": "pub", "building": "yes"}}, {"type": "way", "id": 191278553, "nodes": [2018604559, 2018604580, 2018604544, 2018604557, 2018604532, 2018604637, 2018604559], "tags": {"addr:city": "Veszpr\u00e9m", "addr:housenumber": "12", "addr:postcode": "8200", "addr:street": "M\u00e1rt\u00edrok \u00fatja", "amenity": "pub", "building": "pub", "name": "Sport Vend\u00e9gl\u0151", "opening_hours": "24/7"}}, {"type": "way", "id": 191291459, "nodes": [2018769530, 2018769547, 2018769488, 2018769485, 2018769530], "tags": {"amenity": "pub", "building": "residential", "name": "Alfa", "toilets:wheelchair": "no", "wheelchair": "no"}}, {"type": "way", "id": 211366517, "nodes": [2213745279, 2213747057, 2213745281, 2473769401, 2213721707, 2213745279], "tags": {"addr:city": "Bakonyb\u00e9l", "addr:housenumber": "2", "addr:postcode": "8427", "addr:street": "Szent Gell\u00e9rt t\u00e9r", "amenity": "pub", "building": "yes", "name": "F\u00fcsti S\u00f6r\u00f6z\u0151 \u00e9s Apartman", "old_name": "Fradi S\u00f6r\u00f6z\u0151", "toilets:wheelchair": "no", "tourism": "apartment", "wheelchair": "yes"}}, {"type": "way", "id": 211375260, "nodes": [2213803013, 2299916131, 2299916132, 2213803012, 2213803014, 2299916133, 2299916134, 2213803015, 2213803013], "tags": {"addr:city": "Bakonyb\u00e9l", "addr:housenumber": "1", "addr:postcode": "8427", "addr:street": "Kossuth Lajos utca", "air_conditioning": "no", "amenity": "pub", "building": "yes", "cuisine": "regional", "internet_access": "wlan", "internet_access:fee": "no", "name": "Pikol\u00f3 Vend\u00e9gl\u0151", "outdoor_seating": "yes", "smoking": "outside", "website": "http://www.pikolovendeglo.tvn.hu/"}}, {"type": "way", "id": 240480739, "nodes": [2482128001, 2482128007, 2482128002, 2482128003, 2482128004, 2482128001], "tags": {"addr:city": "Bakonyb\u00e9l", "addr:housenumber": "6", "addr:postcode": "8427", "addr:street": "T\u00e1ncsics Mih\u00e1ly utca", "amenity": "pub", "building": "yes", "name": "Ny\u00edrfa Pressz\u00f3"}}, {"type": "way", "id": 256852755, "nodes": [2624792807, 2624792805, 2624792804, 2624792806, 2624792807], "tags": {"amenity": "pub", "building": "yes", "toilets:wheelchair": "no", "wheelchair": "yes"}}, {"type": "way", "id": 261065720, "nodes": [2666819869, 2666819870, 2666819871, 2666819872, 2666819869], "tags": {"addr:city": "P\u00e9nzesgy\u0151r", "addr:housenumber": "19", "addr:postcode": "8426", "addr:street": "F\u0151 utca", "amenity": "pub", "building": "yes", "name": "Bisztr\u00f3", "opening_hours": "Mo-Sa 08:00-11:00, 15:30-21:00; Su 08:00-12:00, 15:30-21:00"}}, {"type": "way", "id": 278508581, "nodes": [2828704280, 2828704277, 2828704264, 2828704268, 2828704280], "tags": {"addr:city": "T\u00f3tv\u00e1zsony", "addr:country": "HU", "addr:housenumber": "91", "addr:postcode": "8246", "addr:street": "Magyar utca", "amenity": "pub", "building": "house", "name": "Vigad\u00f3 S\u00f6r\u00f6z\u0151 \u00e9s Vend\u00e9gl\u0151", "source": "Bing;survey", "source:addr:housenumber": "survey", "source:addr:street": "survey", "toilets:wheelchair": "no", "wheelchair": "no"}}, {"type": "way", "id": 280021923, "nodes": [2841969316, 2841969309, 2841969308, 2841969314, 2841969316], "tags": {"addr:city": "Nagyv\u00e1zsony", "addr:country": "HU", "addr:postcode": "8291", "amenity": "pub", "building": "commercial", "food": "yes", "name": "20 Cafe falatoz\u00f3", "source": "Bing;survey"}}, {"type": "way", "id": 307692770, "nodes": [3128962978, 3128962979, 3128967933, 3128967932, 3128962978], "tags": {"addr:city": "V\u00f6r\u00f6st\u00f3", "addr:housenumber": "9", "addr:postcode": "8291", "addr:street": "F\u0151 utca", "amenity": "pub", "building": "yes", "email": "szeszelyesnyar@gmail.com", "facebook": "https://www.facebook.com/szeszelyesnyarbisztro", "name": "Szesz\u00e9lyes Ny\u00e1r bisztr\u00f3", "opening_hours": "We-Su 11:00-21:00", "outdoor_seating": "yes", "payment:credit_cards": "yes", "payment:debit_cards": "yes", "phone": "+36306234290"}}, {"type": "way", "id": 318793599, "nodes": [3251758156, 3251758157, 3251758148, 3251758146, 3251758134, 3251758133, 3251758156], "tags": {"addr:city": "P\u00e1pa", "addr:housenumber": "51", "addr:postcode": "8598", "addr:street": "Tapolcaf\u0151i \u00fat", "addr:suburb": "Tapolcaf\u0151", "amenity": "pub", "building": "yes", "name": "Pressz\u00f3"}}, {"type": "way", "id": 331186734, "nodes": [3382443703, 3382443696, 3382443709, 3382443712, 3382443703], "tags": {"amenity": "pub", "building": "yes", "indoor_seating": "yes", "name": "O\u00e1zis pressz\u00f3", "opening_hours": "Mo-Fr 17:30-21:00; Sa 15:00-21:00; Su 09:00-13:00,15:00-21:00", "outdoor_seating": "yes", "wheelchair": "limited"}}, {"type": "way", "id": 468786398, "nodes": [4632545041, 4632545037, 4632545040, 4632545038, 4632545039, 4632545042, 4632545041], "tags": {"amenity": "pub", "building": "yes", "name": "Fenyves kocsma", "wheelchair": "yes"}}, {"type": "way", "id": 1120621679, "nodes": [10249427524, 10249427525, 10249427526, 10249427527, 10249427528, 10249427529, 10249427524], "tags": {"addr:city": "P\u00e1pakov\u00e1csi", "addr:housenumber": "2", "addr:postcode": "8596", "addr:street": "Papkert utca", "amenity": "pub", "building": "yes", "name": "Kert Pressz\u00f3"}}]}