{"version": 0.6, "generator": "Overpass API 0.7.59 e21c39fe", "osm3s": {"timestamp_osm_base": "2023-01-17T15:16:20Z", "copyright": "The data included in this document is from www.openstreetmap.org. The data is made available under ODbL."}, "elements": [{"type": "node", "id": 847208196, "lat": 47.2010011, "lon": 18.3953079, "tags": {"addr:postcode": "8000", "addr:street": "Bregy\u00f3 k\u00f6z", "amenity": "pub", "name": "Szeder S\u00f6r\u00f6z\u0151", "name:en": "Pub"}}, {"type": "node", "id": 869646567, "lat": 47.1986343, "lon": 18.4171107, "tags": {"addr:city": "Sz\u00e9kesfeh\u00e9rv\u00e1r", "addr:housenumber": "1/D", "addr:postcode": "8000", "addr:street": "Ber\u00e9nyi \u00fat", "amenity": "pub", "name": "Vad\u00e1szk\u00fcrt s\u00f6r\u00f6z\u0151", "name:it": "Vad\u00e1szk\u00fcrt S\u00f6r\u00f6z\u0151", "opening_hours": "24/7", "smoking": "outside", "wheelchair": "no"}}, {"type": "node", "id": 973807706, "lat": 47.1956042, "lon": 18.4139422, "tags": {"addr:postcode": "8000", "addr:street": "Semmelweis Ign\u00e1c utca", "amenity": "pub"}}, {"type": "node", "id": 973829486, "lat": 47.1435888, "lon": 18.4089956, "tags": {"addr:postcode": "8000", "addr:street": "V\u00e1s\u00e1rhelyi utca", "amenity": "pub"}}, {"type": "node", "id": 1286616373, "lat": 47.2185743, "lon": 18.5475567, "tags": {"amenity": "pub", "name": "Sport Eszpressz\u00f3", "wheelchair": "no"}}, {"type": "node", "id": 1291790781, "lat": 47.2807034, "lon": 18.2580987, "tags": {"amenity": "pub", "name": "Becsali-b\u00fcf\u00e9"}}, {"type": "node", "id": 1338333213, "lat": 47.120402, "lon": 18.3636296, "tags": {"addr:postcode": "8151", "addr:street": "Vasv\u00e1ri P\u00e1l utca", "amenity": "pub", "name": "Ak\u00e1c kocsma", "name:it": "Ak\u00e1c Kocsma"}}, {"type": "node", "id": 1395539541, "lat": 47.203977, "lon": 18.4063127, "tags": {"addr:postcode": "8000", "addr:street": "Szent Vendel utca", "amenity": "pub"}}, {"type": "node", "id": 1395580805, "lat": 47.1772411, "lon": 18.4160553, "tags": {"addr:postcode": "8000", "addr:street": "Hossz\u00fas\u00e9tat\u00e9r", "amenity": "pub"}}, {"type": "node", "id": 1453597590, "lat": 47.2097189, "lon": 18.4533673, "tags": {"addr:postcode": "8000", "addr:street": "Kassai utca", "amenity": "pub", "name": "Aladdin"}}, {"type": "node", "id": 1585325992, "lat": 47.199213, "lon": 18.4103088, "tags": {"addr:city": "Sz\u00e9kesfeh\u00e9rv\u00e1r", "addr:housenumber": "1", "addr:postcode": "8000", "addr:street": "Rozgonyi Piroska utca", "amenity": "pub", "name": "HB s\u00f6r\u00f6z\u0151", "name:it": "Hb S\u00f6r\u00f6z\u0151"}}, {"type": "node", "id": 1626113076, "lat": 47.2840593, "lon": 18.0241571}, {"type": "node", "id": 1835689881, "lat": 47.1010353, "lon": 18.0111936, "tags": {"amenity": "pub"}}, {"type": "node", "id": 2006639360, "lat": 47.0592006, "lon": 17.9705808}, {"type": "node", "id": 2006639443, "lat": 47.0591767, "lon": 17.9708472}, {"type": "node", "id": 2006639448, "lat": 47.0592748, "lon": 17.9707597}, {"type": "node", "id": 2006639451, "lat": 47.0591257, "lon": 17.9706477}, {"type": "node", "id": 2006639460, "lat": 47.0591484, "lon": 17.9707787}, {"type": "node", "id": 2006639536, "lat": 47.0591715, "lon": 17.9707581}, {"type": "node", "id": 2182580067, "lat": 47.2191955, "lon": 18.548667, "tags": {"addr:city": "P\u00e1kozd", "addr:country": "HU", "amenity": "pub", "name": "O\u00e1zis S\u00f6r\u00f6z\u0151", "wheelchair": "no"}}, {"type": "node", "id": 2215961383, "lat": 47.1916504, "lon": 18.4637821}, {"type": "node", "id": 2215961385, "lat": 47.1917306, "lon": 18.4639087}, {"type": "node", "id": 2215961401, "lat": 47.1918065, "lon": 18.4638045}, {"type": "node", "id": 2215961423, "lat": 47.1917263, "lon": 18.463678}, {"type": "node", "id": 2260374216, "lat": 47.1839347, "lon": 18.404165}, {"type": "node", "id": 2260374218, "lat": 47.1839473, "lon": 18.4038462}, {"type": "node", "id": 2260374229, "lat": 47.1838534, "lon": 18.4041581}, {"type": "node", "id": 2260374244, "lat": 47.183866, "lon": 18.4038392}, {"type": "node", "id": 2272932144, "lat": 47.1618706, "lon": 18.402757}, {"type": "node", "id": 2272932203, "lat": 47.1619745, "lon": 18.4026501}, {"type": "node", "id": 2272932204, "lat": 47.1619783, "lon": 18.4027479}, {"type": "node", "id": 2272932245, "lat": 47.1618668, "lon": 18.4026592}, {"type": "node", "id": 2287912757, "lat": 47.192616, "lon": 18.4094943, "tags": {"addr:postcode": "8000", "addr:street": "R\u00f3zsa utca", "amenity": "pub", "name": "Ribilli\u00f3 K\u00e1v\u00e9z\u00f3 \u00e9s S\u00f6r\u00f6z\u0151", "wheelchair": "no"}}, {"type": "node", "id": 2310077095, "lat": 47.1944531, "lon": 18.4087458, "tags": {"addr:city": "Sz\u00e9kesfeh\u00e9rv\u00e1r", "addr:housenumber": "8-10", "addr:postcode": "8000", "addr:street": "V\u00e1rkapu utca", "amenity": "pub", "name": "S\u00f6rpatika", "opening_hours": "Mo-Th 09:00-24:00, Fr 10:00-03:00, Sa 12:00-03:00, Su 15:00-24:00", "smoking": "outside", "wheelchair": "yes"}}, {"type": "node", "id": 2313592048, "lat": 47.189229, "lon": 18.4107311, "tags": {"addr:city": "Sz\u00e9kesfeh\u00e9rv\u00e1r", "addr:housenumber": "17", "addr:postcode": "8000", "addr:street": "Szent Istv\u00e1n t\u00e9r", "amenity": "pub", "name": "Rosetta \u00c9tterem", "name:en": "Rosetta Restaurant", "name:it": "Rosetta", "opening_hours": "Su-Th 11:30-22:00; Fr-Sa 11:30-00:00", "phone": "+36 22 806 008", "website": "https://rosetta.hu/", "wheelchair": "no"}}, {"type": "node", "id": 2313592051, "lat": 47.1893202, "lon": 18.4109349, "tags": {"addr:postcode": "8000", "addr:street": "Pet\u0151fi utca", "amenity": "pub", "name": "Pet\u0151fi Music Pub", "name:it": "Petofi", "wheelchair": "no"}}, {"type": "node", "id": 2313624719, "lat": 47.1957651, "lon": 18.4580692, "tags": {"addr:postcode": "8000", "addr:street": "Beregsz\u00e1szi utca", "amenity": "pub", "name": "Fah\u00e1z Boroz\u00f3"}}, {"type": "node", "id": 2314317732, "lat": 47.2023187, "lon": 18.4473749, "tags": {"addr:postcode": "8000", "addr:street": "K\u00e9sm\u00e1rki utca", "amenity": "pub", "name": "La Vita pub \u00e9s pizz\u00e9ria"}}, {"type": "node", "id": 2334501471, "lat": 47.1667551, "lon": 18.5198411, "tags": {"amenity": "pub", "name": "Pressz\u00f3"}}, {"type": "node", "id": 2336984371, "lat": 47.1914029, "lon": 18.3994148, "tags": {"addr:postcode": "8000", "addr:street": "B\u0151rgy\u00e1r utca", "amenity": "pub", "name": "Petz S\u00f6r\u00f6z\u0151", "toilets:wheelchair": "no", "wheelchair": "limited"}}, {"type": "node", "id": 2345718703, "lat": 47.2028908, "lon": 18.4991934, "tags": {"addr:postcode": "9341", "addr:street": "Malomhegy utca", "amenity": "pub", "name": "Nefelejcs b\u00fcf\u00e9", "name:it": "Nefelejcs B\u00fcf\u00e9"}}, {"type": "node", "id": 2353788684, "lat": 47.1522867, "lon": 18.3283286}, {"type": "node", "id": 2353788693, "lat": 47.1522995, "lon": 18.328548}, {"type": "node", "id": 2353788702, "lat": 47.1521715, "lon": 18.3285325}, {"type": "node", "id": 2353788713, "lat": 47.1522524, "lon": 18.3286314}, {"type": "node", "id": 2353788732, "lat": 47.1522728, "lon": 18.3285153}, {"type": "node", "id": 2353788739, "lat": 47.1523409, "lon": 18.3283948}, {"type": "node", "id": 2354467245, "lat": 46.9945708, "lon": 17.9738079, "tags": {"amenity": "pub"}}, {"type": "node", "id": 2354702069, "lat": 47.0144009, "lon": 17.9517798, "tags": {"amenity": "pub", "name": "Viola eszpressz\u00f3"}}, {"type": "node", "id": 2406651591, "lat": 46.9951364, "lon": 18.243155, "tags": {"amenity": "pub", "name": "Arany \u00c1szok S\u00f6r\u00f6z\u0151"}}, {"type": "node", "id": 2406651592, "lat": 46.9911054, "lon": 18.2479303, "tags": {"amenity": "pub", "name": "Cs\u00f6pi boroz\u00f3"}}, {"type": "node", "id": 2411788605, "lat": 47.0284629, "lon": 18.0151366, "tags": {"amenity": "pub", "name": "Resti"}}, {"type": "node", "id": 2429452680, "lat": 47.1107744, "lon": 18.1355757, "tags": {"amenity": "pub", "name": "Pressz\u00f3", "note": "Jelenleg folyamatosan z\u00e1rva van. (helysz\u00ednel\u00e9s: 2022.09.10)"}}, {"type": "node", "id": 2429455874, "lat": 47.1828319, "lon": 18.4144436, "tags": {"addr:postcode": "8000", "addr:street": "Sz\u00e9chenyi utca", "amenity": "pub", "internet_access:ssid": "Mini Sorozo;Mini Sorozo5G", "name": "Mini S\u00f6r\u00f6z\u0151", "wheelchair": "yes"}}, {"type": "node", "id": 2434385696, "lat": 47.3221231, "lon": 18.1164774, "tags": {"amenity": "pub", "name": "T\u00fara S\u00f6r\u00f6z\u0151"}}, {"type": "node", "id": 2510820485, "lat": 46.9919265, "lon": 18.2782184, "tags": {"addr:city": "Mez\u0151szentgy\u00f6rgy", "addr:postcode": "8133", "addr:street": "R\u00e1k\u00f3czi utca", "amenity": "pub"}}, {"type": "node", "id": 2893532704, "lat": 47.243022, "lon": 18.3008806, "tags": {"addr:city": "Iszkaszentgy\u00f6rgy", "addr:housenumber": "4", "addr:postcode": "8043", "addr:street": "Kossuth Lajos t\u00e9r", "amenity": "pub", "name": "Patk\u00f3 pressz\u00f3", "name:it": "Patk\u00f3 Pressz\u00f3"}}, {"type": "node", "id": 2909000856, "lat": 47.1774554, "lon": 18.4165809, "tags": {"addr:city": "Sz\u00e9kesfeh\u00e9rv\u00e1r", "addr:housenumber": "3", "addr:postcode": "8000", "addr:street": "Csikv\u00e1ri \u00fat", "amenity": "pub", "name": "Sz\u00f6glet Pressz\u00f3", "opening_hours": "Mo-Fr 05:00-22:00; Sa-Su 07:00-22:00"}}, {"type": "node", "id": 2928869835, "lat": 47.1953063, "lon": 18.4140611, "tags": {"addr:postcode": "8000", "addr:street": "\u0150sz utca", "amenity": "pub"}}, {"type": "node", "id": 2934241973, "lat": 47.1380838, "lon": 18.2393165, "tags": {"amenity": "pub", "name": "V\u00e1rfal s\u00f6r\u00f6z\u0151", "source": "survey"}}, {"type": "node", "id": 2961669541, "lat": 47.3176745, "lon": 17.9948697, "tags": {"amenity": "pub"}}, {"type": "node", "id": 2994851993, "lat": 46.9931626, "lon": 17.9563093, "tags": {"amenity": "pub", "name": "Arany Cobra pressz\u00f3"}}, {"type": "node", "id": 3028510951, "lat": 47.2173983, "lon": 18.5442584, "tags": {"amenity": "pub", "name": "S\u00f6r\u00f6z\u0151", "opening_hours": "07:00-12:00,14:00-20:00"}}, {"type": "node", "id": 3207625095, "lat": 47.1940585, "lon": 18.4089002, "tags": {"addr:city": "Sz\u00e9kesfeh\u00e9rv\u00e1r", "addr:housenumber": "1", "addr:postcode": "8000", "addr:street": "V\u00e1rkapu utca", "amenity": "pub", "name": "Varkocs Old Pub", "name:it": "Varkocs", "opening_hours": "Su-Th 13:00-24:00, Fr-Sa 13:00-02:00", "smoking": "outside", "wheelchair": "no"}}, {"type": "node", "id": 3271179627, "lat": 47.1905777, "lon": 18.4105887, "tags": {"addr:city": "Sz\u00e9kesfeh\u00e9rv\u00e1r", "addr:housenumber": "3", "addr:postcode": "8000", "addr:street": "Kossuth utca", "amenity": "pub", "brewery": "yes", "name": "Fekv\u0151 Katona", "wheelchair": "limited"}}, {"type": "node", "id": 3271199770, "lat": 47.1899627, "lon": 18.4096839, "tags": {"addr:city": "Sz\u00e9kesfeh\u00e9rv\u00e1r", "addr:housenumber": "10", "addr:postcode": "8000", "addr:street": "Megyeh\u00e1z utca", "amenity": "pub", "brewery": "various", "name": "Beer\u00e1l\u00f3", "opening_hours": "Mo-Th 16:00-22:00; Fr 16:00-23:00; Sa 14:00-23:00; Su 14:00-22:00", "smoking": "outside", "website": "https://hu-hu.facebook.com/beeralo/", "wheelchair": "no"}}, {"type": "node", "id": 3355826324, "lat": 47.2954029, "lon": 18.2621356, "tags": {"amenity": "pub", "name": "S\u00f6r\u00f6z\u0151", "source": "turistautak.hu", "url": "http://turistautak.hu/poi.php?id=102954"}}, {"type": "node", "id": 3355860965, "lat": 47.056167, "lon": 17.967492, "tags": {"amenity": "pub", "fixme": "which building?", "name": "Szabadi S\u00f6rkert \u00e9s Fagylaltoz\u00f3", "source": "turistautak.hu", "url": "http://turistautak.hu/poi.php?id=52686"}}, {"type": "node", "id": 3361496160, "lat": 47.2508295, "lon": 18.3494518}, {"type": "node", "id": 3361496161, "lat": 47.2509157, "lon": 18.3498612}, {"type": "node", "id": 3361496162, "lat": 47.2508751, "lon": 18.3494157}, {"type": "node", "id": 3361496163, "lat": 47.2509375, "lon": 18.3499347}, {"type": "node", "id": 3361496164, "lat": 47.2509516, "lon": 18.3498327}, {"type": "node", "id": 3361496165, "lat": 47.2509593, "lon": 18.3496717}, {"type": "node", "id": 3361496166, "lat": 47.2509777, "lon": 18.3496609}, {"type": "node", "id": 3361496167, "lat": 47.2510226, "lon": 18.3498765}, {"type": "node", "id": 3363317602, "lat": 47.120619, "lon": 17.9501989, "tags": {"amenity": "pub", "name": "T\u00f6lt\u0151\u00e1llom\u00e1s"}}, {"type": "node", "id": 3366774862, "lat": 47.2840787, "lon": 18.0242586}, {"type": "node", "id": 3366774865, "lat": 47.284204, "lon": 18.024097}, {"type": "node", "id": 3366774866, "lat": 47.2842247, "lon": 18.0242054}, {"type": "node", "id": 3415826274, "lat": 47.3245227, "lon": 18.2316081}, {"type": "node", "id": 3415826275, "lat": 47.3244732, "lon": 18.2317165}, {"type": "node", "id": 3415826276, "lat": 47.3245633, "lon": 18.2318059}, {"type": "node", "id": 3415826277, "lat": 47.3245958, "lon": 18.2316218}, {"type": "node", "id": 3415826278, "lat": 47.3245773, "lon": 18.2316623}, {"type": "node", "id": 3415826279, "lat": 47.3246312, "lon": 18.231657}, {"type": "node", "id": 3439475616, "lat": 47.14516, "lon": 17.94886, "tags": {"amenity": "pub", "name": "Somi s\u00f6r\u00f6z\u0151", "source": "turistautak.hu", "source:date": "2013-05-22", "url": "http://turistautak.hu/poi.php?id=153828"}}, {"type": "node", "id": 3439632192, "lat": 47.051967, "lon": 17.969085, "tags": {"amenity": "pub", "brewery": "yes", "cuisine": "regional", "name": "\u00d6nt\u00f6de", "source": "turistautak.hu", "source:date": "2012-06-10", "url": "http://turistautak.hu/poi.php?id=139768"}}, {"type": "node", "id": 3441442838, "lat": 46.98143, "lon": 18.17123, "tags": {"amenity": "pub", "name": "Borkim\u00e9r\u00e9s", "source": "turistautak.hu", "source:date": "2010-09-08", "url": "http://turistautak.hu/poi.php?id=3481"}}, {"type": "node", "id": 3441442839, "lat": 46.98335, "lon": 18.1768, "tags": {"amenity": "pub", "name": "Borkim\u00e9r\u00e9s", "source": "turistautak.hu", "source:date": "2012-10-14", "url": "http://turistautak.hu/poi.php?id=3480"}}, {"type": "node", "id": 3441443392, "lat": 46.984208, "lon": 18.171001, "tags": {"amenity": "pub", "name": "Resti", "source": "turistautak.hu", "source:date": "2012-10-14", "url": "http://turistautak.hu/poi.php?id=142518"}}, {"type": "node", "id": 3441443498, "lat": 46.9821244, "lon": 18.1710806, "tags": {"addr:city": "Balatonvil\u00e1gos", "addr:housenumber": "3", "addr:postcode": "8171", "addr:street": "R\u00e9vai utca", "amenity": "pub", "name": "R\u00e9vai"}}, {"type": "node", "id": 3459826354, "lat": 47.2763798, "lon": 18.4889657, "tags": {"addr:country": "HU", "addr:postcode": "8092", "addr:street": "Kossuth Lajos utca", "amenity": "pub", "name": "Barlang vend\u00e9gl\u0151", "source": "turistautak.hu", "source:date": "2008-05-30", "url": "http://turistautak.hu/poi.php?id=17187"}}, {"type": "node", "id": 3459826364, "lat": 47.205257, "lon": 18.259095, "tags": {"addr:postcode": "8041", "addr:street": "Magyar utca", "amenity": "pub", "name": "Dragon s\u00f6r\u00f6z\u0151", "name:it": "Dragon S\u00f6r\u00f6z\u0151", "source": "turistautak.hu", "source:date": "2011-06-25", "url": "http://turistautak.hu/poi.php?id=35139"}}, {"type": "node", "id": 3459826712, "lat": 47.243818, "lon": 18.333823, "tags": {"amenity": "pub", "name": "Kocsma-ABC", "source": "turistautak.hu", "source:date": "2011-06-25", "url": "http://turistautak.hu/poi.php?id=31702"}}, {"type": "node", "id": 3459826738, "lat": 47.2048, "lon": 18.2547, "tags": {"addr:postcode": "8041", "addr:street": "Ady Endre utca", "amenity": "pub", "name": "Pilvax (kocsma)", "name:it": "Pilvax (Kocsma)", "source": "turistautak.hu", "source:date": "2012-05-06", "url": "http://turistautak.hu/poi.php?id=138356"}}, {"type": "node", "id": 3459827101, "lat": 47.2800955, "lon": 18.4860169, "tags": {"addr:city": "P\u00e1tka", "addr:housenumber": "24", "addr:postcode": "8092", "addr:street": "Kossuth Lajos utca", "amenity": "pub", "name": "Zsefer s\u00f6r\u00f6z\u0151", "source": "turistautak.hu", "source:date": "2010-01-24", "url": "http://turistautak.hu/poi.php?id=17189"}}, {"type": "node", "id": 3459827162, "lat": 47.126434, "lon": 18.327706, "tags": {"addr:postcode": "8142", "addr:street": "Kossuth Lajos utca", "amenity": "pub", "source": "turistautak.hu", "source:date": "2011-06-25", "url": "http://turistautak.hu/poi.php?id=117953"}}, {"type": "node", "id": 3459883831, "lat": 47.317735, "lon": 17.993744, "tags": {"amenity": "pub", "name": "Kiskocsma", "source": "turistautak.hu", "source:date": "2011-06-25", "toilets:wheelchair": "no", "url": "http://turistautak.hu/poi.php?id=116166", "wheelchair": "no"}}, {"type": "node", "id": 3463077453, "lat": 47.1924582, "lon": 18.4206312, "tags": {"addr:city": "Sz\u00e9kesfeh\u00e9rv\u00e1r", "addr:postcode": "8000", "addr:street": "Sarl\u00f3 utca", "amenity": "pub", "name": "Eszem-Iszom s\u00f6r\u00f6z\u0151", "name:it": "Ezzem-Iszom S\u00f6r\u00f6z\u0151", "source": "turistautak.hu", "source:date": "2011-06-25", "url": "http://turistautak.hu/poi.php?id=17109", "wheelchair": "yes"}}, {"type": "node", "id": 3463077470, "lat": 47.1611368, "lon": 18.4011433, "tags": {"addr:postcode": "8000", "amenity": "pub", "name": "Horv\u00e1th Kert s\u00f6r\u00f6z\u0151", "source": "turistautak.hu", "source:date": "2011-06-25", "url": "http://turistautak.hu/poi.php?id=90493"}}, {"type": "node", "id": 3463077627, "lat": 47.18895, "lon": 18.415633, "tags": {"addr:postcode": "8000", "addr:street": "K\u00e1roly J\u00e1nos utca", "amenity": "pub", "name": "Pince boroz\u00f3", "name:it": "Pince Boroz\u00f3", "source": "turistautak.hu", "source:date": "2011-06-25", "url": "http://turistautak.hu/poi.php?id=20866", "wheelchair": "no"}}, {"type": "node", "id": 3470010704, "lat": 47.015623, "lon": 17.949573, "tags": {"amenity": "pub", "name": "F\u0171zfaterka boroz\u00f3", "source": "turistautak.hu", "source:date": "2011-05-26", "url": "http://turistautak.hu/poi.php?id=27468"}}, {"type": "node", "id": 3470010735, "lat": 47.066768, "lon": 18.173837, "tags": {"amenity": "pub", "name": "Ny\u00e1rfa b\u00fcf\u00e9 (kocsma)", "source": "turistautak.hu", "source:date": "2011-06-25", "url": "http://turistautak.hu/poi.php?id=25461"}}, {"type": "node", "id": 3470011827, "lat": 47.064439, "lon": 18.038762, "tags": {"amenity": "pub", "source": "turistautak.hu", "source:date": "2011-09-12", "url": "http://turistautak.hu/poi.php?id=124604"}}, {"type": "node", "id": 3471746477, "lat": 47.205697, "lon": 18.20353, "tags": {"amenity": "pub", "name": "IGYSC", "source": "turistautak.hu", "source:date": "2012-04-14", "url": "http://turistautak.hu/poi.php?id=137139"}}, {"type": "node", "id": 3471746486, "lat": 47.204942, "lon": 18.133325, "tags": {"addr:postcode": "8100", "addr:street": "Liliom utca", "amenity": "pub", "name": "M\u00e1ty\u00e1s boroz\u00f3", "source": "turistautak.hu", "source:date": "2011-06-25", "toilets:wheelchair": "no", "url": "http://turistautak.hu/poi.php?id=61078", "wheelchair": "no"}}, {"type": "node", "id": 3471757554, "lat": 47.202383, "lon": 18.13525, "tags": {"addr:postcode": "8100", "addr:street": "M\u00e1ty\u00e1s kir\u00e1ly utca", "amenity": "pub", "source": "turistautak.hu", "source:date": "2011-06-25", "url": "http://turistautak.hu/poi.php?id=91726"}}, {"type": "node", "id": 3474931944, "lat": 47.316107, "lon": 18.24778, "tags": {"amenity": "pub", "name": "S\u00f6r\u00f6z\u0151", "source": "turistautak.hu", "source:date": "2011-06-25", "url": "http://turistautak.hu/poi.php?id=29832"}}, {"type": "node", "id": 3474931985, "lat": 47.2794108, "lon": 18.1944175, "tags": {"addr:city": "Isztim\u00e9r", "addr:housenumber": "82", "addr:postcode": "8045", "addr:street": "K\u00f6zt\u00e1rsas\u00e1g \u00fat", "amenity": "pub", "name": "Dreher S\u00f6r\u00f6z\u0151 \u00e9s Doh\u00e1nybolt", "smoking": "outside", "source:date": "2011-06-25", "url": "http://turistautak.hu/poi.php?id=21808"}}, {"type": "node", "id": 3474939130, "lat": 47.322612, "lon": 18.234993, "tags": {"addr:postcode": "8053", "addr:street": "Pet\u0151fi S\u00e1ndor utca", "amenity": "pub", "name": "Klub", "source": "turistautak.hu", "source:date": "2011-06-25", "url": "http://turistautak.hu/poi.php?id=29833", "wheelchair": "no"}}, {"type": "node", "id": 3474939143, "lat": 47.3209925, "lon": 18.2805962, "tags": {"amenity": "pub", "name": "Lesz Vigasz", "source": "turistautak.hu", "source:date": "2012-07-02", "url": "http://turistautak.hu/poi.php?id=140962"}}, {"type": "node", "id": 3485134527, "lat": 47.2171325, "lon": 18.5423124, "tags": {"amenity": "pub", "name": "Franci s\u00f6r\u00f6z\u0151", "source": "turistautak.hu", "source:date": "2011-06-29", "url": "http://turistautak.hu/poi.php?id=24561"}}, {"type": "node", "id": 3487705449, "lat": 47.0901385, "lon": 18.3398568, "tags": {"amenity": "pub", "name": "K\u0151fejt\u0151 s\u00f6r\u00f6z\u0151", "source": "turistautak.hu", "source:date": "2011-06-25", "url": "http://turistautak.hu/poi.php?id=35071"}}, {"type": "node", "id": 3487705473, "lat": 47.104747, "lon": 18.251058, "tags": {"amenity": "pub", "name": "Tall\u00e9ros s\u00f6r\u00f6z\u0151", "source": "turistautak.hu", "source:date": "2011-06-25", "url": "http://turistautak.hu/poi.php?id=25462"}}, {"type": "node", "id": 3489663070, "lat": 46.9515, "lon": 18.2276, "tags": {"amenity": "pub", "source": "turistautak.hu", "source:date": "2010-03-01", "url": "http://turistautak.hu/poi.php?id=43946"}}, {"type": "node", "id": 3721967897, "lat": 46.9764788, "lon": 18.1681976, "tags": {"amenity": "pub"}}, {"type": "node", "id": 3722625427, "lat": 47.2930379, "lon": 18.3252994, "tags": {"addr:street": "F\u0151 utca", "amenity": "pub", "name": "Csabi", "toilets:wheelchair": "yes", "wheelchair": "yes", "wheelchair:description": "S\u00f6r\u00f6z\u00f6"}}, {"type": "node", "id": 3756137506, "lat": 47.2841907, "lon": 18.0242195}, {"type": "node", "id": 3756137507, "lat": 47.2841177, "lon": 18.0242424}, {"type": "node", "id": 3756137508, "lat": 47.2842237, "lon": 18.0243925}, {"type": "node", "id": 3756137509, "lat": 47.2841521, "lon": 18.0244223}, {"type": "node", "id": 4092058793, "lat": 47.2022859, "lon": 18.4407157, "tags": {"addr:postcode": "8000", "addr:street": "Karinthy Frigyes t\u00e9r", "amenity": "pub", "name": "Papag\u00e1j Pressz\u00f3"}}, {"type": "node", "id": 4109886142, "lat": 47.1906551, "lon": 18.4181185}, {"type": "node", "id": 4109886143, "lat": 47.1906759, "lon": 18.4181847}, {"type": "node", "id": 4109886144, "lat": 47.1906141, "lon": 18.4182242}, {"type": "node", "id": 4109886145, "lat": 47.1905933, "lon": 18.418156}, {"type": "node", "id": 4118224246, "lat": 47.1943503, "lon": 18.4283597, "tags": {"addr:postcode": "8000", "addr:street": "Kir\u00e1ly sor", "amenity": "pub", "name": "Ibolya Kocsma"}}, {"type": "node", "id": 4118252743, "lat": 47.1925549, "lon": 18.4256379, "tags": {"addr:postcode": "8000", "addr:street": "Budai \u00fat", "amenity": "pub", "name": "Ring Sarok s\u00f6r\u00f6z\u0151 + pizz\u00e9ria"}}, {"type": "node", "id": 4126600450, "lat": 47.1952485, "lon": 18.4093191, "tags": {"addr:postcode": "8000", "addr:street": "F\u0151 utca", "amenity": "pub", "name": "S\u00f6rCasino Pub & Bar", "name:it": "S\u00f6rCasino"}}, {"type": "node", "id": 4334168295, "lat": 47.137955, "lon": 18.2393823}, {"type": "node", "id": 4334168296, "lat": 47.1380722, "lon": 18.2394255}, {"type": "node", "id": 4334168297, "lat": 47.1381075, "lon": 18.2392182}, {"type": "node", "id": 4334168298, "lat": 47.1379904, "lon": 18.239175}, {"type": "node", "id": 4334299370, "lat": 47.1383663, "lon": 18.2467027}, {"type": "node", "id": 4334299371, "lat": 47.1382409, "lon": 18.246733}, {"type": "node", "id": 4334299372, "lat": 47.1382579, "lon": 18.2468844}, {"type": "node", "id": 4334299373, "lat": 47.1383833, "lon": 18.2468541}, {"type": "node", "id": 4334340910, "lat": 47.1369555, "lon": 18.2416281}, {"type": "node", "id": 4334340911, "lat": 47.1371592, "lon": 18.2415905}, {"type": "node", "id": 4334340912, "lat": 47.137172, "lon": 18.2417404}, {"type": "node", "id": 4334340913, "lat": 47.1369682, "lon": 18.241778}, {"type": "node", "id": 4338036794, "lat": 47.0287464, "lon": 18.0136304, "tags": {"amenity": "pub", "name": "Picuri kocsma"}}, {"type": "node", "id": 4351647409, "lat": 47.104612, "lon": 18.2509677}, {"type": "node", "id": 4351647410, "lat": 47.1047156, "lon": 18.2509064}, {"type": "node", "id": 4351647411, "lat": 47.1047721, "lon": 18.2511476}, {"type": "node", "id": 4351647412, "lat": 47.1046685, "lon": 18.2512049}, {"type": "node", "id": 4352895872, "lat": 47.1019107, "lon": 18.2453895}, {"type": "node", "id": 4352895873, "lat": 47.1019745, "lon": 18.2453487}, {"type": "node", "id": 4352895874, "lat": 47.1019467, "lon": 18.2452407}, {"type": "node", "id": 4352895875, "lat": 47.1018862, "lon": 18.2452767}, {"type": "node", "id": 4421845390, "lat": 47.3061385, "lon": 17.9419626, "tags": {"amenity": "pub"}}, {"type": "node", "id": 4461295938, "lat": 47.2163061, "lon": 18.5402068}, {"type": "node", "id": 4461295939, "lat": 47.2163991, "lon": 18.5401344}, {"type": "node", "id": 4461295940, "lat": 47.2163635, "lon": 18.5399989}, {"type": "node", "id": 4461295941, "lat": 47.2163052, "lon": 18.5400351}, {"type": "node", "id": 4461295942, "lat": 47.2163207, "lon": 18.5401008}, {"type": "node", "id": 4461295943, "lat": 47.2162824, "lon": 18.5401277}, {"type": "node", "id": 4536743173, "lat": 47.1943019, "lon": 18.3991816, "tags": {"addr:postcode": "8000", "addr:street": "Kelemen B\u00e9la utca", "amenity": "pub", "name": "Texas", "wheelchair": "yes", "wheelchair:description": "Kedves tulaj, k\u00f6zelj\u00f6v\u0151ben mosd\u00f3 is lesz"}}, {"type": "node", "id": 4583129941, "lat": 47.0330109, "lon": 18.0139003, "tags": {"addr:city": "Balatonalm\u00e1di", "addr:housenumber": "51", "addr:postcode": "8220", "addr:street": "Baross G\u00e1bor \u00fat", "amenity": "pub", "name": "Z\u00e1nka boroz\u00f3"}}, {"type": "node", "id": 4677262027, "lat": 47.1839806, "lon": 18.42325}, {"type": "node", "id": 4677262028, "lat": 47.1840178, "lon": 18.4233526}, {"type": "node", "id": 4677262029, "lat": 47.1840733, "lon": 18.4233091}, {"type": "node", "id": 4677262030, "lat": 47.1840361, "lon": 18.4232065}, {"type": "node", "id": 4803249923, "lat": 47.0180374, "lon": 18.2098997}, {"type": "node", "id": 4803249924, "lat": 47.0180922, "lon": 18.2100017}, {"type": "node", "id": 4803249925, "lat": 47.0181544, "lon": 18.2099239}, {"type": "node", "id": 4803249926, "lat": 47.0181325, "lon": 18.2098756}, {"type": "node", "id": 4803249927, "lat": 47.0182056, "lon": 18.2097871}, {"type": "node", "id": 4803249928, "lat": 47.0181727, "lon": 18.2097281}, {"type": "node", "id": 4803249929, "lat": 47.0162279, "lon": 18.2065209}, {"type": "node", "id": 4803249930, "lat": 47.0161932, "lon": 18.2065569}, {"type": "node", "id": 4803249931, "lat": 47.0161782, "lon": 18.2065258}, {"type": "node", "id": 4803249932, "lat": 47.0161278, "lon": 18.206578}, {"type": "node", "id": 4803249933, "lat": 47.0162238, "lon": 18.2067772}, {"type": "node", "id": 4803249934, "lat": 47.0161351, "lon": 18.2068692}, {"type": "node", "id": 4803249935, "lat": 47.0161728, "lon": 18.2069475}, {"type": "node", "id": 4803249936, "lat": 47.0163466, "lon": 18.2067672}, {"type": "node", "id": 4803272618, "lat": 47.0174358, "lon": 18.21621}, {"type": "node", "id": 4803272619, "lat": 47.0173537, "lon": 18.2163549}, {"type": "node", "id": 4803272620, "lat": 47.0172748, "lon": 18.2162719}, {"type": "node", "id": 4803274121, "lat": 47.0173181, "lon": 18.2161904}, {"type": "node", "id": 4803274122, "lat": 47.0173348, "lon": 18.2162084}, {"type": "node", "id": 4803274123, "lat": 47.0173759, "lon": 18.2161318}, {"type": "node", "id": 4803712431, "lat": 47.023162, "lon": 18.2128172}, {"type": "node", "id": 4803712432, "lat": 47.0230388, "lon": 18.2128302}, {"type": "node", "id": 4803712433, "lat": 47.0230377, "lon": 18.212713}, {"type": "node", "id": 4803712434, "lat": 47.0230876, "lon": 18.2127097}, {"type": "node", "id": 4803712435, "lat": 47.0229833, "lon": 18.2124329}, {"type": "node", "id": 4803712436, "lat": 47.0230299, "lon": 18.212384}, {"type": "node", "id": 4803712437, "lat": 47.023162, "lon": 18.2127407}, {"type": "node", "id": 4933471839, "lat": 46.9402592, "lon": 18.1272623, "tags": {"amenity": "pub", "fixme": "verify", "name": "V\u00edzipocok", "source": "route4u"}}, {"type": "node", "id": 4933472275, "lat": 47.0824759, "lon": 18.4072372, "tags": {"amenity": "pub", "fixme": "verify", "name": "Tall\u00e9ros S\u00f6r\u00f6z\u0151", "source": "route4u", "wheelchair": "no"}}, {"type": "node", "id": 4933472312, "lat": 47.1133266, "lon": 18.1345884, "tags": {"amenity": "pub", "fixme": "verify", "name": "Kiskocsma", "source": "route4u", "toilets:wheelchair": "limited", "wheelchair": "no"}}, {"type": "node", "id": 4933472379, "lat": 47.1522202, "lon": 18.2718777, "tags": {"amenity": "pub", "fixme": "verify", "name": "Szomjas Csuka", "source": "route4u"}}, {"type": "node", "id": 4933472512, "lat": 47.2083844, "lon": 18.133942, "tags": {"addr:postcode": "8100", "addr:street": "Herman Ott\u00f3 utca", "amenity": "pub", "fixme": "verify", "name": "Kiskulacs Boroz\u00f3", "source": "route4u", "toilets:wheelchair": "limited", "wheelchair": "no"}}, {"type": "node", "id": 4933472520, "lat": 47.2108363, "lon": 18.354329, "tags": {"addr:city": "Sz\u00e9kesfeh\u00e9rv\u00e1r", "addr:housenumber": "27", "addr:postcode": "8000", "addr:street": "Saj\u00f3 utca", "amenity": "pub", "fixme": "verify", "name": "Saj\u00f3 Kocsma", "source": "route4u", "toilets:wheelchair": "no", "wheelchair": "yes"}}, {"type": "node", "id": 4933472596, "lat": 47.1850094, "lon": 18.4031194, "tags": {"addr:postcode": "8000", "addr:street": "Cserepes k\u00f6z", "amenity": "pub", "fixme": "verify", "name": "Kapufa S\u00f6r\u00f6z\u0151", "source": "route4u"}}, {"type": "node", "id": 4933472603, "lat": 47.1875225, "lon": 18.4243952, "tags": {"addr:postcode": "8000", "addr:street": "L\u00f6v\u00f6lde utca", "amenity": "pub", "fixme": "verify", "name": "L\u00f6v\u00f6lde S\u00f6rakad\u00e9mia", "source": "route4u"}}, {"type": "node", "id": 4933472607, "lat": 47.1891855, "lon": 18.400187, "tags": {"addr:street": "B\u00e1tky Zsigmond utca", "amenity": "pub", "fixme": "verify", "name": "Texas S\u00f6r\u00f6z\u0151", "source": "route4u"}}, {"type": "node", "id": 4933472694, "lat": 47.1922719, "lon": 18.43171, "tags": {"addr:postcode": "8000", "addr:street": "Hadi\u00e1rva utca", "amenity": "pub", "fixme": "verify", "name": "Si\u00f3foki Si\u00f3mente Zrt.", "source": "route4u"}}, {"type": "node", "id": 4933472711, "lat": 47.1995245, "lon": 18.3958656, "tags": {"addr:postcode": "8000", "addr:street": "Szedreskerti lak\u00f3negyed", "amenity": "pub", "name": "Gerend\u00e1s Kocsma", "source": "route4u"}}, {"type": "node", "id": 4933472717, "lat": 47.1995911, "lon": 18.1265173, "tags": {"addr:postcode": "8100", "addr:street": "R\u00e1k\u00f3czi Ferenc utca", "amenity": "pub", "fixme": "verify", "name": "Forg\u00e1cs Kocsma", "source": "route4u", "toilets:wheelchair": "no", "wheelchair": "no"}}, {"type": "node", "id": 4939174235, "lat": 47.188877, "lon": 18.406724, "tags": {"amenity": "pub", "name": "Ibolya S\u00f6r\u00f6z\u0151", "source": "route4u"}}, {"type": "node", "id": 4939174341, "lat": 47.0171756, "lon": 18.163881, "tags": {"addr:city": "Balatonakarattya", "addr:housenumber": "6", "addr:postcode": "8172", "addr:street": "R\u00e1k\u00f3czi \u00fat", "amenity": "pub", "name": "Sz\u00e9pkil\u00e1t\u00e1s Bisztr\u00f3", "source": "route4u"}}, {"type": "node", "id": 4939174880, "lat": 47.1831654, "lon": 18.4120811, "tags": {"addr:postcode": "8000", "addr:street": "Hossz\u00fas\u00e9tat\u00e9r", "amenity": "pub", "fixme": "verify", "name": "Nyolcas M\u0171hely", "source": "route4u"}}, {"type": "node", "id": 4939175324, "lat": 47.0708983, "lon": 18.0265236, "tags": {"amenity": "pub", "fixme": "verify", "name": "Balatoni Bob Szabadid\u0151 Park", "source": "route4u", "toilets:wheelchair": "yes", "wheelchair": "yes"}}, {"type": "node", "id": 4939175556, "lat": 47.2084514, "lon": 18.4028389, "tags": {"addr:postcode": "8000", "addr:street": "Rig\u00f3 utca", "amenity": "pub", "fixme": "verify", "name": "Fecskef\u00e9szek S\u00f6r\u00f6z\u0151", "source": "route4u"}}, {"type": "node", "id": 4939175821, "lat": 47.3224891, "lon": 18.2354073, "tags": {"addr:postcode": "8053", "addr:street": "Pet\u0151fi S\u00e1ndor utca", "amenity": "pub", "name": "Cseveg\u0151 Bisztr\u00f3", "source": "route4u", "wheelchair": "no"}}, {"type": "node", "id": 4939175855, "lat": 47.2011067, "lon": 18.4036535, "tags": {"addr:postcode": "8000", "addr:street": "F\u00fcrd\u0151 utca", "amenity": "pub", "fixme": "verify", "name": "Kult\u00farmalom", "source": "route4u"}}, {"type": "node", "id": 4939175919, "lat": 47.2125001, "lon": 18.3577323, "tags": {"addr:postcode": "8000", "amenity": "pub", "fixme": "verify", "name": "Kiskert\u00e9sz S\u00f6r\u00f6z\u0151", "source": "route4u"}}, {"type": "node", "id": 4939177664, "lat": 47.2064846, "lon": 18.4388731, "tags": {"addr:housenumber": "70-102", "addr:street": "Pozsonyi \u00fat", "amenity": "pub", "fixme": "verify", "name": "Alibi S\u00f6r\u00f6z\u0151", "source": "route4u"}}, {"type": "node", "id": 4939177780, "lat": 46.9773478, "lon": 17.9565653, "tags": {"amenity": "pub", "fixme": "verify", "name": "Kapit\u00e1ny S\u00f6r\u00f6z\u0151", "source": "route4u", "toilets:wheelchair": "no", "wheelchair": "yes"}}, {"type": "node", "id": 4939178028, "lat": 47.1935287, "lon": 18.4088346, "tags": {"addr:postcode": "8000", "addr:street": "Ady Endre utca", "amenity": "pub", "fixme": "verify", "name": "Ady B\u00e1r \u00e9s Gal\u00e9ria", "source": "route4u"}}, {"type": "node", "id": 4939178302, "lat": 47.3247698, "lon": 18.2278672, "tags": {"addr:postcode": "8053", "addr:street": "B\u00e1ny\u00e1sz lak\u00f3telep", "amenity": "pub", "name": "Ezersziget Italbolt", "source": "route4u"}}, {"type": "node", "id": 4939178870, "lat": 47.1667651, "lon": 18.4038613, "tags": {"addr:postcode": "8000", "addr:street": "Balatoni \u00fat", "amenity": "pub", "cuisine": "pizza;hungarian", "name": "7 S\u00f6r\u00f6z\u0151 \u00e9s \u00c9tterem", "source": "route4u"}}, {"type": "node", "id": 4939179225, "lat": 46.9566095, "lon": 18.4798905, "tags": {"amenity": "pub", "fixme": "verify", "name": "Fels\u0151 Kocsma", "source": "route4u", "toilets:wheelchair": "no", "wheelchair": "no"}}, {"type": "node", "id": 4939179293, "lat": 47.1902764, "lon": 18.4146911, "tags": {"addr:postcode": "8000", "addr:street": "Fal k\u00f6z", "amenity": "pub", "fixme": "verify", "name": "Kaiser", "source": "route4u"}}, {"type": "node", "id": 4939179681, "lat": 47.0375186, "lon": 18.4184062, "tags": {"amenity": "pub", "fixme": "verify", "name": "Ceasar S\u00f6r\u00f6z\u0151", "source": "route4u", "toilets:wheelchair": "no", "wheelchair": "yes"}}, {"type": "node", "id": 4939278247, "lat": 47.0119787, "lon": 18.1600175, "tags": {"amenity": "pub", "fixme": "verify", "name": "Trink Depo", "source": "route4u", "toilets:wheelchair": "no", "wheelchair": "no"}}, {"type": "node", "id": 4940559279, "lat": 47.2820976, "lon": 17.9697033, "tags": {"amenity": "pub", "name": "Retr\u00f3 S\u00f6r\u00f6z\u0151", "wheelchair": "limited"}}, {"type": "node", "id": 4940563315, "lat": 47.1874886, "lon": 18.4056948, "tags": {"addr:postcode": "8000", "addr:street": "Tolnai utca", "amenity": "pub", "fixme": "verify", "name": "M\u00e1rv\u00e1ny Bisztr\u00f3", "source": "route4u"}}, {"type": "node", "id": 4940563342, "lat": 47.1946714, "lon": 18.4326347, "tags": {"addr:postcode": "8000", "addr:street": "Budai \u00fat", "amenity": "pub", "name": "Domin\u00f3 S\u00f6r\u00f6z\u0151", "toilets:wheelchair": "no", "wheelchair": "no"}}, {"type": "node", "id": 4940564511, "lat": 47.1955882, "lon": 18.4009324, "tags": {"addr:postcode": "8000", "addr:street": "M\u00e9sz\u00f6ly G\u00e9za utca", "amenity": "pub", "name": "Joe Boroz\u00f3ja", "source": "route4u"}}, {"type": "node", "id": 4940564582, "lat": 47.2017351, "lon": 18.1337874, "tags": {"addr:postcode": "8100", "addr:street": "B\u00e1tork\u0151 utca", "amenity": "pub", "fixme": "verify", "name": "Piroska Boroz\u00f3", "source": "route4u"}}, {"type": "node", "id": 5827846614, "lat": 47.0274952, "lon": 18.5189335}, {"type": "node", "id": 5827846615, "lat": 47.027625, "lon": 18.5192725}, {"type": "node", "id": 5827846616, "lat": 47.0275613, "lon": 18.519325}, {"type": "node", "id": 5827846617, "lat": 47.0274686, "lon": 18.5190829}, {"type": "node", "id": 5827846618, "lat": 47.0273038, "lon": 18.519196}, {"type": "node", "id": 5827846619, "lat": 47.0273031, "lon": 18.5191042}, {"type": "node", "id": 5827846623, "lat": 47.0274523, "lon": 18.5191014}, {"type": "node", "id": 5827857903, "lat": 47.031381, "lon": 18.5251629}, {"type": "node", "id": 5827857905, "lat": 47.031431, "lon": 18.5250269}, {"type": "node", "id": 5827857908, "lat": 47.0313957, "lon": 18.5249459}, {"type": "node", "id": 5912323152, "lat": 47.315459, "lon": 18.5455744, "tags": {"addr:city": "Lovasber\u00e9ny", "addr:housenumber": "17", "addr:postcode": "8093", "addr:street": "Park t\u00e9r", "amenity": "pub", "name": "Park Pressz\u00f3", "opening_hours": "Mo-Sa 06:00-21:00; Su 07:00-21:00"}}, {"type": "node", "id": 6271276001, "lat": 47.1951677, "lon": 18.4387788, "tags": {"addr:city": "Sz\u00e9kesfeh\u00e9rv\u00e1r", "addr:housenumber": "178/a", "addr:postcode": "8000", "addr:street": "Budai \u00fat", "amenity": "pub", "contact:facebook": "https://facebook.com/pages/Halesz%20Bet%C3%A9r%C5%91/163123640486172", "name": "Halesz Bet\u00e9r\u0151", "old_name": "Halesz Kocsma", "source": "survey", "start_date": "1912"}}, {"type": "node", "id": 6796495291, "lat": 47.0313035, "lon": 18.5250325}, {"type": "node", "id": 6796495292, "lat": 47.0312786, "lon": 18.5250559}, {"type": "node", "id": 6796495293, "lat": 47.0313041, "lon": 18.5251145}, {"type": "node", "id": 6796495294, "lat": 47.0313437, "lon": 18.5250774}, {"type": "node", "id": 6800276804, "lat": 47.0314586, "lon": 18.5250901}, {"type": "node", "id": 6823955734, "lat": 47.3191321, "lon": 18.2431193, "tags": {"amenity": "pub", "name": "Szepar\u00e9"}}, {"type": "node", "id": 6983509255, "lat": 47.1604163, "lon": 18.0741432, "tags": {"amenity": "pub", "internet_access:ssid": "PosziKocsma", "name": "eszpressz\u00f3"}}, {"type": "node", "id": 7713188846, "lat": 47.3210657, "lon": 18.2807771}, {"type": "node", "id": 7713188847, "lat": 47.3210084, "lon": 18.2808256}, {"type": "node", "id": 7713188848, "lat": 47.320964, "lon": 18.2806993}, {"type": "node", "id": 7713188849, "lat": 47.3209365, "lon": 18.2807196}, {"type": "node", "id": 7713188850, "lat": 47.320961, "lon": 18.2807997}, {"type": "node", "id": 7713188851, "lat": 47.3209426, "lon": 18.2808121}, {"type": "node", "id": 7713188852, "lat": 47.3209549, "lon": 18.2808493}, {"type": "node", "id": 7713188853, "lat": 47.3209159, "lon": 18.2808798}, {"type": "node", "id": 7713188854, "lat": 47.3208448, "lon": 18.2806644}, {"type": "node", "id": 7713188855, "lat": 47.3209916, "lon": 18.2805651}, {"type": "node", "id": 7747150453, "lat": 47.2792458, "lon": 17.9704296, "tags": {"amenity": "pub", "indoor_seating": "yes", "name": "Hangulat pressz\u00f3", "opening_hours": "Mo-Th 07:00-21:00; Fr 07:00-22:00; Sa 08:00-22:00; Su 08:00-21:00", "outdoor_seating": "yes", "smoking": "outside"}}, {"type": "node", "id": 8171689439, "lat": 47.189215, "lon": 18.4199702}, {"type": "node", "id": 8171689440, "lat": 47.1892642, "lon": 18.4201003}, {"type": "node", "id": 8171689441, "lat": 47.1892286, "lon": 18.4201296}, {"type": "node", "id": 8171689442, "lat": 47.1891783, "lon": 18.4199987}, {"type": "node", "id": 8560792408, "lat": 47.1438077, "lon": 17.9487189, "tags": {"amenity": "pub", "name": "Papi bisztr\u00f3ja", "toilets:wheelchair": "no", "wheelchair": "no"}}, {"type": "node", "id": 8818118042, "lat": 47.2119354, "lon": 18.5226609, "tags": {"amenity": "pub", "name": "Borkert", "operator": "Csord\u00e1s-Nagy Pince"}}, {"type": "node", "id": 8829472925, "lat": 47.3221308, "lon": 18.1163851}, {"type": "node", "id": 8829472926, "lat": 47.3221182, "lon": 18.1163776}, {"type": "node", "id": 8829472927, "lat": 47.3221311, "lon": 18.1163306}, {"type": "node", "id": 8829472928, "lat": 47.3220687, "lon": 18.1162932}, {"type": "node", "id": 8829472929, "lat": 47.322044, "lon": 18.1163828}, {"type": "node", "id": 8829472930, "lat": 47.3220087, "lon": 18.1163616}, {"type": "node", "id": 8829472931, "lat": 47.3219987, "lon": 18.1163981}, {"type": "node", "id": 8829472932, "lat": 47.3219693, "lon": 18.1163805}, {"type": "node", "id": 8829472933, "lat": 47.3219518, "lon": 18.116444}, {"type": "node", "id": 8829472934, "lat": 47.3220677, "lon": 18.1165136}, {"type": "node", "id": 8829472935, "lat": 47.3220845, "lon": 18.116453}, {"type": "node", "id": 8829472936, "lat": 47.3221081, "lon": 18.1164672}, {"type": "node", "id": 8865729860, "lat": 47.3196496, "lon": 18.4132871}, {"type": "node", "id": 8865729861, "lat": 47.3196689, "lon": 18.4133752}, {"type": "node", "id": 8865729862, "lat": 47.3195595, "lon": 18.4134272}, {"type": "node", "id": 8865729863, "lat": 47.3195402, "lon": 18.4133392}, {"type": "node", "id": 8895809221, "lat": 47.0442276, "lon": 18.0078112, "tags": {"amenity": "pub", "name": "Sank\u00f3 S\u00f6r\u00f6z\u0151"}}, {"type": "node", "id": 9100730075, "lat": 47.0520208, "lon": 18.2461529, "tags": {"amenity": "pub", "name": "Borz Pub", "note": "Van melegszendvics \u00e9s pizza is.", "opening_hours": "Mo-Th 07:00-20:00; Fr-Sa 07:00-22:00; Su 07:00-14:00"}}, {"type": "node", "id": 9410521997, "lat": 47.2793273, "lon": 18.1943951}, {"type": "node", "id": 9410521998, "lat": 47.2794013, "lon": 18.1945422}, {"type": "node", "id": 9410521999, "lat": 47.2794986, "lon": 18.194436}, {"type": "node", "id": 9410522000, "lat": 47.2794247, "lon": 18.1942888}, {"type": "node", "id": 10087496819, "lat": 47.2792237, "lon": 17.9703646}, {"type": "node", "id": 10087496820, "lat": 47.2792318, "lon": 17.9703366}, {"type": "node", "id": 10087496821, "lat": 47.279123, "lon": 17.9702683}, {"type": "node", "id": 10087496822, "lat": 47.2790789, "lon": 17.970421}, {"type": "node", "id": 10087496823, "lat": 47.2791567, "lon": 17.9704699}, {"type": "node", "id": 10087496824, "lat": 47.2791483, "lon": 17.970499}, {"type": "node", "id": 10087496825, "lat": 47.2792131, "lon": 17.9705398}, {"type": "node", "id": 10087496826, "lat": 47.2792049, "lon": 17.9705684}, {"type": "node", "id": 10087496827, "lat": 47.2792936, "lon": 17.9706242}, {"type": "node", "id": 10087496828, "lat": 47.2792796, "lon": 17.9706727}, {"type": "node", "id": 10087496829, "lat": 47.2792992, "lon": 17.970685}, {"type": "node", "id": 10087496830, "lat": 47.279315, "lon": 17.9706303}, {"type": "node", "id": 10087496831, "lat": 47.2792851, "lon": 17.9706116}, {"type": "node", "id": 10087496832, "lat": 47.2793361, "lon": 17.9704352}, {"type": "node", "id": 10087496833, "lat": 47.2792891, "lon": 17.9704057}, {"type": "node", "id": 10087496836, "lat": 47.2792395, "lon": 17.9703745}, {"type": "node", "id": 10087496837, "lat": 47.2792312, "lon": 17.9703693}, {"type": "node", "id": 10087496840, "lat": 47.2793154, "lon": 17.9704222}, {"type": "node", "id": 10091451094, "lat": 47.2510002, "lon": 18.3497264}, {"type": "node", "id": 10091451095, "lat": 47.25098, "lon": 18.3497422}, {"type": "way", "id": 190065167, "nodes": [2006639443, 2006639460, 2006639536, 2006639451, 2006639360, 2006639448, 2006639443], "tags": {"amenity": "pub", "building": "residential", "name": "Szabadi pressz\u00f3"}}, {"type": "way", "id": 211605119, "nodes": [2215961385, 2215961383, 2215961423, 2215961401, 2215961385], "tags": {"addr:postcode": "8000", "addr:street": "K\u00f6f\u00e9m lak\u00f3telep", "amenity": "pub", "building": "yes"}}, {"type": "way", "id": 216648477, "nodes": [2260374229, 2260374244, 2260374218, 2260374216, 2260374229], "tags": {"addr:postcode": "8000", "addr:street": "Bakony utca", "amenity": "pub", "building": "yes", "name": "Kisvad\u00e1sz"}}, {"type": "way", "id": 217983162, "nodes": [2272932144, 2272932245, 2272932203, 2272932204, 2272932144], "tags": {"amenity": "pub", "building": "yes"}}, {"type": "way", "id": 226606146, "nodes": [2353788732, 2353788693, 2353788713, 2353788702, 2353788684, 2353788739, 2353788732], "tags": {"addr:postcode": "8143", "addr:street": "F\u0151 \u00fat", "amenity": "pub", "building": "yes", "name": "Tavern s\u00f6r\u00f6z\u0151"}}, {"type": "way", "id": 329281514, "nodes": [3361496163, 3361496167, 10091451095, 10091451094, 3361496166, 3361496165, 3361496162, 3361496160, 3361496164, 3361496161, 3361496163], "tags": {"addr:city": "S\u00e1rkeresztes", "addr:country": "HU", "addr:housenumber": "4", "addr:postcode": "8051", "addr:street": "Kossuth utca", "amenity": "pub", "building": "yes", "name": "F\u00fcl\u00f6p Kocsma"}}, {"type": "way", "id": 329750118, "nodes": [3366774862, 3756137507, 3756137509, 3756137508, 3756137506, 3366774866, 3366774865, 1626113076, 3366774862], "tags": {"amenity": "pub", "building": "yes", "name": "Bisztr\u00f3", "wheelchair": "no"}}, {"type": "way", "id": 334490256, "nodes": [3415826276, 3415826275, 3415826274, 3415826278, 3415826277, 3415826279, 3415826276], "tags": {"addr:postcode": "8053", "addr:street": "Kossuth Lajos utca", "amenity": "pub", "building": "residential", "name": "Feny\u0151 b\u00fcf\u00e9"}}, {"type": "way", "id": 409095185, "nodes": [4109886142, 4109886143, 4109886144, 4109886145, 4109886142], "tags": {"addr:postcode": "8000", "addr:street": "J\u00f3zsef Attila utca", "amenity": "pub", "building": "yes", "name": "Kicsi B\u0171f\u00e9"}}, {"type": "way", "id": 435505045, "nodes": [4334168295, 4334168296, 4334168297, 4334168298, 4334168295], "tags": {"amenity": "pub", "building": "yes"}}, {"type": "way", "id": 435521943, "nodes": [4334299370, 4334299371, 4334299372, 4334299373, 4334299370], "tags": {"amenity": "pub", "building": "yes"}}, {"type": "way", "id": 435525694, "nodes": [4334340910, 4334340911, 4334340912, 4334340913, 4334340910], "tags": {"amenity": "pub", "building": "yes"}}, {"type": "way", "id": 437354973, "nodes": [4351647409, 4351647410, 4351647411, 4351647412, 4351647409], "tags": {"amenity": "pub", "building": "yes"}}, {"type": "way", "id": 437475421, "nodes": [4352895872, 4352895873, 4352895874, 4352895875, 4352895872], "tags": {"amenity": "pub", "building": "yes"}}, {"type": "way", "id": 449164082, "nodes": [4461295938, 4461295939, 4461295940, 4461295941, 4461295942, 4461295943, 4461295938], "tags": {"amenity": "pub", "building": "yes", "name": "Pressz\u00f3", "toilets:wheelchair": "no", "wheelchair": "no"}}, {"type": "way", "id": 473655444, "nodes": [4677262030, 4677262029, 4677262028, 4677262027, 4677262030], "tags": {"addr:city": "Sz\u00e9kesfeh\u00e9rv\u00e1r", "addr:housenumber": "3", "addr:postcode": "8000", "addr:street": "B\u00e9ke t\u00e9r", "amenity": "pub", "building": "yes", "name": "Panama s\u00f6r\u00f6z\u0151"}}, {"type": "way", "id": 487936849, "nodes": [4803249923, 4803249924, 4803249925, 4803249926, 4803249927, 4803249928, 4803249923], "tags": {"addr:city": "Balatonf\u0151kaj\u00e1r", "addr:housenumber": "12", "addr:postcode": "8164", "addr:street": "Kossuth Lajos utca", "amenity": "pub", "building": "yes", "name": "Kanyar Pressz\u00f3", "opening_hours": "Mo-Fr 06:00-22:00; Sa 06:00-24:00; Su 07:00-22:00", "outdoor_seating": "yes", "toilets:wheelchair": "yes", "wheelchair": "yes"}}, {"type": "way", "id": 487936850, "nodes": [4803249929, 4803249930, 4803249931, 4803249932, 4803249933, 4803249934, 4803249935, 4803249936, 4803249929], "tags": {"addr:city": "Balatonf\u0151kaj\u00e1r", "addr:housenumber": "39", "addr:postcode": "8164", "addr:street": "Kossuth Lajos utca", "amenity": "pub", "building": "yes", "name": "Z\u00f6ldmacska Pressz\u00f3", "opening_hours": "06:00 - 02:00", "outdoor_seating": "yes"}}, {"type": "way", "id": 487940173, "nodes": [4803272618, 4803272619, 4803272620, 4803274121, 4803274122, 4803274123, 4803272618], "tags": {"addr:city": "Balatonf\u0151kaj\u00e1r", "addr:housenumber": "1/A", "addr:postcode": "8164", "addr:street": "J\u00f3kai M\u00f3r utca", "amenity": "pub", "building": "yes", "name": "N\u00e1das B\u00fcf\u00e9", "opening_hours": "06:00 - 22:00"}}, {"type": "way", "id": 487994280, "nodes": [4803712431, 4803712432, 4803712433, 4803712434, 4803712435, 4803712436, 4803712437, 4803712431], "tags": {"addr:city": "Balatonf\u0151kaj\u00e1r", "addr:postcode": "8164", "addr:street": "Pet\u0151fi S\u00e1ndor utca", "amenity": "pub", "building": "yes"}}, {"type": "way", "id": 616388496, "nodes": [5827846614, 5827846615, 5827846616, 5827846617, 5827846623, 5827846618, 5827846619, 5827846614], "tags": {"addr:postcode": "8127", "addr:street": "Kossuth Lajos utca", "amenity": "pub", "building": "yes", "name": "Sarok Kocsma \u00e9s S\u00f6r\u00f6z\u0151"}}, {"type": "way", "id": 725176508, "nodes": [6800276804, 5827857905, 5827857908, 6796495291, 6796495292, 6796495293, 6796495294, 5827857903, 6800276804], "tags": {"addr:postcode": "8127", "addr:street": "R\u00e1k\u00f3czi Ferenc utca", "amenity": "pub", "building": "yes", "name": "Vakeg\u00e9r S\u00f6r\u00f6z\u0151", "source": "route4u"}}, {"type": "way", "id": 826104313, "nodes": [7713188846, 7713188847, 7713188848, 7713188849, 7713188850, 7713188851, 7713188852, 7713188853, 7713188854, 7713188855, 7713188846], "tags": {"amenity": "pub", "building": "yes"}}, {"type": "way", "id": 878388760, "nodes": [8171689439, 8171689440, 8171689441, 8171689442, 8171689439], "tags": {"amenity": "pub", "building": "yes"}}, {"type": "way", "id": 953959603, "nodes": [8829472925, 8829472926, 8829472927, 8829472928, 8829472929, 8829472930, 8829472931, 8829472932, 8829472933, 8829472934, 8829472935, 8829472936, 8829472925], "tags": {"amenity": "pub", "building": "yes"}}, {"type": "way", "id": 958174420, "nodes": [8865729860, 8865729861, 8865729862, 8865729863, 8865729860], "tags": {"amenity": "pub", "building": "yes", "name": "Z\u00e1moly kocsma"}}, {"type": "way", "id": 1020305858, "nodes": [9410522000, 9410521999, 9410521998, 9410521997, 9410522000], "tags": {"addr:city": "Isztim\u00e9r", "addr:housenumber": "82", "addr:postcode": "8045", "addr:street": "K\u00f6zt\u00e1rsas\u00e1g \u00fat", "amenity": "pub", "building": "yes"}}, {"type": "way", "id": 1102396840, "nodes": [10087496819, 10087496820, 10087496821, 10087496822, 10087496823, 10087496824, 10087496825, 10087496826, 10087496827, 10087496828, 10087496829, 10087496830, 10087496831, 10087496832, 10087496840, 10087496833, 10087496836, 10087496837, 10087496819], "tags": {"addr:city": "Bakonyn\u00e1na", "addr:housenumber": "2", "addr:postcode": "8422", "addr:street": "Alkotm\u00e1ny utca", "amenity": "pub", "building": "yes", "name": "Hangulat pressz\u00f3", "opening_hours": "Mo-Th 07:00-21:00; Fr 07:00-22:00; Sa 08:00-22:00; Su 08:00-21:00", "outdoor_seating": "yes", "phone": "+36304405287", "smoking": "outside"}}]}