{"version": 0.6, "generator": "Overpass API 0.7.59 e21c39fe", "osm3s": {"timestamp_osm_base": "2023-01-17T15:17:22Z", "copyright": "The data included in this document is from www.openstreetmap.org. The data is made available under ODbL."}, "elements": [{"type": "node", "id": 323240808, "lat": 47.4580108, "lon": 19.1610918, "tags": {"amenity": "pub", "name": "Bakterh\u00e1z s\u00f6r\u00f6z\u0151"}}, {"type": "node", "id": 484175879, "lat": 47.392355, "lon": 19.217818, "tags": {"amenity": "pub"}}, {"type": "node", "id": 484266822, "lat": 47.3926735, "lon": 19.2213823, "tags": {"amenity": "pub"}}, {"type": "node", "id": 489958932, "lat": 47.3896164, "lon": 19.2099309, "tags": {"amenity": "pub"}}, {"type": "node", "id": 514796875, "lat": 47.3763127, "lon": 19.2237695, "tags": {"amenity": "pub", "name": "Arizona s\u00f6r\u00f6z\u0151"}}, {"type": "node", "id": 610302150, "lat": 47.3884215, "lon": 19.2073597, "tags": {"amenity": "pub", "name": "Korona s\u00f6r\u00f6z\u0151", "toilets:wheelchair": "limited", "wheelchair": "yes"}}, {"type": "node", "id": 615279407, "lat": 47.415046, "lon": 19.2087727, "tags": {"amenity": "pub"}}, {"type": "node", "id": 716357904, "lat": 47.4508212, "lon": 19.1730367, "tags": {"amenity": "pub", "name": "Arany Kupa"}}, {"type": "node", "id": 746595344, "lat": 47.3824867, "lon": 19.2199795, "tags": {"amenity": "pub"}}, {"type": "node", "id": 763652246, "lat": 47.4936737, "lon": 19.2780028, "tags": {"addr:city": "Budapest", "addr:housenumber": "23", "addr:postcode": "1172", "addr:street": "Napl\u00e1s \u00fat", "amenity": "pub", "dog": "yes", "email": "meszarosgezane@t-email.hu", "facebook": "https://www.facebook.com/pages/Aranyk%C3%BAt-S%C3%B6r%C3%B6z%C5%91/285410118146429?fref=ts", "name": "Aranyk\u00fat S\u00f6r\u00f6z\u0151", "opening_hours": "Mo,Tu,Th,Sa 14:00-22:00, We 12:00-24:00, Su 14:00-21:00, Fr 14:00-24:00", "phone": "+36 70 211 1973"}}, {"type": "node", "id": 871952505, "lat": 47.6525173, "lon": 19.474519, "tags": {"amenity": "pub", "name": "Pink"}}, {"type": "node", "id": 1208445892, "lat": 47.4451048, "lon": 19.3581998, "tags": {"amenity": "pub", "name": "Sport Pub"}}, {"type": "node", "id": 1208445900, "lat": 47.4404178, "lon": 19.3598429, "tags": {"amenity": "pub", "name": "Viking"}}, {"type": "node", "id": 1208445912, "lat": 47.4430591, "lon": 19.3577401, "tags": {"amenity": "pub", "name": "P\u00f3ker"}}, {"type": "node", "id": 1211150910, "lat": 47.5634977, "lon": 19.5108248, "tags": {"addr:city": "Valk\u00f3", "addr:housenumber": "47/A", "addr:postcode": "2114", "addr:street": "Szabads\u00e1g \u00fat", "amenity": "pub", "description": "1.2.K\u00e1v\u00e9ital, alkoholmentes- \u00e9s szeszesital, 1.9. \u00c9dess\u00e9g\u00e1ru", "name": "P\u00e1lma Pressz\u00f3", "opening_hours": "Mo-Sa 07:00-20:00"}}, {"type": "node", "id": 1211150935, "lat": 47.5651298, "lon": 19.5128053, "tags": {"amenity": "pub"}}, {"type": "node", "id": 1211150952, "lat": 47.564799, "lon": 19.4972925, "tags": {"amenity": "pub", "name": "Homok"}}, {"type": "node", "id": 1223962630, "lat": 47.3872252, "lon": 19.3496336, "tags": {"amenity": "pub", "wheelchair": "limited", "wheelchair:description": "Megsz\u00fcnt"}}, {"type": "node", "id": 1268875043, "lat": 47.495643, "lon": 19.2601112}, {"type": "node", "id": 1319940500, "lat": 47.4033954, "lon": 19.2722887, "tags": {"amenity": "pub", "wheelchair": "no"}}, {"type": "node", "id": 1319940517, "lat": 47.4033919, "lon": 19.2725753, "tags": {"amenity": "pub", "wheelchair": "no"}}, {"type": "node", "id": 1649358523, "lat": 47.3905421, "lon": 19.3498303}, {"type": "node", "id": 1649358525, "lat": 47.3904943, "lon": 19.3500323}, {"type": "node", "id": 1649358526, "lat": 47.390391, "lon": 19.3502051}, {"type": "node", "id": 1649358527, "lat": 47.3905132, "lon": 19.3500427}, {"type": "node", "id": 1649358529, "lat": 47.3904919, "lon": 19.3501265}, {"type": "node", "id": 1649358530, "lat": 47.3905445, "lon": 19.3503053}, {"type": "node", "id": 1649358536, "lat": 47.3904855, "lon": 19.3497995}, {"type": "node", "id": 1678318885, "lat": 47.5570149, "lon": 19.253943, "tags": {"amenity": "pub"}}, {"type": "node", "id": 1680770298, "lat": 47.4579619, "lon": 19.1768773, "tags": {"amenity": "pub", "cuisine": "ice_cream", "entrance": "yes", "handrail:left": "yes", "handrail:right": "yes", "name": "Tot\u00f3 Pressz\u00f3", "opening_hours": "Mo-Su 08:00-23:00", "step_count": "4", "wheelchair": "no"}}, {"type": "node", "id": 1745883477, "lat": 47.449023, "lon": 19.1704667, "tags": {"addr:street": "Egressy G\u00e1bor utca", "amenity": "pub", "name": "Lakat", "wifi": "no"}}, {"type": "node", "id": 2124180886, "lat": 47.5057622, "lon": 19.1993077, "tags": {"amenity": "pub"}}, {"type": "node", "id": 2131105318, "lat": 47.5098341, "lon": 19.1899981, "tags": {"amenity": "pub"}}, {"type": "node", "id": 2160014511, "lat": 47.5069932, "lon": 19.2099541, "tags": {"addr:city": "Budapest", "addr:housenumber": "32", "addr:postcode": "1165", "addr:street": "Zsenge utca", "amenity": "pub", "name": "Paplak S\u00f6r\u00f6z\u0151"}}, {"type": "node", "id": 2178237222, "lat": 47.5054056, "lon": 19.2114394, "tags": {"addr:street": "Zselic utca", "amenity": "pub", "name": "Ker\u00e9kb\u00e1r Kiskocsma"}}, {"type": "node", "id": 2178237239, "lat": 47.5084174, "lon": 19.2093022, "tags": {"addr:city": "Budapest", "addr:housenumber": "54", "addr:postcode": "1165", "addr:street": "B\u00f6k\u00e9nyf\u00f6ldi \u00fat", "amenity": "pub", "name": "Stefi B\u00e1r"}}, {"type": "node", "id": 2197723964, "lat": 47.5213513, "lon": 19.1673274, "tags": {"addr:city": "Budapest", "addr:housenumber": "114", "addr:postcode": "1161", "addr:street": "R\u00e1kosi \u00fat", "addr:suburb": "R\u00e1kosszentmih\u00e1ly", "amenity": "pub", "name": "Corner\u02bcs Pub", "opening_hours": "Fr-Sa 12:00-24:00; Mo-Th 12:00-23:00", "phone": "+36 1 405 0034", "smoking": "outside", "website": "https://www.cornerspub.hu/"}}, {"type": "node", "id": 2215707613, "lat": 47.7091374, "lon": 19.2361654, "tags": {"amenity": "pub"}}, {"type": "node", "id": 2295327071, "lat": 47.5246503, "lon": 19.2896994, "tags": {"amenity": "pub", "toilets:wheelchair": "limited", "wheelchair": "limited"}}, {"type": "node", "id": 2309427470, "lat": 47.5968829, "lon": 19.3393983}, {"type": "node", "id": 2309427471, "lat": 47.5967732, "lon": 19.3392549}, {"type": "node", "id": 2309427472, "lat": 47.5966988, "lon": 19.3393872}, {"type": "node", "id": 2309427473, "lat": 47.5968085, "lon": 19.3395224}, {"type": "node", "id": 2312836625, "lat": 47.4273301, "lon": 19.4402816}, {"type": "node", "id": 2312836627, "lat": 47.4273739, "lon": 19.440195}, {"type": "node", "id": 2312836629, "lat": 47.4274605, "lon": 19.4404256}, {"type": "node", "id": 2312836631, "lat": 47.4274607, "lon": 19.4402908}, {"type": "node", "id": 2312836633, "lat": 47.4274796, "lon": 19.4402535}, {"type": "node", "id": 2312836635, "lat": 47.4275232, "lon": 19.4403016}, {"type": "node", "id": 2362755322, "lat": 47.5671919, "lon": 19.2807591, "tags": {"amenity": "pub", "name": "Te+\u00c9n S\u00f6r\u00f6z\u0151"}}, {"type": "node", "id": 2415642469, "lat": 47.6114555, "lon": 19.1957606, "tags": {"amenity": "pub", "microbrewery": "yes", "name": "S\u00f6rapu kocsm\u00e1ja"}}, {"type": "node", "id": 2509551317, "lat": 47.5309434, "lon": 19.1722453}, {"type": "node", "id": 2509551318, "lat": 47.5309172, "lon": 19.1722713}, {"type": "node", "id": 2509551319, "lat": 47.5309594, "lon": 19.1722806}, {"type": "node", "id": 2509551320, "lat": 47.5308821, "lon": 19.1721936}, {"type": "node", "id": 2509551321, "lat": 47.5309396, "lon": 19.1721365}, {"type": "node", "id": 2509551322, "lat": 47.5309907, "lon": 19.1722495}, {"type": "node", "id": 2776859663, "lat": 47.600203, "lon": 19.3485803, "tags": {"amenity": "pub", "name": "Obsitos", "toilets:wheelchair": "limited", "wheelchair": "yes"}}, {"type": "node", "id": 2776909162, "lat": 47.6012889, "lon": 19.3439922}, {"type": "node", "id": 2776929056, "lat": 47.6007997, "lon": 19.3516246, "tags": {"amenity": "pub", "name": "Patak t\u00e9ri kocsma"}}, {"type": "node", "id": 2910014833, "lat": 47.5166201, "lon": 19.1886212}, {"type": "node", "id": 2910014834, "lat": 47.5166604, "lon": 19.1887084}, {"type": "node", "id": 2910014837, "lat": 47.5165578, "lon": 19.1886843}, {"type": "node", "id": 2910014838, "lat": 47.5165982, "lon": 19.1887715}, {"type": "node", "id": 2918780810, "lat": 47.5165675, "lon": 19.1886744}, {"type": "node", "id": 2935384778, "lat": 47.4044713, "lon": 19.2780494, "tags": {"amenity": "pub", "name": "Szamov\u00e1r pressz\u00f3 (Kocsma)", "opening_hours": "06:00-22:00", "smoking": "outside", "toilets:wheelchair": "limited", "wheelchair": "limited"}}, {"type": "node", "id": 2938914998, "lat": 47.6041088, "lon": 19.3515002}, {"type": "node", "id": 2938914999, "lat": 47.6040215, "lon": 19.3515482}, {"type": "node", "id": 2938915000, "lat": 47.6040421, "lon": 19.3516303}, {"type": "node", "id": 2938916401, "lat": 47.604013, "lon": 19.3516463}, {"type": "node", "id": 2938916402, "lat": 47.6040415, "lon": 19.3517602}, {"type": "node", "id": 2938916403, "lat": 47.6041578, "lon": 19.3516961}, {"type": "node", "id": 2939874042, "lat": 47.6127989, "lon": 19.3514572}, {"type": "node", "id": 2939874043, "lat": 47.6127613, "lon": 19.351498}, {"type": "node", "id": 2939874044, "lat": 47.6127452, "lon": 19.3514653}, {"type": "node", "id": 2939874045, "lat": 47.6126516, "lon": 19.351567}, {"type": "node", "id": 2939874046, "lat": 47.6127161, "lon": 19.3516975}, {"type": "node", "id": 2939874047, "lat": 47.6128472, "lon": 19.351555}, {"type": "node", "id": 2952550658, "lat": 47.4612102, "lon": 19.2992019, "tags": {"amenity": "pub", "name": "\u00c1rnyas Boroz\u00f3", "source": "survey"}}, {"type": "node", "id": 2964242872, "lat": 47.6631806, "lon": 19.4354219, "tags": {"amenity": "pub", "toilets:wheelchair": "no", "wheelchair": "no"}}, {"type": "node", "id": 2966320250, "lat": 47.6047192, "lon": 19.3508692}, {"type": "node", "id": 2967278387, "lat": 47.6054931, "lon": 19.3507095}, {"type": "node", "id": 2967278388, "lat": 47.6054227, "lon": 19.3507397}, {"type": "node", "id": 2967278389, "lat": 47.6054609, "lon": 19.3509354}, {"type": "node", "id": 2967278390, "lat": 47.6053758, "lon": 19.3509311}, {"type": "node", "id": 2967278391, "lat": 47.6054108, "lon": 19.3510564, "tags": {"entrance": "yes"}}, {"type": "node", "id": 2967278392, "lat": 47.6055531, "lon": 19.3510171}, {"type": "node", "id": 2984159292, "lat": 47.5907504, "lon": 19.3503477}, {"type": "node", "id": 2984159293, "lat": 47.59064, "lon": 19.3501879}, {"type": "node", "id": 2984159294, "lat": 47.5907363, "lon": 19.3500417}, {"type": "node", "id": 2984159295, "lat": 47.590799, "lon": 19.3501324}, {"type": "node", "id": 2984159296, "lat": 47.5907583, "lon": 19.3501942}, {"type": "node", "id": 2984159297, "lat": 47.590806, "lon": 19.3502634}, {"type": "node", "id": 2984506598, "lat": 47.5908231, "lon": 19.3586319}, {"type": "node", "id": 2984506599, "lat": 47.5907205, "lon": 19.3584478}, {"type": "node", "id": 2984506600, "lat": 47.5908034, "lon": 19.3584617}, {"type": "node", "id": 2984506601, "lat": 47.5908409, "lon": 19.3584899}, {"type": "node", "id": 2984782277, "lat": 47.587061, "lon": 19.3576077}, {"type": "node", "id": 2984782278, "lat": 47.5869441, "lon": 19.3572794}, {"type": "node", "id": 2984782279, "lat": 47.5868893, "lon": 19.3573222}, {"type": "node", "id": 2984782280, "lat": 47.5869888, "lon": 19.3576642}, {"type": "node", "id": 3013878528, "lat": 47.611945, "lon": 19.1810233, "tags": {"amenity": "pub", "name": "Cs\u00f6pi S\u00f6r\u00f6z\u0151"}}, {"type": "node", "id": 3016929249, "lat": 47.4753366, "lon": 19.1617273, "tags": {"amenity": "pub", "name": "M\u00e1di Falatoz\u00f3"}}, {"type": "node", "id": 3025268910, "lat": 47.6011314, "lon": 19.3443216, "tags": {"addr:city": "G\u00f6d\u00f6ll\u0151", "addr:housenumber": "30", "addr:postcode": "2100", "addr:street": "D\u00f3zsa Gy\u00f6rgy \u00fat", "amenity": "pub", "name": "Pub-Lik"}}, {"type": "node", "id": 3030195370, "lat": 47.6048076, "lon": 19.3509009}, {"type": "node", "id": 3030195371, "lat": 47.604744, "lon": 19.3508241}, {"type": "node", "id": 3030195372, "lat": 47.6046735, "lon": 19.3509523}, {"type": "node", "id": 3030195373, "lat": 47.6047371, "lon": 19.3510291}, {"type": "node", "id": 3039437389, "lat": 47.6060261, "lon": 19.5330914, "tags": {"amenity": "pub", "brewery": "no", "name": "Hal\u0151rh\u00e1z", "smoking": "outside"}}, {"type": "node", "id": 3059876529, "lat": 47.5977153, "lon": 19.3433333, "tags": {"amenity": "pub", "name": "Gal\u00e9ria S\u00f6r\u00f6z\u0151"}}, {"type": "node", "id": 3089561639, "lat": 47.6647522, "lon": 19.6582809}, {"type": "node", "id": 3089561649, "lat": 47.6647929, "lon": 19.6584544}, {"type": "node", "id": 3089561662, "lat": 47.664845, "lon": 19.658233}, {"type": "node", "id": 3089561675, "lat": 47.6648856, "lon": 19.6584065}, {"type": "node", "id": 3090886965, "lat": 47.667082, "lon": 19.6525655}, {"type": "node", "id": 3090886980, "lat": 47.6671602, "lon": 19.6524283}, {"type": "node", "id": 3090886981, "lat": 47.6671731, "lon": 19.6526799}, {"type": "node", "id": 3090886993, "lat": 47.6672512, "lon": 19.6525428}, {"type": "node", "id": 3124363361, "lat": 47.4806364, "lon": 19.256843, "tags": {"addr:city": "Budapest", "addr:housenumber": "81", "addr:postcode": "1173", "addr:street": "Ferihegyi \u00fat", "amenity": "pub", "name": "Patak S\u00f6r\u00f6z\u0151", "opening_hours": "24/7", "phone": "+36 1 257 1294"}}, {"type": "node", "id": 3124542562, "lat": 47.4895224, "lon": 19.259232, "tags": {"addr:city": "Budapest", "addr:housenumber": "11", "addr:postcode": "1172", "addr:street": "H\u0151s\u00f6k tere", "amenity": "pub", "name": "Liget Boroz\u00f3", "opening_hours": "Mo-Fr 07:00-21:00; Sa 08:00-22:00; Su 08:00-21:00", "toilets:wheelchair": "limited", "wheelchair": "yes"}}, {"type": "node", "id": 3126428024, "lat": 47.4976659, "lon": 19.2787717, "tags": {"addr:city": "Budapest", "addr:housenumber": "48", "addr:postcode": "1172", "addr:street": "J\u00e1sz\u00e1g\u00f3 utca", "amenity": "pub", "name": "Misi B\u00e1' s\u00f6r\u00f6z\u0151"}}, {"type": "node", "id": 3155497650, "lat": 47.5359734, "lon": 19.2632969, "tags": {"amenity": "pub", "brewery": "yes"}}, {"type": "node", "id": 3177760470, "lat": 47.4583456, "lon": 19.17698}, {"type": "node", "id": 3177760471, "lat": 47.458349, "lon": 19.1769118}, {"type": "node", "id": 3177760476, "lat": 47.4583938, "lon": 19.1769852}, {"type": "node", "id": 3177760478, "lat": 47.4583972, "lon": 19.176917}, {"type": "node", "id": 3198645257, "lat": 47.409061, "lon": 19.2469962}, {"type": "node", "id": 3198645258, "lat": 47.4091192, "lon": 19.2470627}, {"type": "node", "id": 3198645259, "lat": 47.4090156, "lon": 19.2472606}, {"type": "node", "id": 3198645260, "lat": 47.4089574, "lon": 19.2471941}, {"type": "node", "id": 3202212497, "lat": 47.5098344, "lon": 19.1850961, "tags": {"amenity": "pub", "name": "Fifty's Drinx"}}, {"type": "node", "id": 3206175573, "lat": 47.4696202, "lon": 19.1596014, "tags": {"amenity": "pub", "name": "T\u00f3 Bisztr\u00f3"}}, {"type": "node", "id": 3296572761, "lat": 47.448067, "lon": 19.1674069, "tags": {"amenity": "pub", "name": "Sarki s\u00f6r\u00f6z\u0151"}}, {"type": "node", "id": 3366668489, "lat": 47.4818352, "lon": 19.2200409}, {"type": "node", "id": 3366668491, "lat": 47.4818452, "lon": 19.2199661}, {"type": "node", "id": 3366668694, "lat": 47.481874, "lon": 19.220091}, {"type": "node", "id": 3366668700, "lat": 47.4818939, "lon": 19.2199415}, {"type": "node", "id": 3366668702, "lat": 47.4819227, "lon": 19.2200664}, {"type": "node", "id": 3366668704, "lat": 47.4819327, "lon": 19.2199916}, {"type": "node", "id": 3376887646, "lat": 47.4790451, "lon": 19.2566496, "tags": {"addr:city": "Budapest", "addr:housenumber": "74", "addr:postcode": "1173", "addr:street": "Ferihegyi \u00fat", "amenity": "pub", "name": "Tab\u00e1n s\u00f6r\u00f6z\u0151 \u00e9s boroz\u00f3", "opening_hours": "Mo-Sa 06:00-20:00; Su 07:00-19:00"}}, {"type": "node", "id": 3376887647, "lat": 47.4798232, "lon": 19.2517185, "tags": {"amenity": "pub", "name": "V\u00e9nbety\u00e1r s\u00f6r\u00f6z\u0151", "opening_hours": "Mo-Su 06:00-22:00"}}, {"type": "node", "id": 3377012258, "lat": 47.4133293, "lon": 19.201413, "tags": {"amenity": "pub", "name": "Nyer\u0151 S\u00f6r\u00f6z\u0151", "opening_hours": "Mo-Fr 09:00-22:00; Sa 08:00-22:00; Su 09:00-22:00", "shop": "lottery"}}, {"type": "node", "id": 3398757664, "lat": 47.606617, "lon": 19.19785, "tags": {"amenity": "pub", "name": "Wanszesz s\u00f6r\u00f6z\u0151", "source": "turistautak.hu", "url": "http://turistautak.hu/poi.php?id=15917", "wheelchair": "yes"}}, {"type": "node", "id": 3421890092, "lat": 47.5321804, "lon": 19.1884709, "tags": {"amenity": "pub", "name": "Netov\u00e1bb s\u00f6r\u00f6z\u0151", "toilets:wheelchair": "limited", "wheelchair": "yes"}}, {"type": "node", "id": 3446893907, "lat": 47.748958, "lon": 19.491722, "tags": {"amenity": "pub", "source": "turistautak.hu", "source:date": "2011-07-10", "url": "http://turistautak.hu/poi.php?id=72762"}}, {"type": "node", "id": 3446925480, "lat": 47.42165, "lon": 19.520133, "tags": {"addr:street": "Nefelejcs utca", "amenity": "pub", "name": "Pacs\u00edrta pub \u00e9s pizz\u00e9ria", "phone": "+36 29 456 299", "source": "turistautak.hu", "source:date": "2011-05-16", "url": "http://turistautak.hu/poi.php?id=17709"}}, {"type": "node", "id": 3446927871, "lat": 47.446931, "lon": 19.54332, "tags": {"amenity": "pub", "source": "turistautak.hu", "source:date": "2011-12-29", "url": "http://turistautak.hu/poi.php?id=103124"}}, {"type": "node", "id": 3446927884, "lat": 47.45215, "lon": 19.5267, "tags": {"amenity": "pub", "description": "H-P 8-18, Szo 8-13, Vas z\u00e1rva", "source": "turistautak.hu", "source:date": "2010-04-24", "url": "http://turistautak.hu/poi.php?id=77337"}}, {"type": "node", "id": 3446927888, "lat": 47.453243, "lon": 19.703329, "tags": {"amenity": "pub", "shop": "bakery", "source": "turistautak.hu", "source:date": "2013-11-24", "url": "http://turistautak.hu/poi.php?id=163276"}}, {"type": "node", "id": 3446928001, "lat": 47.462374, "lon": 19.501318, "tags": {"amenity": "pub", "source": "turistautak.hu", "source:date": "2011-05-16", "url": "http://turistautak.hu/poi.php?id=64404"}}, {"type": "node", "id": 3456375500, "lat": 47.727883, "lon": 19.154433, "tags": {"amenity": "pub", "name": "Sprint s\u00f6r\u00f6z\u0151", "source": "turistautak.hu", "source:date": "2011-05-16", "url": "http://turistautak.hu/poi.php?id=56390"}}, {"type": "node", "id": 3456375520, "lat": 47.7459454, "lon": 19.212248, "tags": {"amenity": "pub", "name": "S\u00f6r\u00f6z\u0151", "source": "turistautak.hu", "source:date": "2011-07-10", "url": "http://turistautak.hu/poi.php?id=38491"}}, {"type": "node", "id": 3456375578, "lat": 47.691519, "lon": 19.246218, "tags": {"amenity": "pub", "source": "turistautak.hu", "source:date": "2013-02-04", "url": "http://turistautak.hu/poi.php?id=125407"}}, {"type": "node", "id": 3462232147, "lat": 47.602967, "lon": 19.591667, "tags": {"amenity": "pub", "name": "Amazonas s\u00f6r\u00f6z\u0151", "source": "turistautak.hu", "source:date": "2011-05-16", "url": "http://turistautak.hu/poi.php?id=77341"}}, {"type": "node", "id": 3462232185, "lat": 47.72385, "lon": 19.544385, "tags": {"amenity": "pub", "name": "Foci b\u00fcf\u00e9", "source": "turistautak.hu", "source:date": "2010-08-02", "url": "http://turistautak.hu/poi.php?id=71761"}}, {"type": "node", "id": 3462241025, "lat": 47.671287, "lon": 19.54751, "tags": {"amenity": "pub", "name": "Kinizsi s\u00f6r\u00f6z\u0151", "source": "turistautak.hu", "source:date": "2011-07-10", "url": "http://turistautak.hu/poi.php?id=72771"}}, {"type": "node", "id": 3462241041, "lat": 47.626967, "lon": 19.41825, "tags": {"amenity": "pub", "description": "Nagy-Kakas s\u00f6r\u00f6z\u0151 Telefonk\u00e1rtya, f\u0171t\u00f6tt helyis\u00e9g", "name": "Nagy-Kakas s\u00f6r\u00f6z\u0151 (f\u0171t\u00f6tt)", "source": "turistautak.hu", "source:date": "2011-05-16", "toilets:wheelchair": "yes", "url": "http://turistautak.hu/poi.php?id=40010", "wheelchair": "yes"}}, {"type": "node", "id": 3462241048, "lat": 47.658092, "lon": 19.445389, "tags": {"amenity": "pub", "name": "Pressz\u00f3", "source": "turistautak.hu", "source:date": "2011-07-10", "url": "http://turistautak.hu/poi.php?id=58581"}}, {"type": "node", "id": 3462241071, "lat": 47.609167, "lon": 19.6009, "tags": {"amenity": "pub", "name": "S\u00f6r\u00f6z\u0151", "source": "turistautak.hu", "source:date": "2011-05-16", "url": "http://turistautak.hu/poi.php?id=48352"}}, {"type": "node", "id": 3462241072, "lat": 47.658057, "lon": 19.445798, "tags": {"amenity": "pub", "name": "S\u00f6r\u00f6z\u0151", "source": "turistautak.hu", "source:date": "2011-07-10", "url": "http://turistautak.hu/poi.php?id=58580"}}, {"type": "node", "id": 3462242043, "lat": 47.625933, "lon": 19.596867, "tags": {"amenity": "pub", "source": "turistautak.hu", "source:date": "2011-05-16", "url": "http://turistautak.hu/poi.php?id=21667"}}, {"type": "node", "id": 3462242051, "lat": 47.692506, "lon": 19.388302, "tags": {"amenity": "pub", "source": "turistautak.hu", "source:date": "2011-05-16", "url": "http://turistautak.hu/poi.php?id=68706"}}, {"type": "node", "id": 3462242052, "lat": 47.69268, "lon": 19.385269, "tags": {"amenity": "pub", "source": "turistautak.hu", "source:date": "2011-05-16", "url": "http://turistautak.hu/poi.php?id=68707"}}, {"type": "node", "id": 3462242799, "lat": 47.6392457, "lon": 19.4706846, "tags": {"amenity": "pub", "source": "turistautak.hu", "source:date": "2011-05-16", "url": "http://turistautak.hu/poi.php?id=85021"}}, {"type": "node", "id": 3462242831, "lat": 47.654133, "lon": 19.437367, "tags": {"amenity": "pub", "source": "turistautak.hu", "source:date": "2011-05-16", "url": "http://turistautak.hu/poi.php?id=41842"}}, {"type": "node", "id": 3462242848, "lat": 47.66935, "lon": 19.530933, "tags": {"amenity": "pub", "source": "turistautak.hu", "source:date": "2011-07-10", "url": "http://turistautak.hu/poi.php?id=97288"}}, {"type": "node", "id": 3462242854, "lat": 47.6757, "lon": 19.539812, "tags": {"amenity": "pub", "source": "turistautak.hu", "source:date": "2011-07-10", "url": "http://turistautak.hu/poi.php?id=72770"}}, {"type": "node", "id": 3470089711, "lat": 47.609388, "lon": 19.193145, "tags": {"amenity": "pub", "source": "turistautak.hu", "source:date": "2011-12-29", "url": "http://turistautak.hu/poi.php?id=100945"}}, {"type": "node", "id": 3470089713, "lat": 47.60969, "lon": 19.193239, "tags": {"amenity": "pub", "source": "turistautak.hu", "source:date": "2011-12-29", "url": "http://turistautak.hu/poi.php?id=100944"}}, {"type": "node", "id": 3470089714, "lat": 47.612688, "lon": 19.195265, "tags": {"amenity": "pub", "source": "turistautak.hu", "source:date": "2011-12-29", "url": "http://turistautak.hu/poi.php?id=100950"}}, {"type": "node", "id": 3470089717, "lat": 47.616376, "lon": 19.198114, "tags": {"amenity": "pub", "source": "turistautak.hu", "source:date": "2011-12-29", "url": "http://turistautak.hu/poi.php?id=100954"}}, {"type": "node", "id": 3471833788, "lat": 47.41038, "lon": 19.28886, "tags": {"amenity": "pub", "name": "Babilon Club Disco", "source": "turistautak.hu", "source:date": "2011-12-29", "url": "http://turistautak.hu/poi.php?id=84372"}}, {"type": "node", "id": 3471835333, "lat": 47.400146, "lon": 19.266345, "tags": {"amenity": "pub", "name": "S\u00f6r\u00f6z\u0151", "source": "turistautak.hu", "source:date": "2011-05-16", "url": "http://turistautak.hu/poi.php?id=84378"}}, {"type": "node", "id": 3471835334, "lat": 47.405638, "lon": 19.286098, "tags": {"amenity": "pub", "name": "S\u00f6r\u00f6z\u0151", "source": "turistautak.hu", "source:date": "2011-08-26", "toilets:wheelchair": "yes", "url": "http://turistautak.hu/poi.php?id=123660", "wheelchair": "limited"}}, {"type": "node", "id": 3471835361, "lat": 47.399379, "lon": 19.251323, "tags": {"amenity": "pub", "source": "turistautak.hu", "source:date": "2011-12-29", "url": "http://turistautak.hu/poi.php?id=117107"}}, {"type": "node", "id": 3471836708, "lat": 47.415453, "lon": 19.259758, "tags": {"amenity": "pub", "source": "turistautak.hu", "source:date": "2012-08-13", "url": "http://turistautak.hu/poi.php?id=117109"}}, {"type": "node", "id": 3471836731, "lat": 47.4056, "lon": 19.256117, "tags": {"amenity": "pub", "name": "\u00c1gi s\u00f6r\u00f6z\u0151", "source": "turistautak.hu", "source:date": "2011-05-16", "url": "http://turistautak.hu/poi.php?id=59989"}}, {"type": "node", "id": 3471876155, "lat": 47.5392, "lon": 19.385033, "tags": {"amenity": "pub", "name": "Breki s\u00f6r\u00f6z\u0151", "source": "turistautak.hu", "source:date": "2010-02-11", "url": "http://turistautak.hu/poi.php?id=11545", "wheelchair": "yes"}}, {"type": "node", "id": 3471876168, "lat": 47.572583, "lon": 19.268133, "tags": {"addr:street": "Bajcsy-Zsilinszky \u00fat", "amenity": "pub", "name": "Dud\u00e1s kocsma", "source": "turistautak.hu", "source:date": "2010-04-24", "url": "http://turistautak.hu/poi.php?id=18043"}}, {"type": "node", "id": 3471876188, "lat": 47.5329899, "lon": 19.2832113, "tags": {"amenity": "pub", "name": "Ficak s\u00f6r\u00f6z\u0151", "source": "turistautak.hu", "source:date": "2011-05-16", "url": "http://turistautak.hu/poi.php?id=38575"}}, {"type": "node", "id": 3471889520, "lat": 47.525733, "lon": 19.285317, "tags": {"amenity": "pub", "name": "Hangya s\u00f6r\u00f6z\u0151", "source": "turistautak.hu", "source:date": "2010-01-12", "url": "http://turistautak.hu/poi.php?id=72372"}}, {"type": "node", "id": 3471889614, "lat": 47.573147, "lon": 19.533946, "tags": {"amenity": "pub", "name": "Pressz\u00f3", "source": "turistautak.hu", "source:date": "2011-05-16", "url": "http://turistautak.hu/poi.php?id=58794"}}, {"type": "node", "id": 3471889641, "lat": 47.642717, "lon": 19.32031, "tags": {"amenity": "pub", "name": "Sz\u0151l\u0151hegyi b\u00fajdos\u00f3", "source": "turistautak.hu", "source:date": "2013-02-04", "url": "http://turistautak.hu/poi.php?id=82077"}}, {"type": "node", "id": 3471889644, "lat": 47.5956932, "lon": 19.2397927, "tags": {"amenity": "pub", "name": "S\u00f6rkert", "source": "turistautak.hu", "source:date": "2011-05-16", "url": "http://turistautak.hu/poi.php?id=5630"}}, {"type": "node", "id": 3471889647, "lat": 47.5943, "lon": 19.38919, "tags": {"amenity": "pub", "name": "S\u00f6r\u00f6z\u0151, fagyiz\u00f3", "source": "turistautak.hu", "source:date": "2011-05-16", "url": "http://turistautak.hu/poi.php?id=5878"}}, {"type": "node", "id": 3471889691, "lat": 47.4769939, "lon": 19.343129, "tags": {"amenity": "pub", "name": "Fenyves S\u00f6r\u00f6z\u0151", "source": "turistautak.hu", "source:date": "2011-12-29", "url": "http://turistautak.hu/poi.php?id=118161"}}, {"type": "node", "id": 3471889693, "lat": 47.483637, "lon": 19.3425227, "tags": {"addr:city": "P\u00e9cel", "addr:housenumber": "14", "addr:postcode": "2119", "addr:street": "Magl\u00f3di \u00fat", "amenity": "pub", "name": "J\u00f3bar\u00e1t S\u00f6r\u00f6z\u0151", "source": "turistautak.hu", "source:date": "2011-12-29", "url": "http://turistautak.hu/poi.php?id=118159"}}, {"type": "node", "id": 3471889698, "lat": 47.49028, "lon": 19.334883, "tags": {"amenity": "pub", "source": "turistautak.hu", "source:date": "2011-12-29", "url": "http://turistautak.hu/poi.php?id=118155"}}, {"type": "node", "id": 3471889701, "lat": 47.49113, "lon": 19.34802, "tags": {"amenity": "pub", "source": "turistautak.hu", "source:date": "2010-04-28", "url": "http://turistautak.hu/poi.php?id=3039"}}, {"type": "node", "id": 3471889727, "lat": 47.519463, "lon": 19.544767, "tags": {"amenity": "pub", "source": "turistautak.hu", "source:date": "2011-12-29", "url": "http://turistautak.hu/poi.php?id=121794"}}, {"type": "node", "id": 3471889734, "lat": 47.522953, "lon": 19.556665, "tags": {"amenity": "pub", "source": "turistautak.hu", "source:date": "2011-12-29", "url": "http://turistautak.hu/poi.php?id=121783"}}, {"type": "node", "id": 3471889787, "lat": 47.54412, "lon": 19.390421, "tags": {"amenity": "pub", "source": "turistautak.hu", "source:date": "2011-12-29", "url": "http://turistautak.hu/poi.php?id=118170"}}, {"type": "node", "id": 3471890121, "lat": 47.560665, "lon": 19.283314, "tags": {"amenity": "pub", "source": "turistautak.hu", "source:date": "2011-12-29", "url": "http://turistautak.hu/poi.php?id=100953"}}, {"type": "node", "id": 3471890138, "lat": 47.576488, "lon": 19.53004, "tags": {"amenity": "pub", "source": "turistautak.hu", "source:date": "2011-05-16", "url": "http://turistautak.hu/poi.php?id=5872"}}, {"type": "node", "id": 3471890162, "lat": 47.595583, "lon": 19.271917, "tags": {"amenity": "pub", "source": "turistautak.hu", "source:date": "2010-01-22", "url": "http://turistautak.hu/poi.php?id=36226"}}, {"type": "node", "id": 3471890173, "lat": 47.5987, "lon": 19.39181, "tags": {"amenity": "pub", "source": "turistautak.hu", "source:date": "2011-05-16", "url": "http://turistautak.hu/poi.php?id=19059"}}, {"type": "node", "id": 3473637722, "lat": 47.3706937, "lon": 19.530923, "tags": {"amenity": "pub", "name": "Goddsmarket", "source": "turistautak.hu", "source:date": "2014-01-19", "url": "http://turistautak.hu/poi.php?id=165012"}}, {"type": "node", "id": 3473637822, "lat": 47.3886057, "lon": 19.4101529, "tags": {"amenity": "pub", "name": "S\u00f6r\u00f6z\u0151", "source": "turistautak.hu", "source:date": "2011-05-16", "url": "http://turistautak.hu/poi.php?id=47301"}}, {"type": "node", "id": 3473638003, "lat": 47.371332, "lon": 19.530401, "tags": {"amenity": "pub", "source": "turistautak.hu", "source:date": "2011-05-16", "url": "http://turistautak.hu/poi.php?id=77544"}}, {"type": "node", "id": 3474619235, "lat": 47.6618886, "lon": 19.2798955, "tags": {"addr:city": "Veresegyh\u00e1z", "addr:housenumber": "128", "addr:postcode": "2112", "addr:street": "F\u0151 \u00fat", "amenity": "pub", "name": "F\u0151v\u00e9gi italbolt", "opening_hours": "Mo-Sa 06:00-12:00,14:00-19:00; Su 07:00-12:00,14:00-19:00"}}, {"type": "node", "id": 3479961257, "lat": 47.738037, "lon": 19.677255, "tags": {"amenity": "pub", "source": "turistautak.hu", "source:date": "2011-07-10", "toilets:wheelchair": "no", "url": "http://turistautak.hu/poi.php?id=97296", "wheelchair": "no"}}, {"type": "node", "id": 3479961329, "lat": 47.59795, "lon": 19.688383, "tags": {"amenity": "pub", "name": "Sport s\u00f6r\u00f6z\u0151", "source": "turistautak.hu", "source:date": "2012-07-28", "toilets:wheelchair": "limited", "url": "http://turistautak.hu/poi.php?id=142090", "wheelchair": "yes"}}, {"type": "node", "id": 3479961346, "lat": 47.661545, "lon": 19.700134, "tags": {"amenity": "pub", "source": "turistautak.hu", "source:date": "2012-10-28", "url": "http://turistautak.hu/poi.php?id=120962"}}, {"type": "node", "id": 3479961348, "lat": 47.663365, "lon": 19.624213, "tags": {"amenity": "pub", "source": "turistautak.hu", "source:date": "2011-07-10", "url": "http://turistautak.hu/poi.php?id=43350"}}, {"type": "node", "id": 3479961351, "lat": 47.671237, "lon": 19.664987, "tags": {"amenity": "pub", "source": "turistautak.hu", "source:date": "2011-07-08", "toilets:wheelchair": "yes", "url": "http://turistautak.hu/poi.php?id=120959", "wheelchair": "no"}}, {"type": "node", "id": 3479961353, "lat": 47.686659, "lon": 19.774357, "tags": {"amenity": "pub", "source": "turistautak.hu", "source:date": "2011-07-08", "url": "http://turistautak.hu/poi.php?id=120964"}}, {"type": "node", "id": 3488444706, "lat": 47.381842, "lon": 19.210692, "tags": {"amenity": "pub", "source": "turistautak.hu", "source:date": "2012-08-13", "url": "http://turistautak.hu/poi.php?id=117101"}}, {"type": "node", "id": 3488444707, "lat": 47.381849, "lon": 19.231727, "tags": {"amenity": "pub", "source": "turistautak.hu", "source:date": "2012-08-13", "url": "http://turistautak.hu/poi.php?id=117104"}}, {"type": "node", "id": 3488444709, "lat": 47.386777, "lon": 19.238373, "tags": {"amenity": "pub", "source": "turistautak.hu", "source:date": "2012-08-13", "url": "http://turistautak.hu/poi.php?id=117105"}}, {"type": "node", "id": 3490658506, "lat": 47.579133, "lon": 19.729833, "tags": {"amenity": "pub", "name": "R\u00f3zsa pressz\u00f3", "source": "turistautak.hu", "source:date": "2012-07-28", "url": "http://turistautak.hu/poi.php?id=142089"}}, {"type": "node", "id": 3546523525, "lat": 47.5322943, "lon": 19.1879142, "tags": {"addr:city": "Budapest", "addr:housenumber": "116", "addr:postcode": "1162", "addr:street": "Szlov\u00e1k \u00fat", "amenity": "pub", "name": "Legenda S\u00f6rf\u0151zde S\u00f6r\u00f6z\u0151", "opening_hours": "Mo-Th 11:00-23:00; Fr-Sa 11:00-02:00; Su 12:00-23:00", "website": "http://www.legendasorfozde.hu/"}}, {"type": "node", "id": 3561542578, "lat": 47.4292606, "lon": 19.3924697}, {"type": "node", "id": 3561542579, "lat": 47.429253, "lon": 19.3926336}, {"type": "node", "id": 3561542580, "lat": 47.4291425, "lon": 19.3926224}, {"type": "node", "id": 3561542581, "lat": 47.4291501, "lon": 19.3924585}, {"type": "node", "id": 3596009069, "lat": 47.4818527, "lon": 19.2317715, "tags": {"addr:city": "Budapest", "addr:housenumber": "5", "addr:postcode": "1173", "addr:street": "Sima utca", "amenity": "pub", "name": "Bed\u0151 s\u00f6r\u00f6z\u0151", "opening_hours": "Mo-Su 12:00-24:00", "smoking": "outside", "toilets:wheelchair": "limited", "wheelchair": "limited"}}, {"type": "node", "id": 3605483136, "lat": 47.7214729, "lon": 19.2619797}, {"type": "node", "id": 3605483137, "lat": 47.7214805, "lon": 19.2621686}, {"type": "node", "id": 3605483138, "lat": 47.7215798, "lon": 19.2621598}, {"type": "node", "id": 3605483139, "lat": 47.7215722, "lon": 19.2619709}, {"type": "node", "id": 3650195691, "lat": 47.5077939, "lon": 19.1734595, "tags": {"addr:city": "Budapest", "addr:housenumber": "19A", "addr:postcode": "1163", "addr:street": "Veres P\u00e9ter \u00fat", "amenity": "pub", "name": "Bauer Korcsma"}}, {"type": "node", "id": 3708583809, "lat": 47.4910432, "lon": 19.2703765, "tags": {"addr:city": "Budapest", "addr:housenumber": "44", "addr:postcode": "1172", "addr:street": "B\u00e1rtfai utca", "amenity": "pub", "name": "Z\u00f6ld Sas s\u00f6r\u00f6z\u0151", "wheelchair": "limited"}}, {"type": "node", "id": 3822462171, "lat": 47.4115368, "lon": 19.244438}, {"type": "node", "id": 3822462172, "lat": 47.4116884, "lon": 19.2441913}, {"type": "node", "id": 3822462173, "lat": 47.4117798, "lon": 19.2443139}, {"type": "node", "id": 3822462174, "lat": 47.4116281, "lon": 19.2445606}, {"type": "node", "id": 3835539132, "lat": 47.4276786, "lon": 19.40031, "tags": {"amenity": "pub", "name": "Korona", "toilets:wheelchair": "no", "wheelchair": "no"}}, {"type": "node", "id": 3835749168, "lat": 47.5522561, "lon": 19.2259292, "tags": {"addr:city": "Cs\u00f6m\u00f6r", "addr:housenumber": "57", "addr:postcode": "2141", "addr:street": "Sz\u00e9chenyi utca", "alt_name": "No. 100 Bili\u00e1rd Klub", "amenity": "pub", "brewery": "yes;Arany_\u00c1szok;Pilsner_Urquell", "contact:facebook": "https://www.facebook.com/arpikocsmaja/", "contact:phone": "+36 20 219 4415", "internet_access": "wlan", "internet_access:fee": "no", "name": "\u00c1rpi kocsm\u00e1ja", "opening_hours": "Su-Th 16:00-23:00;Fr-Sa 16:00-00:00", "outdoor_seating": "yes", "smoking": "outside", "sport": "billiards;darts", "start_date": "1994", "tv": "yes", "wheelchair": "yes"}}, {"type": "node", "id": 3917285231, "lat": 47.4294463, "lon": 19.3936882}, {"type": "node", "id": 3917285232, "lat": 47.429447, "lon": 19.3936185}, {"type": "node", "id": 3917285233, "lat": 47.429403, "lon": 19.3936175}, {"type": "node", "id": 3917285234, "lat": 47.4294023, "lon": 19.3936873}, {"type": "node", "id": 3935792527, "lat": 47.5048434, "lon": 19.1721748, "tags": {"addr:city": "Budapest", "addr:housenumber": "8/c", "addr:postcode": "1163", "addr:street": "K\u00f6vir\u00f3zsa utca", "amenity": "pub", "email": "legendasorfozde@gmail.com", "facebook": "https://www.facebook.com/LegendaSorfozdeCenter/", "name": "Legenda S\u00f6rf\u0151zde Center", "opening_hours": "Mo-Th 14:00-23:00, Fr-Sa 14:00-02:00, Su 14:00-22:00", "operator": "Kov\u00e1cs J\u00f3zsef \"Olasz\"", "phone": "+36 20 942 2747", "smoking": "isolated", "start_date": "2013", "url": "http://center.legendasorfozde.hu/", "website": "http://legendasorfozde.hu/"}}, {"type": "node", "id": 4018573089, "lat": 47.6330241, "lon": 19.5207596, "tags": {"amenity": "pub", "name": "H\u00e1roml\u00e9pcs\u0151s kocsma"}}, {"type": "node", "id": 4035115519, "lat": 47.4933246, "lon": 19.3424428, "tags": {"amenity": "pub", "mapillary": "294872985560744", "name": "Hangulat s\u00f6r\u00f6z\u0151", "opening_hours": "Mo-Su 06:00-21:00"}}, {"type": "node", "id": 4065780080, "lat": 47.5684508, "lon": 19.27466, "tags": {"amenity": "pub", "name": "s\u00f6r\u00f6z\u0151"}}, {"type": "node", "id": 4123998647, "lat": 47.377799, "lon": 19.2153569, "tags": {"amenity": "pub", "name": "\u00d6k\u00f6r s\u00f6r\u00f6z\u0151", "toilets:wheelchair": "limited", "wheelchair": "limited"}}, {"type": "node", "id": 4204183393, "lat": 47.4435198, "lon": 19.3211344, "tags": {"amenity": "pub", "name": "Korcsma"}}, {"type": "node", "id": 4313468302, "lat": 47.4405422, "lon": 19.3155971, "tags": {"amenity": "pub", "name": "Nemzeti Talpon\u00e1ll\u00f3", "toilets:wheelchair": "yes", "wheelchair": "yes"}}, {"type": "node", "id": 4351445082, "lat": 47.4166019, "lon": 19.7534493, "tags": {"amenity": "pub", "name": "Bauer s\u00f6rf\u0151z\u0151 \u00e9s s\u00f6r\u00f6z\u0151"}}, {"type": "node", "id": 4377400292, "lat": 47.4499126, "lon": 19.6801832}, {"type": "node", "id": 4377400293, "lat": 47.4499326, "lon": 19.6800598}, {"type": "node", "id": 4377400296, "lat": 47.4499841, "lon": 19.6802084}, {"type": "node", "id": 4377400298, "lat": 47.4500041, "lon": 19.6800851}, {"type": "node", "id": 4437895189, "lat": 47.548625, "lon": 19.2641946, "tags": {"amenity": "pub"}}, {"type": "node", "id": 4525195687, "lat": 47.3854482, "lon": 19.412278}, {"type": "node", "id": 4525195688, "lat": 47.3853382, "lon": 19.4124359}, {"type": "node", "id": 4525195689, "lat": 47.3853016, "lon": 19.4123592}, {"type": "node", "id": 4525195690, "lat": 47.3853505, "lon": 19.4123006}, {"type": "node", "id": 4525195691, "lat": 47.3854115, "lon": 19.4122014}, {"type": "node", "id": 4527203401, "lat": 47.4956504, "lon": 19.25991}, {"type": "node", "id": 4527203402, "lat": 47.4957237, "lon": 19.2599826}, {"type": "node", "id": 4543817123, "lat": 47.7452503, "lon": 19.2119379, "tags": {"addr:city": "V\u00e1cduka", "addr:postcode": "2167", "addr:street": "Kossuth Lajos \u00fat", "amenity": "pub", "name": "Rom Kocsma"}}, {"type": "node", "id": 4544749169, "lat": 47.4423083, "lon": 19.3455012, "tags": {"amenity": "pub", "name": "F\u00e1bry Kocsma"}}, {"type": "node", "id": 4544836533, "lat": 47.5480345, "lon": 19.6054328}, {"type": "node", "id": 4544836534, "lat": 47.5480141, "lon": 19.6054888}, {"type": "node", "id": 4544836535, "lat": 47.5480661, "lon": 19.6055402}, {"type": "node", "id": 4544836536, "lat": 47.5480881, "lon": 19.6054795}, {"type": "node", "id": 4545001700, "lat": 47.5004758, "lon": 19.3314676, "tags": {"amenity": "pub", "is_in": "Vas\u00faton t\u00fali ter\u00fclet"}}, {"type": "node", "id": 4588758676, "lat": 47.4445482, "lon": 19.3548684, "tags": {"amenity": "pub", "name": "B-1"}}, {"type": "node", "id": 4591430570, "lat": 47.6756569, "lon": 19.2855702, "tags": {"amenity": "pub"}}, {"type": "node", "id": 4623245042, "lat": 47.3905085, "lon": 19.350167}, {"type": "node", "id": 4623245043, "lat": 47.3905694, "lon": 19.3502034}, {"type": "node", "id": 4744571524, "lat": 47.6227971, "lon": 19.5519554, "tags": {"amenity": "pub", "outdoor_seating": "no"}}, {"type": "node", "id": 4881683690, "lat": 47.4037201, "lon": 19.1847147, "tags": {"addr:postcode": "1188", "addr:street": "Bocskai utca", "amenity": "pub", "cuisine": "coffee_shop;buschenschank", "name": "Hord\u00f3", "name:hu": "Hord\u00f3"}}, {"type": "node", "id": 4933471232, "lat": 47.4428816, "lon": 19.311573, "tags": {"amenity": "pub", "fixme": "verify", "name": "Arany S\u00f6r\u00f6z\u0151", "source": "route4u", "toilets:wheelchair": "yes", "wheelchair": "yes"}}, {"type": "node", "id": 4933473967, "lat": 47.5309994, "lon": 19.1911411, "tags": {"amenity": "pub", "fixme": "verify", "name": "K\u00e1roly S\u00f6r\u00f6z\u0151", "source": "route4u", "toilets:wheelchair": "limited", "wheelchair": "limited"}}, {"type": "node", "id": 4933473976, "lat": 47.5335875, "lon": 19.2118263, "tags": {"addr:city": "Budapest", "addr:housenumber": "1", "addr:postcode": "1162", "addr:street": "\u00c1rp\u00e1df\u00f6ldi t\u00e9r", "amenity": "pub", "name": "\u00c1rp\u00e1d S\u00f6r\u00f6z\u0151", "outdoor_seating": "yes", "source": "local knowledge", "toilets:wheelchair": "limited", "wheelchair": "limited"}}, {"type": "node", "id": 4933474310, "lat": 47.4022887, "lon": 19.1800528, "tags": {"amenity": "pub", "fixme": "verify", "name": "Pali Boroz\u00f3", "source": "route4u", "toilets:wheelchair": "no", "wheelchair": "no"}}, {"type": "node", "id": 4933474371, "lat": 47.7343084, "lon": 19.319898, "tags": {"amenity": "pub", "fixme": "verify", "name": "Torkos Hark\u00e1ly Sport Pub", "source": "route4u"}}, {"type": "node", "id": 4933474402, "lat": 47.7689056, "lon": 19.6668194, "tags": {"amenity": "pub", "fixme": "verify", "name": "12. sz. Italbolt", "source": "route4u", "toilets:wheelchair": "no", "wheelchair": "no"}}, {"type": "node", "id": 4933474434, "lat": 47.4065968, "lon": 19.2777887, "tags": {"amenity": "pub", "fixme": "verify", "name": "N\u00e9gy Sz\u00fcrke S\u00f6r\u00f6z\u0151", "source": "route4u", "toilets:wheelchair": "yes", "wheelchair": "yes"}}, {"type": "node", "id": 4933474463, "lat": 47.4205082, "lon": 19.7406138, "tags": {"amenity": "pub", "fixme": "verify", "name": "Bb S\u00f6r\u00f6z\u0151", "source": "route4u", "toilets:wheelchair": "limited", "wheelchair": "limited"}}, {"type": "node", "id": 4933474498, "lat": 47.435598, "lon": 19.1912214, "tags": {"amenity": "pub", "contact:facebook": "https://facebook.com/garazs", "contact:phone": "+36 20 394 2882", "dog": "yes", "fixme": "verify", "name": "A-Gar\u00e1zs S\u00f6r\u00f6z\u0151, Pizz\u00e9ria", "source": "route4u"}}, {"type": "node", "id": 4933474507, "lat": 47.4391274, "lon": 19.3412981, "tags": {"amenity": "pub", "fixme": "verify", "name": "Colombus S\u00f6r\u00f6z\u0151", "source": "route4u", "toilets:wheelchair": "limited", "wheelchair": "no"}}, {"type": "node", "id": 4933474523, "lat": 47.4131251, "lon": 19.2572537, "tags": {"amenity": "pub", "fixme": "verify", "name": "Lesz Vigasz S\u00f6r\u00f6z\u0151", "source": "route4u", "toilets:wheelchair": "yes", "wheelchair": "yes"}}, {"type": "node", "id": 4933474543, "lat": 47.4175116, "lon": 19.7463137, "tags": {"amenity": "pub", "fixme": "verify", "name": "Mc Gabi", "source": "route4u", "toilets:wheelchair": "no", "wheelchair": "no"}}, {"type": "node", "id": 4933474555, "lat": 47.4256722, "lon": 19.2276548, "tags": {"amenity": "pub", "fixme": "verify", "name": "Kir\u00e1ly S\u00f6r\u00f6z\u0151", "source": "route4u", "wheelchair": "yes"}}, {"type": "node", "id": 4933474632, "lat": 47.4532596, "lon": 19.1958057, "tags": {"amenity": "pub", "fixme": "verify", "name": "K\u0151h\u00edd kocsma", "source": "route4u"}}, {"type": "node", "id": 4933474650, "lat": 47.483975, "lon": 19.1775602, "tags": {"addr:city": "Budapest", "amenity": "pub", "fixme": "verify", "name": "Silverkart B\u00e1r", "name:hu": "Silverkart B\u00e1r", "source": "route4u", "toilets:wheelchair": "no", "wheelchair": "no"}}, {"type": "node", "id": 4933474952, "lat": 47.7283339, "lon": 19.2422339, "tags": {"amenity": "pub", "name": "Iguana Club", "toilets:wheelchair": "no", "wheelchair": "yes"}}, {"type": "node", "id": 4933475344, "lat": 47.5419987, "lon": 19.2675497, "tags": {"amenity": "pub", "fixme": "verify", "name": "Hangya S\u00f6r\u00f6z\u0151", "source": "route4u", "toilets:wheelchair": "yes", "wheelchair": "yes"}}, {"type": "node", "id": 4933475609, "lat": 47.6068398, "lon": 19.6879379, "tags": {"amenity": "pub", "fixme": "verify", "name": "Korona Rock S\u00f6r\u00f6z\u0151", "source": "route4u", "toilets:wheelchair": "yes", "wheelchair": "yes"}}, {"type": "node", "id": 4933475717, "lat": 47.6684728, "lon": 19.694521, "tags": {"amenity": "pub", "fixme": "verify", "name": "Santa F\u00e9 S\u00f6r\u00f6z\u0151", "source": "route4u"}}, {"type": "node", "id": 4933475854, "lat": 47.6547844, "lon": 19.2853264, "tags": {"alt_name": "G\u00f6sser S\u00f6r\u00f6z\u0151", "amenity": "pub", "name": "Geszteny\u00e9s S\u00f6r\u00f6z\u0151", "opening_hours": "Mo-Su 14:00-22:00; Fr,Sa 14:00-24:00", "source": "route4u", "toilets:wheelchair": "no", "wheelchair": "no"}}, {"type": "node", "id": 4933475908, "lat": 47.7254026, "lon": 19.1698607, "tags": {"amenity": "pub", "fixme": "verify", "name": "Beugr\u00f3 S\u00f6r\u00f6z\u0151", "source": "route4u", "toilets:wheelchair": "limited", "wheelchair": "limited"}}, {"type": "node", "id": 4939174356, "lat": 47.4097636, "lon": 19.270407, "tags": {"amenity": "pub", "fixme": "verify", "name": "Soproni S\u00f6r\u00f6z\u0151", "source": "route4u", "toilets:wheelchair": "limited", "wheelchair": "limited"}}, {"type": "node", "id": 4939175720, "lat": 47.7645446, "lon": 19.7012759, "tags": {"amenity": "pub", "fixme": "verify", "name": "Faker\u00e9k S\u00f6r\u00f6z\u0151", "source": "route4u", "toilets:wheelchair": "no", "wheelchair": "no"}}, {"type": "node", "id": 4939176228, "lat": 47.6817544, "lon": 19.273956, "tags": {"amenity": "pub", "fixme": "verify", "name": "Italbolt", "source": "route4u", "toilets:wheelchair": "no", "wheelchair": "no"}}, {"type": "node", "id": 4939177665, "lat": 47.4580722, "lon": 19.1769638, "tags": {"amenity": "pub", "fixme": "verify", "name": "Zsadi Bet\u00e9r\u0151je", "source": "route4u", "toilets:wheelchair": "no", "wheelchair": "no"}}, {"type": "node", "id": 4939177762, "lat": 47.4825209, "lon": 19.2370942, "tags": {"amenity": "pub", "fixme": "verify", "name": "Limos Pizz\u00e9ria Pub", "source": "route4u"}}, {"type": "node", "id": 4939178032, "lat": 47.5279609, "lon": 19.3914078, "tags": {"amenity": "pub", "name": "Minden-Kor Pub", "source": "route4u", "toilets:wheelchair": "limited", "verified": "yes", "wheelchair": "no"}}, {"type": "node", "id": 4939178262, "lat": 47.4032896, "lon": 19.2720987, "tags": {"amenity": "pub", "fixme": "verify", "name": "Kiskurjant\u00f3", "source": "route4u", "toilets:wheelchair": "no", "wheelchair": "yes"}}, {"type": "node", "id": 4939178659, "lat": 47.6656329, "lon": 19.6837765, "tags": {"addr:city": "Hatvan", "addr:housenumber": "2", "addr:postcode": "3000", "addr:street": "M\u00e1rt\u00edrok \u00fatja", "amenity": "pub", "name": "Sessanta B\u00e1r \u00e9s \u00c9tterem", "opening_hours": "Su-Th 12:00-21:00; Fr-Sa 12:00-22:30", "outdoor_seating": "no", "phone": "+36 37 346 441", "website": "http://www.sessanta.hu/"}}, {"type": "node", "id": 4939178662, "lat": 47.4152948, "lon": 19.2599961, "tags": {"amenity": "pub", "fixme": "verify", "name": "Kispil\u00f3ta S\u00f6r\u00f6z\u0151", "source": "route4u", "toilets:wheelchair": "limited", "wheelchair": "yes"}}, {"type": "node", "id": 4939178943, "lat": 47.6614409, "lon": 19.6998939, "tags": {"amenity": "pub", "fixme": "verify", "name": "Sasa S\u00f6r\u00f6z\u0151", "source": "route4u"}}, {"type": "node", "id": 4939179050, "lat": 47.6538577, "lon": 19.4373239, "tags": {"amenity": "pub", "fixme": "verify", "name": "Korona S\u00f6r\u00f6z\u0151", "source": "route4u", "toilets:wheelchair": "limited", "wheelchair": "limited"}}, {"type": "node", "id": 4939179282, "lat": 47.4489191, "lon": 19.5308071, "tags": {"amenity": "pub", "fixme": "verify", "name": "Pusk\u00e1s Sport Klub", "source": "route4u", "toilets:wheelchair": "no", "wheelchair": "limited"}}, {"type": "node", "id": 4939179346, "lat": 47.6516485, "lon": 19.4878327, "tags": {"amenity": "pub", "fixme": "verify", "name": "Meg\u00e1ll\u00f3 Italbolt", "source": "route4u", "toilets:wheelchair": "yes", "wheelchair": "yes"}}, {"type": "node", "id": 4939179358, "lat": 47.4442429, "lon": 19.1676506, "tags": {"amenity": "pub", "fixme": "verify", "name": "Corleone Sport Pub", "source": "route4u", "toilets:wheelchair": "yes", "wheelchair": "limited"}}, {"type": "node", "id": 4939276696, "lat": 47.4200184, "lon": 19.743147, "tags": {"amenity": "pub", "fixme": "verify", "name": "Kurta Kocsma", "source": "route4u", "toilets:wheelchair": "no", "wheelchair": "no"}}, {"type": "node", "id": 4939279779, "lat": 47.6667915, "lon": 19.6920604, "tags": {"amenity": "pub", "fixme": "verify", "name": "Windsor Pub", "source": "route4u", "toilets:wheelchair": "no", "wheelchair": "limited"}}, {"type": "node", "id": 4939279971, "lat": 47.5088274, "lon": 19.1713911, "tags": {"amenity": "pub", "fixme": "verify", "name": "Bambusz kocsma", "source": "route4u", "wheelchair": "limited", "wheelchair:description": "terast van"}}, {"type": "node", "id": 4940555180, "lat": 47.5090324, "lon": 19.17114, "tags": {"amenity": "pub", "fixme": "verify", "name": "T11 B\u00fcf\u00e9 S\u00f6r\u00f6z\u0151", "source": "route4u", "wheelchair": "no", "wheelchair:description": "terasz van"}}, {"type": "node", "id": 4940559165, "lat": 47.4443957, "lon": 19.3205358, "tags": {"amenity": "pub", "fixme": "verify", "name": "Vadvir\u00e1g S\u00f6r\u00f6z\u0151", "source": "route4u", "toilets:wheelchair": "limited", "wheelchair": "limited"}}, {"type": "node", "id": 4940560192, "lat": 47.5233819, "lon": 19.1724058, "tags": {"amenity": "pub", "name": "Aranyserleg Borpatika", "source": "route4u"}}, {"type": "node", "id": 4940563179, "lat": 47.6701001, "lon": 19.3073158, "tags": {"amenity": "pub", "name": "B\u00e1zis S\u00f6r\u00f6z\u0151", "source": "route4u"}}, {"type": "node", "id": 4999515550, "lat": 47.5869143, "lon": 19.3574553}, {"type": "node", "id": 4999515551, "lat": 47.5869319, "lon": 19.3574416}, {"type": "node", "id": 5268445500, "lat": 47.3991335, "lon": 19.6288008, "tags": {"addr:city": "T\u00e1pi\u00f3s\u00e1g", "addr:housenumber": "34", "addr:postcode": "2253", "addr:street": "Bicskei utca", "amenity": "pub", "name": "Cimbora italbolt"}}, {"type": "node", "id": 5268445503, "lat": 47.3964962, "lon": 19.6232302, "tags": {"amenity": "pub", "name": "Flaming\u00f3 b\u00fcf\u00e9"}}, {"type": "node", "id": 5268445504, "lat": 47.4033319, "lon": 19.6305792, "tags": {"addr:city": "T\u00e1pi\u00f3s\u00e1g", "addr:housenumber": "1", "addr:postcode": "2253", "addr:street": "Arany J\u00e1nos utca", "amenity": "pub", "name": "Vadvir\u00e1g s\u00f6r\u00f6z\u0151", "opening_hours": "Mo-Su 08:00-22:00", "smoking": "outside"}}, {"type": "node", "id": 5320982766, "lat": 47.4433795, "lon": 19.6150656, "tags": {"amenity": "pub", "name": "Koccint\u00f3 italbolt"}}, {"type": "node", "id": 5343153936, "lat": 47.4295965, "lon": 19.2182066, "tags": {"amenity": "pub", "name": "Csem\u0151i Boroz\u00f3 S\u00f6r\u00f6z\u0151"}}, {"type": "node", "id": 5343574793, "lat": 47.4832975, "lon": 19.5764483, "tags": {"amenity": "pub", "name": "H\u00e1rsfa s\u00f6r\u00f6z\u0151"}}, {"type": "node", "id": 5539817821, "lat": 47.4523262, "lon": 19.5188251, "tags": {"amenity": "pub", "name": "Gomba", "name:hu": "Gomba"}}, {"type": "node", "id": 5552147055, "lat": 47.4452813, "lon": 19.5477298, "tags": {"amenity": "pub", "name": "H\u00e1rsfa s\u00f6r\u00f6z\u0151"}}, {"type": "node", "id": 5630469627, "lat": 47.5907853, "lon": 19.3586276}, {"type": "node", "id": 5630469628, "lat": 47.5908011, "lon": 19.3584799}, {"type": "node", "id": 5650165050, "lat": 47.4697405, "lon": 19.1596325}, {"type": "node", "id": 5650165051, "lat": 47.4696135, "lon": 19.1597827}, {"type": "node", "id": 5650165052, "lat": 47.469512, "lon": 19.1596217}, {"type": "node", "id": 5650165053, "lat": 47.4696389, "lon": 19.1594662}, {"type": "node", "id": 5682148959, "lat": 47.4827215, "lon": 19.5962935, "tags": {"amenity": "pub", "name": "Pikol\u00f3 kocsma"}}, {"type": "node", "id": 5868412686, "lat": 47.649359, "lon": 19.288385, "tags": {"amenity": "pub", "name": "B\u00e1zis B\u00fcf\u00e9", "outdoor_seating": "yes"}}, {"type": "node", "id": 6006725982, "lat": 47.4144742, "lon": 19.5223898, "tags": {"amenity": "pub", "name": "5-\u00f6s kocsma"}}, {"type": "node", "id": 6093708064, "lat": 47.5231018, "lon": 19.5488325, "tags": {"amenity": "pub", "name": "Kispatak Vend\u00e9gl\u0151"}}, {"type": "node", "id": 6139467981, "lat": 47.4386669, "lon": 19.3169072, "tags": {"amenity": "pub", "name": "Gal\u00e9ria s\u00f6r\u00f6z\u0151", "source": "route4u"}}, {"type": "node", "id": 6341966570, "lat": 47.4942809, "lon": 19.1632649, "tags": {"amenity": "pub", "name": "V\u00f6lgy s\u00f6r\u00f6z\u0151"}}, {"type": "node", "id": 6413458099, "lat": 47.3827425, "lon": 19.3520732}, {"type": "node", "id": 6413458100, "lat": 47.3826368, "lon": 19.3519646}, {"type": "node", "id": 6413458101, "lat": 47.3826776, "lon": 19.3518779}, {"type": "node", "id": 6413458102, "lat": 47.3827833, "lon": 19.3519865}, {"type": "node", "id": 6470010748, "lat": 47.7622858, "lon": 19.6740278, "tags": {"amenity": "pub", "name": "Sasf\u00e9szek"}}, {"type": "node", "id": 6549010968, "lat": 47.5985532, "lon": 19.3539794}, {"type": "node", "id": 6549010969, "lat": 47.5985653, "lon": 19.3540854}, {"type": "node", "id": 6549010970, "lat": 47.5986293, "lon": 19.3540694}, {"type": "node", "id": 6549010971, "lat": 47.5986172, "lon": 19.3539633}, {"type": "node", "id": 6549010972, "lat": 47.5987578, "lon": 19.3540077}, {"type": "node", "id": 6549010973, "lat": 47.5986384, "lon": 19.3540403}, {"type": "node", "id": 6549010974, "lat": 47.5986192, "lon": 19.3538858}, {"type": "node", "id": 6549010975, "lat": 47.5987386, "lon": 19.3538531}, {"type": "node", "id": 6611694524, "lat": 47.4195288, "lon": 19.7287908}, {"type": "node", "id": 6611694525, "lat": 47.4194625, "lon": 19.7287541}, {"type": "node", "id": 6611694526, "lat": 47.4194497, "lon": 19.7288046}, {"type": "node", "id": 6611694527, "lat": 47.4194091, "lon": 19.7287822}, {"type": "node", "id": 6611694528, "lat": 47.4193833, "lon": 19.7288843}, {"type": "node", "id": 6611694529, "lat": 47.4194216, "lon": 19.7289056}, {"type": "node", "id": 6611694530, "lat": 47.4194082, "lon": 19.7289585}, {"type": "node", "id": 6611694531, "lat": 47.4194767, "lon": 19.7289964}, {"type": "node", "id": 6728803861, "lat": 47.3853596, "lon": 19.3630719}, {"type": "node", "id": 6728803862, "lat": 47.3851363, "lon": 19.3635381}, {"type": "node", "id": 6728803863, "lat": 47.3850405, "lon": 19.3634377}, {"type": "node", "id": 6728803864, "lat": 47.3852632, "lon": 19.3629725}, {"type": "node", "id": 6728803865, "lat": 47.385275, "lon": 19.3632492}, {"type": "node", "id": 6728803866, "lat": 47.3852959, "lon": 19.3632043}, {"type": "node", "id": 6728803867, "lat": 47.3853412, "lon": 19.3632518}, {"type": "node", "id": 6728803868, "lat": 47.3853199, "lon": 19.3632962}, {"type": "node", "id": 6728803869, "lat": 47.3853266, "lon": 19.3630365}, {"type": "node", "id": 6728803870, "lat": 47.3853037, "lon": 19.3630122}, {"type": "node", "id": 6728803871, "lat": 47.3853306, "lon": 19.3630275}, {"type": "node", "id": 6728803872, "lat": 47.3853072, "lon": 19.3630039}, {"type": "node", "id": 6728803873, "lat": 47.385053, "lon": 19.3634115, "tags": {"entrance": "yes"}}, {"type": "node", "id": 6937246840, "lat": 47.6337429, "lon": 19.4969489, "tags": {"amenity": "pub"}}, {"type": "node", "id": 6979097772, "lat": 47.5375303, "lon": 19.3898566, "tags": {"addr:city": "Isaszeg", "addr:housenumber": "14", "addr:postcode": "2117", "addr:street": "R\u00f3zsa utca", "amenity": "pub", "brewery": "yes", "name": "R\u00f3zsa Pressz\u00f3 Lott\u00f3z\u00f3", "note": "Lott\u00f3z\u00f3k\u00e9nt is m\u0171k\u00f6dik.", "opening_hours": "Mo-Sa 06:00-20:00, Su 08:00-13:00", "outdoor_seating": "yes", "smoking": "outside"}}, {"type": "node", "id": 7107675058, "lat": 47.6512683, "lon": 19.2906489}, {"type": "node", "id": 7107675059, "lat": 47.6512376, "lon": 19.2906}, {"type": "node", "id": 7107675060, "lat": 47.6512656, "lon": 19.2905612}, {"type": "node", "id": 7107675061, "lat": 47.6512963, "lon": 19.2906102}, {"type": "node", "id": 7251436849, "lat": 47.7213682, "lon": 19.1778509}, {"type": "node", "id": 7251436850, "lat": 47.721295, "lon": 19.1779597}, {"type": "node", "id": 7251436851, "lat": 47.7212362, "lon": 19.1778763}, {"type": "node", "id": 7251436852, "lat": 47.7212957, "lon": 19.1777655}, {"type": "node", "id": 7426505270, "lat": 47.6054248, "lon": 19.3510739}, {"type": "node", "id": 7426505271, "lat": 47.6053968, "lon": 19.3510389}, {"type": "node", "id": 7426505272, "lat": 47.6054311, "lon": 19.3509074}, {"type": "node", "id": 7426505273, "lat": 47.6054385, "lon": 19.350945}, {"type": "node", "id": 7508424119, "lat": 47.601227, "lon": 19.3440787}, {"type": "node", "id": 7508424124, "lat": 47.6013524, "lon": 19.3442762}, {"type": "node", "id": 7508424125, "lat": 47.6013296, "lon": 19.3442403}, {"type": "node", "id": 7508424126, "lat": 47.6014143, "lon": 19.3441897}, {"type": "node", "id": 7526971666, "lat": 47.7379893, "lon": 19.2901992}, {"type": "node", "id": 7526971667, "lat": 47.7380148, "lon": 19.2902361}, {"type": "node", "id": 7526971668, "lat": 47.7379241, "lon": 19.2902988}, {"type": "node", "id": 7526971669, "lat": 47.7381278, "lon": 19.2900635}, {"type": "node", "id": 7526971670, "lat": 47.7379989, "lon": 19.290407}, {"type": "node", "id": 7526971671, "lat": 47.738177, "lon": 19.2901348}, {"type": "node", "id": 8164567188, "lat": 47.4499601, "lon": 19.6800695}, {"type": "node", "id": 8578618415, "lat": 47.5907815, "lon": 19.3586445}, {"type": "node", "id": 8578618416, "lat": 47.5907683, "lon": 19.3586602}, {"type": "node", "id": 8578618417, "lat": 47.5906617, "lon": 19.358645}, {"type": "node", "id": 8724390153, "lat": 47.4957201, "lon": 19.2599271}, {"type": "node", "id": 8724390154, "lat": 47.4957142, "lon": 19.2599802}, {"type": "node", "id": 8724390155, "lat": 47.4956307, "lon": 19.2600859}, {"type": "node", "id": 8724390157, "lat": 47.4956931, "lon": 19.2601235}, {"type": "node", "id": 8724390158, "lat": 47.49571, "lon": 19.2601055}, {"type": "node", "id": 8917537793, "lat": 47.6559167, "lon": 19.2886046, "tags": {"amenity": "pub", "name": "Gumi Serh\u00e1z"}}, {"type": "node", "id": 8932843910, "lat": 47.6536397, "lon": 19.2862871, "tags": {"addr:city": "Veresegyh\u00e1z", "addr:housenumber": "1/a", "addr:postcode": "2112", "addr:street": "K\u00f6ves utca", "amenity": "pub", "name": "Bogy\u00f3 Katica S\u00f6r\u00f6z\u0151"}}, {"type": "node", "id": 9018315494, "lat": 47.6552517, "lon": 19.2752401}, {"type": "node", "id": 9018315495, "lat": 47.6552851, "lon": 19.2753541}, {"type": "node", "id": 9018315496, "lat": 47.6553458, "lon": 19.2753149}, {"type": "node", "id": 9018315497, "lat": 47.6553123, "lon": 19.2752009}, {"type": "node", "id": 9082193012, "lat": 47.6366671, "lon": 19.1589618}, {"type": "node", "id": 9082193013, "lat": 47.6366182, "lon": 19.1589423}, {"type": "node", "id": 9082193014, "lat": 47.6365371, "lon": 19.1589653}, {"type": "node", "id": 9082193015, "lat": 47.6365443, "lon": 19.1590698}, {"type": "node", "id": 9082193016, "lat": 47.636611, "lon": 19.159045}, {"type": "node", "id": 9082213517, "lat": 47.6366409, "lon": 19.1590591}, {"type": "node", "id": 9082213518, "lat": 47.636498, "lon": 19.1590309}, {"type": "node", "id": 9082213519, "lat": 47.6365391, "lon": 19.1590776}, {"type": "node", "id": 9321453370, "lat": 47.542701, "lon": 19.2251727, "tags": {"addr:city": "Cs\u00f6m\u00f6r", "addr:housenumber": "1", "addr:postcode": "2141", "addr:street": "B\u00e9ke t\u00e9r", "air_conditioning": "yes", "alt_name": "Felv\u00e1ri s\u00f6r\u00f6z\u0151", "amenity": "pub", "contact:email": "felvarisorozo@gmail.com", "contact:facebook": "https://www.facebook.com/felvarisorozo", "contact:phone": "+36 28 635 129", "cuisine": "sandwich", "internet_access": "wlan", "internet_access:fee": "no", "name": "Felv\u00e1ri pressz\u00f3", "opening_hours": "Su-Th 07:00-22:00;Fr-Sa 07:00-23:00", "outdoor_seating": "yes", "sport": "billiards", "toilets": "2", "tv": "yes"}}, {"type": "node", "id": 9379230669, "lat": 47.5976448, "lon": 19.3432215, "tags": {"amenity": "pub", "name": "Fan Club S\u00f6rh\u00e1z", "opening_hours": "Mo-Th 17:00-01:00; Fr, Sa 17:00-02:00; Su 17:00-01:00"}}, {"type": "node", "id": 9930533407, "lat": 47.5417333, "lon": 19.2199963, "tags": {"addr:city": "Cs\u00f6m\u00f6r", "addr:postcode": "2141", "addr:street": "Erkel Ferenc utca", "amenity": "pub", "fixme": "Does this exist somewhere on Erkel Ferenc street?", "level": "0", "name": "G\u00f6d\u00f6r pressz\u00f3", "sport": "billiards", "url": "https://csomorihirek.hu/CSH-Kocsmak-2019.jan.29"}}, {"type": "node", "id": 9973025484, "lat": 47.665829, "lon": 19.6632629, "tags": {"amenity": "pub"}}, {"type": "node", "id": 10300455461, "lat": 47.7608311, "lon": 19.6658822, "tags": {"amenity": "pub"}}, {"type": "node", "id": 10300455462, "lat": 47.7560625, "lon": 19.6779438, "tags": {"amenity": "pub", "brewery": "yes", "name": "Motor Rock Club Pub"}}, {"type": "node", "id": 10300455463, "lat": 47.7396491, "lon": 19.6691582, "tags": {"amenity": "pub", "brewery": "yes"}}, {"type": "node", "id": 10300455464, "lat": 47.7459822, "lon": 19.6752418, "tags": {"amenity": "pub", "brewery": "yes", "name": "Gerend\u00e1s", "toilets": "yes"}}, {"type": "way", "id": 152106879, "nodes": [1649358523, 1649358536, 1649358526, 1649358530, 4623245043, 4623245042, 1649358529, 1649358527, 1649358525, 1649358523], "tags": {"addr:city": "\u00dcll\u0151", "amenity": "pub", "building": "yes", "wheelchair": "no"}}, {"type": "way", "id": 221964556, "nodes": [2309427470, 2309427471, 2309427472, 2309427473, 2309427470], "tags": {"addr:city": "G\u00f6d\u00f6ll\u0151", "addr:housenumber": "16", "addr:postcode": "2100", "addr:street": "T\u00e1ncsics Mih\u00e1ly \u00fat", "amenity": "pub", "building": "yes", "name": "Erzs\u00e9bet S\u00f6rkert", "opening_hours": "Su-Th 11:30-23:00; Fr-Sa 11:30-00:00", "toilets:wheelchair": "no", "wheelchair": "limited"}}, {"type": "way", "id": 222301965, "nodes": [2312836625, 2312836629, 2312836635, 2312836633, 2312836631, 2312836627, 2312836625], "tags": {"amenity": "pub", "building": "yes", "mapillary": "979416096161341", "name": "Bet\u00e9r\u0151 a kis Lizihez", "opening_hours": "24/7"}}, {"type": "way", "id": 243565607, "nodes": [2509551318, 2509551320, 2509551321, 2509551322, 2509551319, 2509551317, 2509551318], "tags": {"addr:city": "Budapest", "addr:postcode": "1161", "addr:street": "Cs\u00f6m\u00f6ri \u00fat", "amenity": "pub", "building": "yes"}}, {"type": "way", "id": 272766303, "nodes": [7508424119, 2776909162, 7508424126, 7508424124, 7508424125, 7508424119], "tags": {"addr:city": "G\u00f6d\u00f6ll\u0151", "addr:housenumber": "32", "addr:postcode": "2100", "addr:street": "D\u00f3zsa Gy\u00f6rgy \u00fat", "amenity": "pub", "building": "residential", "name": "Camelot"}}, {"type": "way", "id": 287394018, "nodes": [2910014833, 2910014834, 2910014838, 2910014837, 2918780810, 2910014833], "tags": {"addr:city": "Budapest", "addr:housenumber": "102", "addr:postcode": "1165", "addr:street": "Margit utca", "amenity": "pub", "building": "yes", "internet_access": "wlan", "name": "Hangulat s\u00f6r\u00f6z\u0151"}}, {"type": "way", "id": 290349451, "nodes": [2938914998, 2938914999, 2938915000, 2938916401, 2938916402, 2938916403, 2938914998], "tags": {"addr:city": "G\u00f6d\u00f6ll\u0151", "addr:housenumber": "11", "addr:postcode": "2100", "addr:street": "Bethlen G\u00e1bor utca", "amenity": "pub", "building": "yes", "name": "Sp\u00edler"}}, {"type": "way", "id": 290461502, "nodes": [2939874042, 2939874043, 2939874044, 2939874045, 2939874046, 2939874047, 2939874042], "tags": {"addr:city": "G\u00f6d\u00f6ll\u0151", "addr:housenumber": "37", "addr:postcode": "2100", "addr:street": "Hunyadi J\u00e1nos utca", "amenity": "pub", "building": "yes", "name": "Jutka S\u00f6r\u00f6z\u0151"}}, {"type": "way", "id": 293154856, "nodes": [2967278387, 2967278388, 2967278389, 7426505273, 7426505272, 2967278390, 7426505271, 2967278391, 7426505270, 2967278392, 2967278387], "tags": {"addr:city": "G\u00f6d\u00f6ll\u0151", "addr:housenumber": "27", "addr:postcode": "2100", "addr:street": "Bethlen G\u00e1bor utca", "amenity": "pub", "building": "commercial", "name": "Dinny\u00e9s kocsma", "old_name": "S\u00e1ndor Istv\u00e1n korcsm\u00e1ja", "start_date": "before 1938"}}, {"type": "way", "id": 294792127, "nodes": [2984159292, 2984159293, 2984159294, 2984159295, 2984159296, 2984159297, 2984159292], "tags": {"addr:city": "G\u00f6d\u00f6ll\u0151", "addr:housenumber": "18", "addr:postcode": "2100", "addr:street": "T\u00f6r\u00f6k Ign\u00e1c utca", "amenity": "pub", "building": "yes", "name": "Bab\u00e1d boroz\u00f3"}}, {"type": "way", "id": 294826259, "nodes": [2984506599, 8578618417, 8578618416, 8578618415, 5630469627, 2984506598, 2984506601, 5630469628, 2984506600, 2984506599], "tags": {"addr:city": "G\u00f6d\u00f6ll\u0151", "addr:housenumber": "2", "addr:postcode": "2100", "addr:street": "\u00c1llom\u00e1s \u00fat", "amenity": "pub", "building": "yes", "name": "Lap\u00e1tos Mal\u00e1tah\u00e1z", "opening_hours": "Mo-Th 15:00-24:00; Fr-Sa 14:00-02:00, Su 15:00-24:00", "website": "https://lapatos.hu/"}}, {"type": "way", "id": 294855216, "nodes": [2984782277, 2984782278, 2984782279, 4999515551, 4999515550, 2984782280, 2984782277], "tags": {"addr:city": "G\u00f6d\u00f6ll\u0151", "addr:housenumber": "56", "addr:postcode": "2100", "addr:street": "Isaszegi \u00fat", "amenity": "pub", "building": "yes", "name": "Alv\u00e9g Kocsma", "source": "route4u"}}, {"type": "way", "id": 299079433, "nodes": [3030195370, 3030195371, 2966320250, 3030195372, 3030195373, 3030195370], "tags": {"addr:city": "G\u00f6d\u00f6ll\u0151", "addr:housenumber": "11", "addr:postcode": "2100", "addr:street": "Lumniczer S\u00e1ndor utca", "amenity": "pub", "building": "yes", "name": "Robinson S\u00f6r\u00f6z\u0151", "toilets:wheelchair": "yes", "wheelchair": "yes"}}, {"type": "way", "id": 304422141, "nodes": [3089561662, 3089561639, 3089561649, 3089561675, 3089561662], "tags": {"addr:city": "Hatvan", "addr:country": "HU", "addr:housenumber": "55/A", "addr:postcode": "3000", "addr:street": "R\u00e1k\u00f3czi \u00fat", "addr:suburb": "\u00dajhatvan", "amenity": "pub", "building": "house", "microbrewery": "no", "name": "Albin Kocsma", "note": "Val\u00f3sz\u00edn\u0171leg jelenleg \u00fczemen k\u00edv\u00fcl..."}}, {"type": "way", "id": 304541560, "nodes": [3090886980, 3090886965, 3090886981, 3090886993, 3090886980], "tags": {"addr:city": "Hatvan", "addr:country": "HU", "addr:housenumber": "1/C", "addr:postcode": "3000", "addr:street": "D\u00e9zsmasz\u00e9ki utca", "amenity": "pub", "building": "yes", "name": "Negr\u00f3", "opening_hours": "Mo-Su 07:30-21:00; Fr,Sa 07:30-24:00"}}, {"type": "way", "id": 311983162, "nodes": [3177760470, 3177760471, 3177760478, 3177760476, 3177760470], "tags": {"amenity": "pub", "building": "yes", "opening_hours": "Mo-Su 08:00-22:00", "smoking": "no"}}, {"type": "way", "id": 313831665, "nodes": [3198645257, 3198645258, 3198645259, 3198645260, 3198645257], "tags": {"amenity": "pub", "building": "yes", "name": "Nefi s\u00f6r\u00f6z\u0151 boroz\u00f3", "smoking": "no"}}, {"type": "way", "id": 329738768, "nodes": [3366668704, 3366668700, 3366668491, 3366668489, 3366668694, 3366668702, 3366668704], "tags": {"amenity": "pub", "building": "yes", "name": "Bor-is Falatoz\u00f3"}}, {"type": "way", "id": 350404822, "nodes": [3561542578, 3561542579, 3561542580, 3561542581, 3561542578], "tags": {"amenity": "pub", "building": "yes", "name": "Hangulat"}}, {"type": "way", "id": 354898991, "nodes": [3605483136, 3605483137, 3605483138, 3605483139, 3605483136], "tags": {"addr:city": "V\u00e1charty\u00e1n", "addr:housenumber": "4", "addr:postcode": "2164", "addr:street": "Veres P\u00e1ln\u00e9 utca", "amenity": "pub", "building": "yes"}}, {"type": "way", "id": 378886621, "nodes": [3822462171, 3822462172, 3822462173, 3822462174, 3822462171], "tags": {"addr:city": "Vecs\u00e9s", "addr:housenumber": "27", "addr:postcode": "2220", "addr:street": "K\u00fck\u00fcll\u0151i utca", "amenity": "pub", "building": "yes", "name": "Pince Kocsma", "smoking": "outside"}}, {"type": "way", "id": 388538549, "nodes": [3917285231, 3917285232, 3917285233, 3917285234, 3917285231], "tags": {"amenity": "pub", "building": "yes", "name": "\"C\" v\u00e1g\u00e1ny"}}, {"type": "way", "id": 440037874, "nodes": [4377400298, 4377400296, 4377400292, 4377400293, 8164567188, 4377400298], "tags": {"amenity": "pub", "building": "yes", "source": "turistautak.hu", "source:date": "2011-12-29", "url": "http://turistautak.hu/poi.php?id=103131"}}, {"type": "way", "id": 456241461, "nodes": [4525195687, 4525195688, 4525195689, 4525195690, 4525195691, 4525195687], "tags": {"amenity": "pub", "building": "yes"}}, {"type": "way", "id": 456464682, "nodes": [8724390155, 4527203401, 8724390153, 8724390154, 4527203402, 8724390158, 8724390157, 1268875043, 8724390155], "tags": {"addr:city": "Budapest", "addr:housenumber": "48", "addr:postcode": "1172", "addr:street": "\u00c1rokt\u0151 \u00fat", "amenity": "pub", "building": "yes", "name": "Estike Bisztr\u00f3", "smoking": "outside", "wheelchair": "no"}}, {"type": "way", "id": 458493163, "nodes": [4544836533, 4544836534, 4544836535, 4544836536, 4544836533], "tags": {"amenity": "pub", "building": "yes", "name": "csikar s\u00f6r\u00f6z\u0151"}}, {"type": "way", "id": 591884786, "nodes": [5650165050, 5650165051, 5650165052, 5650165053, 5650165050], "tags": {"amenity": "pub", "building": "yes", "name": "T\u00f3 bisztr\u00f3"}}, {"type": "way", "id": 684517774, "nodes": [6413458102, 6413458099, 6413458100, 6413458101, 6413458102], "tags": {"addr:city": "\u00dcll\u0151", "addr:housenumber": "2", "addr:postcode": "2225", "addr:street": "Bem ap\u00f3 utca", "amenity": "pub", "building": "yes", "name": "N\u00e9gy Sz\u00fcrke S\u00f6r\u00f6z\u0151"}}, {"type": "way", "id": 697288513, "nodes": [6549010971, 6549010970, 6549010969, 6549010968, 6549010971], "tags": {"amenity": "pub", "building": "yes"}}, {"type": "way", "id": 697288514, "nodes": [6549010975, 6549010972, 6549010973, 6549010974, 6549010975], "tags": {"amenity": "pub", "building": "yes", "name": "Bagoly"}}, {"type": "way", "id": 704144186, "nodes": [6611694524, 6611694525, 6611694526, 6611694527, 6611694528, 6611694529, 6611694530, 6611694531, 6611694524], "tags": {"addr:city": "Nagyk\u00e1ta", "addr:housenumber": "2", "addr:postcode": "2760", "addr:street": "Ny\u00e1r utca", "amenity": "pub", "building": "yes", "name": "Lila serh\u00e1z"}}, {"type": "way", "id": 716032603, "nodes": [6728803861, 6728803866, 6728803867, 6728803868, 6728803865, 6728803862, 6728803863, 6728803873, 6728803864, 6728803870, 6728803872, 6728803871, 6728803869, 6728803861], "tags": {"addr:city": "\u00dcll\u0151", "addr:housenumber": "47", "addr:postcode": "2225", "addr:street": "D\u00f3ra S\u00e1ndor k\u00f6r\u00fat", "amenity": "pub", "building": "yes", "name": "Harmadik T\u00edpus\u00fa Csal\u00e1di Rock&Sport Pub"}}, {"type": "way", "id": 760794682, "nodes": [7107675061, 7107675058, 7107675059, 7107675060, 7107675061], "tags": {"amenity": "pub", "building": "yes", "name": "Szomjas Bakter B\u00fcf\u00e9", "opening_hours": "Mo-Fr 09:00-13:00,15:00-19:00; Sa 07:00-16:00", "wheelchair": "limited", "wheelchair:description": "1 l\u00e9pcs\u0151"}}, {"type": "way", "id": 777142406, "nodes": [7251436849, 7251436850, 7251436851, 7251436852, 7251436849], "tags": {"amenity": "pub", "building": "yes"}}, {"type": "way", "id": 804710210, "nodes": [7526971671, 7526971669, 7526971667, 7526971666, 7526971668, 7526971670, 7526971671], "tags": {"amenity": "pub", "building": "yes", "name": "R\u00f3zsa pressz\u00f3"}}, {"type": "way", "id": 974464931, "nodes": [9018315497, 9018315496, 9018315495, 9018315494, 9018315497], "tags": {"amenity": "pub", "building": "yes"}}, {"type": "way", "id": 982010847, "nodes": [9082193012, 9082193013, 9082193014, 9082213518, 9082213519, 9082193015, 9082193016, 9082213517, 9082193012], "tags": {"amenity": "pub", "building": "yes", "name": "Gecco Pub"}}]}