{"version": 0.6, "generator": "Overpass API 0.7.59 e21c39fe", "osm3s": {"timestamp_osm_base": "2023-01-21T09:46:07Z", "copyright": "The data included in this document is from www.openstreetmap.org. The data is made available under ODbL."}, "elements": [{"type": "node", "id": 205318625, "lat": 46.3661133, "lon": 18.7059109, "tags": {"addr:city": "Szeksz\u00e1rd", "addr:country": "HU", "addr:housenumber": "2", "addr:postcode": "7110", "addr:street": "Pal\u00e1nki \u00fat", "amenity": "fuel", "brand": "Shell", "brand:wikidata": "Q110716465", "brand:wikipedia": "en:Royal Dutch Shell", "fuel:HGV_diesel": "yes", "fuel:diesel": "yes", "fuel:octane_95": "yes", "name": "Shell", "opening_hours": "24/7", "operator": "Shell Hungary Zrt.", "phone": "+36 74 311 828", "shop": "yes", "website": "https://www.shell.hu/"}}, {"type": "node", "id": 205324437, "lat": 46.3742494, "lon": 18.7090954, "tags": {"addr:city": "Szeksz\u00e1rd", "addr:housenumber": "6", "addr:postcode": "7100", "addr:street": "P\u00e1sztor utca", "air_conditioning": "yes", "amenity": "fuel", "brand": "MOL", "brand:wikidata": "Q549181", "brand:wikipedia": "hu:MOL Magyar Olaj- \u00e9s G\u00e1zipari Nyrt.", "compressed_air": "yes", "contact:facebook": "https://www.facebook.com/mol.magyarorszag/", "contact:fax": "+36 74 317 171", "contact:instagram": "https://www.instagram.com/mol.magyarorszag/", "contact:phone": "+36 74 510 152", "contact:website": "https://www.mol.hu", "contact:youtube": "https://www.youtube.com/user/molgrouptv", "food": "no", "fuel:GTL_diesel": "yes", "fuel:adblue": "no", "fuel:diesel": "yes", "fuel:lpg": "no", "fuel:octane_100": "yes", "fuel:octane_95": "yes", "fuel:octane_98": "yes", "name": "MOL", "opening_hours": "Mo-Su 05:00-21:00", "operator": "MOL Nyrt.", "operator:addr": "1117 Budapest, Domb\u00f3v\u00e1ri \u00fat 28.", "payment:cash": "yes", "payment:contactless": "yes", "payment:maestro": "yes", "payment:mastercard": "yes", "payment:mastercard_contactless": "yes", "payment:mastercard_electronic": "yes", "payment:uta": "yes", "payment:visa": "yes", "payment:visa_electron": "yes", "ref:HU:company": "01-10-041683", "ref:HU:vatin": "10625790-4-44", "rent:lpg_bottles": "yes", "shop": "yes", "source": "website", "source:date": "2022-05-21", "truck": "no"}}, {"type": "node", "id": 206158225, "lat": 46.3306627, "lon": 18.7002127, "tags": {"addr:city": "Szeksz\u00e1rd", "addr:postcode": "7100", "addr:street": "Csat\u00e1ri utca", "air_conditioning": "yes", "amenity": "fuel", "brand": "MOL", "brand:wikidata": "Q549181", "brand:wikipedia": "hu:MOL Magyar Olaj- \u00e9s G\u00e1zipari Nyrt.", "compressed_air": "yes", "contact:facebook": "https://www.facebook.com/mol.magyarorszag/", "contact:fax": "+36 74 413 512", "contact:instagram": "https://www.instagram.com/mol.magyarorszag/", "contact:phone": "+36 74 528 946", "contact:website": "https://www.mol.hu", "contact:youtube": "https://www.youtube.com/user/molgrouptv", "food": "yes", "fuel:GTL_diesel": "yes", "fuel:HGV_diesel": "yes", "fuel:adblue": "no", "fuel:diesel": "yes", "fuel:lpg": "yes", "fuel:octane_100": "yes", "fuel:octane_95": "yes", "fuel:octane_98": "yes", "name": "MOL", "opening_hours": "24/7", "operator": "MOL Nyrt.", "operator:addr": "1117 Budapest, Domb\u00f3v\u00e1ri \u00fat 28.", "payment:cash": "yes", "payment:contactless": "yes", "payment:maestro": "yes", "payment:mastercard": "yes", "payment:mastercard_contactless": "yes", "payment:mastercard_electronic": "yes", "payment:uta": "yes", "payment:visa": "yes", "payment:visa_electron": "yes", "ref:HU:company": "01-10-041683", "ref:HU:vatin": "10625790-4-44", "rent:lpg_bottles": "yes", "shop": "yes", "source": "website", "source:date": "2022-05-21", "truck": "yes", "wheelchair": "yes"}}, {"type": "node", "id": 277896417, "lat": 46.4703051, "lon": 18.6863683, "tags": {"amenity": "fuel"}}, {"type": "node", "id": 288469769, "lat": 46.4409401, "lon": 19.0178742, "tags": {"amenity": "fuel", "created_by": "Potlatch 0.10b"}}, {"type": "node", "id": 289952143, "lat": 46.307897, "lon": 18.7577709, "tags": {"amenity": "fuel", "brand": "Agip", "name": "Agip", "website": "https://www.eni.com/"}}, {"type": "node", "id": 310001746, "lat": 46.1504643, "lon": 18.6251611, "tags": {"addr:city": "V\u00e9m\u00e9nd", "addr:housenumber": "51", "addr:postcode": "7726", "addr:street": "Kossuth Lajos utca", "amenity": "fuel", "name": "V\u00e9m\u00e9nd k\u00e9r Bt.", "name:en": "Gas Station", "name:hu": "V\u00e9m\u00e9nd k\u00e9r Bt.", "opening_hours": "Mo-Su 06:00-18:00", "phone": "+36 69 343 018"}}, {"type": "node", "id": 311700723, "lat": 46.497749, "lon": 18.5913248, "tags": {"amenity": "fuel", "created_by": "Potlatch 0.10f"}}, {"type": "node", "id": 315203519, "lat": 46.3833887, "lon": 18.8153475, "tags": {"amenity": "fuel", "name": "Petrol Station"}}, {"type": "node", "id": 871603299, "lat": 46.5121123, "lon": 18.9722627, "tags": {"addr:city": "Kalocsa", "addr:housenumber": "83", "addr:postcode": "6300", "addr:street": "B\u00e1tyai \u00fat", "air_conditioning": "yes", "amenity": "fuel", "brand": "OMV", "brand:wikidata": "Q168238", "brand:wikipedia": "en:OMV", "compressed_air": "yes", "contact:email": "info.hungary@omv.com", "contact:facebook": "https://www.facebook.com/omvmagyarorszag", "contact:fax": "+36 1 381 9899", "contact:instagram": "https://www.instagram.com/omv/", "contact:linkedin": "https://www.linkedin.com/company/omv", "contact:phone": "+36 78 561 100", "contact:twitter": "omv", "contact:website": "https://www.omv.hu", "contact:youtube": "https://www.youtube.com/user/omvofficial", "fuel:GTL_diesel": "yes", "fuel:diesel": "yes", "fuel:octane_100": "yes", "fuel:octane_95": "yes", "name": "OMV", "opening_hours": "Mo-Su 05:00-22:00; PH off", "opening_hours:covid19": "same", "operator": "OMV Hung\u00e1ria Kft.", "operator:addr": "1117 Budapest, Okt\u00f3ber huszonharmadika utca 6-10 5. emelet 5/A.", "payment:cash": "yes", "payment:contactless": "yes", "payment:maestro": "yes", "payment:mastercard": "yes", "payment:mastercard_contactless": "yes", "payment:mastercard_electronic": "yes", "payment:visa": "yes", "payment:visa_electron": "yes", "ref:HU:company": "01-09-071584", "ref:HU:vatin": "10542925-2-44", "ref:vatin": "HU10542925", "source": "website", "source:date": "2020-10-03"}}, {"type": "node", "id": 871604368, "lat": 46.5376596, "lon": 18.9839558, "tags": {"addr:city": "Kalocsa", "addr:postcode": "6300", "addr:street": "Negyvennyolcas \u00fat", "air_conditioning": "yes", "amenity": "fuel", "brand": "MOL", "brand:wikidata": "Q549181", "brand:wikipedia": "hu:MOL Magyar Olaj- \u00e9s G\u00e1zipari Nyrt.", "compressed_air": "yes", "contact:facebook": "https://www.facebook.com/mol.magyarorszag/", "contact:instagram": "https://www.instagram.com/mol.magyarorszag/", "contact:website": "https://www.mol.hu", "contact:youtube": "https://www.youtube.com/user/molgrouptv", "food": "no", "fuel:GTL_diesel": "yes", "fuel:adblue": "no", "fuel:diesel": "yes", "fuel:lpg": "yes", "fuel:octane_100": "yes", "fuel:octane_95": "yes", "name": "MOL", "operator": "MOL Nyrt.", "operator:addr": "1117 Budapest, Domb\u00f3v\u00e1ri \u00fat 28.", "payment:cash": "yes", "payment:contactless": "yes", "payment:maestro": "yes", "payment:mastercard": "yes", "payment:mastercard_contactless": "yes", "payment:mastercard_electronic": "yes", "payment:visa": "yes", "payment:visa_electron": "yes", "ref:HU:company": "01-10-041683", "ref:HU:vatin": "10625790-4-44", "rent:lpg_bottles": "yes", "source": "website", "source:date": "2022-05-21", "truck": "no", "wheelchair": "yes"}}, {"type": "node", "id": 1132332640, "lat": 46.3137026, "lon": 18.6955161, "tags": {"addr:city": "Szeksz\u00e1rd", "addr:housenumber": "138", "addr:postcode": "7100", "addr:street": "B\u00e1tasz\u00e9ki \u00fat", "amenity": "fuel", "brand": "M. Petrol", "fuel:diesel": "yes", "fuel:lpg": "yes", "fuel:octane_95": "yes", "name": "M. Petrol"}}, {"type": "node", "id": 1277964796, "lat": 46.4390649, "lon": 18.7113909, "tags": {"addr:city": "Szeksz\u00e1rd", "addr:postcode": "7056", "addr:street": "M6 II. bal oldal", "air_conditioning": "yes", "amenity": "fuel", "brand": "MOL", "brand:wikidata": "Q549181", "brand:wikipedia": "hu:MOL Magyar Olaj- \u00e9s G\u00e1zipari Nyrt.", "compressed_air": "yes", "contact:facebook": "https://www.facebook.com/mol.magyarorszag/", "contact:instagram": "https://www.instagram.com/mol.magyarorszag/", "contact:website": "https://www.mol.hu", "contact:youtube": "https://www.youtube.com/user/molgrouptv", "food": "no", "fuel:GTL_diesel": "yes", "fuel:adblue": "yes", "fuel:diesel": "yes", "fuel:lpg": "no", "fuel:octane_100": "yes", "fuel:octane_95": "yes", "name": "MOL", "opening_hours": "24/7", "operator": "MOL Nyrt.", "operator:addr": "1117 Budapest, Domb\u00f3v\u00e1ri \u00fat 28.", "payment:cash": "yes", "payment:contactless": "yes", "payment:maestro": "yes", "payment:mastercard": "yes", "payment:mastercard_contactless": "yes", "payment:mastercard_electronic": "yes", "payment:visa": "yes", "payment:visa_electron": "yes", "ref:HU:company": "01-10-041683", "ref:HU:vatin": "10625790-4-44", "rent:lpg_bottles": "no", "source": "website", "source:date": "2022-05-21", "truck": "no"}}, {"type": "node", "id": 1389577964, "lat": 46.4396258, "lon": 18.7082518, "tags": {"addr:city": "Szeksz\u00e1rd", "addr:postcode": "7056", "addr:street": "M6 I. jobb oldal", "air_conditioning": "yes", "amenity": "fuel", "brand": "MOL", "brand:wikidata": "Q549181", "brand:wikipedia": "hu:MOL Magyar Olaj- \u00e9s G\u00e1zipari Nyrt.", "compressed_air": "yes", "contact:facebook": "https://www.facebook.com/mol.magyarorszag/", "contact:instagram": "https://www.instagram.com/mol.magyarorszag/", "contact:website": "https://www.mol.hu", "contact:youtube": "https://www.youtube.com/user/molgrouptv", "food": "no", "fuel:GTL_diesel": "yes", "fuel:adblue": "yes", "fuel:diesel": "yes", "fuel:lpg": "no", "fuel:octane_100": "yes", "fuel:octane_95": "yes", "name": "MOL", "opening_hours": "24/7", "operator": "MOL Nyrt.", "operator:addr": "1117 Budapest, Domb\u00f3v\u00e1ri \u00fat 28.", "payment:cash": "yes", "payment:contactless": "yes", "payment:maestro": "yes", "payment:mastercard": "yes", "payment:mastercard_contactless": "yes", "payment:mastercard_electronic": "yes", "payment:visa": "yes", "payment:visa_electron": "yes", "ref:HU:company": "01-10-041683", "ref:HU:vatin": "10625790-4-44", "rent:lpg_bottles": "no", "source": "website", "source:date": "2022-05-21", "truck": "no"}}, {"type": "node", "id": 1478909547, "lat": 46.1891266, "lon": 18.6922761, "tags": {"addr:city": "B\u00e1tasz\u00e9k", "addr:conscriptionnumber": "120/118", "addr:housenumber": "166", "addr:postcode": "7140", "addr:street": "M6 aut\u00f3p\u00e1lya", "air_conditioning": "yes", "amenity": "fuel", "brand": "OMV", "brand:wikidata": "Q168238", "brand:wikipedia": "en:OMV", "compressed_air": "yes", "contact:email": "info.hungary@omv.com", "contact:facebook": "https://www.facebook.com/omvmagyarorszag", "contact:fax": "+36 1 381 9899", "contact:instagram": "https://www.instagram.com/omv/", "contact:linkedin": "https://www.linkedin.com/company/omv", "contact:phone": "+36 74 712 063", "contact:twitter": "omv", "contact:website": "https://www.omv.hu", "contact:youtube": "https://www.youtube.com/user/omvofficial", "fuel:GTL_diesel": "yes", "fuel:diesel": "yes", "fuel:octane_100": "yes", "fuel:octane_95": "yes", "fuel:octane_98": "yes", "name": "OMV", "opening_hours": "24/7", "opening_hours:covid19": "same", "operator": "OMV Hung\u00e1ria Kft.", "operator:addr": "1117 Budapest, Okt\u00f3ber huszonharmadika utca 6-10 5. emelet 5/A.", "payment:cash": "yes", "payment:contactless": "yes", "payment:maestro": "yes", "payment:mastercard": "yes", "payment:mastercard_contactless": "yes", "payment:mastercard_electronic": "yes", "payment:visa": "yes", "payment:visa_electron": "yes", "ref:HU:company": "01-09-071584", "ref:HU:vatin": "10542925-2-44", "ref:vatin": "HU10542925", "shop": "yes", "source": "website", "source:date": "2020-10-03"}}, {"type": "node", "id": 1639149229, "lat": 46.1950744, "lon": 18.9526265, "tags": {"addr:city": "Baja", "addr:housenumber": "97", "addr:postcode": "6503", "addr:street": "D\u00f3zsa Gy\u00f6rgy \u00fat", "addr:suburb": "Bajaszentistv\u00e1n", "air_conditioning": "yes", "amenity": "fuel", "brand": "MOL", "brand:wikidata": "Q549181", "brand:wikipedia": "hu:MOL Magyar Olaj- \u00e9s G\u00e1zipari Nyrt.", "compressed_air": "yes", "contact:facebook": "https://www.facebook.com/mol.magyarorszag/", "contact:instagram": "https://www.instagram.com/mol.magyarorszag/", "contact:website": "https://www.mol.hu", "contact:youtube": "https://www.youtube.com/user/molgrouptv", "food": "no", "fuel:GTL_diesel": "yes", "fuel:adblue": "no", "fuel:diesel": "yes", "fuel:lpg": "yes", "fuel:octane_100": "yes", "fuel:octane_95": "yes", "name": "MOL", "opening_hours": "Mo-Fr 06:00-21:00, Sa-Su 06:00-18:00", "operator": "MOL Nyrt.", "operator:addr": "1117 Budapest, Domb\u00f3v\u00e1ri \u00fat 28.", "payment:cash": "yes", "payment:contactless": "yes", "payment:maestro": "yes", "payment:mastercard": "yes", "payment:mastercard_contactless": "yes", "payment:mastercard_electronic": "yes", "payment:visa": "yes", "payment:visa_electron": "yes", "ref:HU:company": "01-10-041683", "ref:HU:vatin": "10625790-4-44", "rent:lpg_bottles": "yes", "source": "website", "source:date": "2022-05-21", "truck": "no"}}, {"type": "node", "id": 1912659157, "lat": 46.1941109, "lon": 18.6940042, "tags": {"addr:city": "B\u00e1tasz\u00e9k", "addr:conscriptionnumber": "120/180", "addr:housenumber": "166", "addr:postcode": "7140", "addr:street": "M6 aut\u00f3p\u00e1lya", "air_conditioning": "yes", "amenity": "fuel", "brand": "OMV", "brand:wikidata": "Q168238", "brand:wikipedia": "en:OMV", "compressed_air": "yes", "contact:email": "info.hungary@omv.com", "contact:facebook": "https://www.facebook.com/omvmagyarorszag", "contact:fax": "+36 1 381 9899", "contact:instagram": "https://www.instagram.com/omv/", "contact:linkedin": "https://www.linkedin.com/company/omv", "contact:phone": "+36 74 712 066", "contact:twitter": "omv", "contact:website": "https://www.omv.hu", "contact:youtube": "https://www.youtube.com/user/omvofficial", "fuel:GTL_diesel": "yes", "fuel:diesel": "yes", "fuel:octane_100": "yes", "fuel:octane_95": "yes", "fuel:octane_98": "yes", "name": "OMV", "opening_hours": "24/7", "opening_hours:covid19": "same", "operator": "OMV Hung\u00e1ria Kft.", "operator:addr": "1117 Budapest, Okt\u00f3ber huszonharmadika utca 6-10 5. emelet 5/A.", "payment:cash": "yes", "payment:contactless": "yes", "payment:maestro": "yes", "payment:mastercard": "yes", "payment:mastercard_contactless": "yes", "payment:mastercard_electronic": "yes", "payment:visa": "yes", "payment:visa_electron": "yes", "ref:HU:company": "01-09-071584", "ref:HU:vatin": "10542925-2-44", "ref:vatin": "HU10542925", "shop": "yes", "source": "website", "source:date": "2020-10-03"}}, {"type": "node", "id": 2042308663, "lat": 46.1706434, "lon": 18.9767712, "tags": {"amenity": "fuel", "brand": "Profil", "fuel:diesel": "yes", "fuel:octane_95": "yes"}}, {"type": "node", "id": 2042308667, "lat": 46.1944776, "lon": 18.950988, "tags": {"amenity": "fuel", "brand": "Shell", "brand:wikidata": "Q110716465", "brand:wikipedia": "en:Royal Dutch Shell", "fuel:diesel": "yes", "fuel:octane_95": "yes", "fuel:octane_98": "yes", "name": "Shell", "operator": "Shell", "website": "https://www.shell.hu/", "wheelchair": "yes"}}, {"type": "node", "id": 2342678815, "lat": 46.1973863, "lon": 18.7240534, "tags": {"addr:city": "B\u00e1tasz\u00e9k", "addr:housenumber": "116", "addr:postcode": "7140", "addr:street": "Budai utca", "air_conditioning": "yes", "amenity": "fuel", "brand": "MOL", "brand:wikidata": "Q549181", "brand:wikipedia": "hu:MOL Magyar Olaj- \u00e9s G\u00e1zipari Nyrt.", "compressed_air": "yes", "contact:facebook": "https://www.facebook.com/mol.magyarorszag/", "contact:instagram": "https://www.instagram.com/mol.magyarorszag/", "contact:website": "https://www.mol.hu", "contact:youtube": "https://www.youtube.com/user/molgrouptv", "food": "no", "fuel:GTL_diesel": "yes", "fuel:adblue": "no", "fuel:diesel": "yes", "fuel:lpg": "no", "fuel:octane_100": "yes", "fuel:octane_95": "yes", "name": "MOL", "opening_hours": "Mo-Su 06:00-20:00", "operator": "MOL Nyrt.", "operator:addr": "1117 Budapest, Domb\u00f3v\u00e1ri \u00fat 28.", "payment:cash": "yes", "payment:contactless": "yes", "payment:maestro": "yes", "payment:mastercard": "yes", "payment:mastercard_contactless": "yes", "payment:mastercard_electronic": "yes", "payment:visa": "yes", "payment:visa_electron": "yes", "ref:HU:company": "01-10-041683", "ref:HU:vatin": "10625790-4-44", "rent:lpg_bottles": "yes", "source": "website", "source:date": "2022-08-16", "truck": "no"}}, {"type": "node", "id": 2519518076, "lat": 46.1872111, "lon": 18.9529591}, {"type": "node", "id": 2519518077, "lat": 46.1872527, "lon": 18.9530834}, {"type": "node", "id": 2519518078, "lat": 46.1871797, "lon": 18.9531344}, {"type": "node", "id": 2519518079, "lat": 46.1872051, "lon": 18.9532103}, {"type": "node", "id": 2519518081, "lat": 46.1870672, "lon": 18.9533067}, {"type": "node", "id": 2519518082, "lat": 46.1870002, "lon": 18.9531066}, {"type": "node", "id": 2533297643, "lat": 46.3788565, "lon": 18.9605824, "tags": {"amenity": "fuel", "building": "yes", "fuel:lpg": "yes", "name": "Agip", "source": "?;node #3470101897 by szali;survey"}}, {"type": "node", "id": 2949725423, "lat": 46.3304924, "lon": 18.7044938, "tags": {"amenity": "fuel", "automated": "yes", "fuel:octane_95": "yes", "name": "HUNOIL", "self_service": "yes", "shop": "no"}}, {"type": "node", "id": 2990731001, "lat": 46.4761254, "lon": 18.822334, "tags": {"addr:city": "Fadd", "addr:postcode": "7133", "addr:street": "Arany J\u00e1nos utca", "amenity": "fuel", "brand": "Emme Petrol", "contact:facebook": "https://facebook.com/emmepetrol/?ref=page_internal", "email": "manfrediricsi1@gmail.com", "fuel:diesel": "yes", "fuel:lpg": "yes", "fuel:octane_95": "yes", "name": "Emme Petrol", "opening_hours": "Mo-Sa 06:30-18:00; Su 07:00-11:00", "shop": "yes", "survey:date": "2021-12-07"}}, {"type": "node", "id": 2990731003, "lat": 46.5349043, "lon": 18.8108495, "tags": {"amenity": "fuel", "brand": "KL", "fuel:diesel": "yes", "fuel:octane_95": "yes", "name": "KL"}}, {"type": "node", "id": 3412042695, "lat": 46.3847385, "lon": 19.1511545}, {"type": "node", "id": 3412042697, "lat": 46.3847566, "lon": 19.1512689}, {"type": "node", "id": 3412042707, "lat": 46.3848596, "lon": 19.151114}, {"type": "node", "id": 3412042709, "lat": 46.3848778, "lon": 19.1512285}, {"type": "node", "id": 3470101897, "lat": 46.378133, "lon": 18.9607, "tags": {"amenity": "fuel", "name": "Dusnok (+aut\u00f3g\u00e1z)", "source": "turistautak.hu", "source:date": "2010-01-25", "url": "http://turistautak.hu/poi.php?id=18915"}}, {"type": "node", "id": 3486992943, "lat": 46.270618, "lon": 18.9840919}, {"type": "node", "id": 3486992951, "lat": 46.2707446, "lon": 18.9842923}, {"type": "node", "id": 3486994805, "lat": 46.2705907, "lon": 18.9842271}, {"type": "node", "id": 3486994961, "lat": 46.2707719, "lon": 18.984157}, {"type": "node", "id": 3487210133, "lat": 46.2631484, "lon": 18.9794108}, {"type": "node", "id": 3487210278, "lat": 46.2631665, "lon": 18.9792826}, {"type": "node", "id": 3487211196, "lat": 46.2632557, "lon": 18.9793089}, {"type": "node", "id": 3488458751, "lat": 46.430092, "lon": 18.781356, "tags": {"addr:city": "Tolna", "addr:postcode": "7130", "addr:street": "Szedresi utca", "air_conditioning": "yes", "amenity": "fuel", "brand": "MOL", "brand:wikidata": "Q549181", "brand:wikipedia": "hu:MOL Magyar Olaj- \u00e9s G\u00e1zipari Nyrt.", "compressed_air": "yes", "contact:facebook": "https://www.facebook.com/mol.magyarorszag/", "contact:instagram": "https://www.instagram.com/mol.magyarorszag/", "contact:website": "https://www.mol.hu", "contact:youtube": "https://www.youtube.com/user/molgrouptv", "food": "no", "fuel:GTL_diesel": "yes", "fuel:adblue": "no", "fuel:diesel": "yes", "fuel:lpg": "no", "fuel:octane_100": "yes", "fuel:octane_95": "yes", "name": "MOL", "opening_hours": "Mo-Fr 06:00-20:00; Sa-Su 07:00-15:00", "operator": "MOL Nyrt.", "operator:addr": "1117 Budapest, Domb\u00f3v\u00e1ri \u00fat 28.", "payment:cash": "yes", "payment:contactless": "yes", "payment:maestro": "yes", "payment:mastercard": "yes", "payment:mastercard_contactless": "yes", "payment:mastercard_electronic": "yes", "payment:visa": "yes", "payment:visa_electron": "yes", "ref:HU:company": "01-10-041683", "ref:HU:vatin": "10625790-4-44", "rent:lpg_bottles": "yes", "source": "turistautak.hu", "source:date": "2022-05-21", "truck": "no", "url": "http://turistautak.hu/poi.php?id=106916", "wheelchair": "yes"}}, {"type": "node", "id": 3492952217, "lat": 46.1870521, "lon": 18.9532617}, {"type": "node", "id": 4172458449, "lat": 46.1897218, "lon": 18.9333801}, {"type": "node", "id": 4172458450, "lat": 46.1897955, "lon": 18.9334842}, {"type": "node", "id": 4172458451, "lat": 46.1897051, "lon": 18.9336177}, {"type": "node", "id": 4172458452, "lat": 46.1896314, "lon": 18.9335136}, {"type": "node", "id": 5126260022, "lat": 46.1961737, "lon": 18.9742388, "tags": {"amenity": "fuel", "name": "Mobil Petrol"}}, {"type": "node", "id": 5305369569, "lat": 46.1956994, "lon": 19.1465717}, {"type": "node", "id": 5305369570, "lat": 46.195622, "lon": 19.1465931}, {"type": "node", "id": 5305369571, "lat": 46.1956272, "lon": 19.1466326}, {"type": "node", "id": 5305369572, "lat": 46.1954729, "lon": 19.1466753}, {"type": "node", "id": 5305369573, "lat": 46.1954916, "lon": 19.1468165}, {"type": "node", "id": 5305369574, "lat": 46.1956481, "lon": 19.1467732}, {"type": "node", "id": 5305369575, "lat": 46.1956519, "lon": 19.1468021}, {"type": "node", "id": 5305369576, "lat": 46.1957272, "lon": 19.1467813}, {"type": "node", "id": 5305369610, "lat": 46.2008942, "lon": 18.8212292}, {"type": "node", "id": 5305369611, "lat": 46.2008444, "lon": 18.8211907}, {"type": "node", "id": 5305369612, "lat": 46.2007849, "lon": 18.8213515}, {"type": "node", "id": 5305369613, "lat": 46.2008347, "lon": 18.82139}, {"type": "node", "id": 5504722606, "lat": 46.4365951, "lon": 18.769353}, {"type": "node", "id": 5504722607, "lat": 46.4366566, "lon": 18.7694174}, {"type": "node", "id": 5504722608, "lat": 46.4365524, "lon": 18.7696269}, {"type": "node", "id": 5504722609, "lat": 46.4364909, "lon": 18.7695625}, {"type": "node", "id": 5597041327, "lat": 46.5205869, "lon": 18.9795421}, {"type": "node", "id": 5597041328, "lat": 46.5206733, "lon": 18.9794809}, {"type": "node", "id": 5597041329, "lat": 46.5205571, "lon": 18.9794532}, {"type": "node", "id": 5597041330, "lat": 46.5206435, "lon": 18.979392}, {"type": "node", "id": 5924006056, "lat": 46.1868951, "lon": 18.7214517}, {"type": "node", "id": 5924006057, "lat": 46.1868334, "lon": 18.7214897}, {"type": "node", "id": 5924006058, "lat": 46.1867325, "lon": 18.7211485}, {"type": "node", "id": 5924006059, "lat": 46.1867943, "lon": 18.7211104}, {"type": "node", "id": 6071638176, "lat": 46.1871912, "lon": 18.9531688}, {"type": "node", "id": 6126992131, "lat": 46.1843888, "lon": 18.9739677}, {"type": "node", "id": 6126992132, "lat": 46.1843899, "lon": 18.9742405}, {"type": "node", "id": 6126992133, "lat": 46.1843083, "lon": 18.9742412}, {"type": "node", "id": 6126992134, "lat": 46.1843075, "lon": 18.973968}, {"type": "node", "id": 6838720460, "lat": 46.3403461, "lon": 18.7109037}, {"type": "node", "id": 6838720464, "lat": 46.3402118, "lon": 18.7108773}, {"type": "node", "id": 6838720465, "lat": 46.3403327, "lon": 18.711062}, {"type": "node", "id": 6838720466, "lat": 46.3402733, "lon": 18.711135}, {"type": "node", "id": 6838720467, "lat": 46.3401771, "lon": 18.7111216}, {"type": "node", "id": 6838720468, "lat": 46.3401876, "lon": 18.7110124}, {"type": "node", "id": 6952088889, "lat": 46.4142151, "lon": 18.7504356, "tags": {"addr:city": "Tolna", "addr:housenumber": "4", "addr:postcode": "7131", "addr:street": "B\u00e9ri Balogh \u00c1d\u00e1m utca", "air_conditioning": "yes", "amenity": "fuel", "brand": "MOL", "brand:wikidata": "Q549181", "brand:wikipedia": "hu:MOL Magyar Olaj- \u00e9s G\u00e1zipari Nyrt.", "compressed_air": "yes", "contact:facebook": "https://www.facebook.com/mol.magyarorszag/", "contact:instagram": "https://www.instagram.com/mol.magyarorszag/", "contact:website": "https://www.mol.hu", "contact:youtube": "https://www.youtube.com/user/molgrouptv", "food": "no", "fuel:GTL_diesel": "yes", "fuel:adblue": "no", "fuel:diesel": "yes", "fuel:lpg": "no", "fuel:octane_100": "yes", "fuel:octane_95": "yes", "name": "MOL", "opening_hours": "Mo-Sa 06:00-18:00; Su 09:00-17:00", "operator": "MOL Nyrt.", "operator:addr": "1117 Budapest, Domb\u00f3v\u00e1ri \u00fat 28.", "payment:cash": "yes", "payment:contactless": "yes", "payment:maestro": "yes", "payment:mastercard": "yes", "payment:mastercard_contactless": "yes", "payment:mastercard_electronic": "yes", "payment:visa": "yes", "payment:visa_electron": "yes", "ref:HU:company": "01-10-041683", "ref:HU:vatin": "10625790-4-44", "rent:lpg_bottles": "yes", "shop": "yes", "source": "website", "source:date": "2022-05-21", "truck": "no", "wikipedia": "hu:MOL Magyar Olaj- \u00e9s G\u00e1zipari Nyrt."}}, {"type": "node", "id": 7524115139, "lat": 46.2632376, "lon": 18.9794371}, {"type": "node", "id": 7707550930, "lat": 46.157727, "lon": 18.9576165, "tags": {"amenity": "fuel", "name": "Benzink\u00fat"}}, {"type": "node", "id": 8259006311, "lat": 46.1839826, "lon": 18.9844192, "tags": {"addr:city": "Baja", "addr:housenumber": "121", "addr:postcode": "6500", "addr:street": "Szegedi \u00fat", "amenity": "fuel", "brand": "OIL!", "name": "OIL Baja"}}, {"type": "node", "id": 8339746000, "lat": 46.1900533, "lon": 18.9335902, "tags": {"amenity": "fuel", "automated": "no", "brand": "Avia", "brand:wikidata": "Q300147", "brand:wikipedia": "de:Avia International", "name": "Avia", "opening_hours": "Mo-Su 06:00-22:00", "opening_hours:covid19": "open", "payment:coins": "yes"}}, {"type": "node", "id": 8789479913, "lat": 46.3402011, "lon": 18.7110146}, {"type": "node", "id": 9787199976, "lat": 46.1943482, "lon": 18.9516232}, {"type": "node", "id": 9787199977, "lat": 46.1942482, "lon": 18.9515349}, {"type": "node", "id": 9787199978, "lat": 46.1942158, "lon": 18.9516086}, {"type": "node", "id": 9787199979, "lat": 46.1943209, "lon": 18.951697}, {"type": "node", "id": 9820869298, "lat": 46.4435618, "lon": 18.7798427, "tags": {"amenity": "fuel", "description": "Only LPG for sale", "fuel:diesel": "no", "fuel:lpg": "yes", "fuel:octane_95": "no", "name": "LPG K\u00fat", "opening_hours": "Mo-Fr 07:00-18:00; Sa 07:00-15:00", "self_service": "no", "survey:date": "2022-06-15"}}, {"type": "way", "id": 108393071, "nodes": [6838720465, 6838720466, 6838720467, 6838720468, 8789479913, 6838720464, 6838720460, 6838720465], "tags": {"addr:city": "Szeksz\u00e1rd", "addr:housenumber": "8", "addr:postcode": "7100", "addr:street": "Tartsay Vilmos utca", "air_conditioning": "yes", "amenity": "fuel", "brand": "OMV", "brand:wikidata": "Q168238", "brand:wikipedia": "en:OMV", "building": "yes", "building:levels": "1", "compressed_air": "yes", "contact:email": "info.hungary@omv.com", "contact:facebook": "https://www.facebook.com/omvmagyarorszag", "contact:fax": "+36 1 381 9899", "contact:instagram": "https://www.instagram.com/omv/", "contact:linkedin": "https://www.linkedin.com/company/omv", "contact:phone": "+36 74 510 537", "contact:twitter": "omv", "contact:website": "https://www.omv.hu", "contact:youtube": "https://www.youtube.com/user/omvofficial", "fuel:GTL_diesel": "yes", "fuel:diesel": "yes", "fuel:octane_100": "yes", "fuel:octane_95": "yes", "fuel:octane_98": "yes", "name": "OMV", "opening_hours": "24/7", "operator": "OMV Hung\u00e1ria Kft.", "operator:addr": "1117 Budapest, Okt\u00f3ber huszonharmadika utca 6-10 5. emelet 5/A.", "payment:cash": "yes", "payment:contactless": "yes", "payment:maestro": "yes", "payment:mastercard": "yes", "payment:mastercard_contactless": "yes", "payment:mastercard_electronic": "yes", "payment:routex": "yes", "payment:uta": "yes", "payment:visa": "yes", "payment:visa_electron": "yes", "ref:HU:company": "01-09-071584", "ref:HU:vatin": "10542925-2-44", "ref:vatin": "HU10542925", "source": "Bing", "source:www.omv.hu:date": "2020-10-03", "survey:date": "2019-12-09"}}, {"type": "way", "id": 244656801, "nodes": [2519518076, 2519518077, 2519518078, 6071638176, 2519518079, 2519518081, 3492952217, 2519518082, 2519518076], "tags": {"amenity": "fuel", "brand": "Shell", "brand:wikidata": "Q154950", "brand:wikipedia": "en:Royal Dutch Shell", "building": "yes", "name": "Shell", "operator": "Shell", "website": "https://www.shell.hu/"}}, {"type": "way", "id": 334111117, "nodes": [3412042707, 3412042695, 3412042697, 3412042709, 3412042707], "tags": {"amenity": "fuel", "building": "yes", "source": "Bing"}}, {"type": "way", "id": 341533121, "nodes": [3486994805, 3486992951, 3486994961, 3486992943, 3486994805], "tags": {"addr:city": "S\u00fck\u00f6sd", "addr:housenumber": "1", "addr:postcode": "6346", "addr:street": "D\u00f3zsa Gy\u00f6rgy utca", "air_conditioning": "yes", "amenity": "fuel", "brand": "MOL", "brand:wikidata": "Q549181", "brand:wikipedia": "hu:MOL Magyar Olaj- \u00e9s G\u00e1zipari Nyrt.", "building": "roof", "compressed_air": "yes", "contact:facebook": "https://www.facebook.com/mol.magyarorszag/", "contact:instagram": "https://www.instagram.com/mol.magyarorszag/", "contact:website": "https://www.mol.hu", "contact:youtube": "https://www.youtube.com/user/molgrouptv", "food": "no", "fuel:GTL_diesel": "yes", "fuel:adblue": "no", "fuel:diesel": "yes", "fuel:lpg": "no", "fuel:octane_100": "yes", "fuel:octane_95": "yes", "layer": "1", "name": "MOL", "operator": "MOL Nyrt.", "operator:addr": "1117 Budapest, Domb\u00f3v\u00e1ri \u00fat 28.", "payment:cash": "yes", "payment:contactless": "yes", "payment:maestro": "yes", "payment:mastercard": "yes", "payment:mastercard_contactless": "yes", "payment:mastercard_electronic": "yes", "payment:visa": "yes", "payment:visa_electron": "yes", "ref:HU:company": "01-10-041683", "ref:HU:vatin": "10625790-4-44", "rent:lpg_bottles": "no", "source": "survey;Bing;node #1408366272", "source:date": "2022-05-21", "truck": "no"}}, {"type": "way", "id": 341566712, "nodes": [3487211196, 7524115139, 3487210133, 3487210278, 3487211196], "tags": {"addr:city": "\u00c9rsekcsan\u00e1d", "addr:conscriptionnumber": "09/34", "addr:postcode": "6347", "amenity": "fuel", "brand": "Avia", "building": "retail", "compressed_air": "no", "contact:email": "avia@avia.hu", "contact:facebook": "https://www.facebook.com/AVIAHungary", "contact:phone": "+36 70 741 6613", "contact:website": "https://www.avia.hu/toltoallomas/?id=139", "contact:youtube": "https://www.youtube.com/channel/UCjvjkjf2RgmKBuTnKSXk-Rg", "food": "no", "fuel:diesel": "yes", "fuel:e85": "no", "fuel:lpg": "no", "fuel:octane_95": "yes", "fuel:octane_98": "no", "name": "Avia", "operator": "AVIA Hung\u00e1ria Kft.", "payment:cash": "yes", "payment:contactless": "yes", "payment:maestro": "yes", "payment:mastercard": "yes", "payment:mastercard_contactless": "yes", "payment:mastercard_electronic": "yes", "payment:visa": "yes", "payment:visa_electron": "yes", "rent:lpg_bottles": "no", "restaurant": "no", "source": "survey;Bing", "source:www.avia.hu:date": "2021-12-17", "truck": "no"}}, {"type": "way", "id": 416502211, "nodes": [4172458449, 4172458450, 4172458451, 4172458452, 4172458449], "tags": {"addr:city": "Baja", "addr:housenumber": "56", "addr:postcode": "6500", "addr:street": "Bajcsy-Zsilinszky Endre utca", "amenity": "fuel", "brand": "Avia", "brand:wikidata": "Q300147", "brand:wikipedia": "de:Avia International", "building": "commercial", "compressed_air": "yes", "contact:email": "avia@avia.hu", "contact:facebook": "https://www.facebook.com/AVIAHungary", "contact:phone": "+36 30 955 4391", "contact:website": "https://www.avia.hu/toltoallomas/?id=61", "contact:youtube": "https://www.youtube.com/channel/UCjvjkjf2RgmKBuTnKSXk-Rg", "food": "no", "fuel:diesel": "yes", "fuel:e85": "no", "fuel:lpg": "yes", "fuel:octane_95": "yes", "fuel:octane_98": "no", "name": "Avia", "operator": "AVIA Hung\u00e1ria Kft.", "payment:cash": "yes", "payment:contactless": "yes", "payment:maestro": "yes", "payment:mastercard": "yes", "payment:mastercard_contactless": "yes", "payment:mastercard_electronic": "yes", "payment:visa": "yes", "payment:visa_electron": "yes", "rent:lpg_bottles": "yes", "restaurant": "no", "source": "website", "source:date": "2020-01-04", "source:www.avia.hu:date": "2021-12-17", "truck": "no"}}, {"type": "way", "id": 549217160, "nodes": [5305369569, 5305369570, 5305369571, 5305369572, 5305369573, 5305369574, 5305369575, 5305369576, 5305369569], "tags": {"addr:city": "Cs\u00e1voly", "addr:housenumber": "50", "addr:postcode": "6448", "addr:street": "D\u00f3zsa Gy\u00f6rgy utca", "air_conditioning": "yes", "amenity": "fuel", "brand": "MOL", "brand:wikidata": "Q549181", "brand:wikipedia": "hu:MOL Magyar Olaj- \u00e9s G\u00e1zipari Nyrt.", "building": "yes", "compressed_air": "yes", "contact:facebook": "https://www.facebook.com/mol.magyarorszag/", "contact:instagram": "https://www.instagram.com/mol.magyarorszag/", "contact:website": "https://www.mol.hu", "contact:youtube": "https://www.youtube.com/user/molgrouptv", "food": "no", "fuel:GTL_diesel": "yes", "fuel:adblue": "no", "fuel:diesel": "yes", "fuel:lpg": "yes", "fuel:octane_100": "yes", "fuel:octane_95": "yes", "name": "MOL", "opening_hours": "Mo-Su 06:00-19:00", "operator": "MOL Nyrt.", "operator:addr": "1117 Budapest, Domb\u00f3v\u00e1ri \u00fat 28.", "payment:cash": "yes", "payment:contactless": "yes", "payment:maestro": "yes", "payment:mastercard": "yes", "payment:mastercard_contactless": "yes", "payment:mastercard_electronic": "yes", "payment:visa": "yes", "payment:visa_electron": "yes", "ref:HU:company": "01-10-041683", "ref:HU:vatin": "10625790-4-44", "rent:lpg_bottles": "yes", "source": "website", "source:date": "2022-05-21", "truck": "no"}}, {"type": "way", "id": 549217165, "nodes": [5305369610, 5305369611, 5305369612, 5305369613, 5305369610], "tags": {"addr:city": "P\u00f6rb\u00f6ly", "addr:housenumber": "1", "addr:postcode": "7142", "addr:street": "Vad\u00e1sz utca", "amenity": "fuel", "brand": "Avia", "brand:wikidata": "Q300147", "building": "yes", "compressed_air": "yes", "contact:email": "avia@avia.hu", "contact:facebook": "https://www.facebook.com/AVIAHungary", "contact:phone": "+36 30 776 343", "contact:website": "https://www.avia.hu/toltoallomas/?id=63", "contact:youtube": "https://www.youtube.com/channel/UCjvjkjf2RgmKBuTnKSXk-Rg", "food": "no", "fuel:diesel": "yes", "fuel:e85": "no", "fuel:lpg": "yes", "fuel:octane_95": "yes", "fuel:octane_98": "no", "name": "Avia", "operator": "AVIA Hung\u00e1ria Kft.", "payment:cash": "yes", "payment:contactless": "yes", "payment:maestro": "yes", "payment:mastercard": "yes", "payment:mastercard_contactless": "yes", "payment:mastercard_electronic": "yes", "payment:visa": "yes", "payment:visa_electron": "yes", "rent:lpg_bottles": "yes", "restaurant": "no", "source": "website", "source:date": "2021-12-17", "truck": "no"}}, {"type": "way", "id": 573025515, "nodes": [5504722606, 5504722607, 5504722608, 5504722609, 5504722606], "tags": {"addr:city": "Tolna", "addr:conscriptionnumber": "077/4", "addr:postcode": "7130", "amenity": "fuel", "brand": "Avia", "brand:wikidata": "Q300147", "building": "retail", "building:colour": "white", "building:levels": "1", "check_date": "2022-06-30", "compressed_air": "yes", "contact:email": "avia@avia.hu", "contact:facebook": "https://www.facebook.com/AVIAHungary", "contact:phone": "+36 70 423 0066", "contact:website": "https://www.avia.hu/toltoallomas/?id=104", "contact:youtube": "https://www.youtube.com/channel/UCjvjkjf2RgmKBuTnKSXk-Rg", "food": "no", "fuel:adblue": "yes", "fuel:diesel": "yes", "fuel:e85": "no", "fuel:lpg": "no", "fuel:octane_95": "yes", "fuel:octane_98": "no", "name": "Avia", "opening_hours": "Mo-Su 05:00-22:00", "operator": "AVIA Hung\u00e1ria Kft.", "payment:cash": "yes", "payment:contactless": "yes", "payment:maestro": "yes", "payment:mastercard": "yes", "payment:mastercard_contactless": "yes", "payment:mastercard_electronic": "yes", "payment:visa": "yes", "payment:visa_electron": "yes", "rent:lpg_bottles": "no", "restaurant": "no", "roof:shape": "flat", "shop": "convenience", "source:www.avia.hu:date": "2021-12-17", "truck": "no"}}, {"type": "way", "id": 627554719, "nodes": [5924006056, 5924006057, 5924006058, 5924006059, 5924006056], "tags": {"addr:city": "B\u00e1tasz\u00e9k", "addr:postcode": "7140", "addr:street": "Mozi t\u00e9r", "amenity": "fuel", "building": "retail", "fax": "+36 74 591 041", "fuel:diesel": "yes", "fuel:octane_95": "yes", "name": "Orlen", "opening_hours": "Mo-Su 05:00-20:00", "payment:cash": "yes", "payment:dkv": "yes", "payment:maestro": "yes", "payment:mastercard": "yes", "payment:visa": "yes", "phone": "+36 74 591 040", "website": "https://orlen.hu/"}}, {"type": "way", "id": 653798201, "nodes": [6126992131, 6126992132, 6126992133, 6126992134, 6126992131], "tags": {"addr:city": "Baja", "addr:housenumber": "105", "addr:postcode": "6500", "addr:street": "Szegedi \u00fat", "air_conditioning": "yes", "amenity": "fuel", "brand": "MOL", "brand:wikidata": "Q549181", "brand:wikipedia": "hu:MOL Magyar Olaj- \u00e9s G\u00e1zipari Nyrt.", "building": "retail", "compressed_air": "yes", "contact:facebook": "https://www.facebook.com/mol.magyarorszag/", "contact:fax": "+36 79 324 823", "contact:instagram": "https://www.instagram.com/mol.magyarorszag/", "contact:phone": "+36 79 421 441", "contact:website": "https://www.mol.hu", "contact:youtube": "https://www.youtube.com/user/molgrouptv", "food": "no", "fuel:GTL_diesel": "yes", "fuel:adblue": "no", "fuel:diesel": "yes", "fuel:lpg": "no", "fuel:octane_100": "yes", "fuel:octane_95": "yes", "name": "MOL", "opening_hours": "Mo-Su 05:00-21:00", "operator": "MOL Nyrt.", "operator:addr": "1117 Budapest, Domb\u00f3v\u00e1ri \u00fat 28.", "payment:cash": "yes", "payment:contactless": "yes", "payment:maestro": "yes", "payment:mastercard": "yes", "payment:mastercard_contactless": "yes", "payment:mastercard_electronic": "yes", "payment:visa": "yes", "payment:visa_electron": "yes", "ref:HU:company": "01-10-041683", "ref:HU:vatin": "10625790-4-44", "rent:lpg_bottles": "no", "source": "website", "source:date": "2022-05-21", "truck": "no"}}, {"type": "way", "id": 805813271, "nodes": [5597041330, 5597041329, 5597041327, 5597041328, 5597041330], "tags": {"addr:city": "Kalocsa", "addr:postcode": "6300", "amenity": "fuel", "brand": "Shell", "building": "retail", "name": "Shell", "operator": "Shell", "toilets:wheelchair": "yes", "website": "https://www.shell.hu/", "wheelchair": "yes"}}, {"type": "way", "id": 1065764751, "nodes": [9787199976, 9787199977, 9787199978, 9787199979, 9787199976], "tags": {"amenity": "fuel", "brand": "Aldi", "name": "Aldi Benzink\u00fat"}}]}