{"version": 0.6, "generator": "Overpass API 0.7.59 e21c39fe", "osm3s": {"timestamp_osm_base": "2023-01-17T15:17:22Z", "copyright": "The data included in this document is from www.openstreetmap.org. The data is made available under ODbL."}, "elements": [{"type": "node", "id": 1327793183, "lat": 48.1012712, "lon": 20.6910269, "tags": {"amenity": "pub", "name": "Korz\u00f3", "toilets:wheelchair": "limited", "wheelchair": "limited"}}, {"type": "node", "id": 1327793194, "lat": 48.1016568, "lon": 20.6908421, "tags": {"amenity": "pub", "name": "Babylon", "toilets:wheelchair": "limited", "wheelchair": "limited"}}, {"type": "node", "id": 1327793209, "lat": 48.1015583, "lon": 20.6907592, "tags": {"amenity": "pub", "name": "Sport", "toilets:wheelchair": "limited", "wheelchair": "yes"}}, {"type": "node", "id": 1328596309, "lat": 48.100166, "lon": 20.7023512, "tags": {"amenity": "pub", "name": "V\u00e9g\u00e1llom\u00e1s Bistorant", "toilets:wheelchair": "limited", "wheelchair": "yes"}}, {"type": "node", "id": 1329318690, "lat": 48.1038441, "lon": 20.6880564}, {"type": "node", "id": 1329318709, "lat": 48.1040301, "lon": 20.6879389}, {"type": "node", "id": 1329318740, "lat": 48.1039726, "lon": 20.6881392}, {"type": "node", "id": 1329318755, "lat": 48.1039017, "lon": 20.6878561}, {"type": "node", "id": 1329326886, "lat": 48.10247, "lon": 20.6856892}, {"type": "node", "id": 1329326892, "lat": 48.1026412, "lon": 20.6854091}, {"type": "node", "id": 1329326916, "lat": 48.1024076, "lon": 20.68538}, {"type": "node", "id": 1329326918, "lat": 48.1027146, "lon": 20.6855267}, {"type": "node", "id": 1329326919, "lat": 48.102621, "lon": 20.6856577}, {"type": "node", "id": 1329326934, "lat": 48.1022195, "lon": 20.6856801}, {"type": "node", "id": 1329326936, "lat": 48.1025397, "lon": 20.6855916}, {"type": "node", "id": 1329326945, "lat": 48.1021751, "lon": 20.6857664}, {"type": "node", "id": 1329326974, "lat": 48.102473, "lon": 20.6852884}, {"type": "node", "id": 1329326983, "lat": 48.10253, "lon": 20.6857852}, {"type": "node", "id": 1329326990, "lat": 48.1023164, "lon": 20.6859297}, {"type": "node", "id": 1329327001, "lat": 48.1023608, "lon": 20.6858434}, {"type": "node", "id": 1329327065, "lat": 48.1025917, "lon": 20.6854784}, {"type": "node", "id": 1329539795, "lat": 48.1004582, "lon": 20.7148651, "tags": {"amenity": "pub", "name": "Bakterh\u00e1z", "toilets:wheelchair": "limited", "wheelchair": "yes"}}, {"type": "node", "id": 1330398437, "lat": 48.1033743, "lon": 20.7531724, "tags": {"amenity": "pub"}}, {"type": "node", "id": 1330433267, "lat": 48.1024716, "lon": 20.7932178, "tags": {"addr:city": "Miskolc", "amenity": "pub", "toilets:wheelchair": "yes", "wheelchair": "yes"}}, {"type": "node", "id": 1332575439, "lat": 48.1053449, "lon": 20.7732281, "tags": {"amenity": "pub", "name": "Liverpool", "toilets:wheelchair": "limited", "wheelchair": "yes"}}, {"type": "node", "id": 1332575588, "lat": 48.1053771, "lon": 20.7721016, "tags": {"amenity": "pub", "name": "Molinari", "toilets:wheelchair": "limited", "wheelchair": "yes"}}, {"type": "node", "id": 1337334836, "lat": 48.0990184, "lon": 20.8107898, "tags": {"amenity": "pub", "name": "Resti"}}, {"type": "node", "id": 1341405405, "lat": 48.1007559, "lon": 20.7138172, "tags": {"amenity": "pub"}}, {"type": "node", "id": 1341405458, "lat": 48.1007344, "lon": 20.7136295, "tags": {"amenity": "pub", "name": "Kata pressz\u00f3", "toilets:wheelchair": "limited", "wheelchair": "yes"}}, {"type": "node", "id": 1341405524, "lat": 48.1005121, "lon": 20.7117087, "tags": {"amenity": "pub", "name": "M\u00e1rka Pressz\u00f3", "toilets:wheelchair": "limited", "wheelchair": "yes"}}, {"type": "node", "id": 1341468514, "lat": 48.1070068, "lon": 20.6773974}, {"type": "node", "id": 1341468519, "lat": 48.1069099, "lon": 20.677632}, {"type": "node", "id": 1341468521, "lat": 48.1068323, "lon": 20.67756}, {"type": "node", "id": 1341468637, "lat": 48.1069291, "lon": 20.6773255}, {"type": "node", "id": 1346640920, "lat": 48.1009512, "lon": 20.6220562, "tags": {"amenity": "pub"}}, {"type": "node", "id": 1346640977, "lat": 48.1007505, "lon": 20.6221956, "tags": {"amenity": "pub"}}, {"type": "node", "id": 1346640991, "lat": 48.10314, "lon": 20.6225819, "tags": {"amenity": "pub"}}, {"type": "node", "id": 1349471977, "lat": 48.101868, "lon": 20.7851602, "tags": {"amenity": "pub", "toilets:wheelchair": "no", "wheelchair": "limited"}}, {"type": "node", "id": 1349471994, "lat": 48.1029143, "lon": 20.7840804, "tags": {"addr:city": "Miskolc", "amenity": "pub", "name": "D\u00e9rin\u00e9 Pub", "toilets:wheelchair": "no", "wheelchair": "limited"}}, {"type": "node", "id": 1349471999, "lat": 48.1028391, "lon": 20.7852015, "tags": {"addr:city": "Miskolc", "amenity": "pub"}}, {"type": "node", "id": 1349472008, "lat": 48.1035161, "lon": 20.7721821, "tags": {"amenity": "pub"}}, {"type": "node", "id": 1349489356, "lat": 48.1030496, "lon": 20.7841065, "tags": {"addr:city": "Miskolc", "addr:housenumber": "6", "addr:postcode": "3525", "addr:street": "D\u00e9ryn\u00e9 utca", "amenity": "pub", "email": "thaliabisztro@freemail.hu", "name": "Th\u00e1lia Bisztr\u00f3", "phone": "+36 46 344 880"}}, {"type": "node", "id": 1656976995, "lat": 48.1594887, "lon": 20.6115572, "tags": {"alt_name": "T\u00f3 b\u00fcf\u00e9", "amenity": "pub", "name": "Horg\u00e1sz b\u00fcf\u00e9"}}, {"type": "node", "id": 1656976997, "lat": 48.1628151, "lon": 20.6235937, "tags": {"amenity": "pub", "internet_access": "wlan", "internet_access:fee": "no", "name": "\u00c1szok s\u00f6r\u00f6z\u0151"}}, {"type": "node", "id": 1698015429, "lat": 47.8552532, "lon": 20.9919717, "tags": {"amenity": "pub", "name": "Kocsmahivatal", "source": "turistautak.hu", "source:date": "2011-10-14", "url": "http://turistautak.hu/poi.php?id=51033"}}, {"type": "node", "id": 1710562720, "lat": 47.9653581, "lon": 20.4052042, "tags": {"addr:city": "Fels\u0151t\u00e1rk\u00e1ny", "addr:housenumber": "59", "addr:postcode": "3324", "addr:street": "F\u0151 \u00fat", "amenity": "pub", "name": "Amigo B\u00e1r \u00e9s Vend\u00e9gh\u00e1", "url": "http://www.felsotarkany.hu/hu/turizmus-rendezvenyek/szallashelyek-42/c/amigo-bar-es-vendeghaz"}}, {"type": "node", "id": 1731672090, "lat": 47.9002421, "lon": 20.5345743, "tags": {"amenity": "pub"}}, {"type": "node", "id": 1731672093, "lat": 47.9101019, "lon": 20.5346333, "tags": {"amenity": "pub", "name": "Pincesor boroz\u00f3"}}, {"type": "node", "id": 1746658705, "lat": 48.0217087, "lon": 20.8388178, "tags": {"amenity": "pub", "name": "Mexico Pub"}}, {"type": "node", "id": 1747821844, "lat": 48.0115426, "lon": 20.8263693, "tags": {"amenity": "pub"}}, {"type": "node", "id": 1747821850, "lat": 48.0187661, "lon": 20.827233, "tags": {"amenity": "pub", "name": "Gold Caf\u00e9"}}, {"type": "node", "id": 1997205961, "lat": 48.0182433, "lon": 20.8275636, "tags": {"amenity": "pub", "name": "M\u00e1lyi \u00c1szok"}}, {"type": "node", "id": 2089215873, "lat": 47.9449274, "lon": 20.5368753, "tags": {"addr:city": "Cser\u00e9pfalu", "addr:housenumber": "15", "addr:postcode": "3413", "addr:street": "Bem utca", "amenity": "pub", "name": "F\u00e1radt Zsoldos S\u00f6r\u00f6z\u0151"}}, {"type": "node", "id": 2089215896, "lat": 47.9423044, "lon": 20.5346169, "tags": {"addr:postcode": "3413", "addr:street": "Kossuth Lajos utca", "amenity": "pub", "internet_access": "wlan", "name": "B\u00fckkalja Pressz\u00f3-\u00c9tterem"}}, {"type": "node", "id": 2136213471, "lat": 48.0983679, "lon": 20.7044354, "tags": {"amenity": "pub", "name": "K\u00e9k 21"}}, {"type": "node", "id": 2187150462, "lat": 47.8754944, "lon": 20.6030745, "tags": {"amenity": "pub"}}, {"type": "node", "id": 2295524562, "lat": 48.1311614, "lon": 20.6719544}, {"type": "node", "id": 2295524563, "lat": 48.1310884, "lon": 20.6720901}, {"type": "node", "id": 2295524565, "lat": 48.1311614, "lon": 20.6722031}, {"type": "node", "id": 2295524567, "lat": 48.1312418, "lon": 20.6720599}, {"type": "node", "id": 2295533352, "lat": 48.1050407, "lon": 20.7110425}, {"type": "node", "id": 2295533353, "lat": 48.1048657, "lon": 20.7109713}, {"type": "node", "id": 2295533354, "lat": 48.1048258, "lon": 20.7111022}, {"type": "node", "id": 2295533355, "lat": 48.1050056, "lon": 20.7112182}, {"type": "node", "id": 2295816765, "lat": 48.1262175, "lon": 20.6940067}, {"type": "node", "id": 2295816767, "lat": 48.1261322, "lon": 20.6940902}, {"type": "node", "id": 2295816769, "lat": 48.1261722, "lon": 20.6941998}, {"type": "node", "id": 2295816771, "lat": 48.1262645, "lon": 20.6941189}, {"type": "node", "id": 2295816773, "lat": 48.1261879, "lon": 20.6939415}, {"type": "node", "id": 2295816775, "lat": 48.1261409, "lon": 20.6938215}, {"type": "node", "id": 2295816776, "lat": 48.1260573, "lon": 20.6939128}, {"type": "node", "id": 2295816778, "lat": 48.1260991, "lon": 20.6940406}, {"type": "node", "id": 2340573702, "lat": 48.1019406, "lon": 20.968131, "tags": {"amenity": "pub"}}, {"type": "node", "id": 2340573703, "lat": 48.0954686, "lon": 20.9666289, "tags": {"amenity": "pub", "name": "Sarokh\u00e1z pressz\u00f3", "toilets:wheelchair": "no", "wheelchair": "no"}}, {"type": "node", "id": 2340573707, "lat": 48.1030583, "lon": 20.9628631, "tags": {"amenity": "pub"}}, {"type": "node", "id": 2340573711, "lat": 48.0995457, "lon": 20.9687425, "tags": {"amenity": "pub"}}, {"type": "node", "id": 2343242006, "lat": 48.1025284, "lon": 20.964623, "tags": {"amenity": "pub", "name": "Sarki kiskocsma"}}, {"type": "node", "id": 2343351428, "lat": 48.0652278, "lon": 20.628806, "tags": {"amenity": "pub", "name": "Erd\u0151mester", "source": "survey", "survey:date": "2018-05-19"}}, {"type": "node", "id": 2345353711, "lat": 48.0956179, "lon": 20.9707905, "tags": {"amenity": "pub"}}, {"type": "node", "id": 2345440131, "lat": 48.1038795, "lon": 20.9619625, "tags": {"amenity": "pub"}}, {"type": "node", "id": 2348098760, "lat": 48.0976023, "lon": 20.9707483, "tags": {"amenity": "pub"}}, {"type": "node", "id": 2348355489, "lat": 48.1104209, "lon": 20.5325174, "tags": {"amenity": "pub"}}, {"type": "node", "id": 2698257850, "lat": 47.8168492, "lon": 20.4079257, "tags": {"amenity": "pub"}}, {"type": "node", "id": 2698479898, "lat": 47.803503, "lon": 20.4128201, "tags": {"amenity": "pub"}}, {"type": "node", "id": 2698482303, "lat": 47.8122273, "lon": 20.4080109, "tags": {"amenity": "pub"}}, {"type": "node", "id": 2698483288, "lat": 47.8089781, "lon": 20.4056588, "tags": {"amenity": "pub"}}, {"type": "node", "id": 2912311758, "lat": 48.1704838, "lon": 20.5299633, "tags": {"addr:city": "Tardona", "addr:housenumber": "9", "addr:postcode": "3644", "addr:street": "Kossuth Lajos utca", "amenity": "pub", "name": "Bety\u00e1rtanya", "opening_hours": "Mo-Th 16:00-22:00, Fr-Su 16:00-23:00"}}, {"type": "node", "id": 2912311759, "lat": 48.1701476, "lon": 20.5300836, "tags": {"addr:city": "Tardona", "addr:housenumber": "2", "addr:postcode": "3644", "addr:street": "Kossuth Lajos utca", "amenity": "pub", "name": "B\u00fckkalja cs\u00e1rda", "toilets:wheelchair": "no", "wheelchair": "no"}}, {"type": "node", "id": 3205878574, "lat": 48.0692209, "lon": 20.8327266, "tags": {"amenity": "pub", "name": "Pepita italbolt"}}, {"type": "node", "id": 3205884366, "lat": 48.0688875, "lon": 20.8245217, "tags": {"amenity": "pub", "name": "Hangulat"}}, {"type": "node", "id": 3220867657, "lat": 47.9456733, "lon": 20.996138, "tags": {"amenity": "pub", "name": "V\u00f6r\u00f6s \u00d6rd\u00f6g"}}, {"type": "node", "id": 3233047850, "lat": 48.1512817, "lon": 20.7964686, "tags": {"amenity": "pub", "min_age": "18", "opening_hours:covid19": "same", "outdoor_seating": "yes", "smoking": "outside"}}, {"type": "node", "id": 3233048720, "lat": 48.1138947, "lon": 20.7891882}, {"type": "node", "id": 3233048721, "lat": 48.1137884, "lon": 20.7891592}, {"type": "node", "id": 3233048722, "lat": 48.1138125, "lon": 20.7889928}, {"type": "node", "id": 3233048723, "lat": 48.113914, "lon": 20.7890193}, {"type": "node", "id": 3234325077, "lat": 48.1021574, "lon": 20.7822774, "tags": {"addr:city": "Miskolc", "addr:housenumber": "14", "addr:postcode": "3530", "addr:street": "Sz\u00e9chenyi Istv\u00e1n utca", "amenity": "pub", "name": "Viking S\u00f6rp\u00e1holy", "operator": "Goking Kft.", "wheelchair": "limited"}}, {"type": "node", "id": 3234325088, "lat": 48.0815792, "lon": 20.7841385, "tags": {"amenity": "pub", "name": "Gyerty\u00e1nos s\u00f6rf\u0151zde"}}, {"type": "node", "id": 3245280702, "lat": 48.1065015, "lon": 20.6347246, "tags": {"amenity": "pub", "name": "Szikla Pressz\u00f3"}}, {"type": "node", "id": 3251342253, "lat": 47.9345024, "lon": 20.8190837}, {"type": "node", "id": 3251344870, "lat": 47.9345905, "lon": 20.8188476}, {"type": "node", "id": 3251344888, "lat": 47.9347109, "lon": 20.8190112}, {"type": "node", "id": 3251344895, "lat": 47.934427, "lon": 20.8189683}, {"type": "node", "id": 3251345005, "lat": 47.9345438, "lon": 20.8190193}, {"type": "node", "id": 3251345007, "lat": 47.9344755, "lon": 20.8187189}, {"type": "node", "id": 3251345012, "lat": 47.9344593, "lon": 20.8189227}, {"type": "node", "id": 3251345016, "lat": 47.9346336, "lon": 20.81914}, {"type": "node", "id": 3251345036, "lat": 47.9343946, "lon": 20.8188315}, {"type": "node", "id": 3251345041, "lat": 47.9345617, "lon": 20.8188637}, {"type": "node", "id": 3308079268, "lat": 48.0998174, "lon": 20.8090166, "tags": {"amenity": "pub", "name": "Ret\u00far S\u00f6r\u00f6z\u0151"}}, {"type": "node", "id": 3372272901, "lat": 48.1738357, "lon": 20.4867737, "tags": {"amenity": "pub", "name": "G\u00f3lya pressz\u00f3", "source": "GPS"}}, {"type": "node", "id": 3400753601, "lat": 47.8554807, "lon": 20.4075431, "tags": {"amenity": "pub", "fixme": "position", "name": "Dud\u00e1s kocsma", "source": "turistautak.hu", "toilets:wheelchair": "no", "url": "http://turistautak.hu/poi.php?id=127736", "wheelchair": "limited"}}, {"type": "node", "id": 3400753602, "lat": 47.8413627, "lon": 20.413844, "tags": {"amenity": "pub", "fixme": "position", "name": "F\u0171zfa b\u00fcf\u00e9", "source": "turistautak.hu", "url": "http://turistautak.hu/poi.php?id=127796"}}, {"type": "node", "id": 3437142875, "lat": 48.082488, "lon": 20.75808, "tags": {"amenity": "pub", "name": "Route 66 Club", "old_name": "Mad Club", "source": "turistautak.hu", "source:date": "2014-05-17", "url": "http://turistautak.hu/poi.php?id=168651"}}, {"type": "node", "id": 3437148742, "lat": 48.121878, "lon": 20.52492, "tags": {"amenity": "pub", "name": "Franci Kocsm\u00e1ja", "source": "turistautak.hu", "source:date": "2013-12-02", "url": "http://turistautak.hu/poi.php?id=52761"}}, {"type": "node", "id": 3437150064, "lat": 48.104333, "lon": 20.785617, "tags": {"addr:city": "Miskolc", "addr:housenumber": "14", "addr:postcode": "3525", "addr:street": "Kazinczy Ferenc utca", "amenity": "pub", "fixme": "resurvey (source was old)", "name": "V\u00edg Post\u00e1s \u00e9tterem - s\u00f6r\u00f6z\u0151 - pizz\u00e9ria", "phone": "+36 46 413 788", "source": "turistautak.hu", "source:date": "2008-06-07", "url": "http://turistautak.hu/poi.php?id=27669", "wheelchair": "limited"}}, {"type": "node", "id": 3437751022, "lat": 47.985086, "lon": 20.780995, "tags": {"amenity": "pub", "name": "Aranyos kocsma", "source": "turistautak.hu", "source:date": "2011-07-04", "url": "http://turistautak.hu/poi.php?id=100302"}}, {"type": "node", "id": 3437753640, "lat": 48.031383, "lon": 20.89555, "tags": {"amenity": "pub", "description": "kocsma, b\u00fcf\u00e9", "source": "turistautak.hu", "source:date": "2010-12-05", "url": "http://turistautak.hu/poi.php?id=70925"}}, {"type": "node", "id": 3437753959, "lat": 48.0683164, "lon": 20.6344095, "tags": {"amenity": "pub", "name": "Nimr\u00f3d s\u00f6r\u00f6z\u0151", "source": "survey", "survey:date": "2018-05-19", "url": "http://turistautak.hu/poi.php?id=62565"}}, {"type": "node", "id": 3437755220, "lat": 47.975057, "lon": 20.742833, "tags": {"amenity": "pub", "source": "turistautak.hu", "source:date": "2011-07-04", "url": "http://turistautak.hu/poi.php?id=60858"}}, {"type": "node", "id": 3437755285, "lat": 47.9932812, "lon": 20.8529111, "tags": {"amenity": "pub", "source": "turistautak.hu", "source:date": "2011-07-04", "url": "http://turistautak.hu/poi.php?id=104552"}}, {"type": "node", "id": 3437755599, "lat": 47.996582, "lon": 20.834217, "tags": {"amenity": "pub", "source": "turistautak.hu", "source:date": "2012-01-19", "toilets:wheelchair": "no", "url": "http://turistautak.hu/poi.php?id=104548", "wheelchair": "no"}}, {"type": "node", "id": 3437755667, "lat": 48.010442, "lon": 20.685428, "tags": {"amenity": "pub", "name": "Rocky Pressz\u00f3", "source": "turistautak.hu", "source:date": "2011-04-18", "url": "http://turistautak.hu/poi.php?id=7416"}}, {"type": "node", "id": 3437756643, "lat": 48.048834, "lon": 20.841885, "tags": {"amenity": "pub", "source": "turistautak.hu", "source:date": "2011-04-18", "url": "http://turistautak.hu/poi.php?id=70850"}}, {"type": "node", "id": 3437757170, "lat": 48.181523, "lon": 20.652238, "tags": {"amenity": "pub", "source": "turistautak.hu", "source:date": "2011-07-04", "url": "http://turistautak.hu/poi.php?id=51378"}}, {"type": "node", "id": 3445460145, "lat": 47.895667, "lon": 20.488117, "tags": {"amenity": "pub", "name": "B\u00fckki Vad\u00e1szok Mulat\u00f3ja", "source": "turistautak.hu", "source:date": "2012-05-18", "url": "http://turistautak.hu/poi.php?id=135176"}}, {"type": "node", "id": 3445460169, "lat": 47.9124, "lon": 20.534817, "tags": {"addr:street": "Bog\u00e1cs Cser\u00e9pi \u00fati pincesor 56. sz. pince", "amenity": "pub", "email": "hajdu.imre@chello.hu", "name": "Cs\u00e1ter Ap\u00f3 Pinc\u00e9je", "phone": "+36 46 322 293", "source": "turistautak.hu", "source:date": "2013-12-02", "url": "http://turistautak.hu/poi.php?id=19979"}}, {"type": "node", "id": 3445462430, "lat": 47.9575623, "lon": 20.6152878}, {"type": "node", "id": 3445462472, "lat": 47.828417, "lon": 20.691214, "tags": {"amenity": "pub", "name": "Kocsma \u00e9s fagyiz\u00f3", "source": "turistautak.hu", "source:date": "2014-08-30", "url": "http://turistautak.hu/poi.php?id=171390"}}, {"type": "node", "id": 3445462964, "lat": 47.958731, "lon": 20.50196, "tags": {"amenity": "pub", "name": "Patk\u00f3 s\u00f6r\u00f6z\u0151", "source": "turistautak.hu", "source:date": "2012-01-19", "url": "http://turistautak.hu/poi.php?id=127041"}}, {"type": "node", "id": 3445463504, "lat": 47.957403, "lon": 20.613303, "tags": {"amenity": "pub", "name": "Szikla pressz\u00f3", "source": "turistautak.hu", "source:date": "2014-10-09", "url": "http://turistautak.hu/poi.php?id=173079"}}, {"type": "node", "id": 3445463614, "lat": 47.888438, "lon": 20.769182, "tags": {"amenity": "pub", "source": "turistautak.hu", "source:date": "2010-03-26", "url": "http://turistautak.hu/poi.php?id=55212"}}, {"type": "node", "id": 3445463640, "lat": 47.921053, "lon": 20.73899, "tags": {"amenity": "pub", "source": "turistautak.hu", "source:date": "2011-07-04", "url": "http://turistautak.hu/poi.php?id=50861"}}, {"type": "node", "id": 3445463646, "lat": 47.93088, "lon": 20.560117, "tags": {"amenity": "pub", "opening_hours": "Mo-We 06:00-11:00, 16:00-20:00; Th 06:00-20:00; Fr-Sa 06:00-11:00, 16:00-20:00; Su 7:00-11:00, 16:00-20:00", "source": "turistautak.hu", "source:date": "2011-07-04", "url": "http://turistautak.hu/poi.php?id=10635"}}, {"type": "node", "id": 3447338167, "lat": 48.1463931, "lon": 20.4530655, "tags": {"amenity": "pub", "source": "survey", "survey:date": "2020-08-15", "url": "http://turistautak.hu/poi.php?id=3989"}}, {"type": "node", "id": 3454464008, "lat": 48.1744184, "lon": 20.4867132, "tags": {"amenity": "pub", "name": "H\u00e1rsfa pressz\u00f3", "toilets:wheelchair": "yes", "url": "http://turistautak.hu/poi.php?id=66964", "wheelchair": "limited"}}, {"type": "node", "id": 3481242230, "lat": 48.119447, "lon": 20.8971516, "tags": {"amenity": "pub"}}, {"type": "node", "id": 3481246204, "lat": 48.1166481, "lon": 20.8964506, "tags": {"amenity": "pub", "name": "N\u00e1das kocsma", "opening_hours": "Mo-Su 07:00-23:00; Fr-Sa 07:00-01:00"}}, {"type": "node", "id": 3481250424, "lat": 48.122528, "lon": 20.9063475, "tags": {"amenity": "pub"}}, {"type": "node", "id": 3481267261, "lat": 48.1196698, "lon": 20.9049806, "tags": {"amenity": "pub"}}, {"type": "node", "id": 3488481093, "lat": 47.951498, "lon": 20.872955, "tags": {"amenity": "pub", "name": "Flaming\u00f3 Cs\u00e1rda", "source": "turistautak.hu", "source:date": "2013-12-02", "url": "http://turistautak.hu/poi.php?id=64929"}}, {"type": "node", "id": 3489645383, "lat": 47.825729, "lon": 20.914563, "tags": {"amenity": "pub", "name": "Fapuma", "source": "turistautak.hu", "source:date": "2010-03-26", "url": "http://turistautak.hu/poi.php?id=65431"}}, {"type": "node", "id": 3489649098, "lat": 47.822181, "lon": 20.89833, "tags": {"amenity": "pub", "name": "P\u00e1lma s\u00f6r\u00f6z\u0151", "source": "turistautak.hu", "source:date": "2011-08-19", "url": "http://turistautak.hu/poi.php?id=123325"}}, {"type": "node", "id": 3489649107, "lat": 47.821627, "lon": 20.904145, "tags": {"amenity": "pub", "name": "Unikum s\u00f6r\u00f6z\u0151", "source": "turistautak.hu", "source:date": "2011-08-19", "url": "http://turistautak.hu/poi.php?id=48586"}}, {"type": "node", "id": 3489649142, "lat": 47.829884, "lon": 20.774129, "tags": {"amenity": "pub", "source": "turistautak.hu", "source:date": "2010-03-26", "url": "http://turistautak.hu/poi.php?id=65434"}}, {"type": "node", "id": 3699012434, "lat": 47.9702029, "lon": 20.4115945}, {"type": "node", "id": 3699012435, "lat": 47.9701454, "lon": 20.4115168}, {"type": "node", "id": 3699012436, "lat": 47.970077, "lon": 20.4116297}, {"type": "node", "id": 3699012437, "lat": 47.9701344, "lon": 20.4117074}, {"type": "node", "id": 3708554858, "lat": 48.1026466, "lon": 20.7786048}, {"type": "node", "id": 3708554859, "lat": 48.1026156, "lon": 20.7786917}, {"type": "node", "id": 3708554860, "lat": 48.1028082, "lon": 20.7788457}, {"type": "node", "id": 3708554861, "lat": 48.1028225, "lon": 20.7788872}, {"type": "node", "id": 3708554862, "lat": 48.1028168, "lon": 20.7789254}, {"type": "node", "id": 3708554863, "lat": 48.10285, "lon": 20.778953}, {"type": "node", "id": 3708554864, "lat": 48.102882, "lon": 20.7788668}, {"type": "node", "id": 3708554865, "lat": 48.1028623, "lon": 20.7787773}, {"type": "node", "id": 3708554911, "lat": 48.1022632, "lon": 20.7841989, "tags": {"amenity": "pub", "name": "Helynekem", "outdoor_seating": "no", "toilets:wheelchair": "limited", "wheelchair": "limited"}}, {"type": "node", "id": 3711939487, "lat": 47.9755486, "lon": 20.4184666}, {"type": "node", "id": 3711939488, "lat": 47.9755068, "lon": 20.4183927}, {"type": "node", "id": 3711939489, "lat": 47.9755406, "lon": 20.41835}, {"type": "node", "id": 3711939490, "lat": 47.9756341, "lon": 20.4185152}, {"type": "node", "id": 3711939491, "lat": 47.9755552, "lon": 20.4186149}, {"type": "node", "id": 3711939492, "lat": 47.9755035, "lon": 20.4185236}, {"type": "node", "id": 3793485731, "lat": 48.0808082, "lon": 20.6642135, "tags": {"amenity": "pub"}}, {"type": "node", "id": 3797648971, "lat": 47.9512868, "lon": 20.6616336, "tags": {"amenity": "pub", "building": "yes", "name": "\u00c9denkert pressz\u00f3"}}, {"type": "node", "id": 3811159326, "lat": 47.9150302, "lon": 20.6391899, "tags": {"amenity": "pub", "name": "Feny\u0151 pressz\u00f3"}}, {"type": "node", "id": 3811159327, "lat": 47.9211016, "lon": 20.6362901, "tags": {"amenity": "pub", "name": "Gemini s\u00f6r\u00f6z\u0151"}}, {"type": "node", "id": 3912932417, "lat": 48.0772317, "lon": 20.672189, "tags": {"amenity": "pub", "name": "Cimbora s\u00f6r\u00f6z\u0151"}}, {"type": "node", "id": 4409906646, "lat": 47.943991, "lon": 20.6658935}, {"type": "node", "id": 4409906648, "lat": 47.9440305, "lon": 20.666108}, {"type": "node", "id": 4409906649, "lat": 47.9440628, "lon": 20.665864}, {"type": "node", "id": 4409906650, "lat": 47.9441024, "lon": 20.6660785}, {"type": "node", "id": 4458155778, "lat": 48.1078044, "lon": 20.6773087, "tags": {"amenity": "pub", "name": "Manz\u00e1rd pressz\u00f3"}}, {"type": "node", "id": 4458171375, "lat": 48.1076451, "lon": 20.6761662, "tags": {"amenity": "pub", "name": "Lotti S\u00f6r\u00f6z\u0151", "opening_hours": "Mo-Th 06:00-22:00; Fr-Sa 06:00-24:00; Su 06:00-22:00"}}, {"type": "node", "id": 4472729426, "lat": 48.0694604, "lon": 20.7906277, "tags": {"amenity": "pub", "name": "\u00d6tk\u00f6r\u00f6s", "name:hu": "\u00d6tk\u00f6r\u00f6s"}}, {"type": "node", "id": 4472821992, "lat": 48.0738108, "lon": 20.7877824, "tags": {"amenity": "pub", "name": "S\u00f6rbutik"}}, {"type": "node", "id": 4472821995, "lat": 48.0054241, "lon": 20.8449474, "tags": {"amenity": "pub", "name": "Berki s\u00f6r\u00f6z\u0151", "name:hu": "Berki s\u00f6r\u00f6z\u0151"}}, {"type": "node", "id": 4507742637, "lat": 47.8803183, "lon": 20.5989006}, {"type": "node", "id": 4507742638, "lat": 47.8803856, "lon": 20.5990126}, {"type": "node", "id": 4507742639, "lat": 47.8803895, "lon": 20.5988055}, {"type": "node", "id": 4507742640, "lat": 47.8804032, "lon": 20.5989891}, {"type": "node", "id": 4507742641, "lat": 47.8804166, "lon": 20.5991406}, {"type": "node", "id": 4507742642, "lat": 47.8804531, "lon": 20.5992015}, {"type": "node", "id": 4507742643, "lat": 47.8804596, "lon": 20.5990831}, {"type": "node", "id": 4507742644, "lat": 47.8805498, "lon": 20.5990724}, {"type": "node", "id": 4523927988, "lat": 48.0100259, "lon": 20.6888233, "tags": {"amenity": "pub", "name": "J\u00f3bar\u00e1t Pressz\u00f3"}}, {"type": "node", "id": 4692258199, "lat": 48.0840121, "lon": 20.7773236, "tags": {"amenity": "pub", "name": "S\u00f6r\u00f6z\u0151"}}, {"type": "node", "id": 4692289491, "lat": 48.0831816, "lon": 20.7785531, "tags": {"amenity": "pub", "name": "Poki poharaz\u00f3", "name:hu": "Poki poharaz\u00f3"}}, {"type": "node", "id": 4745620090, "lat": 48.1018667, "lon": 20.7766135}, {"type": "node", "id": 4770275284, "lat": 48.1025068, "lon": 20.79098, "tags": {"addr:city": "Miskolc", "amenity": "pub"}}, {"type": "node", "id": 4770275285, "lat": 48.1021014, "lon": 20.7911613, "tags": {"addr:city": "Miskolc", "amenity": "pub"}}, {"type": "node", "id": 4793808241, "lat": 48.0709413, "lon": 20.7581002}, {"type": "node", "id": 4793808242, "lat": 48.0707706, "lon": 20.7581575}, {"type": "node", "id": 4793808243, "lat": 48.0707986, "lon": 20.7583446}, {"type": "node", "id": 4793808244, "lat": 48.0709694, "lon": 20.7582873}, {"type": "node", "id": 4793815432, "lat": 48.0707949, "lon": 20.7583197, "tags": {"entrance": "main"}}, {"type": "node", "id": 4846988978, "lat": 47.957642, "lon": 20.6153929}, {"type": "node", "id": 4846988979, "lat": 47.9576604, "lon": 20.615122}, {"type": "node", "id": 4846988980, "lat": 47.9577401, "lon": 20.615227}, {"type": "node", "id": 4876153436, "lat": 48.0106562, "lon": 20.6911578}, {"type": "node", "id": 4876153439, "lat": 48.0107154, "lon": 20.6910585}, {"type": "node", "id": 4876153443, "lat": 48.0107549, "lon": 20.6912892}, {"type": "node", "id": 4876153445, "lat": 48.0108141, "lon": 20.69119}, {"type": "node", "id": 4933475500, "lat": 47.8074886, "lon": 20.5547598, "tags": {"amenity": "pub", "name": "Lila Ak\u00e1c S\u00f6r\u00f6z\u0151", "source": "route4u", "toilets:wheelchair": "yes", "wheelchair": "limited"}}, {"type": "node", "id": 4933476694, "lat": 47.9221296, "lon": 20.6288203, "tags": {"amenity": "pub", "fixme": "verify", "name": "G\u00e1l Boroz\u00f3 Vend\u00e9gl\u0151", "source": "route4u", "toilets:wheelchair": "no", "wheelchair": "limited"}}, {"type": "node", "id": 4933476936, "lat": 47.8043371, "lon": 20.559682, "tags": {"amenity": "pub", "name": "Millennium S\u00f6r\u00f6z\u0151", "source": "route4u", "toilets:wheelchair": "limited", "wheelchair": "limited"}}, {"type": "node", "id": 4933476953, "lat": 47.8068418, "lon": 20.7216226, "tags": {"amenity": "pub", "fixme": "verify", "name": "Liget S\u00f6r\u00f6z\u0151", "source": "route4u"}}, {"type": "node", "id": 4933477612, "lat": 48.0435993, "lon": 20.9055547, "tags": {"amenity": "pub", "fixme": "verify", "name": "Z\u00f6ld Elef\u00e1nt", "source": "route4u", "toilets:wheelchair": "no", "wheelchair": "no"}}, {"type": "node", "id": 4933477918, "lat": 48.0913856, "lon": 20.8080735, "tags": {"amenity": "pub", "fixme": "verify", "name": "Martini Bisztr\u00f3", "source": "route4u", "toilets:wheelchair": "limited", "wheelchair": "yes"}}, {"type": "node", "id": 4933477946, "lat": 48.0753598, "lon": 20.8751724, "tags": {"amenity": "pub", "fixme": "verify", "name": "Patk\u00f3 S\u00f6r\u00f6z\u0151", "source": "route4u"}}, {"type": "node", "id": 4933477955, "lat": 48.078034, "lon": 20.7790436, "tags": {"amenity": "pub", "name": "Mini Eszpressz\u00f3", "outdoor_seating": "no", "source": "route4u", "toilets:wheelchair": "no", "wheelchair": "limited"}}, {"type": "node", "id": 4933477957, "lat": 48.0782566, "lon": 20.8728449, "tags": {"amenity": "pub", "name": "Z\u00f6ld \u00c1sz", "toilets:wheelchair": "no", "wheelchair": "no"}}, {"type": "node", "id": 4933477975, "lat": 48.1058079, "lon": 20.7240931, "tags": {"addr:city": "Miskolc", "addr:housenumber": "65", "addr:postcode": "3532", "addr:street": "Toront\u00e1li utca", "amenity": "pub", "name": "Piros-Feh\u00e9r S\u00f6r\u00f6z\u0151", "opening_hours": "Mo-Su 08:00-22:00", "source": "route4u"}}, {"type": "node", "id": 4933477978, "lat": 48.1074008, "lon": 20.7748184, "tags": {"amenity": "pub", "fixme": "verify", "name": "Piriny\u00f3 Bisztr\u00f3", "source": "route4u", "toilets:wheelchair": "no", "wheelchair": "limited"}}, {"type": "node", "id": 4933477982, "lat": 48.1084152, "lon": 20.7783216, "tags": {"amenity": "pub", "fixme": "verify", "name": "Piramis S\u00f6r\u00f6z\u0151", "source": "route4u", "toilets:wheelchair": "no", "wheelchair": "limited"}}, {"type": "node", "id": 4933477993, "lat": 48.1113335, "lon": 20.6692666}, {"type": "node", "id": 4933478062, "lat": 48.1020986, "lon": 20.73452, "tags": {"amenity": "pub", "fixme": "verify", "name": "Compania Kiskocsma", "source": "route4u", "wheelchair": "limited"}}, {"type": "node", "id": 4933478064, "lat": 48.102366, "lon": 20.7346656, "tags": {"amenity": "pub", "fixme": "verify", "name": "M\u00e9zes S\u00f6rb\u00e1r", "source": "route4u", "toilets:wheelchair": "no", "wheelchair": "no"}}, {"type": "node", "id": 4933478066, "lat": 48.1028082, "lon": 20.7398937, "tags": {"amenity": "pub", "fixme": "verify", "name": "O\u00e1zis", "source": "route4u", "toilets:wheelchair": "limited", "wheelchair": "yes"}}, {"type": "node", "id": 4933478070, "lat": 48.103141, "lon": 20.794888, "tags": {"addr:city": "Miskolc", "amenity": "pub", "fixme": "verify", "name": "Bb S\u00f6r\u00f6z\u0151", "source": "route4u", "toilets:wheelchair": "limited", "wheelchair": "yes"}}, {"type": "node", "id": 4933478088, "lat": 48.138388, "lon": 21.0021425, "tags": {"amenity": "pub", "fixme": "verify", "name": "S\u00f6r\u00f6z\u00f6", "source": "route4u", "toilets:wheelchair": "no", "wheelchair": "no"}}, {"type": "node", "id": 4933478252, "lat": 48.1822386, "lon": 20.8235331, "tags": {"amenity": "pub", "fixme": "verify", "name": "Margar\u00e9ta S\u00f6r\u00f6z\u0151", "source": "route4u", "toilets:wheelchair": "limited", "wheelchair": "no"}}, {"type": "node", "id": 4936791911, "lat": 47.9219675, "lon": 20.6320721}, {"type": "node", "id": 4936791912, "lat": 47.922043, "lon": 20.6321298}, {"type": "node", "id": 4936791913, "lat": 47.9220816, "lon": 20.6320737}, {"type": "node", "id": 4936791914, "lat": 47.9221937, "lon": 20.6319746}, {"type": "node", "id": 4936791915, "lat": 47.9221943, "lon": 20.6320721}, {"type": "node", "id": 4936791916, "lat": 47.9220062, "lon": 20.6319618}, {"type": "node", "id": 4936791917, "lat": 47.9221479, "lon": 20.6319597}, {"type": "node", "id": 4936791918, "lat": 47.9221475, "lon": 20.6318898}, {"type": "node", "id": 4936791919, "lat": 47.9222526, "lon": 20.6318883}, {"type": "node", "id": 4936791920, "lat": 47.9222531, "lon": 20.6319737}, {"type": "node", "id": 4939173964, "lat": 48.1054012, "lon": 20.7930089, "tags": {"addr:city": "Miskolc", "amenity": "pub", "fixme": "verify", "name": "K\u00f3ser S\u00f6r\u00f6z\u0151", "source": "route4u", "toilets:wheelchair": "limited", "wheelchair": "yes"}}, {"type": "node", "id": 4939174308, "lat": 48.101797, "lon": 20.6881945, "tags": {"amenity": "pub", "fixme": "verify", "name": "K\u00e9t Kors\u00f3", "source": "route4u", "toilets:wheelchair": "no", "wheelchair": "limited"}}, {"type": "node", "id": 4939174877, "lat": 47.7940528, "lon": 20.5213261, "tags": {"amenity": "pub", "name": "Fal\u00e1nk Fanny I", "wheelchair": "yes"}}, {"type": "node", "id": 4939175265, "lat": 48.1023492, "lon": 20.7848573, "tags": {"amenity": "pub", "fixme": "verify", "name": "Kor-Hely S\u00f6r\u00f6z\u0151", "source": "route4u", "toilets:wheelchair": "limited", "wheelchair": "limited"}}, {"type": "node", "id": 4939175314, "lat": 47.8013475, "lon": 20.5635908, "tags": {"addr:city": "Mez\u0151k\u00f6vesd", "addr:housenumber": "6", "addr:postcode": "3400", "addr:street": "Mindszenty J\u00f3zsef utca", "amenity": "pub", "name": "Sz\u00f6szi S\u00f6r\u00f6z\u0151", "source": "route4u", "toilets:wheelchair": "yes", "wheelchair": "yes"}}, {"type": "node", "id": 4939175390, "lat": 47.8461007, "lon": 20.4113937, "tags": {"amenity": "pub", "fixme": "verify", "name": "H\u00e1zis\u00e1rk\u00e1ny S\u00f6r\u00f6z\u0151", "source": "route4u", "toilets:wheelchair": "no", "wheelchair": "no"}}, {"type": "node", "id": 4939175399, "lat": 48.1030681, "lon": 20.7538778, "tags": {"amenity": "pub", "fixme": "verify", "name": "Tokaj S\u00f6r\u00f6z\u0151", "source": "route4u", "toilets:wheelchair": "limited", "wheelchair": "yes"}}, {"type": "node", "id": 4939175682, "lat": 48.1051795, "lon": 20.7923801, "tags": {"addr:city": "Miskolc", "amenity": "pub", "name": "Z\u00f6ld \u00c1sz", "source": "route4u", "toilets:wheelchair": "limited", "wheelchair": "yes"}}, {"type": "node", "id": 4939175782, "lat": 48.1050585, "lon": 20.7933345, "tags": {"addr:city": "Miskolc", "amenity": "pub", "fixme": "verify", "name": "B\u00faza T\u00e9ri Italbolt", "source": "route4u", "toilets:wheelchair": "no", "wheelchair": "yes"}}, {"type": "node", "id": 4939176005, "lat": 48.1282432, "lon": 20.7858134, "tags": {"amenity": "pub", "name": "Mos\u00f3 Maci", "opening_hours": "24/7, Mo-Sa 05:00-00:00, Su 05:00-23:00", "source": "route4u"}}, {"type": "node", "id": 4939176199, "lat": 48.1036477, "lon": 20.7871772, "tags": {"addr:city": "Miskolc", "amenity": "pub", "fixme": "verify", "name": "Colombus City Pub", "source": "route4u", "toilets:wheelchair": "limited", "wheelchair": "yes"}}, {"type": "node", "id": 4939176201, "lat": 48.1016541, "lon": 20.7322178, "tags": {"amenity": "pub", "fixme": "verify", "name": "K\u00e9t Jobbl\u00e1bas S\u00f6r\u00f6z\u0151", "source": "route4u", "toilets:wheelchair": "limited", "wheelchair": "limited"}}, {"type": "node", "id": 4939177007, "lat": 48.1024003, "lon": 20.7872035, "tags": {"addr:city": "Miskolc", "addr:housenumber": "54", "addr:postcode": "3530", "addr:street": "Sz\u00e9chenyi Istv\u00e1n utca", "amenity": "pub", "brewery": "yes", "facebook": "https://www.facebook.com/Szomjas-Szerda-S%C3%B6r%C3%B6z%C5%91-Bisztr%C3%B3-130721083701542", "name": "Szomjas Szerda", "opening_hours": "Mo-Su 08:00-24:00", "outdoor_seating": "yes", "toilets:wheelchair": "limited", "wheelchair": "limited"}}, {"type": "node", "id": 4939178057, "lat": 48.1023219, "lon": 20.7843707, "tags": {"addr:city": "Miskolc", "amenity": "pub", "fixme": "verify", "name": "Lenin Caf\u00e9 Gulag Pub", "source": "route4u", "toilets:wheelchair": "limited", "wheelchair": "limited"}}, {"type": "node", "id": 4939178279, "lat": 48.1494791, "lon": 20.7900009, "tags": {"amenity": "pub", "fixme": "verify", "name": "Ak\u00e1c S\u00f6r\u00f6z\u0151", "source": "route4u"}}, {"type": "node", "id": 4939178681, "lat": 48.0182974, "lon": 20.8277278, "tags": {"amenity": "pub", "fixme": "verify", "name": "Popey Italdiszkont", "source": "route4u", "toilets:wheelchair": "no", "wheelchair": "limited"}}, {"type": "node", "id": 4939178706, "lat": 48.1690044, "lon": 20.7766499, "tags": {"amenity": "pub", "fixme": "verify", "name": "Rodost\u00f3 S\u00f6r\u00f6z\u0151", "source": "route4u", "toilets:wheelchair": "no", "wheelchair": "no"}}, {"type": "node", "id": 4939178861, "lat": 47.7934311, "lon": 20.5200877, "tags": {"amenity": "pub", "fixme": "verify", "name": "Hord\u00f3 Boroz\u00f3", "source": "route4u", "toilets:wheelchair": "yes", "wheelchair": "yes"}}, {"type": "node", "id": 4939179322, "lat": 48.1020487, "lon": 20.803856, "tags": {"amenity": "pub", "fixme": "verify", "name": "XXL S\u00f6r\u00f6z\u0151", "source": "route4u"}}, {"type": "node", "id": 4939179413, "lat": 47.8014163, "lon": 20.5638246, "tags": {"amenity": "pub", "name": "Vip S\u00f6r\u00f6z\u0151", "source": "route4u", "toilets:wheelchair": "limited", "wheelchair": "limited"}}, {"type": "node", "id": 4939179606, "lat": 48.1023675, "lon": 20.8057935, "tags": {"addr:city": "Miskolc", "addr:housenumber": "48", "addr:postcode": "3527", "addr:street": "Bajcsy-Zsilinszky \u00fat", "amenity": "pub", "contact:email": "pikolopresszo20@gmail.com", "contact:mobile": "+36 30 995 8588", "contact:phone": "+36 46 755 445", "fixme": "verify", "name": "Picol\u00f3 Pressz\u00f3", "source": "route4u"}}, {"type": "node", "id": 4939179739, "lat": 48.1020418, "lon": 20.7324459, "tags": {"amenity": "pub", "fixme": "verify", "name": "Jubileum S\u00f6r\u00f6z\u0151", "source": "route4u", "toilets:wheelchair": "limited", "wheelchair": "limited"}}, {"type": "node", "id": 4939278441, "lat": 48.1068708, "lon": 20.7924943, "tags": {"addr:city": "Miskolc", "addr:housenumber": "14", "addr:postcode": "3526", "addr:street": "B\u00faza t\u00e9r", "amenity": "pub", "fixme": "verify", "internet_access": "no", "level": "0", "name": "Paprika S\u00f6r\u00f6z\u0151", "outdoor_seating": "yes", "smoking": "outside", "source": "route4u", "toilets": "yes", "toilets:access": "customers", "toilets:wheelchair": "no", "wheelchair": "no"}}, {"type": "node", "id": 4939279258, "lat": 47.9387447, "lon": 20.882366, "tags": {"amenity": "pub"}}, {"type": "node", "id": 4940556511, "lat": 48.1083071, "lon": 20.8551018, "tags": {"amenity": "pub", "fixme": "verify", "name": "Niv\u00f3 S\u00f6rb\u00e1r", "source": "route4u", "toilets:wheelchair": "no", "wheelchair": "no"}}, {"type": "node", "id": 4940559143, "lat": 48.141128, "lon": 20.4328082, "tags": {"amenity": "pub", "fixme": "verify", "name": "B\u00e1lint Italoz\u00f3", "source": "route4u", "toilets:wheelchair": "yes", "wheelchair": "no"}}, {"type": "node", "id": 4940559182, "lat": 48.1018701, "lon": 20.7852759, "tags": {"amenity": "pub", "name": "Stamp", "old_name": "Ted Bisztr\u00f3", "source": "route4u", "toilets:wheelchair": "no", "wheelchair": "limited"}}, {"type": "node", "id": 4940559448, "lat": 48.1803816, "lon": 20.8319064, "tags": {"amenity": "pub", "fixme": "verify", "name": "Flaming\u00f3 B\u00e1r", "source": "route4u", "toilets:wheelchair": "no", "wheelchair": "yes"}}, {"type": "node", "id": 4940563314, "lat": 48.1201646, "lon": 20.9092034, "tags": {"amenity": "pub", "fixme": "verify", "name": "Joker Drinkb\u00e1r", "source": "route4u", "toilets:wheelchair": "no", "wheelchair": "no"}}, {"type": "node", "id": 4940565947, "lat": 48.1105295, "lon": 20.532943, "tags": {"amenity": "pub", "name": "K\u00f6vi R\u00f3zsa Pressz\u00f3", "source": "survey", "survey:date": "2018-05-24"}}, {"type": "node", "id": 4972223122, "lat": 47.8258463, "lon": 20.6896861, "tags": {"amenity": "pub"}}, {"type": "node", "id": 4972655123, "lat": 47.8230268, "lon": 20.6923057, "tags": {"amenity": "pub"}}, {"type": "node", "id": 4972671022, "lat": 47.822712, "lon": 20.6926142, "tags": {"amenity": "pub"}}, {"type": "node", "id": 5046169209, "lat": 47.9809158, "lon": 20.6678654}, {"type": "node", "id": 5046169210, "lat": 47.98098, "lon": 20.6679815}, {"type": "node", "id": 5046169211, "lat": 47.9810316, "lon": 20.6679179}, {"type": "node", "id": 5046169212, "lat": 47.9809673, "lon": 20.6678018}, {"type": "node", "id": 5081372089, "lat": 48.0792521, "lon": 20.7781629, "tags": {"amenity": "pub"}}, {"type": "node", "id": 5081664572, "lat": 48.1077625, "lon": 20.7870488, "tags": {"addr:city": "Miskolc", "addr:housename": "Macropolis \u00fczleth\u00e1z", "addr:housenumber": "1", "addr:postcode": "3526", "addr:street": "Arany J\u00e1nos t\u00e9r", "amenity": "pub", "description": "Macropolis \u00fczleth\u00e1z, Arany J\u00e1nos t\u00e9r 1., \"A\" \u00e9p\u00fclet fsz.", "email": "brewhouse@zips.hu", "name": "ZIP's k\u00e9zm\u0171ves s\u00f6rf\u0151zde", "opening_hours": "Mo-Sa 12:00-24:00", "phone": "+36 46 952 192", "start_date": "2016", "website": "https://zips.hu"}}, {"type": "node", "id": 5087464390, "lat": 48.1017039, "lon": 20.7768401}, {"type": "node", "id": 5087464391, "lat": 48.1017526, "lon": 20.7767147}, {"type": "node", "id": 5087464394, "lat": 48.1018468, "lon": 20.7765084}, {"type": "node", "id": 5087464395, "lat": 48.1016709, "lon": 20.7766073}, {"type": "node", "id": 5087464396, "lat": 48.1015997, "lon": 20.7766473}, {"type": "node", "id": 5087464397, "lat": 48.1016258, "lon": 20.7767345}, {"type": "node", "id": 5087464398, "lat": 48.1017422, "lon": 20.7766792}, {"type": "node", "id": 5087464400, "lat": 48.101823, "lon": 20.7766366, "tags": {"entrance": "service"}}, {"type": "node", "id": 5087464401, "lat": 48.1017474, "lon": 20.7766969, "tags": {"entrance": "main"}}, {"type": "node", "id": 5087465493, "lat": 48.0788393, "lon": 20.7788954, "tags": {"amenity": "pub", "outdoor_seating": "yes", "toilets:wheelchair": "no", "wheelchair": "no"}}, {"type": "node", "id": 5097617712, "lat": 48.0799987, "lon": 20.7685672, "tags": {"amenity": "pub"}}, {"type": "node", "id": 5098863682, "lat": 48.0788837, "lon": 20.7826001, "tags": {"amenity": "pub"}}, {"type": "node", "id": 5181217084, "lat": 48.1008068, "lon": 20.8092843, "tags": {"amenity": "pub", "name": "Cimbora Pressz\u00f3"}}, {"type": "node", "id": 5242811977, "lat": 48.0757755, "lon": 20.7739095, "tags": {"amenity": "pub"}}, {"type": "node", "id": 5242811991, "lat": 48.0686217, "lon": 20.7773427, "tags": {"amenity": "pub"}}, {"type": "node", "id": 5680147429, "lat": 48.105491, "lon": 20.7865583, "tags": {"addr:city": "Miskolc", "addr:housenumber": "7", "addr:postcode": "3525", "addr:street": "Horv\u00e1th Lajos utca", "amenity": "pub", "brewery": "yes;Dreher", "check_date:opening_hours": "2021-07-09", "facebook": "https://www.facebook.com/otthonkamiskolc.hu/", "name": "Otthonka", "opening_hours": "Mo-Sa 10:00-22:00; Su off", "outdoor_seating": "yes", "phone": "+36 46 451 689"}}, {"type": "node", "id": 6208689852, "lat": 48.1698786, "lon": 20.6428512}, {"type": "node", "id": 6208689853, "lat": 48.1698467, "lon": 20.6429437}, {"type": "node", "id": 6208689854, "lat": 48.1697851, "lon": 20.6428827}, {"type": "node", "id": 6208689855, "lat": 48.1698074, "lon": 20.6427993}, {"type": "node", "id": 6208689856, "lat": 48.1698264, "lon": 20.6427943}, {"type": "node", "id": 6376426631, "lat": 47.8048753, "lon": 20.5905796}, {"type": "node", "id": 6376426632, "lat": 47.8049274, "lon": 20.5906483}, {"type": "node", "id": 6376426633, "lat": 47.805034, "lon": 20.5904691}, {"type": "node", "id": 6376426634, "lat": 47.8049818, "lon": 20.5904004}, {"type": "node", "id": 6409466878, "lat": 48.1017965, "lon": 20.7853466, "tags": {"addr:city": "Miskolc", "addr:housenumber": "2", "addr:postcode": "3530", "addr:street": "Szemere Bertalan utca", "amenity": "pub", "brewery": "yes", "name": "Forint S\u00f6r\u00f6z\u0151", "smoking": "outside"}}, {"type": "node", "id": 6483702351, "lat": 48.1025874, "lon": 20.6811054}, {"type": "node", "id": 6483702352, "lat": 48.1024983, "lon": 20.6810196}, {"type": "node", "id": 6483702353, "lat": 48.1024701, "lon": 20.6810855}, {"type": "node", "id": 6483702354, "lat": 48.1025099, "lon": 20.6811238}, {"type": "node", "id": 6483702355, "lat": 48.1024853, "lon": 20.6811811}, {"type": "node", "id": 6483702356, "lat": 48.1025346, "lon": 20.6812285}, {"type": "node", "id": 6483818287, "lat": 48.0993797, "lon": 20.6945206}, {"type": "node", "id": 6483818288, "lat": 48.0994294, "lon": 20.6945376}, {"type": "node", "id": 6483818289, "lat": 48.099569, "lon": 20.6946115}, {"type": "node", "id": 6483818290, "lat": 48.0995816, "lon": 20.6945291}, {"type": "node", "id": 6483818291, "lat": 48.0995562, "lon": 20.6945204}, {"type": "node", "id": 6483818292, "lat": 48.0995437, "lon": 20.6946028}, {"type": "node", "id": 6483818293, "lat": 48.0994455, "lon": 20.6944319}, {"type": "node", "id": 6483818294, "lat": 48.0993672, "lon": 20.6946027}, {"type": "node", "id": 6483818295, "lat": 48.0995349, "lon": 20.6946601}, {"type": "node", "id": 6483818296, "lat": 48.0995636, "lon": 20.6944723}, {"type": "node", "id": 6515877824, "lat": 47.9787909, "lon": 20.4282081, "tags": {"addr:city": "Fels\u0151t\u00e1rk\u00e1ny", "addr:housenumber": "19", "addr:postcode": "3324", "addr:street": "Ady Endre utca", "amenity": "pub", "name": "Vir\u00e1g Pressz\u00f3", "opening_hours": "Mo-Fr 13:00-22:00; Sa-Su 06:00-10:00,13:00-22:00"}}, {"type": "node", "id": 6986872331, "lat": 48.1112242, "lon": 20.6692103}, {"type": "node", "id": 6986872332, "lat": 48.1111749, "lon": 20.6694252}, {"type": "node", "id": 6986872333, "lat": 48.1112336, "lon": 20.6694554}, {"type": "node", "id": 6986872334, "lat": 48.1112548, "lon": 20.6693627}, {"type": "node", "id": 6986872335, "lat": 48.1113055, "lon": 20.6693888}, {"type": "node", "id": 6986872341, "lat": 48.1113011, "lon": 20.6692499, "tags": {"access": "customers", "entrance": "main"}}, {"type": "node", "id": 7787920784, "lat": 47.939621, "lon": 20.4768562, "tags": {"amenity": "pub", "name": "Kurta Kocsma S\u00f6rudvar"}}, {"type": "node", "id": 7881729366, "lat": 47.995579, "lon": 20.8507009}, {"type": "node", "id": 7881729367, "lat": 47.9954884, "lon": 20.8508257}, {"type": "node", "id": 7881729368, "lat": 47.9954045, "lon": 20.8506896}, {"type": "node", "id": 7881729369, "lat": 47.9954951, "lon": 20.8505648}, {"type": "node", "id": 8644226735, "lat": 48.1531141, "lon": 20.4939259, "tags": {"amenity": "pub", "name": "Sanyi Italbolt"}}, {"type": "node", "id": 8979324203, "lat": 47.872834, "lon": 20.4215056, "tags": {"addr:city": "Ostoros", "addr:housenumber": "103", "addr:postcode": "3326", "addr:street": "Egri \u00fat", "amenity": "pub", "name": "Spaten"}}, {"type": "node", "id": 9230720941, "lat": 47.9502613, "lon": 20.6626116, "tags": {"amenity": "pub", "name": "Becsali kocsma"}}, {"type": "node", "id": 9688679125, "lat": 47.8561588, "lon": 20.4785076, "tags": {"amenity": "pub"}}, {"type": "way", "id": 118132875, "nodes": [1329318709, 1329318740, 1329318690, 1329318755, 1329318709], "tags": {"addr:city": "Miskolc", "addr:housenumber": "54", "addr:postcode": "3535", "addr:street": "Kuruc utca", "amenity": "pub", "building": "yes", "name": "Feh\u00e9r Holl\u00f3"}}, {"type": "way", "id": 118133926, "nodes": [1329326990, 1329326945, 1329326934, 1329327001, 1329326990], "tags": {"addr:city": "Miskolc", "addr:housenumber": "25", "addr:postcode": "3534", "addr:street": "Nagy Lajos kir\u00e1ly \u00fatja", "amenity": "pub", "building": "yes", "name": "Kislugas S\u00f6r\u00f6z\u0151", "opening_hours": "Mo-Su 06:00-02:00", "source": "survey", "source:date": "2018-04-08", "toilets:wheelchair": "limited", "wheelchair": "limited"}}, {"type": "way", "id": 118133962, "nodes": [1329326918, 1329326919, 1329326983, 1329326886, 1329326936, 1329326916, 1329326974, 1329327065, 1329326892, 1329326918], "tags": {"addr:city": "Miskolc", "addr:postcode": "3511", "amenity": "pub", "building": "yes", "name": "Zacc Pressz\u00f3", "toilets:wheelchair": "no", "wheelchair": "limited"}}, {"type": "way", "id": 119370707, "nodes": [1341468519, 1341468521, 1341468637, 1341468514, 1341468519], "tags": {"amenity": "pub", "building": "yes"}}, {"type": "way", "id": 220430333, "nodes": [2295524562, 2295524563, 2295524565, 2295524567, 2295524562], "tags": {"amenity": "pub", "building": "yes", "name": "Vilma", "shop": "convenience"}}, {"type": "way", "id": 220431263, "nodes": [2295533352, 2295533353, 2295533354, 2295533355, 2295533352], "tags": {"addr:city": "Miskolc", "addr:housenumber": "94", "addr:postcode": "3534", "addr:street": "Szarkahegy utca", "amenity": "pub", "building": "yes", "internet_access": "wlan", "name": "Csal\u00e1di poharaz\u00f3"}}, {"type": "way", "id": 220469044, "nodes": [2295816765, 2295816767, 2295816769, 2295816771, 2295816765], "tags": {"amenity": "pub", "building": "yes", "name": "Elix\u00edr"}}, {"type": "way", "id": 220469046, "nodes": [2295816773, 2295816775, 2295816776, 2295816778, 2295816773], "tags": {"amenity": "pub", "building": "yes", "name": "Club Eszpressz\u00f3"}}, {"type": "way", "id": 317083343, "nodes": [3233048720, 3233048721, 3233048722, 3233048723, 3233048720], "tags": {"amenity": "pub", "building": "yes"}}, {"type": "way", "id": 318765108, "nodes": [3251345007, 3251345036, 3251345012, 3251344895, 3251342253, 3251345005, 3251345016, 3251344888, 3251344870, 3251345041, 3251345007], "tags": {"addr:city": "Em\u0151d", "addr:postcode": "3432", "addr:street": "Arany J\u00e1nos \u00fat", "amenity": "pub", "building": "residential", "name": "O\u00e1zis vend\u00e9gl\u0151"}}, {"type": "way", "id": 365896329, "nodes": [3699012434, 3699012435, 3699012436, 3699012437, 3699012434], "tags": {"addr:city": "Fels\u0151t\u00e1rk\u00e1ny", "addr:housenumber": "148", "addr:postcode": "3324", "addr:street": "F\u0151 \u00fat", "amenity": "pub", "building": "commercial", "name": "Borsodi S\u00f6r\u00f6z\u0151"}}, {"type": "way", "id": 366877624, "nodes": [3708554858, 3708554859, 3708554860, 3708554861, 3708554862, 3708554863, 3708554864, 3708554865, 3708554858], "tags": {"amenity": "pub", "building": "yes", "outdoor_seating": "yes"}}, {"type": "way", "id": 367247789, "nodes": [3711939487, 3711939488, 3711939489, 3711939490, 3711939491, 3711939492, 3711939487], "tags": {"addr:city": "Fels\u0151t\u00e1rk\u00e1ny", "addr:housenumber": "19", "addr:postcode": "3324", "addr:street": "II. R\u00e1k\u00f3czi Ferenc \u00fat", "amenity": "pub", "building": "residential", "name": "Vadr\u00e1cz Kocsma"}}, {"type": "way", "id": 443405184, "nodes": [4409906646, 4409906649, 4409906650, 4409906648, 4409906646], "tags": {"amenity": "pub", "name": "Cuki s\u00f6r\u00f6z\u0151"}}, {"type": "way", "id": 454168871, "nodes": [4507742639, 4507742637, 4507742638, 4507742640, 4507742643, 4507742641, 4507742642, 4507742644, 4507742639], "tags": {"amenity": "pub", "name": "\u00c9den s\u00f6r\u00f6z\u0151"}}, {"type": "way", "id": 486829195, "nodes": [4793808244, 4793808243, 4793815432, 4793808242, 4793808241, 4793808244], "tags": {"amenity": "pub", "building": "yes", "name": "Liget S\u00f6r\u00f6z\u0151"}}, {"type": "way", "id": 492710176, "nodes": [3445462430, 4846988978, 4846988980, 4846988979, 3445462430], "tags": {"amenity": "pub", "building": "yes", "name": "Kanyar cs\u00e1rda", "toilets:wheelchair": "yes", "url": "http://turistautak.hu/poi.php?id=173078", "wheelchair": "yes"}}, {"type": "way", "id": 495893277, "nodes": [4876153439, 4876153436, 4876153443, 4876153445, 4876153439], "tags": {"amenity": "pub", "name": "Vad\u00e1sz pressz\u00f3", "url": "http://turistautak.hu/poi.php?id=103924"}}, {"type": "way", "id": 503352612, "nodes": [4936791913, 4936791912, 4936791911, 4936791916, 4936791917, 4936791918, 4936791919, 4936791920, 4936791914, 4936791915, 4936791913], "tags": {"amenity": "pub"}}, {"type": "way", "id": 517010011, "nodes": [5046169212, 5046169211, 5046169210, 5046169209, 5046169212], "tags": {"amenity": "pub", "building": "yes", "name": "Hargita pressz\u00f3", "url": "http://turistautak.hu/poi.php?id=50848"}}, {"type": "way", "id": 522306384, "nodes": [4745620090, 5087464394, 5087464395, 5087464396, 5087464397, 5087464390, 5087464391, 5087464401, 5087464398, 5087464400, 4745620090], "tags": {"addr:city": "Miskolc", "addr:housenumber": "12", "addr:postcode": "3530", "addr:street": "Toronyalja utca", "alt_name": "Hangol\u00f3 S\u00f6r\u00f6z\u0151", "alt_name_1": "Hangol\u00f3 S\u00f6rh\u00e1z", "amenity": "pub", "building": "yes", "contact:facebook": "https://hu-hu.facebook.com/hangolosorhaz", "contact:phone": "+36 46 322 406", "display": "digital", "internet_access": "wlan", "name": "Avasi S\u00f6rh\u00e1z", "outdoor_seating": "yes", "smoking": "outside"}}, {"type": "way", "id": 663286822, "nodes": [6208689852, 6208689853, 6208689854, 6208689855, 6208689856, 6208689852], "tags": {"amenity": "pub", "building": "yes"}}, {"type": "way", "id": 680952881, "nodes": [6376426634, 6376426633, 6376426632, 6376426631, 6376426634], "tags": {"amenity": "pub", "name": "Ter\u00e1-Pia s\u00f6r\u00f6z\u0151"}}, {"type": "way", "id": 691022924, "nodes": [6483702351, 6483702352, 6483702353, 6483702354, 6483702355, 6483702356, 6483702351], "tags": {"amenity": "pub", "building": "yes"}}, {"type": "way", "id": 691034464, "nodes": [6483818296, 6483818291, 6483818290, 6483818289, 6483818292, 6483818295, 6483818294, 6483818287, 6483818288, 6483818293, 6483818296], "tags": {"amenity": "pub", "building": "yes", "name": "Gyerty\u00e1nos S\u00f6rf\u0151zde"}}, {"type": "way", "id": 746604124, "nodes": [4933477993, 6986872341, 6986872331, 6986872332, 6986872333, 6986872334, 6986872335, 4933477993], "tags": {"amenity": "pub", "building": "yes", "name": "Kakukkf\u00e9szek", "source": "survey", "survey:date": "2019-11-17", "toilets:wheelchair": "no", "wheelchair": "no"}}, {"type": "way", "id": 844824652, "nodes": [7881729369, 7881729366, 7881729367, 7881729368, 7881729369], "tags": {"amenity": "pub", "building": "yes", "source": "turistautak.hu", "source:date": "2011-07-04", "url": "http://turistautak.hu/poi.php?id=104553"}}]}