{"version": 0.6, "generator": "Overpass API 0.7.59 e21c39fe", "osm3s": {"timestamp_osm_base": "2023-01-17T15:18:24Z", "copyright": "The data included in this document is from www.openstreetmap.org. The data is made available under ODbL."}, "elements": [{"type": "node", "id": 302717230, "lat": 47.8961477, "lon": 16.9070808, "tags": {"amenity": "pub", "name": "Insider Cocktailbar"}}, {"type": "node", "id": 356644512, "lat": 47.8386695, "lon": 16.9238417, "tags": {"addr:country": "AT", "addr:housenumber": "45", "addr:postcode": "7132", "addr:street": "Hauptstra\u00dfe", "amenity": "pub", "name": "Mandela", "wheelchair": "no"}}, {"type": "node", "id": 1257917978, "lat": 47.8633095, "lon": 17.0285519, "tags": {"amenity": "pub", "name": "K\u00e1zm\u00e9r B\u00fcf\u00e9"}}, {"type": "node", "id": 1641198335, "lat": 47.871941, "lon": 16.9756964, "tags": {"amenity": "pub", "name": "Kiss"}}, {"type": "node", "id": 1898961539, "lat": 47.7857644, "lon": 16.9483125}, {"type": "node", "id": 1898961561, "lat": 47.7860996, "lon": 16.9481341}, {"type": "node", "id": 1898961607, "lat": 47.785731, "lon": 16.9481891}, {"type": "node", "id": 1898961621, "lat": 47.7858437, "lon": 16.9481327}, {"type": "node", "id": 1898961649, "lat": 47.7859752, "lon": 16.9480603}, {"type": "node", "id": 1898961913, "lat": 47.7860681, "lon": 16.9480091}, {"type": "node", "id": 2266876469, "lat": 47.841143, "lon": 17.2270636, "tags": {"amenity": "pub", "name": "Hans\u00e1g b\u00fcf\u00e9"}}, {"type": "node", "id": 2266876471, "lat": 47.840826, "lon": 17.2266143, "tags": {"amenity": "pub"}}, {"type": "node", "id": 3448994103, "lat": 47.874746, "lon": 17.2696692, "tags": {"addr:city": "Mosonmagyar\u00f3v\u00e1r", "addr:housenumber": "42", "addr:postcode": "9200", "addr:street": "Magyar utca", "amenity": "pub", "name": "G\u00f6sser \u00c9tterem", "opening_hours": "Mo-Su 09:00-23:00", "website": "https://korzo-gosser.hu/"}}, {"type": "node", "id": 3449064140, "lat": 47.8769103, "lon": 17.2685005, "tags": {"addr:city": "Mosonmagyar\u00f3v\u00e1r", "addr:housenumber": "41", "addr:postcode": "9200", "addr:street": "F\u0151 \u00fat", "amenity": "pub", "name": "B\u00e1stya S\u00f6r\u00f6z\u0151"}}, {"type": "node", "id": 3450997592, "lat": 47.8762478, "lon": 17.2671077, "tags": {"addr:city": "Mosonmagyar\u00f3v\u00e1r", "addr:housenumber": "8", "addr:postcode": "9200", "addr:street": "V\u00e1roskapu t\u00e9r", "amenity": "pub", "name": "Bab-Szem Kocsma"}}, {"type": "node", "id": 3451004744, "lat": 47.8744343, "lon": 17.2697296, "tags": {"amenity": "pub", "name": "S\u00f6r Kert", "toilets:wheelchair": "no", "wheelchair": "no"}}, {"type": "node", "id": 3456418231, "lat": 47.785693, "lon": 17.145134, "tags": {"amenity": "pub", "name": "F\u00e9lp\u00e9nzes kocsma", "source": "turistautak.hu", "source:date": "2015-01-30", "url": "http://turistautak.hu/poi.php?id=106660"}}, {"type": "node", "id": 3456418307, "lat": 47.9978399, "lon": 17.2013688, "tags": {"amenity": "pub", "name": "Musk\u00e1tli b\u00fcf\u00e9"}}, {"type": "node", "id": 3456418415, "lat": 47.777293, "lon": 17.1092725, "tags": {"amenity": "pub", "source": "turistautak.hu", "source:date": "2015-01-30", "url": "http://turistautak.hu/poi.php?id=106657"}}, {"type": "node", "id": 3456418503, "lat": 47.848474, "lon": 17.175013, "tags": {"amenity": "pub", "source": "turistautak.hu", "source:date": "2011-02-20", "url": "http://turistautak.hu/poi.php?id=106663"}}, {"type": "node", "id": 3456418582, "lat": 47.9131288, "lon": 17.1480794, "tags": {"amenity": "pub", "name": "Minib\u00e1r", "source": "turistautak.hu", "source:date": "2011-02-20", "url": "http://turistautak.hu/poi.php?id=106664"}}, {"type": "node", "id": 3456418583, "lat": 47.9134077, "lon": 17.1491553, "tags": {"amenity": "pub", "source": "turistautak.hu", "source:date": "2011-02-20", "url": "http://turistautak.hu/poi.php?id=107829"}}, {"type": "node", "id": 3715471400, "lat": 47.8805188, "lon": 17.2683561, "tags": {"amenity": "pub"}}, {"type": "node", "id": 3715532003, "lat": 47.9922904, "lon": 17.1991758, "tags": {"amenity": "pub"}}, {"type": "node", "id": 3715534038, "lat": 47.9605037, "lon": 17.2175817, "tags": {"amenity": "pub"}}, {"type": "node", "id": 4413477964, "lat": 47.8697097, "lon": 16.9444873, "tags": {"addr:city": "M\u00f6nchhof", "addr:country": "AT", "addr:housenumber": "76", "addr:postcode": "7123", "addr:street": "Neustiftgasse", "amenity": "pub", "name": "Jim's G\u00f6sserst\u00fcberl"}}, {"type": "node", "id": 4933475481, "lat": 47.7806379, "lon": 17.1210422, "tags": {"amenity": "pub", "fixme": "verify", "name": "Schubert Oszk\u00e1rn\u00e9", "source": "route4u"}}, {"type": "node", "id": 4933477066, "lat": 47.8581397, "lon": 17.2660955, "tags": {"amenity": "pub", "fixme": "verify", "name": "Csopak Boroz\u00f3", "source": "route4u", "toilets:wheelchair": "no", "wheelchair": "limited"}}, {"type": "node", "id": 4933477636, "lat": 47.9152109, "lon": 17.1603851, "tags": {"amenity": "pub", "fixme": "verify", "name": "Lugas Boroz\u00f3", "source": "route4u"}}, {"type": "node", "id": 4939176411, "lat": 47.874414, "lon": 17.2697686, "tags": {"amenity": "pub", "fixme": "verify", "name": "Sp\u00e1jz", "source": "route4u", "toilets:wheelchair": "no", "wheelchair": "no"}}, {"type": "node", "id": 4939178063, "lat": 47.9919821, "lon": 17.198801, "tags": {"amenity": "pub", "fixme": "verify", "name": "Fekete B\u00e1r\u00e1ny S\u00f6r\u00f6z\u0151", "source": "route4u", "toilets:wheelchair": "no", "wheelchair": "limited"}}, {"type": "node", "id": 5908784785, "lat": 47.8539444, "lon": 16.8369121, "tags": {"amenity": "pub", "name": "Jupp's Bierst\u00fcberl"}}, {"type": "node", "id": 6205682337, "lat": 47.7891966, "lon": 17.1429783, "tags": {"amenity": "pub", "name": "Sa-Rock", "source": "route4u"}}, {"type": "node", "id": 6700874287, "lat": 47.8502621, "lon": 17.1704721, "tags": {"amenity": "pub", "name": "Vend\u00e9gl\u0151"}}, {"type": "node", "id": 9264565477, "lat": 47.8613835, "lon": 17.2602333, "tags": {"amenity": "pub"}}, {"type": "way", "id": 179522066, "nodes": [1898961607, 1898961621, 1898961649, 1898961913, 1898961561, 1898961539, 1898961607], "tags": {"addr:city": "Sankt Andr\u00e4 am Zicksee", "addr:country": "AT", "addr:full": "Tadtenerstra\u00dfe 18, 7161 St.Andr\u00e4 am Zicksee, Austria", "addr:housenumber": "18", "addr:postcode": "7161", "addr:street": "Tadtener Stra\u00dfe", "amenity": "pub", "building": "yes", "name": "Bar Lang", "source": "geoimage.at"}}]}