{"version": 0.6, "generator": "Overpass API 0.7.59 e21c39fe", "osm3s": {"timestamp_osm_base": "2023-01-17T15:16:20Z", "copyright": "The data included in this document is from www.openstreetmap.org. The data is made available under ODbL."}, "elements": [{"type": "node", "id": 228692465, "lat": 47.7753643, "lon": 19.1196522, "tags": {"amenity": "pub", "name": "Komp b\u00fcf\u00e9"}}, {"type": "node", "id": 290391086, "lat": 47.7853093, "lon": 18.9707456, "tags": {"addr:city": "Visegr\u00e1d", "addr:housenumber": "2", "addr:postcode": "2025", "addr:street": "Nagy Lajos utca", "amenity": "pub", "name": "Pr\u00e9sh\u00e1z"}}, {"type": "node", "id": 290391087, "lat": 47.785558, "lon": 18.9706659, "tags": {"addr:city": "Visegr\u00e1d", "addr:housenumber": "2", "addr:postcode": "2025", "addr:street": "Nagy Lajos utca", "amenity": "pub", "name": "Gambrinus"}}, {"type": "node", "id": 290391088, "lat": 47.7859812, "lon": 18.9699391, "tags": {"amenity": "pub", "cuisine": "regional", "internet_access": "wlan", "name": "Piknik Kolb\u00e1sz", "opening_hours": "11:00-19:00", "outdoor_seating": "yes", "wheelchair": "no"}}, {"type": "node", "id": 469091182, "lat": 47.8297799, "lon": 18.7323422, "tags": {"amenity": "pub", "name": "Hronsk\u00e1 perla", "name:hu": "Garam Gy\u00f6ngye"}}, {"type": "node", "id": 469091190, "lat": 47.831627, "lon": 18.7236016, "tags": {"amenity": "pub"}}, {"type": "node", "id": 512532247, "lat": 47.9944453, "lon": 18.8609781, "tags": {"amenity": "pub"}}, {"type": "node", "id": 685468331, "lat": 47.7899718, "lon": 18.9614278, "tags": {"amenity": "pub", "name": "\u00c1szok sarok"}}, {"type": "node", "id": 691334402, "lat": 48.1584934, "lon": 18.9713819}, {"type": "node", "id": 691334406, "lat": 48.1585398, "lon": 18.9713426}, {"type": "node", "id": 691335799, "lat": 48.1585837, "lon": 18.9714496}, {"type": "node", "id": 691335819, "lat": 48.1586895, "lon": 18.9717097}, {"type": "node", "id": 691335824, "lat": 48.1586409, "lon": 18.9717523}, {"type": "node", "id": 721437329, "lat": 47.7994942, "lon": 18.6795145}, {"type": "node", "id": 721440932, "lat": 47.7995405, "lon": 18.6794725}, {"type": "node", "id": 729841511, "lat": 48.1000441, "lon": 18.5377397}, {"type": "node", "id": 729842360, "lat": 48.0999437, "lon": 18.5379031}, {"type": "node", "id": 729842645, "lat": 48.0999675, "lon": 18.5378631}, {"type": "node", "id": 729843445, "lat": 48.1001158, "lon": 18.5378336}, {"type": "node", "id": 729853609, "lat": 48.1000133, "lon": 18.5379986}, {"type": "node", "id": 736038383, "lat": 47.7962812, "lon": 19.0331891, "tags": {"amenity": "pub"}}, {"type": "node", "id": 736038520, "lat": 47.8035616, "lon": 19.0086561, "tags": {"addr:city": "Dunabogd\u00e1ny", "addr:housenumber": "195", "addr:postcode": "2023", "addr:street": "Kossuth Lajos \u00fat", "amenity": "pub", "name": "Gond\u0171z\u0151", "smoking": "outside"}}, {"type": "node", "id": 873205433, "lat": 48.1201438, "lon": 19.1130658}, {"type": "node", "id": 873205434, "lat": 48.1201367, "lon": 19.1130818}, {"type": "node", "id": 873205435, "lat": 48.1200921, "lon": 19.1130476}, {"type": "node", "id": 873205436, "lat": 48.1200852, "lon": 19.1130673}, {"type": "node", "id": 873205437, "lat": 48.1200395, "lon": 19.1130328}, {"type": "node", "id": 873205438, "lat": 48.1199626, "lon": 19.1132531}, {"type": "node", "id": 873205439, "lat": 48.119938, "lon": 19.1132344}, {"type": "node", "id": 873205440, "lat": 48.1200268, "lon": 19.1129808}, {"type": "node", "id": 1333575891, "lat": 48.1557695, "lon": 18.8711253}, {"type": "node", "id": 1333576321, "lat": 48.1558042, "lon": 18.8712514}, {"type": "node", "id": 1333576736, "lat": 48.1554715, "lon": 18.8713098}, {"type": "node", "id": 1333576928, "lat": 48.1555081, "lon": 18.8714424}, {"type": "node", "id": 1572490788, "lat": 47.7946046, "lon": 18.7117759, "tags": {"amenity": "pub", "name": "Pohostinstvo", "operator": "Zlaty Ba\u017eant"}}, {"type": "node", "id": 1770657026, "lat": 47.8149422, "lon": 18.7921282, "tags": {"addr:city": "Esztergom", "addr:housenumber": "254", "addr:postcode": "2500", "addr:street": "Visegr\u00e1di \u00fat", "amenity": "pub", "name": "Adri B\u00fcf\u00e9"}}, {"type": "node", "id": 1990717027, "lat": 48.1481911, "lon": 18.7770636, "tags": {"amenity": "pub", "name": "Presso Sisi"}}, {"type": "node", "id": 1990729405, "lat": 48.1270069, "lon": 18.7817956, "tags": {"amenity": "pub"}}, {"type": "node", "id": 2026664818, "lat": 48.1099558, "lon": 18.5308512}, {"type": "node", "id": 2026664824, "lat": 48.1099779, "lon": 18.5309653}, {"type": "node", "id": 2026664843, "lat": 48.1100727, "lon": 18.5309249}, {"type": "node", "id": 2026664844, "lat": 48.1100742, "lon": 18.5309332}, {"type": "node", "id": 2026664851, "lat": 48.1101046, "lon": 18.5307879}, {"type": "node", "id": 2026664853, "lat": 48.1101122, "lon": 18.530824}, {"type": "node", "id": 2026664857, "lat": 48.1101365, "lon": 18.5308134}, {"type": "node", "id": 2026664859, "lat": 48.1101525, "lon": 18.5308995}, {"type": "node", "id": 2094648090, "lat": 48.159955, "lon": 18.9781688, "tags": {"amenity": "pub", "name": "Pohostinstvo Kissov\u00e1"}}, {"type": "node", "id": 2127427821, "lat": 48.0690312, "lon": 18.9486203, "tags": {"amenity": "pub"}}, {"type": "node", "id": 2127427843, "lat": 48.0767364, "lon": 18.9505468, "tags": {"amenity": "pub"}}, {"type": "node", "id": 2245050340, "lat": 47.7557814, "lon": 18.5615163, "tags": {"amenity": "pub", "name": "Espi s\u00f6r\u00f6z\u0151", "opening_hours": "Mo-Su 06:00-22:00", "toilets:wheelchair": "no", "wheelchair": "limited"}}, {"type": "node", "id": 2251347023, "lat": 47.7595914, "lon": 18.5602297, "tags": {"addr:city": "Nyerges\u00fajfalu", "addr:housenumber": "1", "addr:postcode": "2536", "addr:street": "Di\u00f3fa utca", "amenity": "pub", "name": "Stop Pressz\u00f3", "source": "survey", "survey:date": "2020-02-22", "toilets:wheelchair": "no", "wheelchair": "no"}}, {"type": "node", "id": 2251347029, "lat": 47.7613563, "lon": 18.5416831, "tags": {"addr:city": "Nyerges\u00fajfalu", "addr:housenumber": "7", "addr:postcode": "2536", "addr:street": "Kossuth Lajos utca", "amenity": "pub", "name": "Vaddiszn\u00f3 S\u00f6r\u00f6z\u0151", "toilets:wheelchair": "no", "wheelchair": "limited"}}, {"type": "node", "id": 2293101305, "lat": 47.8437916, "lon": 19.0986362, "tags": {"amenity": "pub", "name": "Italbolt", "toilets:wheelchair": "yes", "wheelchair": "limited"}}, {"type": "node", "id": 2298201238, "lat": 48.1357653, "lon": 18.5140406, "tags": {"amenity": "pub"}}, {"type": "node", "id": 2324552715, "lat": 48.0768327, "lon": 19.1302893, "tags": {"amenity": "pub", "name": "Hostinec Ria"}}, {"type": "node", "id": 2334885684, "lat": 47.8845416, "lon": 18.7553224}, {"type": "node", "id": 2334885689, "lat": 47.8845513, "lon": 18.7555653}, {"type": "node", "id": 2334885725, "lat": 47.8846721, "lon": 18.7554628}, {"type": "node", "id": 2334885729, "lat": 47.8846758, "lon": 18.7555537}, {"type": "node", "id": 2334885737, "lat": 47.8847011, "lon": 18.755309}, {"type": "node", "id": 2334885741, "lat": 47.8847069, "lon": 18.7554601}, {"type": "node", "id": 2425844867, "lat": 47.8882108, "lon": 19.0727269, "tags": {"amenity": "pub", "name": "Sport b\u00fcf\u00e9"}}, {"type": "node", "id": 2516436959, "lat": 48.095511, "lon": 18.5446723, "tags": {"amenity": "pub", "name": "Kr\u010dma u Sedliaka"}}, {"type": "node", "id": 2578275420, "lat": 47.9793155, "lon": 18.5421199}, {"type": "node", "id": 2578275446, "lat": 47.9793844, "lon": 18.5422866}, {"type": "node", "id": 2578275490, "lat": 47.9795535, "lon": 18.5421213}, {"type": "node", "id": 2756363943, "lat": 48.0769665, "lon": 19.0807635, "tags": {"amenity": "pub"}}, {"type": "node", "id": 2881483049, "lat": 47.8012208, "lon": 18.909141, "tags": {"addr:city": "Zebeg\u00e9ny", "addr:housenumber": "1", "addr:postcode": "2627", "addr:street": "Pozsonyi utca", "amenity": "pub", "name": "Kulacs", "opening_hours": "Mo-Su 12:00-24:00", "outdoor_seating": "yes", "smoking": "outside"}}, {"type": "node", "id": 2881494464, "lat": 47.7805464, "lon": 19.122719}, {"type": "node", "id": 2881494465, "lat": 47.7805893, "lon": 19.1228383}, {"type": "node", "id": 2881494466, "lat": 47.780647, "lon": 19.1226409}, {"type": "node", "id": 2881494467, "lat": 47.7806907, "lon": 19.1227613}, {"type": "node", "id": 2910397538, "lat": 47.8014863, "lon": 18.9115158, "tags": {"amenity": "pub", "name": "M\u00f3kus S\u00f6r\u00f6z\u0151", "toilets:wheelchair": "yes", "wheelchair": "limited"}}, {"type": "node", "id": 2910403569, "lat": 47.8645503, "lon": 18.8703798, "tags": {"addr:city": "M\u00e1rianosztra", "addr:housenumber": "34", "addr:postcode": "2629", "addr:street": "Kossuth Lajos utca", "amenity": "pub", "name": "Bisztr\u00f3", "toilets:wheelchair": "no", "wheelchair": "no"}}, {"type": "node", "id": 2910403570, "lat": 47.8642848, "lon": 18.8709525, "tags": {"amenity": "pub", "checkpoint": "hiking", "checkpoint:type": "stamp", "course": "Holl\u00f3k\u0151t\u0151l V\u00f6r\u00f6sk\u0151ig", "indoor_seating": "yes", "internet_access": "wlan", "name": "Hangulat Pressz\u00f3", "opening_hours": "Mo-Su 07:00-21:00", "outdoor_seating": "yes", "payment:cash": "yes", "payment:coins": "yes", "payment:contactless": "yes", "payment:credit_cards": "yes", "payment:debit_cards": "yes", "payment:mastercard": "yes", "payment:visa": "yes"}}, {"type": "node", "id": 2979979667, "lat": 47.8286255, "lon": 18.8244296}, {"type": "node", "id": 2979979671, "lat": 47.8286421, "lon": 18.824492}, {"type": "node", "id": 2979979728, "lat": 47.828758, "lon": 18.8243525}, {"type": "node", "id": 2979979853, "lat": 47.8287746, "lon": 18.8244166}, {"type": "node", "id": 2979980849, "lat": 47.8294866, "lon": 18.8272269}, {"type": "node", "id": 2979980880, "lat": 47.8295167, "lon": 18.8273622}, {"type": "node", "id": 2979980922, "lat": 47.8295573, "lon": 18.8271928}, {"type": "node", "id": 2979981041, "lat": 47.8295935, "lon": 18.8273243}, {"type": "node", "id": 2985167887, "lat": 47.8861838, "lon": 18.7763289, "tags": {"addr:city": "Letk\u00e9s", "addr:housenumber": "20", "addr:postcode": "2632", "addr:street": "D\u00f3zsa utca", "amenity": "pub", "name": "Stop S\u00f6r\u00f6z\u0151"}}, {"type": "node", "id": 2986581279, "lat": 47.8670308, "lon": 19.0091128, "tags": {"amenity": "pub", "name": "Soproni s\u00f6r\u00f6z\u0151"}}, {"type": "node", "id": 2995033653, "lat": 47.7997733, "lon": 18.6793694, "tags": {"amenity": "pub", "internet_access": "wlan", "internet_access:fee": "no", "name": "Pohostinstvo Rida", "opening_hours": "Mo-Th 05:30-20:00; Fr 05:30-22:00; Sa-Su 06:00-22:00"}}, {"type": "node", "id": 3007187039, "lat": 47.9350769, "lon": 18.8237374, "tags": {"addr:city": "Nagyb\u00f6rzs\u00f6ny", "addr:housenumber": "18", "addr:postcode": "2634", "addr:street": "Pet\u0151fi utca", "amenity": "pub", "name": "Retro pub"}}, {"type": "node", "id": 3147658642, "lat": 47.7792473, "lon": 19.1337237, "tags": {"amenity": "pub", "name": "Gond\u0171z\u0151"}}, {"type": "node", "id": 3168554839, "lat": 47.7832764, "lon": 19.1270141, "tags": {"alt_name": "Zr\u00ednyi italbolt", "amenity": "pub", "name": "B\u00f6zsi N\u00e9ni Kocsm\u00e1ja", "toilets:wheelchair": "limited", "wheelchair": "limited"}}, {"type": "node", "id": 3260504389, "lat": 48.0511346, "lon": 18.9915827, "tags": {"amenity": "pub"}}, {"type": "node", "id": 3437652511, "lat": 47.7620735, "lon": 18.9143094, "tags": {"addr:city": "D\u00f6m\u00f6s", "addr:housenumber": "8", "addr:postcode": "2027", "addr:street": "Duna utca", "amenity": "pub", "mapillary": "247364600474427", "name": "Patak s\u00f6r\u00f6z\u0151"}}, {"type": "node", "id": 3439051111, "lat": 47.7858824, "lon": 18.953592, "tags": {"amenity": "pub", "name": "Boroz\u00f3", "source": "turistautak.hu", "source:date": "2014-10-16", "url": "http://turistautak.hu/poi.php?id=88597"}}, {"type": "node", "id": 3439051124, "lat": 48.0165975, "lon": 18.8928279, "tags": {"amenity": "pub", "name": "Csarnav\u00f6lgyi s\u00f6r\u00f6z\u0151", "source": "survey", "survey:date": "2019-05-01", "url": "http://turistautak.hu/poi.php?id=98852"}}, {"type": "node", "id": 3439051163, "lat": 48.040589, "lon": 18.91193, "tags": {"amenity": "pub", "name": "Galambp\u00e1r kocsma", "source": "turistautak.hu", "source:date": "2011-06-28", "url": "http://turistautak.hu/poi.php?id=80054"}}, {"type": "node", "id": 3439051235, "lat": 47.840231, "lon": 18.829549, "tags": {"addr:city": "Ipolydam\u00e1sd", "addr:housenumber": "22", "addr:postcode": "2631", "addr:street": "F\u0151 utca", "amenity": "pub", "name": "Maszek kocsm\u00e1ja, Pir\u00e9zek tany\u00e1ja 2009"}}, {"type": "node", "id": 3439051271, "lat": 47.824509, "lon": 18.8564937, "tags": {"addr:city": "Szob", "addr:housenumber": "23", "addr:postcode": "2628", "addr:street": "Ipolys\u00e1gi utca", "amenity": "pub", "name": "K\u0151poros s\u00f6r\u00f6z\u0151", "source": "turistautak.hu", "source:date": "2011-06-28", "url": "http://turistautak.hu/poi.php?id=43901"}}, {"type": "node", "id": 3439051289, "lat": 48.031811, "lon": 18.842628, "tags": {"amenity": "pub", "name": "Marcsi Mama Kiskocsm\u00e1ja (\u00e9s bolt)", "source": "turistautak.hu", "source:date": "2013-11-01", "url": "http://turistautak.hu/poi.php?id=7553"}}, {"type": "node", "id": 3439051357, "lat": 48.0410042, "lon": 18.9122294, "tags": {"amenity": "pub", "description": "A b\u00f6rzs\u00f6nyi k\u00e9kt\u00fara b\u00e9lyegz\u0151helye.", "name": "Ventura s\u00f6r\u00f6z\u0151", "source": "turistautak.hu", "source:date": "2010-01-27", "toilets:wheelchair": "no", "url": "http://turistautak.hu/poi.php?id=80148", "wheelchair": "no"}}, {"type": "node", "id": 3439051472, "lat": 47.8213083, "lon": 18.8618947, "tags": {"addr:city": "Szob", "addr:housenumber": "17", "addr:postcode": "2628", "addr:street": "Ipolys\u00e1gi utca", "amenity": "pub", "name": "Fill\u00e9res Resti Szob", "payment:cash": "yes", "payment:maestro": "yes", "payment:mastercard": "yes", "payment:visa": "yes", "source": "turistautak.hu", "source:date": "2011-06-28", "url": "http://turistautak.hu/poi.php?id=80061"}}, {"type": "node", "id": 3439051539, "lat": 47.7995495, "lon": 18.9605591, "tags": {"addr:city": "Nagymaros", "addr:housenumber": "124", "addr:postcode": "2626", "addr:street": "R\u00e1k\u00f3czi Ferenc utca", "amenity": "pub", "name": "Faluv\u00e9gi Kurta Kocsma", "opening_hours": "Mo-Su 06:00-21:45", "source": "turistautak.hu", "source:date": "2011-06-28", "url": "http://turistautak.hu/poi.php?id=88324"}}, {"type": "node", "id": 3439052007, "lat": 47.923255, "lon": 18.775893, "tags": {"amenity": "pub", "source": "turistautak.hu", "source:date": "2013-06-22", "url": "http://turistautak.hu/poi.php?id=102866"}}, {"type": "node", "id": 3441705154, "lat": 47.8071298, "lon": 19.0092907, "tags": {"addr:city": "Kisoroszi", "addr:housenumber": "137", "addr:postcode": "2024", "addr:street": "Sz\u00e9chenyi \u00fat", "amenity": "pub", "name": "S\u00f6rh\u00e1z", "source": "survey", "survey:date": "2022-07-09", "url": "http://turistautak.hu/poi.php?id=74493"}}, {"type": "node", "id": 3454422305, "lat": 47.758467, "lon": 18.5664012, "tags": {"addr:city": "Nyerges\u00fajfalu", "addr:housenumber": "262", "addr:postcode": "2536", "addr:street": "Kossuth Lajos utca", "amenity": "pub", "name": "A Mi Kocsm\u00e1nk", "source": "turistautak.hu", "source:date": "2011-05-08", "toilets:wheelchair": "no", "url": "http://turistautak.hu/poi.php?id=2641", "wheelchair": "limited"}}, {"type": "node", "id": 3454422997, "lat": 47.766991, "lon": 18.9031307, "tags": {"addr:city": "D\u00f6m\u00f6s", "addr:housenumber": "2", "addr:postcode": "2027", "addr:street": "V\u00f6r\u00f6shegyi utca", "amenity": "pub", "name": "Joe s\u00f6r\u00f6z\u0151", "source": "turistautak.hu", "source:date": "2013-12-06", "url": "http://turistautak.hu/poi.php?id=163671"}}, {"type": "node", "id": 3454423032, "lat": 47.7602907, "lon": 18.5579877, "tags": {"addr:city": "Nyerges\u00fajfalu", "addr:housenumber": "135", "addr:postcode": "2536", "addr:street": "Kossuth Lajos utca", "amenity": "pub", "contact:email": "madison@xport.hu", "name": "Madison S\u00f6r\u00f6z\u0151", "source": "turistautak.hu", "source:date": "2011-09-19", "toilets:wheelchair": "no", "url": "http://turistautak.hu/poi.php?id=2594", "wheelchair": "limited"}}, {"type": "node", "id": 3454423084, "lat": 47.7796736, "lon": 18.7443376, "tags": {"addr:city": "Esztergom", "addr:housenumber": "4", "addr:postcode": "2500", "addr:street": "\u00c1chim Andr\u00e1s utca", "amenity": "pub", "name": "R\u00f3zsasz\u00edn P\u00e1rduc kisvend\u00e9gl\u0151", "opening_hours": "Mo-Su 06:00-22:00", "source": "turistautak.hu", "source:date": "2012-11-12", "url": "http://turistautak.hu/poi.php?id=102939"}}, {"type": "node", "id": 3456374810, "lat": 47.785816, "lon": 19.117407, "tags": {"amenity": "pub", "name": "Cs\u00f3nakh\u00e1z b\u00fcf\u00e9", "source": "turistautak.hu", "source:date": "2011-07-10", "toilets:wheelchair": "no", "url": "http://turistautak.hu/poi.php?id=88628", "wheelchair": "no"}}, {"type": "node", "id": 3456374821, "lat": 47.812839, "lon": 19.12853, "tags": {"amenity": "pub", "name": "D\u00f3ri kocsma", "source": "turistautak.hu", "source:date": "2014-10-15", "url": "http://turistautak.hu/poi.php?id=31890"}}, {"type": "node", "id": 3456374825, "lat": 47.772047, "lon": 19.133805, "tags": {"amenity": "pub", "name": "Els\u0151 V\u00e1ci Borh\u00e1z", "source": "turistautak.hu", "source:date": "2011-07-10", "url": "http://turistautak.hu/poi.php?id=45328"}}, {"type": "node", "id": 3456374833, "lat": 47.79855, "lon": 19.129983, "tags": {"addr:city": "V\u00e1c", "addr:housenumber": "90-94", "addr:postcode": "2600", "addr:street": "Gomb\u00e1si \u00fat", "amenity": "pub", "name": "Fortuna s\u00f6r\u00f6z\u0151", "source": "turistautak.hu", "source:date": "2011-07-10", "url": "http://turistautak.hu/poi.php?id=31895"}}, {"type": "node", "id": 3456375501, "lat": 47.768633, "lon": 19.137833, "tags": {"amenity": "pub", "name": "Stadion s\u00f6r\u00f6z\u0151", "source": "turistautak.hu", "source:date": "2014-10-15", "url": "http://turistautak.hu/poi.php?id=38573"}}, {"type": "node", "id": 3456375568, "lat": 47.7706185, "lon": 19.1377866, "tags": {"amenity": "pub", "name": "Z\u00f6ld Hord\u00f3", "source": "turistautak.hu", "source:date": "2011-07-10", "url": "http://turistautak.hu/poi.php?id=45326"}}, {"type": "node", "id": 3456376857, "lat": 47.778667, "lon": 19.13185, "tags": {"addr:city": "V\u00e1c", "addr:postcode": "2600", "addr:street": "Posta park-G\u00f6rgey utca", "amenity": "pub", "name": "55. boroz\u00f3", "source": "turistautak.hu", "source:date": "2011-07-10", "url": "http://turistautak.hu/poi.php?id=60238"}}, {"type": "node", "id": 3456392117, "lat": 48.003916, "lon": 19.0894495, "tags": {"amenity": "pub", "description": "Nyitvatart\u00e1s: Minden nap 5:00-24:00", "name": "Lipi kerts\u00f6r\u00f6z\u0151", "opening_hours": "Mo-Su 05:00-24:00", "source": "turistautak.hu", "source:date": "2013-06-22", "toilets:wheelchair": "yes", "url": "http://turistautak.hu/poi.php?id=15600", "wheelchair": "yes"}}, {"type": "node", "id": 3456392169, "lat": 47.9761172, "lon": 19.1186314, "tags": {"amenity": "pub", "name": "Runner", "source": "turistautak.hu", "source:date": "2013-06-22", "url": "http://turistautak.hu/poi.php?id=98873"}}, {"type": "node", "id": 3456392584, "lat": 47.994616, "lon": 19.100743, "tags": {"amenity": "pub", "source": "turistautak.hu", "source:date": "2011-06-28", "url": "http://turistautak.hu/poi.php?id=102857"}}, {"type": "node", "id": 3459928964, "lat": 48.0457, "lon": 19.053383, "tags": {"amenity": "pub", "description": "Nyitva 7-22-ig", "name": "Italbolt", "source": "turistautak.hu", "source:date": "2011-06-28", "url": "http://turistautak.hu/poi.php?id=41119"}}, {"type": "node", "id": 3608289061, "lat": 47.7778746, "lon": 18.6459174, "tags": {"amenity": "pub"}}, {"type": "node", "id": 3700611335, "lat": 47.8156985, "lon": 18.8617397}, {"type": "node", "id": 3700611336, "lat": 47.8157227, "lon": 18.8615973}, {"type": "node", "id": 3700611338, "lat": 47.8158256, "lon": 18.8617876}, {"type": "node", "id": 3700611339, "lat": 47.8158309, "lon": 18.8617562}, {"type": "node", "id": 3700611340, "lat": 47.8158441, "lon": 18.861678}, {"type": "node", "id": 3700611341, "lat": 47.8158497, "lon": 18.8616451}, {"type": "node", "id": 3700611343, "lat": 47.8158689, "lon": 18.8617705}, {"type": "node", "id": 3700611344, "lat": 47.8158822, "lon": 18.8616923}, {"type": "node", "id": 3729701427, "lat": 48.062641, "lon": 19.0581918, "tags": {"amenity": "pub", "name": "Pod lipou"}}, {"type": "node", "id": 3931809874, "lat": 48.0887669, "lon": 18.9007986, "tags": {"amenity": "pub", "name": "Corgo\u0148"}}, {"type": "node", "id": 4009142571, "lat": 47.8826991, "lon": 19.1376385, "tags": {"amenity": "pub", "name": "Park Pressz\u00f3", "smoking": "outside"}}, {"type": "node", "id": 4009161142, "lat": 47.8821048, "lon": 19.1421528, "tags": {"amenity": "pub", "name": "Sport Pressz\u00f3", "smoking": "outside"}}, {"type": "node", "id": 4229914547, "lat": 47.9794836, "lon": 18.5419572}, {"type": "node", "id": 4421916991, "lat": 47.7888779, "lon": 18.9586485, "tags": {"addr:street": "F\u0151 t\u00e9r", "amenity": "pub", "name": "Bethlen S\u00f6r\u00f6z\u0151", "wheelchair": "no"}}, {"type": "node", "id": 4453318297, "lat": 47.8000968, "lon": 18.721378, "tags": {"amenity": "pub", "name": "Sherwood"}}, {"type": "node", "id": 4453318299, "lat": 47.7971914, "lon": 18.7258203, "tags": {"amenity": "pub", "name": "V2 Rock Pub"}}, {"type": "node", "id": 4454993616, "lat": 47.7919002, "lon": 18.7147863, "tags": {"amenity": "pub"}}, {"type": "node", "id": 4541331495, "lat": 47.7958018, "lon": 18.9594013, "tags": {"addr:city": "Nagymaros", "addr:postcode": "2626", "addr:street": "D\u00e9zsma utca", "amenity": "pub", "name": "\u00c1d\u00e1m pince", "smoking": "outside", "url": "http://www.nagymaros.hu/files/%C3%BCzlet%20nyilv%C3%A1ntart%C3%A1s.pdf"}}, {"type": "node", "id": 4541331504, "lat": 47.7880306, "lon": 18.9590975, "tags": {"addr:city": "Nagymaros", "addr:postcode": "2626", "addr:street": "V\u00e1ci \u00fat", "amenity": "pub", "name": "M\u00e1roki kocsma"}}, {"type": "node", "id": 4541351372, "lat": 47.7885704, "lon": 18.956184, "tags": {"addr:city": "Nagymaros", "addr:housenumber": "2", "addr:postcode": "2626", "addr:street": "Istv\u00e1n t\u00e9r", "amenity": "pub", "name": "Di\u00f3fa Kocsma"}}, {"type": "node", "id": 4548289024, "lat": 47.7911377, "lon": 19.0391547, "tags": {"addr:city": "Dunabogd\u00e1ny", "addr:housenumber": "2", "addr:postcode": "2023", "addr:street": "Kossuth Lajos \u00fat", "amenity": "pub", "name": "\u00c1rp\u00e1d kert"}}, {"type": "node", "id": 4586221534, "lat": 47.7637199, "lon": 18.913395}, {"type": "node", "id": 4586221535, "lat": 47.7637167, "lon": 18.9135244}, {"type": "node", "id": 4586221536, "lat": 47.7635004, "lon": 18.9135117}, {"type": "node", "id": 4586221537, "lat": 47.7634968, "lon": 18.9136418}, {"type": "node", "id": 4586221538, "lat": 47.7637086, "lon": 18.9136518}, {"type": "node", "id": 4586221539, "lat": 47.7636965, "lon": 18.9137839}, {"type": "node", "id": 4586221540, "lat": 47.7637735, "lon": 18.9138}, {"type": "node", "id": 4586221541, "lat": 47.7637871, "lon": 18.9136532}, {"type": "node", "id": 4586221542, "lat": 47.763792, "lon": 18.9134031}, {"type": "node", "id": 4716613721, "lat": 47.7837644, "lon": 18.8769581}, {"type": "node", "id": 4716734666, "lat": 47.7885297, "lon": 18.8682953}, {"type": "node", "id": 4716734667, "lat": 47.7884479, "lon": 18.8684096}, {"type": "node", "id": 4716734668, "lat": 47.7884089, "lon": 18.8683477}, {"type": "node", "id": 4716734669, "lat": 47.7884907, "lon": 18.8682334}, {"type": "node", "id": 4716734672, "lat": 47.7884494, "lon": 18.8682912}, {"type": "node", "id": 4716734675, "lat": 47.7838046, "lon": 18.8768323}, {"type": "node", "id": 4716734676, "lat": 47.7838466, "lon": 18.8769125}, {"type": "node", "id": 4716734677, "lat": 47.7838195, "lon": 18.8769972}, {"type": "node", "id": 4777579656, "lat": 47.7804125, "lon": 18.8787384, "tags": {"addr:city": "Pilismar\u00f3t", "addr:housenumber": "14", "addr:postcode": "2028", "addr:street": "T\u00e1ncsics Mih\u00e1ly utca", "amenity": "pub", "name": "Fah\u00e1z S\u00f6r\u00f6z\u0151", "opening_hours": "7:00-21:00"}}, {"type": "node", "id": 4913342996, "lat": 47.7853681, "lon": 18.7396246}, {"type": "node", "id": 4913343000, "lat": 47.7853774, "lon": 18.739595}, {"type": "node", "id": 4913343001, "lat": 47.7853462, "lon": 18.7396942}, {"type": "node", "id": 4913343003, "lat": 47.785474, "lon": 18.7396679}, {"type": "node", "id": 4913343004, "lat": 47.7854366, "lon": 18.7397571}, {"type": "node", "id": 4933474403, "lat": 47.7692065, "lon": 19.1467175, "tags": {"amenity": "pub", "fixme": "verify", "source": "route4u", "toilets:wheelchair": "limited", "wheelchair": "yes"}}, {"type": "node", "id": 4933475488, "lat": 47.7831698, "lon": 18.7418591, "tags": {"addr:city": "Esztergom", "addr:housenumber": "13", "addr:postcode": "2500", "addr:street": "Ady Endre utca", "amenity": "pub", "name": "S\u00f6rkert", "toilets:wheelchair": "no", "wheelchair": "no"}}, {"type": "node", "id": 4933475491, "lat": 47.7861475, "lon": 18.7447088, "tags": {"addr:city": "Esztergom", "addr:housenumber": "49", "addr:postcode": "2500", "addr:street": "Honv\u00e9d utca", "amenity": "pub", "name": "K\u00e9k Szilva S\u00f6r\u00f6z\u0151", "toilets:wheelchair": "no", "wheelchair": "no"}}, {"type": "node", "id": 4933475494, "lat": 47.7880313, "lon": 19.1361187, "tags": {"amenity": "pub", "fixme": "verify", "name": "Kaiser S\u00f6r\u00f6z\u0151", "source": "route4u", "toilets:wheelchair": "yes", "wheelchair": "yes"}}, {"type": "node", "id": 4933476929, "lat": 47.802593, "lon": 18.7372015, "tags": {"addr:city": "Esztergom", "addr:housenumber": "1", "addr:postcode": "2500", "addr:street": "Szent Gy\u00f6rgy utca", "amenity": "pub", "name": "Z\u00e1molyi K\u00e9zm\u0171ves S\u00f6r\u00f6k Csaph\u00e1za", "opening_hours": "Mo-Su 07:00-21:00; PH closed", "toilets:wheelchair": "no", "wheelchair": "yes"}}, {"type": "node", "id": 4933476938, "lat": 47.8040883, "lon": 18.7476108, "tags": {"addr:city": "Esztergom", "addr:postcode": "2500", "addr:street": "Kop\u00e1csy J\u00f3zsef utca", "amenity": "pub", "name": "Patk\u00f3 Kocsma"}}, {"type": "node", "id": 4933477038, "lat": 47.8009305, "lon": 19.1052929, "tags": {"amenity": "pub", "fixme": "verify", "name": "Lapos S\u00f6r\u00f6z\u0151", "source": "route4u", "toilets:wheelchair": "limited", "wheelchair": "yes"}}, {"type": "node", "id": 4933477885, "lat": 48.062556, "lon": 19.1057855, "tags": {"amenity": "pub", "fixme": "verify", "name": "S\u00f6r\u00f6z\u0151", "source": "route4u", "toilets:wheelchair": "no", "wheelchair": "no"}}, {"type": "node", "id": 4939175697, "lat": 47.795761, "lon": 18.7409638, "tags": {"addr:city": "Esztergom", "addr:housenumber": "31", "addr:postcode": "2500", "addr:street": "Bajcsy-Zsilinszky \u00fat", "amenity": "pub", "name": "Zaki-Zug S\u00f6r\u00f6z\u0151", "toilets:wheelchair": "no", "wheelchair": "no"}}, {"type": "node", "id": 4939175854, "lat": 47.7955876, "lon": 18.7415174, "tags": {"addr:city": "Esztergom", "addr:housenumber": "27", "addr:postcode": "2500", "addr:street": "Bajcsy-Zsilinszky \u00fat", "amenity": "pub", "name": "Matr\u00f3z Pub", "toilets:wheelchair": "no", "wheelchair": "no"}}, {"type": "node", "id": 4939178106, "lat": 47.7772595, "lon": 19.1289849, "tags": {"amenity": "pub", "fixme": "verify", "name": "Fincsi S\u00f6r\u00f6z\u0151", "source": "route4u", "wheelchair": "limited"}}, {"type": "node", "id": 4939178950, "lat": 47.793752, "lon": 18.742727, "tags": {"addr:city": "Esztergom", "addr:housenumber": "3", "addr:postcode": "2500", "addr:street": "V\u00f6r\u00f6smarty utca", "amenity": "pub", "name": "Mal\u00e1ta B\u00e1r", "toilets:wheelchair": "no", "wheelchair": "limited"}}, {"type": "node", "id": 4939178954, "lat": 47.7862983, "lon": 19.1192326, "tags": {"amenity": "pub", "fixme": "verify", "name": "Sutka Testv\u00e9rek Kocsm\u00e1ja", "source": "route4u", "toilets:wheelchair": "no", "wheelchair": "no"}}, {"type": "node", "id": 4939179317, "lat": 47.8182772, "lon": 18.8648278, "tags": {"amenity": "pub", "internet_access": "wlan", "name": "105 S\u00f6r\u00f6z\u0151", "outdoor_seating": "yes", "smoking": "outside", "source": "survey", "wheelchair": "no"}}, {"type": "node", "id": 4939179867, "lat": 47.7868189, "lon": 19.1200018, "tags": {"amenity": "pub", "fixme": "verify", "name": "Sutka Testv\u00e9rek Kocsm\u00e1ja", "source": "route4u", "toilets:wheelchair": "no", "wheelchair": "limited"}}, {"type": "node", "id": 4939180249, "lat": 47.8277201, "lon": 19.0136862, "tags": {"addr:city": "Kismaros", "addr:housenumber": "7", "addr:postcode": "2623", "addr:street": "Szokolyai \u00fat", "amenity": "pub", "name": "Csiti B\u00fcf\u00e9", "outdoor_seating": "yes", "source": "route4u;survey;local knowledge", "wheelchair": "no"}}, {"type": "node", "id": 4940554911, "lat": 47.8021183, "lon": 18.7359283, "tags": {"addr:city": "Esztergom", "addr:housenumber": "4", "addr:postcode": "2500", "addr:street": "Bercs\u00e9nyi utca", "amenity": "pub", "name": "Nagy Ho-Ho Italbolt"}}, {"type": "node", "id": 4940559122, "lat": 47.8658727, "lon": 19.001637, "tags": {"addr:city": "Szokolya", "addr:housenumber": "33", "addr:postcode": "2624", "addr:street": "Kossuth Lajos utca", "amenity": "pub", "fixme": "verify", "name": "Arany Sarok S\u00f6rkert", "source": "route4u"}}, {"type": "node", "id": 4949578785, "lat": 47.795666, "lon": 19.0323239, "tags": {"addr:city": "Dunabogd\u00e1ny", "addr:housenumber": "2", "addr:postcode": "2023", "addr:street": "Strand utca", "amenity": "pub", "name": "Forg\u00f3 B\u00fcf\u00e9"}}, {"type": "node", "id": 4988235011, "lat": 47.9432101, "lon": 19.0368144, "tags": {"amenity": "pub"}}, {"type": "node", "id": 5196239865, "lat": 47.7993294, "lon": 18.7185116, "tags": {"amenity": "pub", "name": "Sezon ruin pub"}}, {"type": "node", "id": 5223931338, "lat": 47.8039214, "lon": 18.7160086, "tags": {"amenity": "pub", "name": "Kupola"}}, {"type": "node", "id": 5225486912, "lat": 47.7992201, "lon": 18.7103042, "tags": {"amenity": "pub", "name": "Stavb\u00e1r"}}, {"type": "node", "id": 5235100670, "lat": 47.7939191, "lon": 18.7205046, "tags": {"amenity": "pub", "name": "Bar & Pub Golf"}}, {"type": "node", "id": 5237814810, "lat": 47.791182, "lon": 18.9609097, "tags": {"addr:city": "Nagymaros", "addr:conscriptionnumber": "1976/1", "addr:postcode": "2626", "addr:street": "V\u00e1ci \u00fat", "amenity": "pub", "name": "SzeszDonald's"}}, {"type": "node", "id": 5477599705, "lat": 47.8008887, "lon": 18.7411203, "tags": {"addr:city": "Esztergom", "addr:housenumber": "3", "addr:postcode": "2500", "addr:street": "Dobozi Mih\u00e1ly utca", "amenity": "pub"}}, {"type": "node", "id": 5501828448, "lat": 47.77711, "lon": 19.1308531, "tags": {"amenity": "pub", "cuisine": "juice;coffee;chips;pretzels;peanuts;beer", "name": "Gy\u00f6ngyvir\u00e1g Pressz\u00f3"}}, {"type": "node", "id": 5501828452, "lat": 47.778652, "lon": 19.1303924, "tags": {"addr:city": "V\u00e1c", "addr:housenumber": "24", "addr:postcode": "2600", "addr:street": "Zichy Hippolyt utca", "amenity": "pub", "cuisine": "juice", "fixme": "does it serve alcohol?", "name": "Greengo juice bar"}}, {"type": "node", "id": 5501828458, "lat": 47.7820342, "lon": 19.1321969, "tags": {"alt_name": "M\u00e1roki kocsma", "amenity": "pub", "internet_access": "wlan", "internet_access:fee": "no", "name": "Ut\u00f3pia s\u00f6r\u00f6z\u0151", "outdoor_seating": "yes", "sport": "pinball"}}, {"type": "node", "id": 5591036274, "lat": 47.93382, "lon": 18.8260127, "tags": {"amenity": "pub", "name": "Fill\u00e9res Kocsma", "source": "survey", "survey:date": "2018-05-01"}}, {"type": "node", "id": 5630628112, "lat": 47.8888825, "lon": 18.6415791}, {"type": "node", "id": 5630628113, "lat": 47.8888729, "lon": 18.6416805}, {"type": "node", "id": 5630628114, "lat": 47.8888643, "lon": 18.6416787}, {"type": "node", "id": 5630628115, "lat": 47.8888583, "lon": 18.6417423}, {"type": "node", "id": 5630628116, "lat": 47.8887649, "lon": 18.6417226}, {"type": "node", "id": 5630628117, "lat": 47.8887743, "lon": 18.6416235}, {"type": "node", "id": 5630628118, "lat": 47.8887574, "lon": 18.6416199}, {"type": "node", "id": 5630628119, "lat": 47.8887619, "lon": 18.6415717}, {"type": "node", "id": 5630628120, "lat": 47.8887829, "lon": 18.6415761}, {"type": "node", "id": 5630628121, "lat": 47.8887847, "lon": 18.6415567}, {"type": "node", "id": 5630628122, "lat": 47.8887925, "lon": 18.6415583}, {"type": "node", "id": 5630628123, "lat": 47.8887962, "lon": 18.6415196}, {"type": "node", "id": 5630628124, "lat": 47.8888748, "lon": 18.6415362}, {"type": "node", "id": 5630628125, "lat": 47.888871, "lon": 18.6415766}, {"type": "node", "id": 5632801340, "lat": 47.8856872, "lon": 18.6422364}, {"type": "node", "id": 5632801341, "lat": 47.8856734, "lon": 18.6423251}, {"type": "node", "id": 5632801342, "lat": 47.8856668, "lon": 18.6423169}, {"type": "node", "id": 5632801343, "lat": 47.8856104, "lon": 18.6424169}, {"type": "node", "id": 5632801344, "lat": 47.8857269, "lon": 18.6425628}, {"type": "node", "id": 5632801345, "lat": 47.8857732, "lon": 18.6422663}, {"type": "node", "id": 5681838440, "lat": 48.0787772, "lon": 18.9512254, "tags": {"amenity": "pub", "name": "Panorama"}}, {"type": "node", "id": 5732647687, "lat": 47.8835968, "lon": 18.7775684, "tags": {"addr:city": "Letk\u00e9s", "addr:housenumber": "48", "addr:postcode": "2632", "addr:street": "D\u00f3zsa utca", "amenity": "pub"}}, {"type": "node", "id": 6001450382, "lat": 47.8293622, "lon": 18.8256392, "tags": {"amenity": "pub", "internet_access": "wlan", "name": "Mel\u00e9dia Presso", "source": "survey", "survey:date": "2018-10-20"}}, {"type": "node", "id": 6576716492, "lat": 47.8313745, "lon": 18.5988519, "tags": {"amenity": "pub", "name": "Presso", "opening_hours": "Mo-Su 14:30-21:00"}}, {"type": "node", "id": 7236391567, "lat": 47.7595757, "lon": 18.5603432, "tags": {"addr:city": "Nyerges\u00fajfalu", "addr:housenumber": "1", "addr:postcode": "2536", "addr:street": "Di\u00f3fa utca", "amenity": "pub", "name": "M\u00e1sik", "source": "survey", "survey:date": "2020-02-22"}}, {"type": "node", "id": 7416975709, "lat": 47.7894071, "lon": 18.7435291, "tags": {"addr:city": "Esztergom", "addr:housenumber": "64", "addr:postcode": "2500", "addr:street": "Simor J\u00e1nos utca", "amenity": "pub", "name": "Rolling Stones S\u00f6r\u00f6z\u0151"}}, {"type": "node", "id": 7416975710, "lat": 47.7893383, "lon": 18.7435153, "tags": {"addr:city": "Esztergom", "addr:housenumber": "64", "addr:postcode": "2500", "addr:street": "Simor J\u00e1nos utca", "amenity": "pub", "name": "S\u00f6riv\u00f3"}}, {"type": "node", "id": 7816937179, "lat": 47.8979281, "lon": 19.0439656}, {"type": "node", "id": 7816937180, "lat": 47.8978355, "lon": 19.0441293}, {"type": "node", "id": 7816937181, "lat": 47.8975522, "lon": 19.044545}, {"type": "node", "id": 7816937182, "lat": 47.8973211, "lon": 19.0449178}, {"type": "node", "id": 7816937183, "lat": 47.8972987, "lon": 19.044887}, {"type": "node", "id": 7816937184, "lat": 47.8971548, "lon": 19.0446094}, {"type": "node", "id": 7817014585, "lat": 47.897082, "lon": 19.0443693}, {"type": "node", "id": 7817014586, "lat": 47.8971107, "lon": 19.0442781}, {"type": "node", "id": 7817014587, "lat": 47.8973229, "lon": 19.0440233}, {"type": "node", "id": 7817014588, "lat": 47.8974776, "lon": 19.0437846}, {"type": "node", "id": 7817014589, "lat": 47.8977878, "lon": 19.0437269}, {"type": "node", "id": 7817014590, "lat": 47.8978867, "lon": 19.0438476}, {"type": "node", "id": 7868797477, "lat": 47.7994744, "lon": 18.6793679}, {"type": "node", "id": 7868797478, "lat": 47.7994803, "lon": 18.6793823}, {"type": "node", "id": 7868797479, "lat": 47.7994654, "lon": 18.6795406}, {"type": "node", "id": 7868797480, "lat": 47.7994163, "lon": 18.6794206}, {"type": "node", "id": 7868797481, "lat": 47.7994973, "lon": 18.6793669}, {"type": "node", "id": 8972597757, "lat": 48.155665, "lon": 18.8713453}, {"type": "node", "id": 8972597758, "lat": 48.1556764, "lon": 18.8713866}, {"type": "node", "id": 8972597759, "lat": 48.1557665, "lon": 18.8713308}, {"type": "node", "id": 8972597760, "lat": 48.1557533, "lon": 18.8712829}, {"type": "node", "id": 9042627681, "lat": 47.9348115, "lon": 18.6820686, "tags": {"amenity": "pub"}}, {"type": "node", "id": 9234945122, "lat": 47.9785857, "lon": 18.7864088}, {"type": "node", "id": 9234945123, "lat": 47.9786249, "lon": 18.7864659}, {"type": "node", "id": 9234945124, "lat": 47.9786287, "lon": 18.786343}, {"type": "node", "id": 9234945125, "lat": 47.9787618, "lon": 18.7862561}, {"type": "node", "id": 9234945126, "lat": 47.9786679, "lon": 18.7864001}, {"type": "node", "id": 9234945127, "lat": 47.9785873, "lon": 18.7862827}, {"type": "node", "id": 9234945128, "lat": 47.9785049, "lon": 18.786409}, {"type": "node", "id": 9234945129, "lat": 47.9786813, "lon": 18.7861388}, {"type": "node", "id": 9234945130, "lat": 47.9785875, "lon": 18.7860022}, {"type": "node", "id": 9234945131, "lat": 47.9781425, "lon": 18.7862033}, {"type": "node", "id": 9234945132, "lat": 47.9781872, "lon": 18.7863063}, {"type": "node", "id": 9234945133, "lat": 47.978138, "lon": 18.7863539}, {"type": "node", "id": 9234945134, "lat": 47.9781804, "lon": 18.7863128}, {"type": "node", "id": 9234945135, "lat": 47.9780581, "lon": 18.7860308}, {"type": "node", "id": 9234945136, "lat": 47.9781358, "lon": 18.7862098}, {"type": "node", "id": 9234945137, "lat": 47.9780933, "lon": 18.7862509}, {"type": "node", "id": 9234945138, "lat": 47.9780156, "lon": 18.7860719}, {"type": "node", "id": 9234945139, "lat": 47.9784111, "lon": 18.7862724}, {"type": "node", "id": 9376633419, "lat": 47.9278666, "lon": 19.1334449, "tags": {"addr:city": "R\u00e9ts\u00e1g", "addr:housenumber": "5", "addr:postcode": "2651", "addr:street": "Hunyadi J\u00e1nos sor", "amenity": "pub", "microbrewery": "yes", "name": "F\u0171t\u0151h\u00e1z S\u00f6rf\u0151zde", "product": "beer", "website": "https://futohazsorfozde.com/"}}, {"type": "node", "id": 9379191588, "lat": 47.927607, "lon": 19.1380287, "tags": {"addr:city": "R\u00e9ts\u00e1g", "addr:housenumber": "12", "addr:postcode": "2651", "addr:street": "Piac t\u00e9r", "amenity": "pub", "brewery": "various", "name": "Bon-Bon Pressz\u00f3", "outdoor_seating": "yes", "payment:cash": "yes", "payment:credit_cards": "yes", "source": "https://restaurantguru.com/Bon-Bon-Presszo-Retsag"}}, {"type": "node", "id": 9992589201, "lat": 47.7902909, "lon": 18.6034341, "tags": {"amenity": "pub", "name": "The Joker Pub"}}, {"type": "way", "id": 54940568, "nodes": [691334406, 691335799, 691335819, 691335824, 691334402, 691334406], "tags": {"addr:city": "Pl\u00e1\u0161\u0165ovce", "addr:conscriptionnumber": "600", "addr:country": "SK", "addr:housenumber": "600", "addr:place": "Pl\u00e1\u0161\u0165ovce", "amenity": "pub", "building": "yes", "name": "Hostinec", "source": "kapor2", "source:conscriptionnumber": "kapor2"}}, {"type": "way", "id": 58906131, "nodes": [729841511, 729843445, 729853609, 729842360, 729842645, 729841511], "tags": {"addr:city": "Tekovsk\u00e9 Lu\u017eany", "addr:conscriptionnumber": "434", "addr:country": "SK", "addr:housenumber": "434/187", "addr:postcode": "93541", "addr:street": "SNP", "addr:streetnumber": "187", "amenity": "pub", "building": "yes", "import": "budovy201004", "name": "Hostinec", "ref:minvskaddress": "15240797", "source": "kapor2", "source:addr": "minvskaddress 2022-11"}}, {"type": "way", "id": 73759447, "nodes": [873205433, 873205434, 873205435, 873205436, 873205437, 873205438, 873205439, 873205440, 873205433], "tags": {"amenity": "pub", "building": "yes", "import": "budovy201004", "source": "kapor2"}}, {"type": "way", "id": 118595214, "nodes": [1333576321, 8972597760, 8972597759, 8972597758, 8972597757, 1333576928, 1333576736, 1333575891, 1333576321], "tags": {"addr:city": "Hokovce", "addr:conscriptionnumber": "7", "addr:country": "SK", "addr:housenumber": "7", "addr:place": "Hokovce", "amenity": "pub", "building": "yes", "name": "Pohostinstvo PeRi", "source": "kapor2", "source:conscriptionnumber": "kapor2"}}, {"type": "way", "id": 192100478, "nodes": [2026664851, 2026664853, 2026664857, 2026664859, 2026664844, 2026664843, 2026664824, 2026664818, 2026664851], "tags": {"addr:city": "Tekovsk\u00e9 Lu\u017eany", "addr:conscriptionnumber": "389", "addr:country": "SK", "addr:housenumber": "389/137", "addr:postcode": "93541", "addr:street": "SNP", "addr:streetnumber": "137", "amenity": "pub", "building": "yes", "name": "Hostinec Mlyn", "ref:minvskaddress": "15240995", "source": "kapor2", "source:addr": "minvskaddress 2022-11"}}, {"type": "way", "id": 224694359, "nodes": [2334885737, 2334885741, 2334885725, 2334885729, 2334885689, 2334885684, 2334885737], "tags": {"addr:city": "Salka", "addr:conscriptionnumber": "133", "addr:country": "SK", "addr:housenumber": "133", "addr:place": "Salka", "amenity": "pub", "building": "yes", "name": "Pohostinstvo Zalka", "source": "kapor2", "source:conscriptionnumber": "kapor2"}}, {"type": "way", "id": 251641598, "nodes": [4229914547, 2578275490, 2578275446, 2578275420, 4229914547], "tags": {"addr:city": "Kura\u013eany", "addr:conscriptionnumber": "95", "addr:country": "SK", "addr:housenumber": "95", "addr:place": "Kura\u013eany", "amenity": "pub", "building": "yes", "source": "kapor2", "source:conscriptionnumber": "kapor2"}}, {"type": "way", "id": 284402765, "nodes": [2881494467, 2881494465, 2881494464, 2881494466, 2881494467], "tags": {"amenity": "pub", "building": "yes", "name": "Bringastop k\u00e1v\u00e9z\u00f3", "service:bicycle:repair": "yes"}}, {"type": "way", "id": 294395843, "nodes": [2979979667, 2979979728, 2979979853, 2979979671, 2979979667], "tags": {"addr:city": "Ch\u013eaba", "addr:conscriptionnumber": "55", "addr:country": "SK", "addr:housenumber": "55", "addr:place": "Ch\u013eaba", "amenity": "pub", "building": "yes", "name": "Nimrod presoo", "source": "kapor2", "source:conscriptionnumber": "kapor2"}}, {"type": "way", "id": 294395865, "nodes": [2979980849, 2979980922, 2979981041, 2979980880, 2979980849], "tags": {"addr:city": "Ch\u013eaba", "addr:conscriptionnumber": "77", "addr:country": "SK", "addr:housenumber": "77", "addr:place": "Ch\u013eaba", "amenity": "pub", "building": "yes", "name": "Hostinec Ryb\u00e1r", "name:hu": "Hal\u00e1sz Vend\u00e9gl\u0151", "source": "kapor2", "source:conscriptionnumber": "kapor2"}}, {"type": "way", "id": 366073121, "nodes": [3700611341, 3700611336, 3700611335, 3700611338, 3700611339, 3700611343, 3700611344, 3700611340, 3700611341], "tags": {"addr:city": "Szob", "addr:housenumber": "12", "addr:postcode": "2628", "addr:street": "R\u00e9v utca", "amenity": "pub", "building": "yes", "name": "Z\u00e1tony S\u00f6r\u00f6z\u0151"}}, {"type": "way", "id": 463345263, "nodes": [4586221542, 4586221541, 4586221540, 4586221539, 4586221538, 4586221537, 4586221536, 4586221535, 4586221534, 4586221542], "tags": {"addr:city": "D\u00f6m\u00f6s", "addr:housenumber": "8", "addr:postcode": "2027", "addr:street": "Kossuth Lajos \u00fat", "amenity": "pub", "building": "yes", "name": "R\u00c1M S\u00f6r\u00f6z\u0151"}}, {"type": "way", "id": 478458417, "nodes": [4716734666, 4716734667, 4716734668, 4716734672, 4716734669, 4716734666], "tags": {"addr:city": "Pilismar\u00f3t", "addr:housenumber": "76", "addr:postcode": "2028", "addr:street": "Esztergomi \u00fat", "amenity": "pub", "building": "yes", "name": "Szobonya s\u00f6r\u00f6z\u0151"}}, {"type": "way", "id": 478458420, "nodes": [4716734675, 4716734676, 4716734677, 4716613721, 4716734675], "tags": {"addr:city": "Pilismar\u00f3t", "addr:housenumber": "13", "addr:postcode": "2028", "addr:street": "R\u00e1k\u00f3czi Ferenc utca", "amenity": "pub", "building": "yes", "name": "Sepa pince"}}, {"type": "way", "id": 500231839, "nodes": [4913343004, 4913343001, 4913342996, 4913343000, 4913343003, 4913343004], "tags": {"addr:city": "Esztergom", "addr:housenumber": "20", "addr:postcode": "2500", "addr:street": "Rudnay S\u00e1ndor t\u00e9r", "amenity": "pub", "building": "yes", "name": "P\u00e1lma Pressz\u00f3", "toilets:wheelchair": "no", "wheelchair": "no"}}, {"type": "way", "id": 589646440, "nodes": [5630628112, 5630628113, 5630628114, 5630628115, 5630628116, 5630628117, 5630628118, 5630628119, 5630628120, 5630628121, 5630628122, 5630628123, 5630628124, 5630628125, 5630628112], "tags": {"amenity": "pub", "building": "yes"}}, {"type": "way", "id": 589897018, "nodes": [5632801340, 5632801341, 5632801342, 5632801343, 5632801344, 5632801345, 5632801340], "tags": {"amenity": "pub", "building": "yes"}}, {"type": "way", "id": 837546306, "nodes": [7817014590, 7817014589, 7817014588, 7817014587, 7817014586, 7817014585, 7816937184, 7816937183, 7816937182, 7816937181, 7816937180, 7816937179, 7817014590], "tags": {"amenity": "pub", "name": "Szeszf\u0151zde"}}, {"type": "way", "id": 843564292, "nodes": [721440932, 7868797481, 7868797478, 7868797477, 7868797480, 7868797479, 721437329, 721440932], "tags": {"amenity": "pub", "name": "Euro bufet"}}, {"type": "way", "id": 1000469134, "nodes": [9234945139, 9234945130, 9234945129, 9234945125, 9234945126, 9234945123, 9234945122, 9234945124, 9234945127, 9234945128, 9234945139], "tags": {"addr:city": "V\u00e1mosmikola", "addr:housenumber": "1", "addr:postcode": "2635", "addr:street": "Kossuth Lajos utca", "amenity": "pub", "building": "yes", "name": "Ipoly s\u00f6r\u00f6z\u0151 \u00e9s Vend\u00e9gl\u0151"}}, {"type": "way", "id": 1000469135, "nodes": [9234945138, 9234945135, 9234945136, 9234945131, 9234945132, 9234945134, 9234945133, 9234945137, 9234945138], "tags": {"addr:city": "V\u00e1mosmikola", "addr:housenumber": "3", "addr:postcode": "2635", "addr:street": "Ipolys\u00e1gi \u00fat", "amenity": "pub", "building": "yes", "name": "T\u0171zkakas s\u00f6r\u00f6z\u0151", "website": "https://www.facebook.com/tuzkakassorozo/"}}]}