{"version": 0.6, "generator": "Overpass API 0.7.59 e21c39fe", "osm3s": {"timestamp_osm_base": "2023-01-21T09:47:07Z", "copyright": "The data included in this document is from www.openstreetmap.org. The data is made available under ODbL."}, "elements": [{"type": "node", "id": 34149048, "lat": 47.9985597, "lon": 17.4359265, "tags": {"amenity": "fuel", "brand": "Slovnaft", "brand:wikidata": "Q1587563", "brand:wikipedia": "en:Slovnaft", "fuel:diesel": "yes", "fuel:lpg": "yes", "fuel:octane_98": "yes", "import_ref": "sk_fuel_2", "name": "Slovnaft", "operator": "Slovnaft", "self_service": "yes", "wheelchair": "yes"}}, {"type": "node", "id": 34149303, "lat": 47.989248, "lon": 17.630031, "tags": {"amenity": "fuel", "brand": "Slovnaft", "import_ref": "sk_fuel_2", "name": "Slovnaft", "note": "Hlavn\u00e1 33", "operator": "Slovnaft"}}, {"type": "node", "id": 34149337, "lat": 47.8834991, "lon": 17.5844623, "tags": {"amenity": "fuel", "brand": "Slovnaft", "import_ref": "sk_fuel_2", "name": "Slovnaft", "operator": "Slovnaft"}}, {"type": "node", "id": 34149339, "lat": 47.9984118, "lon": 17.5916308, "tags": {"amenity": "fuel", "brand": "Slovnaft", "import_ref": "sk_fuel_2", "name": "Slovnaft", "note": "Bratislavsk\u00e1 cesta - do DS", "operator": "Slovnaft"}}, {"type": "node", "id": 34149532, "lat": 48.0327597, "lon": 17.3041296, "tags": {"amenity": "fuel", "brand": "Slovnaft", "import_ref": "sk_fuel_2", "name": "Slovnaft", "note": "Bratislavsk\u00e1", "operator": "Slovnaft"}}, {"type": "node", "id": 202869173, "lat": 48.0237154, "lon": 17.3223615, "tags": {"amenity": "fuel", "brand": "OMV", "brand:wikidata": "Q168238", "brand:wikipedia": "en:OMV", "name": "OMV", "opening_hours": "24/7", "operator": "OMV", "phone": "+421 31 5627242"}}, {"type": "node", "id": 251045707, "lat": 48.0021105, "lon": 17.6006461, "tags": {"amenity": "fuel", "brand": "OMV", "name": "OMV", "operator": "\u00d6MV"}}, {"type": "node", "id": 290783418, "lat": 47.8084264, "lon": 17.8384516, "tags": {"amenity": "fuel", "brand": "Dalioil", "name": "Dalioil", "opening_hours": "24/7", "operator": "Dalioil"}}, {"type": "node", "id": 313973561, "lat": 47.9748652, "lon": 17.6669311, "tags": {"amenity": "fuel", "brand": "Shell", "name": "Shell", "operator": "Shell"}}, {"type": "node", "id": 321869227, "lat": 47.9361535, "lon": 17.7194233, "tags": {"amenity": "fuel", "brand": "OMV", "operator": "\u00d6MV"}}, {"type": "node", "id": 564736757, "lat": 47.8112304, "lon": 17.6697969, "tags": {"amenity": "fuel", "operator": "Agip"}}, {"type": "node", "id": 603122427, "lat": 48.0552123, "lon": 17.5715874, "tags": {"amenity": "fuel"}}, {"type": "node", "id": 762022866, "lat": 47.8548846, "lon": 17.7765428}, {"type": "node", "id": 762023786, "lat": 47.8688752, "lon": 17.758298}, {"type": "node", "id": 762025922, "lat": 47.8688048, "lon": 17.7580569}, {"type": "node", "id": 762029825, "lat": 47.8690798, "lon": 17.7578418}, {"type": "node", "id": 762030763, "lat": 47.8548125, "lon": 17.7762735}, {"type": "node", "id": 762033120, "lat": 47.8547945, "lon": 17.7765292}, {"type": "node", "id": 762035447, "lat": 47.8549026, "lon": 17.7762871}, {"type": "node", "id": 762039626, "lat": 47.8548968, "lon": 17.7763584}, {"type": "node", "id": 762041661, "lat": 47.8549321, "lon": 17.7765254}, {"type": "node", "id": 762042923, "lat": 47.8691501, "lon": 17.7580803}, {"type": "node", "id": 762043912, "lat": 47.8549424, "lon": 17.7763655}, {"type": "node", "id": 762046661, "lat": 47.8548865, "lon": 17.7765199}, {"type": "node", "id": 762047745, "lat": 47.8691514, "lon": 17.7580844}, {"type": "node", "id": 1133644045, "lat": 47.9341034, "lon": 17.6064914, "tags": {"FIXME": "check location", "amenity": "fuel", "brand": "Jurki", "operator": "Jurki"}}, {"type": "node", "id": 1133648551, "lat": 47.9955186, "lon": 17.6035132, "tags": {"amenity": "fuel", "name": "Slovnaft", "source": "survey"}}, {"type": "node", "id": 1145428895, "lat": 47.9961605, "lon": 17.6288091, "tags": {"amenity": "fuel", "brand": "VOMS", "name": "VOMS", "operator": "VOMS"}}, {"type": "node", "id": 1834537473, "lat": 47.8299433, "lon": 17.7032272, "tags": {"amenity": "fuel", "operator": "Real-N"}}, {"type": "node", "id": 2297035634, "lat": 48.0131855, "lon": 17.7993136, "tags": {"amenity": "fuel", "name": "INTERNEST Company, spol. s r.o"}}, {"type": "node", "id": 2425932444, "lat": 47.8520654, "lon": 17.2812317, "tags": {"amenity": "fuel", "brand": "Shell", "brand:wikidata": "Q154950", "brand:wikipedia": "en:Royal Dutch Shell", "name": "Shell", "operator": "Shell", "website": "https://www.shell.hu/"}}, {"type": "node", "id": 2426942478, "lat": 47.8444436, "lon": 17.282052, "tags": {"amenity": "fuel", "brand": "Shell", "brand:wikidata": "Q154950", "brand:wikipedia": "en:Royal Dutch Shell", "name": "Shell", "operator": "Shell", "website": "https://www.shell.hu/"}}, {"type": "node", "id": 2458454991, "lat": 47.8548015, "lon": 17.7764396}, {"type": "node", "id": 2894388047, "lat": 47.9784237, "lon": 17.3801809, "tags": {"amenity": "fuel"}}, {"type": "node", "id": 3047150218, "lat": 47.9936687, "lon": 17.6242029, "tags": {"amenity": "fuel", "name": "Slovnaft"}}, {"type": "node", "id": 3085811887, "lat": 47.9895182, "lon": 17.5981117, "tags": {"amenity": "fuel", "name": "Gas"}}, {"type": "node", "id": 3392156920, "lat": 47.7956322, "lon": 17.8817371, "tags": {"amenity": "fuel", "fuel:diesel": "yes", "fuel:octane_95": "yes", "name": "Hoffer"}}, {"type": "node", "id": 3549166786, "lat": 47.8318057, "lon": 17.4688226}, {"type": "node", "id": 3549166787, "lat": 47.8318385, "lon": 17.468688}, {"type": "node", "id": 3549166789, "lat": 47.8319088, "lon": 17.4688814}, {"type": "node", "id": 3549166790, "lat": 47.8319423, "lon": 17.4687443}, {"type": "node", "id": 3891021373, "lat": 47.8954347, "lon": 17.807839, "tags": {"amenity": "fuel", "name": "Real-KM", "opening_hours": "24/7"}}, {"type": "node", "id": 4130695288, "lat": 47.9481207, "lon": 17.7108322, "tags": {"amenity": "fuel", "fuel:diesel": "yes", "fuel:lpg": "yes", "fuel:octane_95": "yes", "name": "Helvia"}}, {"type": "node", "id": 5103318523, "lat": 47.9110063, "lon": 17.5263082, "tags": {"amenity": "fuel"}}, {"type": "node", "id": 5165453800, "lat": 48.0161705, "lon": 17.6159048, "tags": {"amenity": "fuel", "brand": "Jurki", "fuel:diesel": "yes", "fuel:octane_95": "yes", "name": "\u010cS JURKI Dunajsk\u00e1 Streda", "opening_hours": "Mo-Fr 07:00-19:00, Sa 07:00-17:00, Su 07:00-16:00", "phone": "+421 31 5516180", "website": "http://www.jurki.sk/index.cfm?module=FuelStation&page=FuelStationShow&FuelStationID=11"}}, {"type": "node", "id": 5165458969, "lat": 47.987855, "lon": 17.75529, "tags": {"amenity": "fuel", "fuel:diesel": "yes", "fuel:octane_95": "yes", "name": "RealK", "opening_hours": "Mo-Su 05:00-23:00", "phone": "+42131 558 14 39", "website": "https://www.realk.sk/"}}, {"type": "node", "id": 5165545277, "lat": 48.0275422, "lon": 17.3167047, "tags": {"amenity": "fuel", "email": "info@tankujlacno.sk", "fuel:diesel": "yes", "fuel:octane_95": "yes", "name": "GAS \u0160amor\u00edn", "opening_hours": "Mo-Fr 05:00-20:00; Sa 07:00-20:00; Su 08:00-20:00", "phone": "+421908754967", "website": "http://www.tankujlacno.sk/"}}, {"type": "node", "id": 5165553389, "lat": 48.0001982, "lon": 17.4891244, "tags": {"amenity": "fuel", "name": "Benzina"}}, {"type": "node", "id": 5169788747, "lat": 47.7561883, "lon": 17.4233836, "tags": {"addr:city": "Mosonszentmikl\u00f3s", "addr:housenumber": "15", "addr:postcode": "9183", "addr:street": "B\u00e9ke utca", "amenity": "fuel", "brand": "Avia", "compressed_air": "no", "contact:email": "avia@avia.hu", "contact:facebook": "https://www.facebook.com/AVIAHungary", "contact:phone": "+36 96 360 021", "contact:website": "https://www.avia.hu/toltoallomas/?id=32", "contact:youtube": "https://www.youtube.com/channel/UCjvjkjf2RgmKBuTnKSXk-Rg", "food": "no", "fuel:diesel": "yes", "fuel:e85": "no", "fuel:lpg": "yes", "fuel:octane_95": "yes", "fuel:octane_98": "no", "name": "Avia", "opening_hours": "Mo-Fr 08:00-17:00; Sa 08:00-12:00; Su, PH off", "operator": "AVIA Hung\u00e1ria Kft.", "payment:cash": "yes", "payment:contactless": "yes", "payment:maestro": "yes", "payment:mastercard": "yes", "payment:mastercard_contactless": "yes", "payment:mastercard_electronic": "yes", "payment:visa": "yes", "payment:visa_electron": "yes", "rent:lpg_bottles": "yes", "restaurant": "no", "source:www.avia.hu:date": "2021-12-17", "truck": "no"}}, {"type": "node", "id": 5257356250, "lat": 47.8836959, "lon": 17.2910509, "tags": {"addr:city": "Mosonmagyar\u00f3v\u00e1r", "addr:postcode": "9200", "addr:street": "Hal\u00e1szi \u00fat", "amenity": "fuel", "name": "Pumpa"}}, {"type": "node", "id": 5257356251, "lat": 47.8836547, "lon": 17.291038, "tags": {"addr:city": "Mosonmagyar\u00f3v\u00e1r", "addr:postcode": "9200", "addr:street": "Hal\u00e1szi \u00fat", "amenity": "fuel", "name": "LPG"}}, {"type": "node", "id": 6032106160, "lat": 48.048492, "lon": 17.6979615, "tags": {"amenity": "fuel"}}, {"type": "node", "id": 6901465932, "lat": 47.8835612, "lon": 17.2909096}, {"type": "node", "id": 6901465933, "lat": 47.8834976, "lon": 17.2908129}, {"type": "node", "id": 6901465942, "lat": 47.883399, "lon": 17.2906629}, {"type": "node", "id": 6901465943, "lat": 47.8833617, "lon": 17.2907164}, {"type": "node", "id": 6901465944, "lat": 47.8835212, "lon": 17.2909636}, {"type": "node", "id": 6910367566, "lat": 47.7486714, "lon": 17.4119759}, {"type": "node", "id": 6910367567, "lat": 47.7491331, "lon": 17.4121636}, {"type": "node", "id": 6910367568, "lat": 47.7497535, "lon": 17.4110961}, {"type": "node", "id": 6910367569, "lat": 47.7493784, "lon": 17.4105543}, {"type": "node", "id": 7732235062, "lat": 48.0115455, "lon": 17.4556446, "tags": {"amenity": "fuel", "brand": "OMV", "name": "OMV", "opening_hours": "24/7", "operator": "OMV", "phone": "+421 2 68720500", "toilets": "yes"}}, {"type": "node", "id": 7732235063, "lat": 48.0115289, "lon": 17.4607695, "tags": {"amenity": "fuel", "brand": "OMV", "brand:wikidata": "Q168238", "brand:wikipedia": "en:OMV", "name": "OMV", "opening_hours": "24/7", "operator": "OMV", "phone": "+421 2 68720500", "toilets": "yes"}}, {"type": "node", "id": 8094247560, "lat": 47.988002, "lon": 17.6339448}, {"type": "node", "id": 8094247561, "lat": 47.9880063, "lon": 17.6340531}, {"type": "node", "id": 8094247562, "lat": 47.9877644, "lon": 17.6340745}, {"type": "node", "id": 8094247563, "lat": 47.9877601, "lon": 17.6339662}, {"type": "node", "id": 8969479536, "lat": 47.9879342, "lon": 17.6339508}, {"type": "node", "id": 8969479537, "lat": 47.9879383, "lon": 17.6340591}, {"type": "node", "id": 8969479540, "lat": 47.987905, "lon": 17.6339534}, {"type": "node", "id": 8969479541, "lat": 47.9879085, "lon": 17.6340617}, {"type": "node", "id": 8969479544, "lat": 47.9878676, "lon": 17.6339567}, {"type": "node", "id": 8969479545, "lat": 47.9878703, "lon": 17.6340651}, {"type": "node", "id": 8969479552, "lat": 47.9879729, "lon": 17.6339474}, {"type": "node", "id": 8969479553, "lat": 47.9879763, "lon": 17.6340557}, {"type": "node", "id": 8969479574, "lat": 47.9878519, "lon": 17.6340668}, {"type": "node", "id": 8969479590, "lat": 47.9877949, "lon": 17.6339631}, {"type": "node", "id": 8969479613, "lat": 47.9879996, "lon": 17.6340537}, {"type": "node", "id": 8969479614, "lat": 47.9879941, "lon": 17.6339455}, {"type": "node", "id": 10231913831, "lat": 48.0320592, "lon": 17.319536, "tags": {"amenity": "fuel", "brand": "Orlen", "name": "Orlen", "self_service": "no", "wikidata": "Q971649", "wikipedia": "cs:PKN Orlen"}}, {"type": "way", "id": 60885227, "nodes": [762042923, 762047745, 762023786, 762025922, 762029825, 762042923], "tags": {"amenity": "fuel", "building": "roof", "fuel:diesel": "yes", "fuel:octane_95": "yes", "import": "budovy201004", "layer": "1", "name": "Slovnaft", "opening_hours": "24/7", "operator": "Slovnaft", "source": "kapor2"}}, {"type": "way", "id": 60887656, "nodes": [762033120, 2458454991, 762030763, 762035447, 762039626, 762043912, 762041661, 762046661, 762022866, 762033120], "tags": {"addr:city": "Ve\u013ek\u00fd Meder", "addr:conscriptionnumber": "3148", "addr:country": "SK", "addr:housenumber": "3148", "addr:street": "Kom\u00e1r\u0148ansk\u00e1", "amenity": "fuel", "brand": "OMV", "brand:wikidata": "Q168238", "brand:wikipedia": "en:OMV", "building": "yes", "import": "budovy201004", "name": "OMV", "opening_hours": "24/7", "operator": "OMV", "phone": "+421(31)5508841", "source": "kapor2;#WIGeoGIS-OMV"}}, {"type": "way", "id": 735022915, "nodes": [3549166789, 3549166786, 3549166787, 3549166790, 3549166789], "tags": {"addr:city": "H\u00e9derv\u00e1r", "addr:postcode": "9178", "addr:street": "F\u0151 \u00fat", "amenity": "fuel", "brand": "Shell", "building": "retail", "fuel:diesel": "yes", "fuel:lpg": "yes", "fuel:octane_95": "yes", "name": "Shell"}}, {"type": "way", "id": 737178917, "nodes": [6901465942, 6901465943, 6901465944, 6901465932, 6901465933, 6901465942], "tags": {"addr:city": "Mosonmagyar\u00f3v\u00e1r", "addr:conscriptionnumber": "0139/3", "addr:postcode": "9200", "addr:street": "Hal\u00e1szi \u00fat", "air_conditioning": "yes", "amenity": "fuel", "brand": "MOL", "brand:wikidata": "Q549181", "brand:wikipedia": "hu:MOL Magyar Olaj- \u00e9s G\u00e1zipari Nyrt.", "building": "retail", "compressed_air": "yes", "contact:facebook": "https://www.facebook.com/mol.magyarorszag/", "contact:instagram": "https://www.instagram.com/mol.magyarorszag/", "contact:website": "https://www.mol.hu", "contact:youtube": "https://www.youtube.com/user/molgrouptv", "food": "no", "fuel:GTL_diesel": "yes", "fuel:adblue": "no", "fuel:diesel": "yes", "fuel:lpg": "yes", "fuel:octane_100": "yes", "fuel:octane_95": "yes", "name": "MOL", "opening_hours": "24/7", "operator": "MOL Nyrt.", "operator:addr": "1117 Budapest, Domb\u00f3v\u00e1ri \u00fat 28.", "payment:cash": "yes", "payment:contactless": "yes", "payment:maestro": "yes", "payment:mastercard": "yes", "payment:mastercard_contactless": "yes", "payment:mastercard_electronic": "yes", "payment:visa": "yes", "payment:visa_electron": "yes", "ref:HU:company": "01-10-041683", "ref:HU:vatin": "10625790-4-44", "rent:lpg_bottles": "no", "source": "website", "source:date": "2022-05-21", "toilets:wheelchair": "no", "truck": "no", "wheelchair": "no"}}, {"type": "way", "id": 738020975, "nodes": [6910367566, 6910367567, 6910367568, 6910367569, 6910367566], "tags": {"amenity": "fuel", "name": "EW", "operator": "Eurowag"}}, {"type": "way", "id": 868378411, "nodes": [8094247563, 8094247562, 8969479574, 8969479545, 8969479541, 8969479537, 8969479553, 8969479613, 8094247561, 8094247560, 8969479614, 8969479552, 8969479536, 8969479540, 8969479544, 8969479590, 8094247563], "tags": {"amenity": "fuel", "architect": "atelier SAD", "brand": "GAS", "building": "roof", "layer": "1", "name": "GAS", "self_service": "no", "source": "Ortofotomozaika SR;https://www.archiweb.cz/b/gas-dunajska-streda", "start_date": "2014", "website": "https://www.gas.sk/"}}]}