{"version": 0.6, "generator": "Overpass API 0.7.59 e21c39fe", "osm3s": {"timestamp_osm_base": "2023-01-17T15:17:22Z", "copyright": "The data included in this document is from www.openstreetmap.org. The data is made available under ODbL."}, "elements": [{"type": "node", "id": 2836132235, "lat": 47.5296855, "lon": 21.6432447, "tags": {"amenity": "pub", "name": "Vide\u00f3 pressz\u00f3", "outdoor_seating": "yes", "smoking": "outside"}}, {"type": "node", "id": 2921980654, "lat": 47.7696311, "lon": 21.863043, "tags": {"amenity": "pub", "name": "Alkoholt\u0151zsde"}}, {"type": "node", "id": 3113273462, "lat": 47.6606043, "lon": 21.8291398, "tags": {"amenity": "pub", "name": "Zen\u00e9sz Pressz\u00f3"}}, {"type": "node", "id": 3113273465, "lat": 47.6601455, "lon": 21.8396226, "tags": {"amenity": "pub", "name": "Chicago 471", "toilets:wheelchair": "no", "wheelchair": "limited"}}, {"type": "node", "id": 3113273466, "lat": 47.6619952, "lon": 21.8399871, "tags": {"amenity": "pub", "name": "Mini pressz\u00f3", "toilets:wheelchair": "no", "wheelchair": "no"}}, {"type": "node", "id": 3210066002, "lat": 47.7693006, "lon": 22.1491336, "tags": {"amenity": "pub"}}, {"type": "node", "id": 3437026966, "lat": 47.540202, "lon": 21.647594, "tags": {"amenity": "pub", "name": "Bakterh\u00e1z s\u00f6r\u00f6z\u0151", "source": "turistautak.hu", "source:date": "2011-05-03", "url": "http://turistautak.hu/poi.php?id=103812"}}, {"type": "node", "id": 3437026977, "lat": 47.529731, "lon": 21.661928, "tags": {"amenity": "pub", "name": "B\u00fazavir\u00e1g pressz\u00f3", "source": "turistautak.hu", "source:date": "2011-05-03", "toilets:wheelchair": "yes", "url": "http://turistautak.hu/poi.php?id=79497", "wheelchair": "yes"}}, {"type": "node", "id": 3437026983, "lat": 47.5161768, "lon": 21.6469855, "tags": {"amenity": "pub", "name": "Country pressz\u00f3", "source": "turistautak.hu", "source:date": "2011-07-21", "url": "http://turistautak.hu/poi.php?id=121915"}}, {"type": "node", "id": 3437027353, "lat": 47.524717, "lon": 21.659617, "tags": {"amenity": "pub", "name": "H\u00e9tvez\u00e9r pressz\u00f3", "source": "turistautak.hu", "source:date": "2011-07-21", "url": "http://turistautak.hu/poi.php?id=121916"}}, {"type": "node", "id": 3437027374, "lat": 47.511717, "lon": 21.6433, "tags": {"amenity": "pub", "name": "Koccint\u00f3 pressz\u00f3", "source": "turistautak.hu", "source:date": "2011-07-21", "url": "http://turistautak.hu/poi.php?id=121914"}}, {"type": "node", "id": 3437027554, "lat": 47.498896, "lon": 21.684308, "tags": {"amenity": "pub", "name": "Serli pressz\u00f3", "source": "turistautak.hu", "source:date": "2012-12-23", "url": "http://turistautak.hu/poi.php?id=148838"}}, {"type": "node", "id": 3437027566, "lat": 47.505891, "lon": 21.650898, "tags": {"amenity": "pub", "name": "Sz\u00fcrke Szam\u00e1r diszkont kocsma", "source": "turistautak.hu", "source:date": "2010-05-10", "url": "http://turistautak.hu/poi.php?id=80835"}}, {"type": "node", "id": 3437028407, "lat": 47.474533, "lon": 21.7314, "tags": {"addr:city": "Debrecen", "addr:postcode": "4079", "addr:street": "Petur utca", "amenity": "pub", "internet_access": "no", "name": "Zoli pressz\u00f3", "outdoor_seating": "yes", "payment:cash": "yes", "smoking": "outside", "source": "turistautak.hu;local knowledge", "source:date": "2014-06-16", "url": "http://turistautak.hu/poi.php?id=169360"}}, {"type": "node", "id": 3437028447, "lat": 47.52329, "lon": 21.71368, "tags": {"amenity": "pub", "source": "turistautak.hu", "source:date": "2012-07-12", "url": "http://turistautak.hu/poi.php?id=141374"}}, {"type": "node", "id": 3462323010, "lat": 47.389817, "lon": 21.887167, "tags": {"amenity": "pub", "name": "Zimberi cs\u00e1rda", "source": "turistautak.hu", "source:date": "2012-04-11", "url": "http://turistautak.hu/poi.php?id=137091"}}, {"type": "node", "id": 3462323310, "lat": 47.377382, "lon": 21.892683, "tags": {"amenity": "pub", "opening_hours": "06:00-21:00", "source": "turistautak.hu", "source:date": "2011-05-03", "url": "http://turistautak.hu/poi.php?id=6623"}}, {"type": "node", "id": 3462323411, "lat": 47.39931, "lon": 21.66255, "tags": {"amenity": "pub", "source": "turistautak.hu", "source:date": "2010-05-10", "url": "http://turistautak.hu/poi.php?id=55450"}}, {"type": "node", "id": 3468045783, "lat": 47.550033, "lon": 22.020017, "tags": {"amenity": "pub", "name": "Aranyhomok vend\u00e9gl\u0151", "source": "turistautak.hu", "source:date": "2008-06-06", "url": "http://turistautak.hu/poi.php?id=42890"}}, {"type": "node", "id": 3468045790, "lat": 47.5986803, "lon": 21.9727562, "tags": {"amenity": "pub", "name": "Bajor s\u00f6r\u00f6z\u0151", "source": "turistautak.hu", "source:date": "2013-05-03", "url": "http://turistautak.hu/poi.php?id=153134"}}, {"type": "node", "id": 3468057141, "lat": 47.525433, "lon": 21.913417, "tags": {"amenity": "pub", "name": "Vad\u00e1sz kocsma", "source": "turistautak.hu", "source:date": "2014-01-03", "url": "http://turistautak.hu/poi.php?id=124569"}}, {"type": "node", "id": 3468057159, "lat": 47.415933, "lon": 21.978717, "tags": {"amenity": "pub", "description": "Szabadt\u00e9ri fapadokkal ell\u00e1tott kocsma a k\u00f6zpontban, a K\u00f6lcsey k\u00faria k\u00f6zel\u00e9ben.", "source": "turistautak.hu", "source:date": "2010-11-03", "url": "http://turistautak.hu/poi.php?id=35255"}}, {"type": "node", "id": 3468057160, "lat": 47.416479, "lon": 21.979594, "tags": {"amenity": "pub", "source": "turistautak.hu", "source:date": "2012-11-02", "url": "http://turistautak.hu/poi.php?id=146701"}}, {"type": "node", "id": 3468060009, "lat": 47.581958, "lon": 21.901583, "tags": {"amenity": "pub", "name": "Gereben pressz\u00f3", "source": "turistautak.hu", "source:date": "2013-03-21", "url": "http://turistautak.hu/poi.php?id=151722"}}, {"type": "node", "id": 3468060015, "lat": 47.525333, "lon": 22.020283, "tags": {"amenity": "pub", "name": "Hat\u00e1rpont pressz\u00f3", "source": "turistautak.hu", "source:date": "2012-04-23", "url": "http://turistautak.hu/poi.php?id=137626"}}, {"type": "node", "id": 3468060020, "lat": 47.4644, "lon": 21.8759, "tags": {"amenity": "pub", "source": "turistautak.hu", "source:date": "2011-01-29", "url": "http://turistautak.hu/poi.php?id=109469"}}, {"type": "node", "id": 3468060024, "lat": 47.524006, "lon": 21.906889, "tags": {"amenity": "pub", "name": "Kis\u00e9rt\u00e9s kocsma", "source": "turistautak.hu", "source:date": "2011-05-03", "url": "http://turistautak.hu/poi.php?id=108619"}}, {"type": "node", "id": 3468060033, "lat": 47.626757, "lon": 21.948599, "tags": {"amenity": "pub", "name": "Makkos s\u00f6r\u00f6z\u0151", "source": "turistautak.hu", "source:date": "2011-05-03", "url": "http://turistautak.hu/poi.php?id=108351"}}, {"type": "node", "id": 3468060038, "lat": 47.601367, "lon": 22.09335, "tags": {"amenity": "pub", "name": "M\u00f3kus kocsma", "source": "turistautak.hu", "source:date": "2013-04-21", "url": "http://turistautak.hu/poi.php?id=98952"}}, {"type": "node", "id": 3468060816, "lat": 47.605219, "lon": 21.971262, "tags": {"amenity": "pub", "source": "turistautak.hu", "source:date": "2013-05-03", "url": "http://turistautak.hu/poi.php?id=153136"}}, {"type": "node", "id": 3842235099, "lat": 47.3963037, "lon": 21.7288951}, {"type": "node", "id": 3842235100, "lat": 47.3963783, "lon": 21.7291062}, {"type": "node", "id": 3842235101, "lat": 47.3961956, "lon": 21.7291082}, {"type": "node", "id": 3842235102, "lat": 47.3961586, "lon": 21.7290069}, {"type": "node", "id": 3865535362, "lat": 47.5323779, "lon": 21.643242, "tags": {"addr:city": "Debrecen", "addr:housenumber": "9", "addr:postcode": "4029", "addr:street": "V\u00edztorony utca", "amenity": "pub", "name": "V\u00edztorony S\u00f6r\u00f6z\u0151"}}, {"type": "node", "id": 3915114676, "lat": 47.6002183, "lon": 21.978324}, {"type": "node", "id": 3915114677, "lat": 47.6002277, "lon": 21.9781745}, {"type": "node", "id": 3915115495, "lat": 47.6001789, "lon": 21.9781792}, {"type": "node", "id": 3915115496, "lat": 47.6001758, "lon": 21.9783216}, {"type": "node", "id": 3994876266, "lat": 47.6869735, "lon": 21.6785649, "tags": {"addr:city": "Hajd\u00fahadh\u00e1z", "addr:postcode": "4242", "amenity": "pub"}}, {"type": "node", "id": 4171676618, "lat": 47.5055375, "lon": 21.6508113, "tags": {"amenity": "pub"}}, {"type": "node", "id": 4476550461, "lat": 47.602223, "lon": 21.9729407}, {"type": "node", "id": 4476550462, "lat": 47.6021302, "lon": 21.9730677}, {"type": "node", "id": 4476550463, "lat": 47.6021949, "lon": 21.9731717}, {"type": "node", "id": 4476550464, "lat": 47.6022877, "lon": 21.9730446}, {"type": "node", "id": 4476551273, "lat": 47.6897473, "lon": 21.90349, "tags": {"amenity": "pub", "name": "Pressz\u00f3"}}, {"type": "node", "id": 4476667334, "lat": 47.7693379, "lon": 21.867424}, {"type": "node", "id": 4476667335, "lat": 47.7693317, "lon": 21.8676006}, {"type": "node", "id": 4476667336, "lat": 47.7690551, "lon": 21.8675791}, {"type": "node", "id": 4476667337, "lat": 47.7690645, "lon": 21.8673097}, {"type": "node", "id": 4476667338, "lat": 47.7691391, "lon": 21.8673155}, {"type": "node", "id": 4476667339, "lat": 47.7691358, "lon": 21.8674083}, {"type": "node", "id": 4623790438, "lat": 47.3809104, "lon": 21.8925558}, {"type": "node", "id": 4623790439, "lat": 47.3809113, "lon": 21.8924337}, {"type": "node", "id": 4623790440, "lat": 47.3810012, "lon": 21.8925572}, {"type": "node", "id": 4623790441, "lat": 47.3810021, "lon": 21.8924351}, {"type": "node", "id": 4847021030, "lat": 47.6905657, "lon": 22.0341501, "tags": {"addr:city": "Ny\u00edrlugos", "addr:street": "Debreceni \u00fat", "amenity": "pub", "outdoor_seating": "yes"}}, {"type": "node", "id": 4933474417, "lat": 47.7745969, "lon": 21.677004, "tags": {"amenity": "pub", "fixme": "verify", "name": "Pikol\u00f3 S\u00f6r\u00f6z\u0151", "source": "route4u", "toilets:wheelchair": "yes", "wheelchair": "yes"}}, {"type": "node", "id": 4933475379, "lat": 47.5970662, "lon": 21.6475257, "tags": {"amenity": "pub", "fixme": "verify", "name": "Loki Bisztr\u00f3", "source": "route4u", "toilets:wheelchair": "yes", "wheelchair": "yes"}}, {"type": "node", "id": 4933475530, "lat": 47.5463507, "lon": 21.6522626, "tags": {"addr:city": "Debrecen", "addr:housenumber": "61", "addr:postcode": "4033", "addr:street": "S\u00e1msoni \u00fat", "amenity": "pub", "contact:facebook": "https://www.facebook.com/pages/Kiskocsma-a-Jap%C3%A1nak%C3%A1choz/293057497967554", "fixme": "verify", "name": "Kiskocsma a Jap\u00e1nak\u00e1choz", "opening_hours": "Mo-Su 06:00-22:00", "outdoor_seating": "yes", "phone": "+36 52 792 218", "toilets:wheelchair": "no", "wheelchair": "no"}}, {"type": "node", "id": 4933475637, "lat": 47.5896767, "lon": 21.9056048, "tags": {"amenity": "pub", "fixme": "verify", "name": "Makk 7 S\u00f6r\u00f6z\u0151", "source": "route4u", "toilets:wheelchair": "no", "wheelchair": "no"}}, {"type": "node", "id": 4933475710, "lat": 47.6436674, "lon": 21.6602346, "tags": {"addr:city": "Bocskaikert", "addr:postcode": "4241", "addr:street": "Debreceni \u00fat", "amenity": "pub", "name": "Vakeg\u00e9r S\u00f6r\u00f6z\u0151", "outdoor_seating": "yes", "toilets:wheelchair": "no", "wheelchair": "no"}}, {"type": "node", "id": 4933475944, "lat": 47.6891997, "lon": 21.9121405, "tags": {"alt_name": "I. sz\u00e1m\u00fa Italbolt", "amenity": "pub", "name": "Kiskocsma", "source": "route4u"}}, {"type": "node", "id": 4939179899, "lat": 47.7682186, "lon": 21.8640735, "tags": {"amenity": "pub", "fixme": "verify", "name": "Hubertus-H\u00e1z", "source": "route4u", "toilets:wheelchair": "no", "wheelchair": "no"}}, {"type": "node", "id": 9190426883, "lat": 47.4004758, "lon": 21.7736456}, {"type": "node", "id": 9190426884, "lat": 47.4004464, "lon": 21.773749}, {"type": "node", "id": 9190426885, "lat": 47.4005426, "lon": 21.7738086}, {"type": "node", "id": 9190426886, "lat": 47.4005707, "lon": 21.7737099}, {"type": "node", "id": 9195605832, "lat": 47.5038132, "lon": 21.6903081}, {"type": "node", "id": 9195605833, "lat": 47.5037895, "lon": 21.6904133}, {"type": "node", "id": 9195605834, "lat": 47.5037449, "lon": 21.6903927}, {"type": "node", "id": 9195605835, "lat": 47.5037226, "lon": 21.6904876}, {"type": "node", "id": 9195605836, "lat": 47.5036334, "lon": 21.6904484}, {"type": "node", "id": 9195605837, "lat": 47.5036822, "lon": 21.6902482}, {"type": "node", "id": 9195799105, "lat": 47.3910094, "lon": 21.7426209}, {"type": "node", "id": 9195799106, "lat": 47.390972, "lon": 21.7427718}, {"type": "node", "id": 9195799107, "lat": 47.3910928, "lon": 21.7428417}, {"type": "node", "id": 9195799108, "lat": 47.3911265, "lon": 21.7426945}, {"type": "node", "id": 9211869936, "lat": 47.3887914, "lon": 21.7735602}, {"type": "node", "id": 9211869937, "lat": 47.3888693, "lon": 21.7735514}, {"type": "node", "id": 9211869938, "lat": 47.3888758, "lon": 21.7736778}, {"type": "node", "id": 9211869939, "lat": 47.3888685, "lon": 21.7737423}, {"type": "node", "id": 9211869940, "lat": 47.388809, "lon": 21.7738563}, {"type": "node", "id": 9211869941, "lat": 47.3887637, "lon": 21.7738047}, {"type": "node", "id": 9211869943, "lat": 47.3887973, "lon": 21.7736749}, {"type": "node", "id": 9213957226, "lat": 47.401128, "lon": 21.7170892}, {"type": "node", "id": 9213957227, "lat": 47.4010121, "lon": 21.7170716}, {"type": "node", "id": 9213957228, "lat": 47.400999, "lon": 21.7172198}, {"type": "node", "id": 9213957229, "lat": 47.4010336, "lon": 21.7172233}, {"type": "node", "id": 9213957230, "lat": 47.4010313, "lon": 21.7172657}, {"type": "node", "id": 9213957231, "lat": 47.401079, "lon": 21.7172728}, {"type": "node", "id": 9213957232, "lat": 47.4010838, "lon": 21.7172304}, {"type": "node", "id": 9213957233, "lat": 47.4011173, "lon": 21.7172339}, {"type": "node", "id": 9271798149, "lat": 47.3846076, "lon": 21.7350214}, {"type": "node", "id": 9271798150, "lat": 47.3845647, "lon": 21.7350289}, {"type": "node", "id": 9271798151, "lat": 47.3845587, "lon": 21.7350167}, {"type": "node", "id": 9271798152, "lat": 47.3845504, "lon": 21.7350082}, {"type": "node", "id": 9271798153, "lat": 47.3845089, "lon": 21.735064}, {"type": "node", "id": 9271798154, "lat": 47.3845137, "lon": 21.7350766}, {"type": "node", "id": 9271798155, "lat": 47.3845209, "lon": 21.7350864}, {"type": "node", "id": 9271798156, "lat": 47.3845299, "lon": 21.7350922}, {"type": "node", "id": 9271798157, "lat": 47.3845406, "lon": 21.7350042}, {"type": "node", "id": 9271798158, "lat": 47.3845304, "lon": 21.7350052}, {"type": "node", "id": 9271798159, "lat": 47.3845211, "lon": 21.735011}, {"type": "node", "id": 9271798160, "lat": 47.3845135, "lon": 21.7350212}, {"type": "node", "id": 9271798161, "lat": 47.3845087, "lon": 21.7350344}, {"type": "node", "id": 9271798162, "lat": 47.3845071, "lon": 21.7350492}, {"type": "node", "id": 9271798163, "lat": 47.3845424, "lon": 21.7351542}, {"type": "node", "id": 9271798164, "lat": 47.3845338, "lon": 21.7351579}, {"type": "node", "id": 9271798165, "lat": 47.3845472, "lon": 21.735248}, {"type": "node", "id": 9271798166, "lat": 47.3846889, "lon": 21.7351774}, {"type": "node", "id": 9271798167, "lat": 47.3846537, "lon": 21.7349689}, {"type": "node", "id": 9271798168, "lat": 47.3846091, "lon": 21.7349728}, {"type": "node", "id": 9271798169, "lat": 47.3846596, "lon": 21.735185}, {"type": "node", "id": 9271798170, "lat": 47.3846576, "lon": 21.7351683}, {"type": "node", "id": 9271798171, "lat": 47.384609, "lon": 21.7351815}, {"type": "node", "id": 9271798172, "lat": 47.3846142, "lon": 21.7352241}, {"type": "node", "id": 9271798173, "lat": 47.38467, "lon": 21.7350495}, {"type": "node", "id": 9271798174, "lat": 47.3846539, "lon": 21.7350495}, {"type": "node", "id": 9310661023, "lat": 47.3936376, "lon": 21.721028}, {"type": "node", "id": 9310661024, "lat": 47.3936223, "lon": 21.7211877}, {"type": "node", "id": 9310661025, "lat": 47.3935325, "lon": 21.7211689}, {"type": "node", "id": 9310661026, "lat": 47.3935478, "lon": 21.7210091}, {"type": "node", "id": 9369554926, "lat": 47.400492, "lon": 21.7736557}, {"type": "node", "id": 9369554927, "lat": 47.4005024, "lon": 21.7736191}, {"type": "node", "id": 9369554928, "lat": 47.4005824, "lon": 21.7736686}, {"type": "node", "id": 9373097750, "lat": 47.3884767, "lon": 21.7736694}, {"type": "node", "id": 9373097751, "lat": 47.3884803, "lon": 21.7737304}, {"type": "node", "id": 9373097752, "lat": 47.3884616, "lon": 21.7737327}, {"type": "node", "id": 9373097753, "lat": 47.3884635, "lon": 21.7737645}, {"type": "node", "id": 9373097754, "lat": 47.3884836, "lon": 21.7737619}, {"type": "node", "id": 9373097755, "lat": 47.3884862, "lon": 21.773806}, {"type": "node", "id": 9373097756, "lat": 47.3883761, "lon": 21.7738201}, {"type": "node", "id": 9373097757, "lat": 47.3883681, "lon": 21.7736833}, {"type": "node", "id": 9749312382, "lat": 47.3961788, "lon": 21.7290623, "tags": {"entrance": "yes"}}, {"type": "node", "id": 9809147843, "lat": 47.3921697, "lon": 21.6648384}, {"type": "node", "id": 9809147844, "lat": 47.3920186, "lon": 21.6648347}, {"type": "node", "id": 9809147845, "lat": 47.3920191, "lon": 21.6646559}, {"type": "node", "id": 9809147846, "lat": 47.3921467, "lon": 21.6646595}, {"type": "node", "id": 9825549862, "lat": 47.4025966, "lon": 21.6619098}, {"type": "node", "id": 9825549863, "lat": 47.4024186, "lon": 21.6619742}, {"type": "node", "id": 9825549864, "lat": 47.4023991, "lon": 21.6618566}, {"type": "node", "id": 9825549865, "lat": 47.4025771, "lon": 21.6617922}, {"type": "node", "id": 9975112173, "lat": 47.5036797, "lon": 21.6904687, "tags": {"access": "yes", "entrance": "main"}}, {"type": "way", "id": 380928756, "nodes": [3842235099, 3842235100, 3842235101, 9749312382, 3842235102, 3842235099], "tags": {"addr:city": "Hossz\u00fap\u00e1lyi", "addr:housenumber": "23", "addr:postcode": "4274", "addr:street": "Debreceni utca", "amenity": "pub", "brewery": "yes", "building": "yes", "name": "Som b\u00fcf\u00e9", "operator": "LINCOR TRADE Kft.", "phone": "+36 20 260 03 69"}}, {"type": "way", "id": 388299454, "nodes": [3915114677, 3915115495, 3915115496, 3915114676, 3915114677], "tags": {"amenity": "pub", "building": "yes"}}, {"type": "way", "id": 450751293, "nodes": [4476550461, 4476550462, 4476550463, 4476550464, 4476550461], "tags": {"addr:city": "Ny\u00edracs\u00e1d", "addr:housenumber": "7", "addr:postcode": "4262", "addr:street": "Pet\u0151fi t\u00e9r", "amenity": "pub", "building": "yes", "description": "Bili\u00e1rdasztal \u00e9s TV is van", "name": "Viking Pressz\u00f3", "source": "F\u0150MI:2005", "url": "http://turistautak.hu/poi.php?id=8812"}}, {"type": "way", "id": 450764123, "nodes": [4476667334, 4476667335, 4476667336, 4476667337, 4476667338, 4476667339, 4476667334], "tags": {"amenity": "pub", "building": "yes"}}, {"type": "way", "id": 467777014, "nodes": [4623790439, 4623790441, 4623790440, 4623790438, 4623790439], "tags": {"amenity": "pub", "building": "yes", "name": "Korona pressz\u00f3"}}, {"type": "way", "id": 995249981, "nodes": [9190426883, 9190426884, 9190426885, 9190426886, 9369554928, 9369554927, 9369554926, 9190426883], "tags": {"addr:city": "Monostorp\u00e1lyi", "addr:housenumber": "70", "addr:postcode": "4275", "addr:street": "Kossuth utca", "amenity": "pub", "building": "yes", "name": "Termel\u0151i s\u00f6r\u00f6z\u0151, Italbolt"}}, {"type": "way", "id": 995850086, "nodes": [9195605832, 9195605833, 9195605834, 9195605835, 9975112173, 9195605836, 9195605837, 9195605832], "tags": {"addr:city": "Debrecen", "addr:housenumber": "134", "addr:postcode": "4002", "addr:street": "Sikl\u00f3 utca", "amenity": "pub", "building": "yes", "name": "Hint\u00f3s Pressz\u00f3"}}, {"type": "way", "id": 995878059, "nodes": [9195799105, 9195799106, 9195799107, 9195799108, 9195799105], "tags": {"addr:city": "Hossz\u00fap\u00e1lyi", "addr:housenumber": "1", "addr:postcode": "4274", "addr:street": "Halad\u00f3 utca", "amenity": "pub", "building": "yes", "name": "Cserepes cs\u00e1rda"}}, {"type": "way", "id": 997666021, "nodes": [9211869936, 9211869937, 9211869938, 9211869939, 9211869940, 9211869941, 9211869943, 9211869936], "tags": {"addr:city": "Monostorp\u00e1lyi", "addr:housenumber": "37", "addr:postcode": "4275", "addr:street": "L\u00e9tai utca", "amenity": "pub", "building": "yes", "name": "Am\u00edg\u00f3"}}, {"type": "way", "id": 997897876, "nodes": [9213957226, 9213957227, 9213957228, 9213957229, 9213957230, 9213957231, 9213957232, 9213957233, 9213957226], "tags": {"addr:city": "Hossz\u00fap\u00e1lyi", "addr:housenumber": "20", "addr:postcode": "4274", "addr:street": "Z\u00f6ldfa utca", "amenity": "pub", "building": "yes"}}, {"type": "way", "id": 1004916931, "nodes": [9271798163, 9271798164, 9271798165, 9271798172, 9271798171, 9271798170, 9271798169, 9271798166, 9271798173, 9271798174, 9271798167, 9271798168, 9271798149, 9271798150, 9271798151, 9271798152, 9271798157, 9271798158, 9271798159, 9271798160, 9271798161, 9271798162, 9271798153, 9271798154, 9271798155, 9271798156, 9271798163], "tags": {"addr:city": "Hossz\u00fap\u00e1lyi", "addr:housenumber": "56", "addr:postcode": "4274", "addr:street": "Nagy utca", "amenity": "pub", "building": "yes", "name": "Kiskoz\u00e1k S\u00f6r\u00f6z\u0151"}}, {"type": "way", "id": 1009102807, "nodes": [9310661023, 9310661024, 9310661025, 9310661026, 9310661023], "tags": {"addr:city": "Hossz\u00fap\u00e1lyi", "addr:housenumber": "64", "addr:postcode": "4274", "addr:street": "Bagosi \u00fat", "amenity": "pub", "building": "yes", "name": "F\u00fcles cs\u00e1rda", "opening_hours": "off"}}, {"type": "way", "id": 1016194703, "nodes": [9373097750, 9373097751, 9373097752, 9373097753, 9373097754, 9373097755, 9373097756, 9373097757, 9373097750], "tags": {"addr:city": "Monostorp\u00e1lyi", "addr:housenumber": "38", "addr:postcode": "4275", "addr:street": "L\u00e9tai utca", "amenity": "pub", "building": "yes", "name": "Dud\u00e1s kiskocsma", "opening_hours": "off"}}, {"type": "way", "id": 1068571180, "nodes": [9809147846, 9809147843, 9809147844, 9809147845, 9809147846], "tags": {"addr:city": "Hajd\u00fabagos", "addr:housenumber": "93", "addr:postcode": "4273", "addr:street": "Nagy utca", "amenity": "pub", "building": "yes", "name": "Mirage Cafe", "opening_hours": "Mo-Fr 10:30-14:30, Sa-Su off", "phone": "+36 70 313 12 94", "website": "https://mirage-bistro-cafe.business.site"}}, {"type": "way", "id": 1070649628, "nodes": [9825549865, 9825549862, 9825549863, 9825549864, 9825549865], "tags": {"amenity": "pub", "building": "yes", "opening_hours": "off"}}]}