{"version": 0.6, "generator": "Overpass API 0.7.59 e21c39fe", "osm3s": {"timestamp_osm_base": "2023-01-17T15:18:24Z", "copyright": "The data included in this document is from www.openstreetmap.org. The data is made available under ODbL."}, "elements": [{"type": "node", "id": 871563686, "lat": 47.6862743, "lon": 16.5902423, "tags": {"addr:city": "Sopron", "addr:housenumber": "4", "addr:postcode": "9400", "addr:street": "F\u0151 t\u00e9r", "amenity": "pub", "food": "yes", "name": "Gy\u00f3gyg\u00f6d\u00f6r", "opening_hours": "Su-Th 10:00-22:00; Fr,Sa 10:00-23:00", "phone": "+36 99 311 280", "website": "http://gyogygodor.hu/", "wheelchair": "no"}}, {"type": "node", "id": 1249769952, "lat": 47.4357657, "lon": 16.5304085, "tags": {"amenity": "pub", "name": "Gasthaus Pr\u00f6stl"}}, {"type": "node", "id": 1249769961, "lat": 47.428651, "lon": 16.5270203, "tags": {"amenity": "pub", "name": "Gasthaus T\u00f6pfer", "wheelchair": "limited"}}, {"type": "node", "id": 1249769972, "lat": 47.4293586, "lon": 16.5288281, "tags": {"amenity": "pub", "name": "Gasthaus Windisch"}}, {"type": "node", "id": 1391047651, "lat": 47.5271994, "lon": 16.6457955, "tags": {"amenity": "pub", "name": "Gasthaus Cacsinovits"}}, {"type": "node", "id": 1391063739, "lat": 47.5383852, "lon": 16.6602852, "tags": {"addr:city": "Nikitsch", "addr:country": "AT", "addr:housenumber": "133", "addr:postcode": "7302", "addr:street": "Hauptstra\u00dfe", "amenity": "pub", "at_bev:addr_date": "2018-10-01", "name": "Gasthaus Divos", "website": "https://www.gasthaus-divos.at/"}}, {"type": "node", "id": 1403258242, "lat": 47.6548128, "lon": 16.4898165, "tags": {"addr:city": "Sopron", "addr:housenumber": "20", "addr:postcode": "9408", "addr:street": "Soproni \u00fat", "addr:suburb": "Brennbergb\u00e1nya", "amenity": "pub", "name": "B\u00e1ny\u00e1sz-pince", "opening_hours": "Mo-Su 09:00-22:00", "outdoor_seating": "yes", "phone": "+36 99 354 525", "smoking": "outside", "toilets:wheelchair": "no", "wheelchair": "yes"}}, {"type": "node", "id": 1406906379, "lat": 47.6875621, "lon": 16.5982957, "tags": {"addr:city": "Sopron", "addr:housenumber": "28", "addr:postcode": "9400", "addr:street": "Gazda utca", "amenity": "pub", "name": "Bschaden", "opening_hours": "Th 18:00-22:00;Fr-Sa 18:00-23:00", "tourism": "guest_house", "website": "http://www.bschaden.hu/"}}, {"type": "node", "id": 1406906386, "lat": 47.6840922, "lon": 16.601817, "tags": {"addr:city": "Sopron", "addr:housenumber": "22/a", "addr:postcode": "9400", "addr:street": "Ruszti utca", "amenity": "pub", "name": "Mekka", "opening_hours": "Mo 14:00-21:00; Tu-Fr 14:00-23:00; Sa 10:00-23:00; Su 09:30-13:00"}}, {"type": "node", "id": 1406906389, "lat": 47.690996, "lon": 16.6047544, "tags": {"addr:city": "Sopron", "addr:housenumber": "37", "addr:postcode": "9400", "addr:street": "T\u00f3malom utca", "amenity": "pub", "name": "Gyepmester", "opening_hours": "Mo-Su 08:00-22:00", "phone": "+36 99 313 337", "website": "http://banfiesbanfibt.atw.hu/"}}, {"type": "node", "id": 1406906399, "lat": 47.6862438, "lon": 16.604198, "tags": {"addr:city": "Sopron", "addr:housenumber": "3", "addr:postcode": "9400", "addr:street": "Sz\u00e1rcsa utca", "amenity": "pub", "email": "katlanborozo@gmail.com", "food": "yes", "name": "Katlan", "opening_hours": "Mo-Th,Su 11:00-23:00;Fr-Sa 11:00-01:00", "phone": "+36 99 326 349"}}, {"type": "node", "id": 1406945798, "lat": 47.6404558, "lon": 16.6442912, "tags": {"addr:city": "K\u00f3ph\u00e1za", "addr:housenumber": "14", "addr:postcode": "9495", "addr:street": "Soproni utca", "amenity": "pub", "name": "B\u00e1zis", "toilets:wheelchair": "no", "wheelchair": "no"}}, {"type": "node", "id": 1406975289, "lat": 47.6843191, "lon": 16.5975393, "tags": {"addr:city": "Sopron", "addr:housenumber": "4", "addr:postcode": "9400", "addr:street": "V\u00e9gfordulat", "amenity": "pub", "name": "T\u00f6pike B\u00e1r", "opening_hours": "Mo 14:00-22:00;Tu-Sa 10:00-22:00;Su 10:00-20:00"}}, {"type": "node", "id": 1406976404, "lat": 47.6823488, "lon": 16.6098165, "tags": {"addr:city": "Sopron", "addr:housenumber": "156", "addr:postcode": "9400", "addr:street": "Balfi \u00fat", "amenity": "pub", "name": "Anger B\u00fcf\u00e9", "opening_hours": "Mo-Sa 06:00-21:00;Su 08:00-21:00", "toilets:wheelchair": "no", "wheelchair": "limited"}}, {"type": "node", "id": 1406987265, "lat": 47.6926794, "lon": 16.5916587, "tags": {"addr:city": "Sopron", "addr:housenumber": "22", "addr:postcode": "9400", "addr:street": "Koron\u00e1z\u00f3domb", "amenity": "pub", "email": "borozo@princzes.hu", "food": "yes", "name": "Priny\u0151", "opening_hours": "Mo 15:00-21:00; Tu-Sa 15:00-23:00", "phone": "+36 99 334 042", "website": "http://prinyo.hu/"}}, {"type": "node", "id": 1415548605, "lat": 47.3889936, "lon": 16.543133, "tags": {"addr:city": "K\u0151szeg", "addr:housenumber": "12", "addr:postcode": "9730", "addr:street": "V\u00e1rk\u00f6r", "amenity": "pub", "brewery": "various", "name": "Eleven Bar/ Kocsma", "payment:cash": "yes", "payment:credit_cards": "yes", "smoking": "separated", "wheelchair": "yes"}}, {"type": "node", "id": 1415548615, "lat": 47.3881231, "lon": 16.5384163, "tags": {"amenity": "pub", "name": "K\u00f3bor Macska", "toilets:wheelchair": "no", "wheelchair": "no"}}, {"type": "node", "id": 1442528029, "lat": 47.6837088, "lon": 16.5909744, "tags": {"addr:city": "Sopron", "addr:housenumber": "2", "addr:postcode": "9400", "addr:street": "H\u00e1ts\u00f3kapu", "amenity": "pub", "food": "yes", "name": "C\u00e9z\u00e1r-pince", "opening_hours": "Mo-Sa 12:00-24:00;Su 16:00-23:00", "phone": "+36 99 311 337", "website": "http://www.cezarpince.hu/", "wheelchair": "yes"}}, {"type": "node", "id": 1448393276, "lat": 47.6899363, "lon": 16.5144588, "tags": {"addr:city": "\u00c1gfalva", "addr:housenumber": "78", "addr:postcode": "9423", "addr:street": "F\u0151 utca", "amenity": "pub", "capacity": "40", "name": "F\u00e9nyes", "opening_hours": "Mo-Fr 06:00-24:00;Sa 06:00-02:00;Su 07:00-24:00", "toilets:wheelchair": "no", "wheelchair": "yes"}}, {"type": "node", "id": 1456122023, "lat": 47.6822245, "lon": 16.5716805, "tags": {"addr:city": "Sopron", "addr:housenumber": "33", "addr:postcode": "9400", "addr:street": "L\u0151v\u00e9r k\u00f6r\u00fat", "amenity": "pub", "name": "K\u00e9gli Kert", "wifi": "no"}}, {"type": "node", "id": 1461405441, "lat": 47.6891145, "lon": 16.5876549, "tags": {"addr:city": "Sopron", "addr:housenumber": "8", "addr:postcode": "9400", "addr:street": "Vir\u00e1goskert utca", "amenity": "pub", "name": "Szalon", "website": "https://szalondk.hu/", "wifi": "free"}}, {"type": "node", "id": 1495486440, "lat": 47.5590936, "lon": 16.4325894}, {"type": "node", "id": 1495486445, "lat": 47.5591709, "lon": 16.4323907}, {"type": "node", "id": 1495486487, "lat": 47.5591446, "lon": 16.4323347}, {"type": "node", "id": 1520139381, "lat": 47.6808722, "lon": 16.5853069, "tags": {"addr:city": "Sopron", "addr:housenumber": "28", "addr:postcode": "9400", "addr:street": "De\u00e1k t\u00e9r", "amenity": "pub", "email": "info@gazfroccs.com", "food": "yes", "name": "G\u00e1zfr\u00f6ccs", "opening_hours": "Mo-Th 11:00-01:00, Fr,Sa 11:00-02:00", "phone": "+36 99 787 783", "toilets:wheelchair": "no", "website": "http://www.gazfroccs.com/", "wheelchair": "no"}}, {"type": "node", "id": 1531614495, "lat": 47.677635, "lon": 16.5923722, "tags": {"addr:city": "Sopron", "addr:housenumber": "98", "addr:postcode": "9400", "addr:street": "Csengery utca", "amenity": "pub", "email": "rozsakert.kisvendeglo@gmail.com", "food": "yes", "name": "R\u00f3zsakert", "opening_hours": "Mo-Su 10:00-21:00", "phone": "+36 99 788 565", "toilets:wheelchair": "no", "website": "http://rozsakert-vendeglo.gportal.hu/", "wheelchair": "yes"}}, {"type": "node", "id": 1583590749, "lat": 47.3162294, "lon": 16.3265868, "tags": {"addr:housename": "Gasthaus Delyi", "addr:housenumber": "15", "addr:place": "Rumpersdorf", "addr:postcode": "7432", "amenity": "pub", "name": "Gasthaus Delyi"}}, {"type": "node", "id": 1910427731, "lat": 47.6334887, "lon": 16.6016898, "tags": {"addr:city": "Harka", "addr:housenumber": "35-37", "addr:postcode": "9422", "addr:street": "Ny\u00e9ki utca", "amenity": "pub", "name": "Horv\u00e1th", "opening_hours": "Mo-Su 07:00-22:00"}}, {"type": "node", "id": 1932800225, "lat": 47.6926178, "lon": 16.5759414, "tags": {"addr:city": "Sopron", "addr:housenumber": "19", "addr:postcode": "9400", "addr:street": "Juharfa \u00fat", "amenity": "pub", "name": "Zipfer", "toilets:wheelchair": "no", "wheelchair": "no"}}, {"type": "node", "id": 1933473943, "lat": 47.406467, "lon": 16.4179397, "tags": {"amenity": "pub", "name": "Rathauskeller"}}, {"type": "node", "id": 1944981159, "lat": 47.690602, "lon": 16.5816011, "tags": {"addr:city": "Sopron", "addr:housenumber": "10", "addr:postcode": "9400", "addr:street": "H\u00f6fl\u00e1nyi utca", "amenity": "pub", "email": "arkadsportpubsopron@gmail.com", "food": "yes", "name": "\u00c1rk\u00e1d", "opening_hours": "Mo,Su 11:00-15:00;Tu-Sa 11:00-22:00", "phone": "+36 99 789 368", "website": "http://www.arkadsportpub.com/", "wifi": "yes"}}, {"type": "node", "id": 2306253610, "lat": 47.3835368, "lon": 16.5478501, "tags": {"amenity": "pub", "name": "Sarki kocsma"}}, {"type": "node", "id": 2474081184, "lat": 47.6827021, "lon": 16.5737334, "tags": {"addr:city": "Sopron", "addr:postcode": "9400", "addr:street": "Erzs\u00e9bet kert", "amenity": "pub", "food": "yes", "name": "B\u00f6zsi B\u00fcf\u00e9", "opening_hours": "Mo-Th 09:00-23:00;Fr-Su 09:00-24:00", "toilets:wheelchair": "no", "wheelchair": "no"}}, {"type": "node", "id": 2480629232, "lat": 47.6843281, "lon": 16.5821522, "tags": {"addr:city": "Sopron", "addr:housenumber": "6", "addr:postcode": "9400", "addr:street": "J\u00f3kai utca", "amenity": "pub", "name": "Deep", "opening_hours": "Mo-Th,Su 18:00-03:00, Fr-Sa 18:00-04:00", "phone": "+36 70 329 7268", "toilets:wheelchair": "no", "wheelchair": "no"}}, {"type": "node", "id": 2659092999, "lat": 47.5591977, "lon": 16.4324821}, {"type": "node", "id": 2659093000, "lat": 47.5590926, "lon": 16.4323884}, {"type": "node", "id": 2659093001, "lat": 47.5590376, "lon": 16.4324701}, {"type": "node", "id": 2659093002, "lat": 47.5591601, "lon": 16.4324019}, {"type": "node", "id": 2659093003, "lat": 47.5590749, "lon": 16.4324065}, {"type": "node", "id": 2659093004, "lat": 47.5590829, "lon": 16.4324235}, {"type": "node", "id": 2895063633, "lat": 47.3153011, "lon": 16.5870699, "tags": {"amenity": "pub", "name": "Napsug\u00e1r s\u00f6r\u00f6z\u0151"}}, {"type": "node", "id": 2895069002, "lat": 47.404975, "lon": 16.5326653, "tags": {"amenity": "pub", "name": "Cat club"}}, {"type": "node", "id": 2935814099, "lat": 47.3233136, "lon": 16.4904336, "tags": {"amenity": "pub"}}, {"type": "node", "id": 2953201518, "lat": 47.6791543, "lon": 16.5825255, "tags": {"addr:city": "Sopron", "addr:housenumber": "2", "addr:postcode": "9400", "addr:street": "Als\u00f3l\u00f6v\u00e9r utca", "amenity": "pub", "email": "sportsorozo@freemail.hu", "name": "Sport", "opening_hours": "Mo-Su 07:00-23:45", "phone": "+36 30 424 4807", "toilets:wheelchair": "no", "website": "http://sportsorozo.hu/", "wheelchair": "no"}}, {"type": "node", "id": 3035671430, "lat": 47.6843465, "lon": 16.5760658, "tags": {"addr:city": "Sopron", "addr:housenumber": "49", "addr:postcode": "9400", "addr:street": "Kossuth Lajos utca", "amenity": "pub", "name": "Schmauser", "opening_hours": "Mo-Su 09:00-03:00", "phone": "+36 99 310 423"}}, {"type": "node", "id": 3046525886, "lat": 47.6869239, "lon": 16.5488174, "tags": {"addr:city": "Sopron", "addr:housenumber": "7/a", "addr:postcode": "9400", "addr:street": "Heimler K\u00e1roly utca", "amenity": "pub", "name": "Yacht", "opening_hours": "Mo-Su 10:00-22:00", "phone": "+36 99 322 883"}}, {"type": "node", "id": 3046997758, "lat": 47.6800369, "lon": 16.5878682, "tags": {"addr:city": "Sopron", "addr:housenumber": "46", "addr:postcode": "9400", "addr:street": "De\u00e1k t\u00e9r", "amenity": "pub", "email": "kisdeaketterem@gmail.com", "food": "yes", "name": "Kis De\u00e1k", "opening_hours": "Mo,We-Su 17:00-24:00", "phone": "+36 30 275 7273"}}, {"type": "node", "id": 3047149665, "lat": 47.6827628, "lon": 16.5884315, "tags": {"addr:city": "Sopron", "addr:housenumber": "12", "addr:postcode": "9400", "addr:street": "Sz\u00e9chenyi t\u00e9r", "amenity": "pub", "email": "asztalfoglalas@perkovatz.hu", "food": "yes", "name": "Perkov\u00e1tz-h\u00e1z", "opening_hours": "Mo-Th 11:00-23:00; Fr,Sa 11:00-24:00; Su 11:00-22:00", "phone": "+36 99 316 839", "website": "http://perkovatz.hu/", "wheelchair": "limited"}}, {"type": "node", "id": 3047306868, "lat": 47.683073, "lon": 16.6039366, "tags": {"addr:city": "Sopron", "addr:housenumber": "121", "addr:postcode": "9400", "addr:street": "Balfi \u00fat", "amenity": "pub", "email": "vincellervendeglo@chello.hu", "food": "yes", "name": "Vincell\u00e9r-h\u00e1z", "opening_hours": "Mo-Su 11:00-22:00", "phone": "+36 99 325 588", "toilets:wheelchair": "no", "website": "http://www.vinceller-haz.hu/", "wheelchair": "no"}}, {"type": "node", "id": 3048136639, "lat": 47.6381847, "lon": 16.6431185, "tags": {"addr:city": "K\u00f3ph\u00e1za", "addr:housenumber": "52", "addr:postcode": "9495", "addr:street": "F\u0151 utca", "amenity": "pub", "name": "Royal", "toilets:wheelchair": "no", "wheelchair": "no"}}, {"type": "node", "id": 3048675465, "lat": 47.6328495, "lon": 16.5981475, "tags": {"addr:city": "Harka", "addr:housenumber": "22", "addr:postcode": "9422", "addr:street": "Sport utca", "amenity": "pub", "email": "alpokaljaf@gmail.com", "name": "Alpokalja", "opening_hours": "Mo-Su 14:00-22:00", "phone": "+36 99 311 715", "tourism": "guest_house"}}, {"type": "node", "id": 3053964538, "lat": 47.3434692, "lon": 16.5445362, "tags": {"amenity": "pub"}}, {"type": "node", "id": 3064312068, "lat": 47.6777463, "lon": 16.5958527, "tags": {"addr:city": "Sopron", "addr:housenumber": "2", "addr:postcode": "9400", "addr:street": "Gy\u0151ri \u00fat", "amenity": "pub", "name": "Patika", "toilets:wheelchair": "no", "wheelchair": "no"}}, {"type": "node", "id": 3066096690, "lat": 47.6829677, "lon": 16.5920946, "tags": {"addr:city": "Sopron", "addr:housenumber": "3", "addr:postcode": "9400", "addr:street": "\u00d6tv\u00f6s utca", "amenity": "pub", "name": "\u00d6tv\u00f6s Boroz\u00f3", "opening_hours": "Mo-Fr 08:00-20:00; Sa 08:00-13:00"}}, {"type": "node", "id": 3066578390, "lat": 47.6854665, "lon": 16.5745254, "tags": {"addr:city": "Sopron", "addr:housenumber": "6", "addr:postcode": "9400", "addr:street": "Baross \u00fat", "air_conditioning": "yes", "amenity": "pub", "brewery": "Heineken;Soproni", "contact:facebook": "https://facebook.com/banyaegysorozo/", "contact:phone": "+36 20 480 8437", "internet_access": "wlan", "min_age": "18", "name": "B\u00e1nya Egyetemi S\u00f6r\u00f6z\u0151", "payment:cash": "yes", "payment:coins": "yes", "payment:credit_cards": "yes", "smoking": "outside", "start_date": "2018-11", "wheelchair": "limited"}}, {"type": "node", "id": 3066595062, "lat": 47.6877597, "lon": 16.5913679, "tags": {"addr:city": "Sopron", "addr:housenumber": "15", "addr:postcode": "9400", "addr:street": "V\u00e1rker\u00fclet", "amenity": "pub", "email": "info@soproniborhaz.com", "food": "yes", "name": "Soproni Borh\u00e1z", "opening_hours": "Mo-Th 11:00-24:00;Fr-Sa 11:00-02:00", "phone": "+36 99 786 979", "website": "http://soproniborhaz.hu/"}}, {"type": "node", "id": 3066688769, "lat": 47.6798194, "lon": 16.6027627, "tags": {"addr:city": "Sopron", "addr:housenumber": "21", "addr:postcode": "9400", "addr:street": "Bercs\u00e9nyi Mikl\u00f3s utca", "amenity": "pub", "food": "yes", "name": "Bercs\u00e9nyi", "opening_hours": "Mo-Fr 16:00-24:00;Sa 11:00-24:00", "phone": "+36 99 788 007", "website": "http://bgrill.uw.hu/"}}, {"type": "node", "id": 3066688770, "lat": 47.6870961, "lon": 16.59228, "tags": {"addr:city": "Sopron", "addr:housenumber": "34", "addr:postcode": "9400", "addr:street": "V\u00e1rker\u00fclet", "amenity": "pub", "food": "yes", "name": "Serrano Bar", "opening_hours": "Mo-Su 10:00-23:45", "phone": "+36 20 911 5000", "website": "http://serranobar.com/"}}, {"type": "node", "id": 3066702767, "lat": 47.6875577, "lon": 16.5920886, "tags": {"addr:city": "Sopron", "addr:housenumber": "23", "addr:postcode": "9400", "addr:street": "V\u00e1rker\u00fclet", "amenity": "pub", "delivery": "yes", "food": "yes", "name": "Croatia", "opening_hours": "Mo-Su 11:00-02:00", "phone": "+36 99 410 510", "smoking": "no", "toilets:access": "customers", "website": "http://croatiapub.hu/"}}, {"type": "node", "id": 3066869078, "lat": 47.685371, "lon": 16.5815822, "tags": {"addr:city": "Sopron", "addr:housenumber": "6", "addr:postcode": "9400", "addr:street": "Kossuth Lajos utca", "amenity": "pub", "email": "bruckner.boraszat@gmail.com", "name": "Bruckner Bor\u00e1szat", "opening_hours": "We-Th 16:00-21:00;Fr-Sa 16:00-22:00", "phone": "+36 30 520 0160"}}, {"type": "node", "id": 3066985734, "lat": 47.6867631, "lon": 16.5886933, "tags": {"addr:city": "Sopron", "addr:housenumber": "14", "addr:postcode": "9400", "addr:street": "\u00d3gabona t\u00e9r", "amenity": "pub", "name": "Rockline"}}, {"type": "node", "id": 3067770423, "lat": 47.677279, "lon": 16.5849049, "tags": {"addr:city": "Sopron", "addr:housenumber": "1", "addr:postcode": "9400", "addr:street": "Fels\u0151b\u00fcki Nagy P\u00e1l utca", "amenity": "pub", "email": "fahazvendeglo@gmail.com", "food": "yes", "name": "Fah\u00e1z", "opening_hours": "Mo-Th,Su 12:00-22:00;Fr-Sa 12:00-23:00", "phone": "+36 20 968 0906"}}, {"type": "node", "id": 3068330230, "lat": 47.6793784, "lon": 16.5869026, "tags": {"addr:city": "Sopron", "addr:housenumber": "42", "addr:postcode": "9400", "addr:street": "Csengery utca", "amenity": "pub", "email": "info@padlasclub.hu", "name": "Padl\u00e1s Club", "opening_hours": "Mo-Su 17:00-24:00", "phone": "+36 99 346 326", "toilets:wheelchair": "no", "website": "http://padlasclub.hu/", "wheelchair": "no"}}, {"type": "node", "id": 3068386358, "lat": 47.6871721, "lon": 16.5853611, "tags": {"addr:city": "Sopron", "addr:housenumber": "1", "addr:postcode": "9400", "addr:street": "Vitny\u00e9di utca", "amenity": "pub", "name": "Zeberer", "opening_hours": "Mo 17:00-21:00;Tu-Th 08:00-13:00, Tu-Th 17:00-21:00;Fr-Su 08:00-14:00, Fr-Su 17:00-21:00", "phone": "+36 99 334 472", "website": "http://zebererborozo.uw.hu/"}}, {"type": "node", "id": 3068410146, "lat": 47.6894853, "lon": 16.5824723, "tags": {"addr:city": "Sopron", "addr:housenumber": "3", "addr:postcode": "9400", "addr:street": "Gy\u00e1r utca", "amenity": "pub", "name": "Bili\u00e1rd Klub", "opening_hours": "Mo-Su 14:00-02:00", "phone": "+36 99 784 073", "toilets:wheelchair": "no", "wheelchair": "no"}}, {"type": "node", "id": 3077636316, "lat": 47.6929371, "lon": 16.5764837, "tags": {"addr:city": "Sopron", "addr:postcode": "9400", "addr:street": "Juharfa utca", "amenity": "pub", "name": "Pelik\u00e1n", "toilets:wheelchair": "no", "wheelchair": "no"}}, {"type": "node", "id": 3080158422, "lat": 47.6893946, "lon": 16.5794081}, {"type": "node", "id": 3080158635, "lat": 47.6894408, "lon": 16.5793105}, {"type": "node", "id": 3080158638, "lat": 47.6894498, "lon": 16.5794657}, {"type": "node", "id": 3080158640, "lat": 47.6894674, "lon": 16.5794285}, {"type": "node", "id": 3080158649, "lat": 47.6895198, "lon": 16.5794833}, {"type": "node", "id": 3080158654, "lat": 47.6895484, "lon": 16.5794228}, {"type": "node", "id": 3087853857, "lat": 47.3814838, "lon": 16.5553342, "tags": {"amenity": "pub"}}, {"type": "node", "id": 3205998990, "lat": 47.3636367, "lon": 16.5760871, "tags": {"amenity": "pub", "name": "K\u00f3bor kocsma"}}, {"type": "node", "id": 3411208764, "lat": 47.3974249, "lon": 16.5374748}, {"type": "node", "id": 3411208765, "lat": 47.3974256, "lon": 16.5375888}, {"type": "node", "id": 3411208766, "lat": 47.3975813, "lon": 16.5374728}, {"type": "node", "id": 3411208767, "lat": 47.397582, "lon": 16.5375868}, {"type": "node", "id": 3411227230, "lat": 47.3817146, "lon": 16.5559147, "tags": {"amenity": "pub", "name": "\u00c1llom\u00e1s s\u00f6r\u00f6z\u0151", "toilets:wheelchair": "no", "wheelchair": "no"}}, {"type": "node", "id": 3465143441, "lat": 47.422864, "lon": 16.653092, "tags": {"amenity": "pub", "name": "Italbolt", "source": "turistautak.hu", "source:date": "2014-01-18", "url": "http://turistautak.hu/poi.php?id=127515"}}, {"type": "node", "id": 3465143486, "lat": 47.3440906, "lon": 16.4957959, "tags": {"addr:city": "Velem", "addr:housenumber": "34", "addr:postcode": "9726", "addr:street": "R\u00e1k\u00f3czi Ferenc utca", "amenity": "pub", "brewery": "yes", "name": "Pittyes kocsma", "opening_hours": "Mo 16:00-20:00; We 16:00-20:00; Th 16:00-21:00; Fr 14:00-22:00; Sa 10:00-13:00, 15:00-22:00; Su 10:00-13:00, 15:00-21:00", "source": "turistautak.hu", "source:date": "2010-09-15", "url": "http://turistautak.hu/poi.php?id=57402"}}, {"type": "node", "id": 3465143488, "lat": 47.3900828, "lon": 16.539346, "tags": {"amenity": "pub", "name": "Poncichter boroz\u00f3", "source": "turistautak.hu", "source:date": "2011-09-06", "toilets:wheelchair": "no", "url": "http://turistautak.hu/poi.php?id=50004", "wheelchair": "no"}}, {"type": "node", "id": 3465143521, "lat": 47.32839, "lon": 16.584206, "tags": {"amenity": "pub", "source": "turistautak.hu", "source:date": "2011-09-06", "url": "http://turistautak.hu/poi.php?id=68791"}}, {"type": "node", "id": 3465143575, "lat": 47.3874498, "lon": 16.5444995, "tags": {"amenity": "pub", "source": "turistautak.hu", "source:date": "2011-09-06", "url": "http://turistautak.hu/poi.php?id=39402"}}, {"type": "node", "id": 3465143624, "lat": 47.411322, "lon": 16.622914, "tags": {"amenity": "pub", "name": "Di\u00f3fa kiskocsma", "toilets:wheelchair": "no", "url": "http://turistautak.hu/poi.php?id=68787", "wheelchair": "no"}}, {"type": "node", "id": 3465143626, "lat": 47.4120353, "lon": 16.623463, "tags": {"amenity": "pub", "toilets:wheelchair": "no", "url": "http://turistautak.hu/poi.php?id=68788", "wheelchair": "no"}}, {"type": "node", "id": 3466247662, "lat": 47.441068, "lon": 16.67244, "tags": {"amenity": "pub", "source": "turistautak.hu", "source:date": "2011-09-06", "url": "http://turistautak.hu/poi.php?id=39386"}}, {"type": "node", "id": 3466253912, "lat": 47.629805, "lon": 16.5975471, "tags": {"amenity": "pub", "fixme": "resurvey (source was old)", "name": "J\u00f3bar\u00e1t boroz\u00f3", "opening_hours": "8:00-22:00", "source": "turistautak.hu", "source:date": "2008-05-14", "url": "http://turistautak.hu/poi.php?id=42897"}}, {"type": "node", "id": 3466255472, "lat": 47.689431, "lon": 16.517205, "tags": {"amenity": "pub", "name": "\u00d6reg kocsma", "source": "turistautak.hu", "source:date": "2011-01-08", "url": "http://turistautak.hu/poi.php?id=105709"}}, {"type": "node", "id": 3470004302, "lat": 47.6720107, "lon": 16.5848499, "tags": {"amenity": "pub", "fixme": "resurvey (source was old)", "name": "Balika boroz\u00f3", "source": "turistautak.hu", "source:date": "2008-05-14", "url": "http://turistautak.hu/poi.php?id=14939"}}, {"type": "node", "id": 3470004336, "lat": 47.6824302, "lon": 16.5761063, "tags": {"addr:city": "Sopron", "addr:housenumber": "9", "addr:postcode": "9400", "addr:street": "Ady Endre utca", "amenity": "pub", "name": "Kishord\u00f3 boroz\u00f3", "source": "turistautak.hu", "source:date": "2015-01-15", "url": "http://turistautak.hu/poi.php?id=14106"}}, {"type": "node", "id": 3470004373, "lat": 47.6768331, "lon": 16.56768, "tags": {"amenity": "pub", "name": "Sas fogad\u00f3 \u00e9s s\u00f6r\u00f6z\u0151", "phone": "+36 99 316 183;+36 30 400 2537", "source": "turistautak.hu", "source:date": "2010-12-05", "url": "http://turistautak.hu/poi.php?id=14109", "website": "http://sasfogado.uw.hu/"}}, {"type": "node", "id": 3511766584, "lat": 47.3044438, "lon": 16.5913584, "tags": {"amenity": "pub"}}, {"type": "node", "id": 4153582745, "lat": 47.5114338, "lon": 16.494332}, {"type": "node", "id": 4153582746, "lat": 47.5113165, "lon": 16.4945579}, {"type": "node", "id": 4153582747, "lat": 47.5113296, "lon": 16.4945729}, {"type": "node", "id": 4153582748, "lat": 47.5112632, "lon": 16.4947009}, {"type": "node", "id": 4153582749, "lat": 47.5111994, "lon": 16.4946282}, {"type": "node", "id": 4153582750, "lat": 47.5112257, "lon": 16.4945774}, {"type": "node", "id": 4153582751, "lat": 47.5111621, "lon": 16.4945049}, {"type": "node", "id": 4153582752, "lat": 47.5112984, "lon": 16.4942423}, {"type": "node", "id": 4153582753, "lat": 47.5112865, "lon": 16.4942287}, {"type": "node", "id": 4153582754, "lat": 47.511327, "lon": 16.4941458}, {"type": "node", "id": 4294277103, "lat": 47.5409484, "lon": 16.5517256, "tags": {"amenity": "pub", "name": "Rozsenich"}}, {"type": "node", "id": 4334134699, "lat": 47.4082901, "lon": 16.498438, "tags": {"amenity": "pub", "cuisine": "regional", "internet_access": "wlan", "name": "Hutter Loisl"}}, {"type": "node", "id": 4549037335, "lat": 47.6703241, "lon": 16.5957582, "tags": {"addr:city": "Sopron", "addr:housenumber": "22", "addr:postcode": "9400", "addr:street": "R\u00e9pcef\u0151i sor", "amenity": "pub", "name": "Ott\u00f3 Pince Boroz\u00f3 \u00e9s Panzi\u00f3"}}, {"type": "node", "id": 4549964152, "lat": 47.3620957, "lon": 16.6769588}, {"type": "node", "id": 4549964154, "lat": 47.3621335, "lon": 16.6771553}, {"type": "node", "id": 4549964159, "lat": 47.3621833, "lon": 16.6769221}, {"type": "node", "id": 4549964164, "lat": 47.3622211, "lon": 16.6771186}, {"type": "node", "id": 4933475942, "lat": 47.688763, "lon": 16.5682674, "tags": {"amenity": "pub", "fixme": "verify", "name": "Free Time Klub \u00e9s Rendezv\u00e9nyh\u00e1z", "source": "route4u"}}, {"type": "node", "id": 4933475946, "lat": 47.6894449, "lon": 16.5793917, "tags": {"addr:city": "Sopron", "addr:housenumber": "4", "addr:postcode": "9400", "addr:street": "Nagymartoni utca", "amenity": "pub", "fixme": "verify", "name": "O\u00e1zis Kiskocsma", "source": "route4u", "toilets:wheelchair": "no", "wheelchair": "limited"}}, {"type": "node", "id": 4933475953, "lat": 47.6907789, "lon": 16.5643035, "tags": {"amenity": "pub", "fixme": "verify", "name": "Depo", "source": "route4u", "toilets:wheelchair": "no", "wheelchair": "no"}}, {"type": "node", "id": 4939178090, "lat": 47.3810624, "lon": 16.5438046, "tags": {"amenity": "pub", "fixme": "verify", "name": "Barak S\u00f6r\u00f6z\u0151", "source": "route4u", "toilets:wheelchair": "no", "wheelchair": "no"}}, {"type": "node", "id": 4939178093, "lat": 47.6870587, "lon": 16.5950931, "tags": {"amenity": "pub", "fixme": "verify", "name": "N\u00e1dor Pince", "source": "route4u", "toilets:wheelchair": "no", "wheelchair": "no"}}, {"type": "node", "id": 4939178456, "lat": 47.6847229, "lon": 16.5796097, "tags": {"addr:city": "Sopron", "addr:housenumber": "21", "addr:postcode": "9400", "addr:street": "Kossuth Lajos utca", "amenity": "pub", "name": "Steeg", "source": "route4u"}}, {"type": "node", "id": 4939179241, "lat": 47.6913017, "lon": 16.5816667, "tags": {"amenity": "pub", "name": "Aramis S\u00f6r\u00f6z\u0151 \u00e9s K\u00e1v\u00e9z\u00f3", "toilets:wheelchair": "no", "wheelchair": "no"}}, {"type": "node", "id": 4939280028, "lat": 47.680346, "lon": 16.5811729, "tags": {"amenity": "pub", "fixme": "verify", "name": "Pince Klub", "source": "route4u", "toilets:wheelchair": "no", "wheelchair": "no"}}, {"type": "node", "id": 5100751635, "lat": 47.6870063, "lon": 16.5933663, "tags": {"amenity": "pub", "name": "Koffer Borb\u00e1r"}}, {"type": "node", "id": 5840515758, "lat": 47.682758, "lon": 16.5737006}, {"type": "node", "id": 5840515759, "lat": 47.6827602, "lon": 16.5737938}, {"type": "node", "id": 5840515760, "lat": 47.6826428, "lon": 16.5738}, {"type": "node", "id": 5840515761, "lat": 47.6826406, "lon": 16.5737068}, {"type": "node", "id": 6101403918, "lat": 47.6872448, "lon": 16.5917602, "tags": {"amenity": "pub", "name": "Sansz s\u00f6r\u00f6z\u0151"}}, {"type": "node", "id": 7074461056, "lat": 47.4133163, "lon": 16.3615328, "tags": {"addr:city": "Deutsch Gerisdorf", "addr:housenumber": "7", "addr:postcode": "7441", "addr:street": "Obere Gasse", "amenity": "pub", "name": "Gasthaus Bleier"}}, {"type": "node", "id": 7247393932, "lat": 47.6795024, "lon": 16.5865577, "tags": {"amenity": "pub", "name": "Fleck boroz\u00f3"}}, {"type": "node", "id": 7247393933, "lat": 47.6804559, "lon": 16.5843395, "tags": {"amenity": "pub", "name": "Boszi boroz\u00f3"}}, {"type": "node", "id": 7476320826, "lat": 47.3843133, "lon": 16.5458146, "tags": {"amenity": "pub"}}, {"type": "node", "id": 9514635657, "lat": 47.6829951, "lon": 16.586138, "tags": {"amenity": "pub", "name": "Bruckner"}}, {"type": "node", "id": 9514635694, "lat": 47.6928717, "lon": 16.5871222, "tags": {"amenity": "pub", "name": "Kiss-fr\u00f6ccs"}}, {"type": "node", "id": 9514666774, "lat": 47.6812552, "lon": 16.5933925, "tags": {"amenity": "pub", "name": "Ikva"}}, {"type": "node", "id": 9514679644, "lat": 47.6846656, "lon": 16.5931062, "tags": {"amenity": "pub", "name": "Tramini"}}, {"type": "node", "id": 9515637722, "lat": 47.68606, "lon": 16.5641642, "tags": {"amenity": "pub", "name": "Vitorl\u00e1s"}}, {"type": "node", "id": 9522292757, "lat": 47.6929991, "lon": 16.5853455, "tags": {"amenity": "pub", "name": "Csiki kocsma"}}, {"type": "node", "id": 9526181551, "lat": 47.6771544, "lon": 16.606862, "tags": {"amenity": "pub", "name": "K\u00e9sm\u00e1rki"}}, {"type": "way", "id": 260418695, "nodes": [2659093001, 1495486440, 2659092999, 2659093002, 1495486445, 1495486487, 2659093000, 2659093003, 2659093004, 2659093001], "tags": {"addr:city": "Markt Sankt Martin", "addr:housenumber": "78", "addr:postcode": "7341", "addr:street": "Hauptstra\u00dfe", "amenity": "pub", "building": "yes"}}, {"type": "way", "id": 303614296, "nodes": [3080158635, 3080158654, 3080158649, 3080158640, 3080158638, 3080158422, 3080158635], "tags": {"addr:city": "Sopron", "addr:housenumber": "4", "addr:postcode": "9400", "addr:street": "Nagymartoni utca", "amenity": "pub", "building": "yes"}}, {"type": "way", "id": 334042095, "nodes": [3411208766, 3411208767, 3411208765, 3411208764, 3411208766], "tags": {"amenity": "pub", "building": "yes"}}, {"type": "way", "id": 414181950, "nodes": [4153582745, 4153582746, 4153582747, 4153582748, 4153582749, 4153582750, 4153582751, 4153582752, 4153582753, 4153582754, 4153582745], "tags": {"addr:city": "Stoob", "addr:country": "AT", "addr:housenumber": "36", "addr:place": "Stoob-S\u00fcd", "addr:postcode": "7344", "amenity": "pub", "at_bev:addr_date": "2018-10-01", "building": "yes", "source": "geoimage.at"}}, {"type": "way", "id": 459080445, "nodes": [4549964159, 4549964152, 4549964154, 4549964164, 4549964159], "tags": {"amenity": "pub", "building": "retail", "name": "Luka S\u00f6r\u00f6z\u0151", "outdoor_seating": "yes", "smoking": "outside"}}, {"type": "way", "id": 617880875, "nodes": [5840515758, 5840515759, 5840515760, 5840515761, 5840515758], "tags": {"amenity": "pub", "building": "yes"}}]}