{"version": 0.6, "generator": "Overpass API 0.7.59 e21c39fe", "osm3s": {"timestamp_osm_base": "2023-01-21T09:47:07Z", "copyright": "The data included in this document is from www.openstreetmap.org. The data is made available under ODbL."}, "elements": [{"type": "node", "id": 1675001076, "lat": 48.1834804, "lon": 22.6125246}, {"type": "node", "id": 2315397151, "lat": 48.1956008, "lon": 22.6546732}, {"type": "node", "id": 2344347283, "lat": 48.1747658, "lon": 22.6085124, "tags": {"amenity": "fuel"}}, {"type": "node", "id": 2344347313, "lat": 48.1781277, "lon": 22.6097259, "tags": {"addr:housenumber": "1\u0430", "addr:street": "\u0414\u0440\u0443\u0436\u0431\u0438 \u041d\u0430\u0440\u043e\u0434\u0456\u0432 \u0432\u0443\u043b\u0438\u0446\u044f", "amenity": "fuel", "brand": "Amic", "brand:wikidata": "Q96047373", "name": "AMIC Energy"}}, {"type": "node", "id": 2520899786, "lat": 48.2009335, "lon": 22.6348834, "tags": {"amenity": "fuel", "brand": "ANP", "name": "ANP"}}, {"type": "node", "id": 2520899886, "lat": 48.1834067, "lon": 22.6124794}, {"type": "node", "id": 2520899889, "lat": 48.183437, "lon": 22.612368}, {"type": "node", "id": 2520899891, "lat": 48.1835108, "lon": 22.6124132}, {"type": "node", "id": 2520899898, "lat": 48.1843633, "lon": 22.6132261}, {"type": "node", "id": 2520899900, "lat": 48.1843872, "lon": 22.6131368}, {"type": "node", "id": 2520899902, "lat": 48.1844402, "lon": 22.6132726}, {"type": "node", "id": 2520899907, "lat": 48.1844642, "lon": 22.6131832}, {"type": "node", "id": 2520899944, "lat": 48.1956307, "lon": 22.6548798}, {"type": "node", "id": 2520899946, "lat": 48.1957329, "lon": 22.6546302}, {"type": "node", "id": 2520899948, "lat": 48.1957628, "lon": 22.6548368}, {"type": "node", "id": 2520900007, "lat": 48.2020136, "lon": 22.6343564}, {"type": "node", "id": 2520900009, "lat": 48.2020769, "lon": 22.6345741}, {"type": "node", "id": 2520900016, "lat": 48.2021083, "lon": 22.6342944}, {"type": "node", "id": 2520900018, "lat": 48.2021716, "lon": 22.6345122}, {"type": "node", "id": 2520900113, "lat": 48.2013024, "lon": 22.6351311, "tags": {"amenity": "fuel", "brand": "\u0423\u043a\u0440\u043d\u0430\u0444\u0442\u0430", "brand:en": "Ukrnafta", "brand:uk": "\u0423\u043a\u0440\u043d\u0430\u0444\u0442\u0430", "brand:wikidata": "Q2447961", "brand:wikipedia": "uk:\u0423\u043a\u0440\u043d\u0430\u0444\u0442\u0430", "name": "\u0423\u043a\u0440\u043d\u0430\u0444\u0442\u0430", "name:en": "Ukrnafta", "name:uk": "\u0423\u043a\u0440\u043d\u0430\u0444\u0442\u0430"}}, {"type": "node", "id": 2524267911, "lat": 48.2564287, "lon": 22.4532306}, {"type": "node", "id": 2524267914, "lat": 48.2564581, "lon": 22.4532691}, {"type": "node", "id": 2524267916, "lat": 48.2564695, "lon": 22.4531603}, {"type": "node", "id": 2524267919, "lat": 48.2564989, "lon": 22.4531987}, {"type": "node", "id": 2524267920, "lat": 48.256502, "lon": 22.4552492}, {"type": "node", "id": 2524267923, "lat": 48.2565413, "lon": 22.4553557}, {"type": "node", "id": 2524267925, "lat": 48.2565677, "lon": 22.4551945}, {"type": "node", "id": 2524267926, "lat": 48.2566071, "lon": 22.455301}, {"type": "node", "id": 2524267941, "lat": 48.2729913, "lon": 22.4616255}, {"type": "node", "id": 2524267943, "lat": 48.2730802, "lon": 22.4617672}, {"type": "node", "id": 2524267945, "lat": 48.2730541, "lon": 22.4615366}, {"type": "node", "id": 2524267946, "lat": 48.273143, "lon": 22.4616783}, {"type": "node", "id": 3427780262, "lat": 48.2669361, "lon": 22.4628264, "tags": {"addr:city": "\u041a\u043e\u0441\u043e\u043d\u044c", "addr:housenumber": "162", "addr:postcode": "90223", "addr:street": "\u041b\u0430\u0439\u043e\u0448\u0430 \u041a\u043e\u0448\u0443\u0442\u0430 \u0432\u0443\u043b\u0438\u0446\u044f", "amenity": "fuel", "fuel:diesel": "yes", "fuel:octane_92": "yes", "fuel:octane_95": "yes", "name": "\u041c\u0430\u0440\u043a\u0435\u0442"}}, {"type": "node", "id": 3444920282, "lat": 48.312067, "lon": 22.3366619, "tags": {"addr:city": "\u0413\u043e\u0440\u043e\u043d\u0433\u043b\u0430\u0431", "addr:housenumber": "90", "addr:postcode": "90214", "addr:street": "\u041f\u0440\u0438\u043a\u043e\u0440\u0434\u043e\u043d\u043d\u0430 \u0432\u0443\u043b\u0438\u0446\u044f", "amenity": "fuel", "brand": "\u0410\u0432\u0456\u0430\u0441", "brand:wikidata": "Q12122687", "brand:wikipedia": "uk:\u041c\u0435\u0440\u0435\u0436\u0430 \u0410\u0417\u0421 \u041f\u0440\u0438\u0432\u0430\u0442", "name": "\u0410\u0432\u0456\u0430\u0441 \u041f\u043b\u044e\u0441", "name:en": "Avias Plus", "name:ru": "\u0410\u0432\u0438\u0430\u0441 \u041f\u043b\u044e\u0441", "name:uk": "\u0410\u0432\u0456\u0430\u0441 \u041f\u043b\u044e\u0441", "operator": "\u0410\u0417\u0421 \u041f\u0440\u0438\u0432\u0430\u0442", "website": "http://avias.com.ua"}}, {"type": "node", "id": 6732312661, "lat": 48.1980788, "lon": 22.6236299}, {"type": "node", "id": 6732312662, "lat": 48.1979261, "lon": 22.6237324}, {"type": "node", "id": 6732312663, "lat": 48.1978894, "lon": 22.6236094}, {"type": "node", "id": 6732312664, "lat": 48.1980421, "lon": 22.6235069}, {"type": "node", "id": 7090516008, "lat": 48.1969217, "lon": 22.6531248}, {"type": "node", "id": 7090516009, "lat": 48.196944, "lon": 22.653285}, {"type": "node", "id": 7090516010, "lat": 48.1967854, "lon": 22.6533345}, {"type": "node", "id": 7090516011, "lat": 48.1967632, "lon": 22.6531742}, {"type": "node", "id": 7644385483, "lat": 48.202033, "lon": 22.634423}, {"type": "node", "id": 8375628260, "lat": 48.1913154, "lon": 22.6550863}, {"type": "node", "id": 8375628261, "lat": 48.1913687, "lon": 22.6551196}, {"type": "node", "id": 8375628262, "lat": 48.191318, "lon": 22.6551269}, {"type": "node", "id": 8375628263, "lat": 48.1913742, "lon": 22.6552048}, {"type": "node", "id": 8375628264, "lat": 48.1912423, "lon": 22.6552239}, {"type": "node", "id": 8375628265, "lat": 48.1912342, "lon": 22.655098}, {"type": "node", "id": 8436067439, "lat": 48.1817096, "lon": 22.6563916, "tags": {"addr:city": "\u0411\u0435\u0440\u0435\u0433\u043e\u0432\u0435", "addr:housenumber": "56", "addr:postcode": "90202", "addr:street": "\u041c\u0443\u0436\u0430\u0439\u0441\u044c\u043a\u0430 \u0432\u0443\u043b\u0438\u0446\u044f", "amenity": "fuel", "brand": "\u041c\u0430\u0440\u043a\u0435\u0442", "name": "\u041c\u0430\u0440\u043a\u0435\u0442"}}, {"type": "way", "id": 244818785, "nodes": [2520900016, 2520900018, 2520900009, 7644385483, 2520900007, 2520900016], "tags": {"addr:housenumber": "86", "amenity": "fuel", "brand": "\u041e\u041a\u041a\u041e", "brand:en": "OKKO", "brand:wikidata": "Q7072617", "brand:wikipedia": "en:OKKO", "building": "yes", "building:levels": "1", "name": "\u041e\u041a\u041a\u041e", "name:en": "OKKO", "roof:shape": "flat"}}, {"type": "way", "id": 244818792, "nodes": [2520899946, 2520899948, 2520899944, 2315397151, 2520899946], "tags": {"addr:housenumber": "99", "amenity": "fuel", "brand": "\u041e\u041a\u041a\u041e", "brand:en": "OKKO", "brand:wikidata": "Q7072617", "brand:wikipedia": "en:OKKO", "building": "yes", "building:levels": "1", "name": "\u041e\u041a\u041a\u041e", "name:en": "OKKO", "name:uk": "\u041e\u041a\u041a\u041e", "roof:shape": "flat"}}, {"type": "way", "id": 244818797, "nodes": [2520899891, 1675001076, 2520899886, 2520899889, 2520899891], "tags": {"addr:city": "\u0414\u0438\u0439\u0434\u0430", "addr:housenumber": "1", "addr:postcode": "90234", "addr:street": "\u0410\u0441\u0442\u0435\u0439\u0441\u044c\u043a\u0430 \u0432\u0443\u043b\u0438\u0446\u044f", "amenity": "fuel", "building": "retail", "building:levels": "1", "name": "Sun Oil", "roof:shape": "flat"}}, {"type": "way", "id": 244818799, "nodes": [2520899907, 2520899902, 2520899898, 2520899900, 2520899907], "tags": {"addr:city": "\u0414\u0438\u0439\u0434\u0430", "addr:housenumber": "3", "addr:postcode": "90234", "addr:street": "\u0410\u0441\u0442\u0435\u0439\u0441\u044c\u043a\u0430 \u0432\u0443\u043b\u0438\u0446\u044f", "amenity": "fuel", "brand": "\u0423\u043a\u0440\u043d\u0430\u0444\u0442\u0430", "brand:en": "Ukrnafta", "brand:uk": "\u0423\u043a\u0440\u043d\u0430\u0444\u0442\u0430", "brand:wikidata": "Q2447961", "brand:wikipedia": "uk:\u0423\u043a\u0440\u043d\u0430\u0444\u0442\u0430", "building": "retail", "building:levels": "1", "name": "\u0423\u043a\u0440\u043d\u0430\u0444\u0442\u0430", "name:en": "Ukrnafta", "name:uk": "\u0423\u043a\u0440\u043d\u0430\u0444\u0442\u0430", "roof:shape": "flat"}}, {"type": "way", "id": 245189934, "nodes": [2524267916, 2524267919, 2524267914, 2524267911, 2524267916], "tags": {"amenity": "fuel", "brand": "ANP", "building": "yes", "building:levels": "1", "name": "ANP", "roof:shape": "flat"}}, {"type": "way", "id": 245189937, "nodes": [2524267925, 2524267926, 2524267923, 2524267920, 2524267925], "tags": {"amenity": "fuel", "brand": "WOG", "brand:wikidata": "Q12072939", "brand:wikipedia": "en:WOG (gas stations)", "building": "yes", "building:levels": "1", "name": "WOG", "opening_hours": "24/7", "operator": "WOG", "owner": "\u041f\u0410\u0422 \"\u041a\u043e\u043d\u0442\u0438\u043d\u0435\u043d\u0442\u041d\u0430\u0444\u0442\u043e\u0422\u0440\u0435\u0439\u0434\"", "roof:shape": "flat", "website": "https://wog.ua/"}}, {"type": "way", "id": 245189939, "nodes": [2524267945, 2524267946, 2524267943, 2524267941, 2524267945], "tags": {"addr:city": "\u041a\u043e\u0441\u043e\u043d\u044c", "addr:housenumber": "151\u0431", "addr:postcode": "90223", "addr:street": "\u041b\u0430\u0439\u043e\u0448\u0430 \u041a\u043e\u0448\u0443\u0442\u0430 \u0432\u0443\u043b\u0438\u0446\u044f", "amenity": "fuel", "brand": "CHIPO", "brand:wikidata": "Q112082302", "building": "retail", "building:levels": "1", "fuel:diesel": "yes", "fuel:lpg": "yes", "fuel:octane_92": "yes", "fuel:octane_95": "yes", "name": "Chipo", "opening_hours": "24/7", "operator": "\u0422\u041e\u0412 \"\u041f\u041e\u0414\u0406\u041b\u041b\u042f\u041d\u0410\u0424\u0422\u041e\u0417\u0411\u0423\u0422\"", "ref": "55", "roof:shape": "flat", "shop": "convenience", "vending": "coffee", "website": "https://chipo.ua/"}}, {"type": "way", "id": 716753294, "nodes": [6732312664, 6732312663, 6732312662, 6732312661, 6732312664], "tags": {"addr:city": "\u0411\u0435\u0440\u0435\u0433\u043e\u0432\u0435", "addr:housenumber": "135\u0430", "addr:postcode": "90201", "addr:street": "\u0411\u043e\u0433\u0434\u0430\u043d\u0430 \u0425\u043c\u0435\u043b\u044c\u043d\u0438\u0446\u044c\u043a\u043e\u0433\u043e \u0432\u0443\u043b\u0438\u0446\u044f", "amenity": "fuel", "brand": "IFG", "building": "retail", "fuel:diesel": "yes", "fuel:octane_95": "yes", "name": "IFG"}}, {"type": "way", "id": 759136076, "nodes": [7090516008, 7090516009, 7090516010, 7090516011, 7090516008], "tags": {"amenity": "fuel", "building": "retail"}}, {"type": "way", "id": 901631467, "nodes": [8375628265, 8375628260, 8375628262, 8375628261, 8375628263, 8375628264, 8375628265], "tags": {"addr:city": "\u0411\u0435\u0440\u0435\u0433\u043e\u0432\u0435", "addr:housenumber": "54\u0430", "addr:postcode": "90202", "addr:street": "\u041c\u0443\u0436\u0430\u0439\u0441\u044c\u043a\u0430 \u0432\u0443\u043b\u0438\u0446\u044f", "amenity": "fuel", "brand": "ANP", "building": "yes", "name": "ANP"}}]}