{"version": 0.6, "generator": "Overpass API 0.7.59 e21c39fe", "osm3s": {"timestamp_osm_base": "2023-01-21T09:47:07Z", "copyright": "The data included in this document is from www.openstreetmap.org. The data is made available under ODbL."}, "elements": [{"type": "node", "id": 459565006, "lat": 47.9440271, "lon": 21.7382684, "tags": {"addr:city": "Ny\u00edregyh\u00e1za", "addr:housenumber": "71", "addr:postcode": "4400", "addr:street": "K\u00e1ll\u00f3i \u00fat", "air_conditioning": "yes", "amenity": "fuel", "brand": "MOL", "brand:wikidata": "Q549181", "brand:wikipedia": "hu:MOL Magyar Olaj- \u00e9s G\u00e1zipari Nyrt.", "compressed_air": "yes", "contact:facebook": "https://www.facebook.com/mol.magyarorszag/", "contact:instagram": "https://www.instagram.com/mol.magyarorszag/", "contact:website": "https://www.mol.hu", "contact:youtube": "https://www.youtube.com/user/molgrouptv", "food": "no", "fuel:GTL_diesel": "yes", "fuel:adblue": "no", "fuel:diesel": "yes", "fuel:lpg": "no", "fuel:octane_100": "yes", "fuel:octane_95": "yes", "name": "MOL", "opening_hours": "Mo-Su 00:00-24:00+", "operator": "MOL Nyrt.", "operator:addr": "1117 Budapest, Domb\u00f3v\u00e1ri \u00fat 28.", "payment:cash": "yes", "payment:contactless": "yes", "payment:maestro": "yes", "payment:mastercard": "yes", "payment:mastercard_contactless": "yes", "payment:mastercard_electronic": "yes", "payment:visa": "yes", "payment:visa_electron": "yes", "ref:HU:company": "01-10-041683", "ref:HU:vatin": "10625790-4-44", "rent:lpg_bottles": "no", "source": "website", "source:date": "2022-05-21", "truck": "no"}}, {"type": "node", "id": 1293287015, "lat": 47.9615795, "lon": 21.7058745, "tags": {"addr:city": "Ny\u00edregyh\u00e1za", "addr:postcode": "4400", "addr:street": "Sz\u00e9na t\u00e9r", "air_conditioning": "yes", "amenity": "fuel", "brand": "MOL", "brand:wikidata": "Q549181", "brand:wikipedia": "hu:MOL Magyar Olaj- \u00e9s G\u00e1zipari Nyrt.", "compressed_air": "yes", "contact:facebook": "https://www.facebook.com/mol.magyarorszag/", "contact:instagram": "https://www.instagram.com/mol.magyarorszag/", "contact:website": "https://www.mol.hu", "contact:youtube": "https://www.youtube.com/user/molgrouptv", "food": "yes", "fuel:GTL_diesel": "yes", "fuel:adblue": "no", "fuel:diesel": "yes", "fuel:lpg": "no", "fuel:octane_100": "yes", "fuel:octane_95": "yes", "name": "MOL", "opening_hours": "24/7", "operator": "MOL Nyrt.", "operator:addr": "1117 Budapest, Domb\u00f3v\u00e1ri \u00fat 28.", "payment:cash": "yes", "payment:contactless": "yes", "payment:maestro": "yes", "payment:mastercard": "yes", "payment:mastercard_contactless": "yes", "payment:mastercard_electronic": "yes", "payment:visa": "yes", "payment:visa_electron": "yes", "ref:HU:company": "01-10-041683", "ref:HU:vatin": "10625790-4-44", "rent:lpg_bottles": "yes", "source": "website", "source:date": "2022-05-21", "truck": "no"}}, {"type": "node", "id": 1827811408, "lat": 47.9590192, "lon": 21.7041085, "tags": {"addr:city": "Ny\u00edregyh\u00e1za", "addr:housenumber": "28-40", "addr:postcode": "4400", "addr:street": "Mez\u0151 utca", "amenity": "fuel", "brand": "Shell", "internet_access": "wlan", "name": "Shell", "opening_hours": "Mo-Su 06:00-22:00", "operator": "Shell", "phone": "+36 42 504 182", "website": "https://www.shell.hu/"}}, {"type": "node", "id": 1829164443, "lat": 47.9544174, "lon": 21.7044219, "tags": {"addr:city": "Ny\u00edregyh\u00e1za", "addr:housenumber": "18", "addr:postcode": "4400", "addr:street": "Vasgy\u00e1r utca", "air_conditioning": "yes", "amenity": "fuel", "brand": "MOL", "brand:wikidata": "Q549181", "brand:wikipedia": "hu:MOL Magyar Olaj- \u00e9s G\u00e1zipari Nyrt.", "compressed_air": "yes", "contact:facebook": "https://www.facebook.com/mol.magyarorszag/", "contact:instagram": "https://www.instagram.com/mol.magyarorszag/", "contact:website": "https://www.mol.hu", "contact:youtube": "https://www.youtube.com/user/molgrouptv", "food": "no", "fuel:GTL_diesel": "yes", "fuel:adblue": "no", "fuel:diesel": "yes", "fuel:lpg": "yes", "fuel:octane_100": "yes", "fuel:octane_95": "yes", "name": "MOL", "opening_hours": "Mo-Su 06:00-22:00", "operator": "MOL Nyrt.", "operator:addr": "1117 Budapest, Domb\u00f3v\u00e1ri \u00fat 28.", "payment:cash": "yes", "payment:contactless": "yes", "payment:maestro": "yes", "payment:mastercard": "yes", "payment:mastercard_contactless": "yes", "payment:mastercard_electronic": "yes", "payment:visa": "yes", "payment:visa_electron": "yes", "ref:HU:company": "01-10-041683", "ref:HU:vatin": "10625790-4-44", "rent:lpg_bottles": "yes", "source": "website", "source:date": "2022-05-21", "truck": "no"}}, {"type": "node", "id": 2565528196, "lat": 48.1341809, "lon": 21.7063007, "tags": {"amenity": "fuel"}}, {"type": "node", "id": 2610743986, "lat": 47.9023357, "lon": 21.7124534, "tags": {"addr:city": "Ny\u00edregyh\u00e1za", "addr:postcode": "4400", "addr:suburb": "Rozsr\u00e9tsz\u0151l\u0151", "amenity": "fuel", "brand": "LUKOIL", "email": "info.HU@eu.lukoil.com", "name": "LUKOIL", "opening_hours": "24/7", "operator": "LUKOIL Magyarorsz\u00e1g Kft.", "website": "http://www.lukoil.hu"}}, {"type": "node", "id": 2767238176, "lat": 47.9573236, "lon": 21.6853509, "tags": {"addr:city": "Ny\u00edregyh\u00e1za", "addr:postcode": "4400", "addr:street": "Tiszavasv\u00e1ri \u00fat", "air_conditioning": "yes", "amenity": "fuel", "brand": "OMV", "brand:wikidata": "Q168238", "brand:wikipedia": "en:OMV", "compressed_air": "yes", "contact:email": "info.hungary@omv.com", "contact:facebook": "https://www.facebook.com/omvmagyarorszag", "contact:fax": "+36 1 381 9899", "contact:instagram": "https://www.instagram.com/omv/", "contact:linkedin": "https://www.linkedin.com/company/omv", "contact:phone": "+36 42 417 854", "contact:twitter": "omv", "contact:website": "https://www.omv.hu", "contact:youtube": "https://www.youtube.com/user/omvofficial", "fuel:GTL_diesel": "yes", "fuel:diesel": "yes", "fuel:octane_100": "yes", "fuel:octane_95": "yes", "name": "OMV", "opening_hours": "Mo-Su 06:00-22:00; PH off", "opening_hours:covid19": "same", "operator": "OMV Hung\u00e1ria Kft.", "operator:addr": "1117 Budapest, Okt\u00f3ber huszonharmadika utca 6-10 5. emelet 5/A.", "payment:cash": "yes", "payment:contactless": "yes", "payment:maestro": "yes", "payment:mastercard": "yes", "payment:mastercard_contactless": "yes", "payment:mastercard_electronic": "yes", "payment:visa": "yes", "payment:visa_electron": "yes", "ref:HU:company": "01-09-071584", "ref:HU:vatin": "10542925-2-44", "ref:vatin": "HU10542925", "source": "website", "source:date": "2020-10-03"}}, {"type": "node", "id": 2767261626, "lat": 47.9630002, "lon": 21.7257493}, {"type": "node", "id": 2767262770, "lat": 47.9701617, "lon": 21.7377825, "tags": {"addr:city": "Ny\u00edregyh\u00e1za", "addr:housenumber": "36", "addr:postcode": "4400", "addr:street": "Pazonyi \u00fat", "amenity": "fuel", "brand": "Shell", "internet_access": "wlan", "name": "Shell", "opening_hours": "24/7", "operator": "Shell", "phone": "+36 42 727 984", "website": "https://www.shell.hu/"}}, {"type": "node", "id": 2767272411, "lat": 47.9179782, "lon": 21.7189126, "tags": {"amenity": "fuel", "name": "Metro-Envi", "toilets:wheelchair": "yes", "wheelchair": "yes"}}, {"type": "node", "id": 2777233518, "lat": 47.9777637, "lon": 21.6863319, "tags": {"addr:city": "Ny\u00edregyh\u00e1za", "addr:postcode": "4400", "addr:street": "Tokaji \u00fat", "air_conditioning": "yes", "amenity": "fuel", "brand": "MOL", "brand:wikidata": "Q549181", "brand:wikipedia": "hu:MOL Magyar Olaj- \u00e9s G\u00e1zipari Nyrt.", "compressed_air": "yes", "contact:facebook": "https://www.facebook.com/mol.magyarorszag/", "contact:instagram": "https://www.instagram.com/mol.magyarorszag/", "contact:website": "https://www.mol.hu", "contact:youtube": "https://www.youtube.com/user/molgrouptv", "food": "yes", "fuel:GTL_diesel": "yes", "fuel:adblue": "no", "fuel:diesel": "yes", "fuel:lpg": "yes", "fuel:octane_100": "yes", "fuel:octane_95": "yes", "name": "MOL", "opening_hours": "Mo-Su 06:00-22:00", "operator": "MOL Nyrt.", "operator:addr": "1117 Budapest, Domb\u00f3v\u00e1ri \u00fat 28.", "payment:cash": "yes", "payment:contactless": "yes", "payment:maestro": "yes", "payment:mastercard": "yes", "payment:mastercard_contactless": "yes", "payment:mastercard_electronic": "yes", "payment:visa": "yes", "payment:visa_electron": "yes", "ref:HU:company": "01-10-041683", "ref:HU:vatin": "10625790-4-44", "rent:lpg_bottles": "yes", "source": "website", "source:date": "2022-05-21", "truck": "no"}}, {"type": "node", "id": 2789261807, "lat": 47.8353777, "lon": 22.1399252, "tags": {"amenity": "fuel"}}, {"type": "node", "id": 2993080530, "lat": 47.9459823, "lon": 21.7251951}, {"type": "node", "id": 2993080531, "lat": 47.945694, "lon": 21.7251372}, {"type": "node", "id": 2993080532, "lat": 47.9456772, "lon": 21.7253235}, {"type": "node", "id": 2993082233, "lat": 47.9459655, "lon": 21.7253814}, {"type": "node", "id": 3029317254, "lat": 47.9524782, "lon": 21.7426658, "tags": {"addr:city": "Ny\u00edregyh\u00e1za", "addr:housenumber": "22", "addr:postcode": "4400", "addr:street": "Orosi \u00fat", "amenity": "fuel", "brand": "Shell", "internet_access": "wlan", "name": "Shell", "opening_hours": "24/7", "operator": "Shell", "phone": "+36 42 451 611", "website": "https://www.shell.hu/"}}, {"type": "node", "id": 3044536493, "lat": 47.9629474, "lon": 21.7257317}, {"type": "node", "id": 3044536496, "lat": 47.9629673, "lon": 21.7259693}, {"type": "node", "id": 3044536497, "lat": 47.9630483, "lon": 21.7259962}, {"type": "node", "id": 3044536498, "lat": 47.9631294, "lon": 21.7254521}, {"type": "node", "id": 3044536499, "lat": 47.9629957, "lon": 21.7254076}, {"type": "node", "id": 3044536500, "lat": 47.962978, "lon": 21.7255259}, {"type": "node", "id": 3091438225, "lat": 47.936464, "lon": 21.7427883, "tags": {"addr:city": "Ny\u00edregyh\u00e1za", "addr:housenumber": "9", "addr:postcode": "4405", "addr:street": "Lujza utca", "amenity": "fuel", "name": "OPLUS"}}, {"type": "node", "id": 3091519195, "lat": 48.0110693, "lon": 21.73839, "tags": {"amenity": "fuel", "name": "S\u00f3st\u00f3 Petrol"}}, {"type": "node", "id": 3393827764, "lat": 47.968587, "lon": 21.7244969, "tags": {"addr:city": "Ny\u00edregyh\u00e1za", "addr:housenumber": "14", "addr:postcode": "4400", "addr:street": "Kor\u00e1nyi Frigyes utca", "amenity": "fuel", "brand": "Shell", "brand:wikidata": "Q154950", "brand:wikipedia": "en:Royal Dutch Shell", "compressed_air": "yes", "internet_access": "wlan", "name": "Shell", "opening_hours": "24/7", "operator": "Shell", "phone": "+36 42 595 557", "website": "https://www.shell.hu/"}}, {"type": "node", "id": 3431047109, "lat": 47.8416534, "lon": 22.146148}, {"type": "node", "id": 3431047110, "lat": 47.8416806, "lon": 22.1460601}, {"type": "node", "id": 3431047118, "lat": 47.8418211, "lon": 22.1462634}, {"type": "node", "id": 3431047120, "lat": 47.8418483, "lon": 22.1461755}, {"type": "node", "id": 3442891911, "lat": 47.9359887, "lon": 21.7184123, "tags": {"addr:city": "Ny\u00edregyh\u00e1za", "addr:housenumber": "99", "addr:postcode": "4405", "addr:street": "Debreceni \u00fat", "addr:suburb": "Borb\u00e1nya", "air_conditioning": "yes", "amenity": "fuel", "brand": "OMV", "brand:wikidata": "Q168238", "brand:wikipedia": "en:OMV", "compressed_air": "yes", "contact:email": "info.hungary@omv.com", "contact:facebook": "https://www.facebook.com/omvmagyarorszag", "contact:fax": "+36 1 381 9899", "contact:instagram": "https://www.instagram.com/omv/", "contact:linkedin": "https://www.linkedin.com/company/omv", "contact:phone": "+36 42 460 724", "contact:twitter": "omv", "contact:website": "https://www.omv.hu", "contact:youtube": "https://www.youtube.com/user/omvofficial", "fuel:GTL_diesel": "yes", "fuel:diesel": "yes", "fuel:octane_100": "yes", "fuel:octane_95": "yes", "name": "OMV", "opening_hours": "24/7", "opening_hours:covid19": "same", "operator": "OMV Hung\u00e1ria Kft.", "operator:addr": "1117 Budapest, Okt\u00f3ber huszonharmadika utca 6-10 5. emelet 5/A.", "payment:cash": "yes", "payment:contactless": "yes", "payment:maestro": "yes", "payment:mastercard": "yes", "payment:mastercard_contactless": "yes", "payment:mastercard_electronic": "yes", "payment:visa": "yes", "payment:visa_electron": "yes", "ref:HU:company": "01-09-071584", "ref:HU:vatin": "10542925-2-44", "ref:vatin": "HU10542925", "source": "website", "source:date": "2020-10-03"}}, {"type": "node", "id": 3459027459, "lat": 47.8821049, "lon": 21.8242779, "tags": {"addr:city": "Nagyk\u00e1ll\u00f3", "addr:postcode": "4320", "addr:street": "Kor\u00e1nyi Frigyes utca", "air_conditioning": "yes", "amenity": "fuel", "brand": "MOL", "brand:wikidata": "Q549181", "brand:wikipedia": "hu:MOL Magyar Olaj- \u00e9s G\u00e1zipari Nyrt.", "compressed_air": "yes", "contact:facebook": "https://www.facebook.com/mol.magyarorszag/", "contact:instagram": "https://www.instagram.com/mol.magyarorszag/", "contact:website": "https://www.mol.hu", "contact:youtube": "https://www.youtube.com/user/molgrouptv", "food": "no", "fuel:GTL_diesel": "yes", "fuel:adblue": "no", "fuel:diesel": "yes", "fuel:lpg": "yes", "fuel:octane_100": "yes", "fuel:octane_95": "yes", "name": "MOL", "opening_hours": "24/7", "operator": "MOL Nyrt.", "operator:addr": "1117 Budapest, Domb\u00f3v\u00e1ri \u00fat 28.", "payment:cash": "yes", "payment:contactless": "yes", "payment:maestro": "yes", "payment:mastercard": "yes", "payment:mastercard_contactless": "yes", "payment:mastercard_electronic": "yes", "payment:visa": "yes", "payment:visa_electron": "yes", "ref:HU:company": "01-10-041683", "ref:HU:vatin": "10625790-4-44", "rent:lpg_bottles": "no", "source": "turistautak.hu", "source:date": "2022-05-21", "truck": "no", "url": "http://turistautak.hu/poi.php?id=30910"}}, {"type": "node", "id": 3471735306, "lat": 47.8536851, "lon": 22.014752, "tags": {"addr:city": "M\u00e1riap\u00f3cs", "addr:postcode": "4326", "addr:street": "P\u00f3csi sarok", "air_conditioning": "yes", "amenity": "fuel", "brand": "MOL", "brand:wikidata": "Q549181", "brand:wikipedia": "hu:MOL Magyar Olaj- \u00e9s G\u00e1zipari Nyrt.", "compressed_air": "yes", "contact:facebook": "https://www.facebook.com/mol.magyarorszag/", "contact:instagram": "https://www.instagram.com/mol.magyarorszag/", "contact:website": "https://www.mol.hu", "contact:youtube": "https://www.youtube.com/user/molgrouptv", "food": "no", "fuel:GTL_diesel": "yes", "fuel:adblue": "no", "fuel:diesel": "yes", "fuel:lpg": "no", "fuel:octane_100": "yes", "fuel:octane_95": "yes", "name": "MOL", "opening_hours": "Mo-Su 05:00-21:00", "operator": "MOL Nyrt.", "operator:addr": "1117 Budapest, Domb\u00f3v\u00e1ri \u00fat 28.", "payment:cash": "yes", "payment:contactless": "yes", "payment:maestro": "yes", "payment:mastercard": "yes", "payment:mastercard_contactless": "yes", "payment:mastercard_electronic": "yes", "payment:visa": "yes", "payment:visa_electron": "yes", "ref:HU:company": "01-10-041683", "ref:HU:vatin": "10625790-4-44", "rent:lpg_bottles": "no", "source": "turistautak.hu", "source:date": "2022-05-21", "truck": "no", "url": "http://turistautak.hu/poi.php?id=102096"}}, {"type": "node", "id": 3471735429, "lat": 47.882776, "lon": 22.086658, "tags": {"amenity": "fuel", "source": "turistautak.hu", "source:date": "2011-11-09", "url": "http://turistautak.hu/poi.php?id=127485"}}, {"type": "node", "id": 3485121906, "lat": 47.9568668, "lon": 21.9233379, "tags": {"amenity": "fuel", "fixme": "resurvey (source was old)", "name": "Orlen", "source": "turistautak.hu", "source:date": "2009-01-18", "url": "http://turistautak.hu/poi.php?id=51301", "website": "https://orlen.hu/"}}, {"type": "node", "id": 3488372756, "lat": 47.9647692, "lon": 21.726227, "tags": {"addr:city": "Ny\u00edregyh\u00e1za", "addr:postcode": "4400", "addr:street": "Pazonyi \u00fat", "air_conditioning": "yes", "amenity": "fuel", "brand": "MOL", "brand:wikidata": "Q549181", "brand:wikipedia": "hu:MOL Magyar Olaj- \u00e9s G\u00e1zipari Nyrt.", "compressed_air": "yes", "contact:facebook": "https://www.facebook.com/mol.magyarorszag/", "contact:instagram": "https://www.instagram.com/mol.magyarorszag/", "contact:website": "https://www.mol.hu", "contact:youtube": "https://www.youtube.com/user/molgrouptv", "food": "no", "fuel:GTL_diesel": "yes", "fuel:adblue": "yes", "fuel:diesel": "yes", "fuel:lpg": "yes", "fuel:octane_100": "yes", "fuel:octane_95": "yes", "name": "MOL", "opening_hours": "Mo-Su 05:00-23:00", "operator": "MOL Nyrt.", "operator:addr": "1117 Budapest, Domb\u00f3v\u00e1ri \u00fat 28.", "payment:cash": "yes", "payment:contactless": "yes", "payment:maestro": "yes", "payment:mastercard": "yes", "payment:mastercard_contactless": "yes", "payment:mastercard_electronic": "yes", "payment:visa": "yes", "payment:visa_electron": "yes", "ref:HU:company": "01-10-041683", "ref:HU:vatin": "10625790-4-44", "rent:lpg_bottles": "yes", "source": "website", "source:date": "2022-05-21", "truck": "no", "url": "http://turistautak.hu/poi.php?id=34439"}}, {"type": "node", "id": 3489613996, "lat": 47.8133282, "lon": 21.8509401, "tags": {"addr:city": "Biri", "addr:housenumber": "32", "addr:postcode": "4235", "addr:street": "F\u0151 utca", "amenity": "fuel", "brand": "Avia", "brand:wikidata": "Q300147", "brand:wikipedia": "de:Avia International", "compressed_air": "yes", "contact:email": "avia@avia.hu", "contact:facebook": "https://www.facebook.com/AVIAHungary", "contact:website": "https://www.avia.hu/toltoallomas/?id=85", "contact:youtube": "https://www.youtube.com/channel/UCjvjkjf2RgmKBuTnKSXk-Rg", "food": "no", "fuel:diesel": "yes", "fuel:e85": "no", "fuel:lpg": "no", "fuel:octane_95": "yes", "fuel:octane_98": "no", "name": "Avia", "operator": "AVIA Hung\u00e1ria Kft.", "payment:cash": "yes", "payment:contactless": "yes", "payment:maestro": "yes", "payment:mastercard": "yes", "payment:mastercard_contactless": "yes", "payment:mastercard_electronic": "yes", "payment:visa": "yes", "payment:visa_electron": "yes", "rent:lpg_bottles": "no", "restaurant": "no", "source": "turistautak.hu;website", "source:date": "2021-12-17", "truck": "no", "url": "http://turistautak.hu/poi.php?id=53006"}}, {"type": "node", "id": 3489614007, "lat": 47.8706669, "lon": 21.8700515, "tags": {"amenity": "fuel", "source": "turistautak.hu", "source:date": "2013-04-21", "url": "http://turistautak.hu/poi.php?id=33972"}}, {"type": "node", "id": 3490724528, "lat": 48.115598, "lon": 21.930393, "tags": {"amenity": "fuel", "fixme": "resurvey (source was old)", "source": "turistautak.hu", "source:date": "2009-02-23", "url": "http://turistautak.hu/poi.php?id=58549"}}, {"type": "node", "id": 3490731891, "lat": 47.9933779, "lon": 22.0709502, "tags": {"addr:city": "Baktal\u00f3r\u00e1nth\u00e1za", "addr:postcode": "4561", "addr:street": "41.sz. sz\u00e1m\u00fa f\u0151k\u00f6zleked\u00e9si \u00fat", "air_conditioning": "yes", "amenity": "fuel", "brand": "MOL", "brand:wikidata": "Q549181", "brand:wikipedia": "hu:MOL Magyar Olaj- \u00e9s G\u00e1zipari Nyrt.", "compressed_air": "yes", "contact:facebook": "https://www.facebook.com/mol.magyarorszag/", "contact:instagram": "https://www.instagram.com/mol.magyarorszag/", "contact:website": "https://www.mol.hu", "contact:youtube": "https://www.youtube.com/user/molgrouptv", "food": "no", "fuel:GTL_diesel": "yes", "fuel:adblue": "no", "fuel:diesel": "yes", "fuel:lpg": "no", "fuel:octane_100": "yes", "fuel:octane_95": "yes", "name": "MOL", "operator": "MOL Nyrt.", "operator:addr": "1117 Budapest, Domb\u00f3v\u00e1ri \u00fat 28.", "payment:cash": "yes", "payment:contactless": "yes", "payment:maestro": "yes", "payment:mastercard": "yes", "payment:mastercard_contactless": "yes", "payment:mastercard_electronic": "yes", "payment:visa": "yes", "payment:visa_electron": "yes", "ref:HU:company": "01-10-041683", "ref:HU:vatin": "10625790-4-44", "rent:lpg_bottles": "yes", "source": "turistautak.hu;website", "source:date": "2022-05-21", "truck": "no", "url": "http://turistautak.hu/poi.php?id=64469"}}, {"type": "node", "id": 4143123988, "lat": 47.9326351, "lon": 21.8599601, "tags": {"amenity": "fuel", "name": "Benzink\u00fat"}}, {"type": "node", "id": 4246095952, "lat": 47.9638573, "lon": 21.7286362, "tags": {"amenity": "fuel", "name": "Bu-G\u00e1z Lux Kft."}}, {"type": "node", "id": 4246096429, "lat": 47.9638557, "lon": 21.7286358, "tags": {"amenity": "fuel", "fuel:cng": "yes", "fuel:diesel": "yes", "name": "Bu-G\u00e1z Lux", "opening_hours": "07:00-22:00", "operator": "Bu-G\u00e1z Lux Kft."}}, {"type": "node", "id": 5206514915, "lat": 47.966461, "lon": 21.9794706}, {"type": "node", "id": 5206514916, "lat": 47.9665146, "lon": 21.9793903}, {"type": "node", "id": 5206514917, "lat": 47.9664354, "lon": 21.9792727}, {"type": "node", "id": 5206514918, "lat": 47.9663802, "lon": 21.9793555}, {"type": "node", "id": 5206514936, "lat": 47.9885707, "lon": 22.0805243}, {"type": "node", "id": 5206514939, "lat": 47.98854, "lon": 22.0804215}, {"type": "node", "id": 5206514940, "lat": 47.9885281, "lon": 22.0803815}, {"type": "node", "id": 5206514941, "lat": 47.9885847, "lon": 22.0805713}, {"type": "node", "id": 5206514942, "lat": 47.9884862, "lon": 22.0806368}, {"type": "node", "id": 5206514943, "lat": 47.9884296, "lon": 22.080447}, {"type": "node", "id": 5302952534, "lat": 47.7944706, "lon": 22.047339}, {"type": "node", "id": 5302952535, "lat": 47.7944118, "lon": 22.0471696}, {"type": "node", "id": 5302952536, "lat": 47.7943581, "lon": 22.0472109}, {"type": "node", "id": 5313162783, "lat": 48.0596814, "lon": 21.9261359, "tags": {"amenity": "fuel", "fuel:diesel": "yes", "fuel:octane_95": "yes", "name": "SZIL t\u00f6lt\u0151\u00e1llom\u00e1s", "opening_hours": "Mo-Su 05:00-21:00", "payment:cash": "yes", "payment:credit_cards": "yes"}}, {"type": "node", "id": 5363704179, "lat": 47.955796, "lon": 21.6804399, "tags": {"addr:city": "Ny\u00edregyh\u00e1za", "addr:postcode": "4400", "addr:street": "Tiszavasv\u00e1ri \u00fat", "amenity": "fuel", "fuel:cng": "yes", "name": "CNG Aut\u00f3busz t\u00f6lt\u0151\u00e1llom\u00e1s", "note": "A Vol\u00e1nbusz Zrt. CNG-aut\u00f3buszainak sz\u00e1m\u00e1ra.", "operator": "Vol\u00e1nbusz Zrt."}}, {"type": "node", "id": 5424562535, "lat": 47.8286234, "lon": 21.6992553}, {"type": "node", "id": 5424562536, "lat": 47.8284501, "lon": 21.69918}, {"type": "node", "id": 5424562537, "lat": 47.8284268, "lon": 21.6992988}, {"type": "node", "id": 5424562538, "lat": 47.8285334, "lon": 21.6993451}, {"type": "node", "id": 5424562539, "lat": 47.8285142, "lon": 21.6994432}, {"type": "node", "id": 5424562540, "lat": 47.8285925, "lon": 21.6994772}, {"type": "node", "id": 5424562541, "lat": 47.8286126, "lon": 21.6993751}, {"type": "node", "id": 5424562542, "lat": 47.8286009, "lon": 21.69937}, {"type": "node", "id": 5824994488, "lat": 48.0454388, "lon": 21.8664592}, {"type": "node", "id": 5824994489, "lat": 48.0452685, "lon": 21.8672049}, {"type": "node", "id": 5824994490, "lat": 48.0446194, "lon": 21.8665075}, {"type": "node", "id": 5824994491, "lat": 48.0448345, "lon": 21.8662017}, {"type": "node", "id": 5824994492, "lat": 48.0450945, "lon": 21.8661561}, {"type": "node", "id": 5824996245, "lat": 48.0450545, "lon": 21.8666543, "tags": {"addr:city": "Ny\u00edrbogd\u00e1ny", "addr:housenumber": "4", "addr:postcode": "4511", "addr:street": "Kossuth utca", "amenity": "fuel", "name": "Ny\u00edr Bar\u00e1ts\u00e1g"}}, {"type": "node", "id": 6957197817, "lat": 47.9577777, "lon": 21.6552462, "tags": {"amenity": "fuel", "name": "OPlus"}}, {"type": "node", "id": 7054311207, "lat": 47.8662603, "lon": 22.1778104, "tags": {"amenity": "fuel", "name": "AGRO"}}, {"type": "node", "id": 7105163115, "lat": 48.1332862, "lon": 21.7565974}, {"type": "node", "id": 7105163116, "lat": 48.133297, "lon": 21.7567664}, {"type": "node", "id": 7105163117, "lat": 48.1334175, "lon": 21.7567492}, {"type": "node", "id": 7105163118, "lat": 48.1334068, "lon": 21.7565802}, {"type": "node", "id": 7110505127, "lat": 48.0069691, "lon": 22.1572015, "tags": {"addr:city": "Vaja", "addr:housenumber": "2", "addr:postcode": "4562", "addr:street": "Rohodi utca", "amenity": "fuel", "brand": "Avia", "brand:wikidata": "Q300147", "brand:wikipedia": "de:Avia International", "compressed_air": "yes", "contact:email": "avia@avia.hu", "contact:facebook": "https://www.facebook.com/AVIAHungary", "contact:phone": "+36 44 385 320", "contact:website": "https://www.avia.hu/toltoallomas/?id=45", "contact:youtube": "https://www.youtube.com/channel/UCjvjkjf2RgmKBuTnKSXk-Rg", "food": "no", "fuel:diesel": "yes", "fuel:e85": "no", "fuel:lpg": "no", "fuel:octane_95": "yes", "fuel:octane_98": "no", "name": "Avia", "operator": "AVIA Hung\u00e1ria Kft.", "payment:cash": "yes", "payment:contactless": "yes", "payment:maestro": "yes", "payment:mastercard": "yes", "payment:mastercard_contactless": "yes", "payment:mastercard_electronic": "yes", "payment:visa": "yes", "payment:visa_electron": "yes", "rent:lpg_bottles": "no", "restaurant": "no", "source": "website", "source:date": "2021-12-17", "truck": "yes"}}, {"type": "node", "id": 10224605811, "lat": 47.7944169, "lon": 22.0473803}, {"type": "way", "id": 295576444, "nodes": [2993080530, 2993082233, 2993080532, 2993080531, 2993080530], "tags": {"addr:city": "Ny\u00edregyh\u00e1za", "addr:housenumber": "47", "addr:postcode": "4400", "addr:street": "Kert utca", "air_conditioning": "yes", "amenity": "fuel", "brand": "OMV", "brand:wikidata": "Q168238", "brand:wikipedia": "en:OMV", "building": "yes", "compressed_air": "yes", "contact:email": "info.hungary@omv.com", "contact:facebook": "https://www.facebook.com/omvmagyarorszag", "contact:fax": "+36 1 381 9899", "contact:instagram": "https://www.instagram.com/omv/", "contact:linkedin": "https://www.linkedin.com/company/omv", "contact:phone": "+36 42 461 301", "contact:twitter": "omv", "contact:website": "https://www.omv.hu", "contact:youtube": "https://www.youtube.com/user/omvofficial", "fuel:GTL_diesel": "yes", "fuel:diesel": "yes", "fuel:octane_100": "yes", "fuel:octane_95": "yes", "name": "OMV", "opening_hours": "Mo-Su 06:00-22:00; PH off", "operator": "OMV Hung\u00e1ria Kft.", "operator:addr": "1117 Budapest, Okt\u00f3ber huszonharmadika utca 6-10 5. emelet 5/A.", "payment:cash": "yes", "payment:contactless": "yes", "payment:maestro": "yes", "payment:mastercard": "yes", "payment:mastercard_contactless": "yes", "payment:mastercard_electronic": "yes", "payment:visa": "yes", "payment:visa_electron": "yes", "ref:HU:company": "01-09-071584", "ref:HU:vatin": "10542925-2-44", "ref:vatin": "HU10542925", "source:www.omv.hu:date": "2020-10-03"}}, {"type": "way", "id": 300368254, "nodes": [3044536493, 2767261626, 3044536496, 3044536497, 3044536498, 3044536499, 3044536500, 3044536493], "tags": {"addr:city": "Ny\u00edregyh\u00e1za", "addr:postcode": "4400", "addr:street": "L\u00e1szl\u00f3 utca", "air_conditioning": "yes", "amenity": "fuel", "brand": "MOL", "brand:wikidata": "Q549181", "brand:wikipedia": "hu:MOL Magyar Olaj- \u00e9s G\u00e1zipari Nyrt.", "building": "yes", "compressed_air": "yes", "contact:facebook": "https://www.facebook.com/mol.magyarorszag/", "contact:instagram": "https://www.instagram.com/mol.magyarorszag/", "contact:phone": "+36 70 638 0503", "contact:website": "https://www.mol.hu", "contact:youtube": "https://www.youtube.com/user/molgrouptv", "food": "yes", "fuel:GTL_diesel": "yes", "fuel:adblue": "no", "fuel:diesel": "yes", "fuel:lpg": "yes", "fuel:octane_100": "yes", "fuel:octane_95": "yes", "name": "MOL", "opening_hours": "Mo-Su 06:00-21:00", "operator": "MOL Nyrt.", "operator:addr": "1117 Budapest, Domb\u00f3v\u00e1ri \u00fat 28.", "payment:cash": "yes", "payment:contactless": "yes", "payment:maestro": "yes", "payment:mastercard": "yes", "payment:mastercard_contactless": "yes", "payment:mastercard_electronic": "yes", "payment:visa": "yes", "payment:visa_electron": "yes", "ref:HU:company": "01-10-041683", "ref:HU:vatin": "10625790-4-44", "rent:lpg_bottles": "yes", "source": "website", "source:date": "2022-05-21", "truck": "no"}}, {"type": "way", "id": 336018225, "nodes": [3431047120, 3431047110, 3431047109, 3431047118, 3431047120], "tags": {"addr:city": "Ny\u00edrb\u00e1tor", "addr:postcode": "4300", "addr:street": "Cs\u00e1sz\u00e1ri \u00fat", "air_conditioning": "yes", "amenity": "fuel", "brand": "MOL", "brand:wikidata": "Q549181", "brand:wikipedia": "hu:MOL Magyar Olaj- \u00e9s G\u00e1zipari Nyrt.", "building": "yes", "compressed_air": "yes", "contact:facebook": "https://www.facebook.com/mol.magyarorszag/", "contact:instagram": "https://www.instagram.com/mol.magyarorszag/", "contact:website": "https://www.mol.hu", "contact:youtube": "https://www.youtube.com/user/molgrouptv", "food": "no", "fuel:GTL_diesel": "yes", "fuel:HGV_diesel": "yes", "fuel:adblue": "no", "fuel:diesel": "yes", "fuel:lpg": "no", "fuel:octane_100": "yes", "fuel:octane_95": "yes", "fuel:octane_98": "yes", "layer": "5", "name": "MOL", "opening_hours": "Mo-Su 05:30-21:30", "operator": "MOL Nyrt.", "operator:addr": "1117 Budapest, Domb\u00f3v\u00e1ri \u00fat 28.", "payment:cash": "yes", "payment:contactless": "yes", "payment:maestro": "yes", "payment:mastercard": "yes", "payment:mastercard_contactless": "yes", "payment:mastercard_electronic": "yes", "payment:visa": "yes", "payment:visa_electron": "yes", "ref:HU:company": "01-10-041683", "ref:HU:vatin": "10625790-4-44", "rent:lpg_bottles": "yes", "source": "website", "source:date": "2022-05-21", "truck": "no"}}, {"type": "way", "id": 537740616, "nodes": [5206514918, 5206514917, 5206514916, 5206514915, 5206514918], "tags": {"addr:city": "Levelek", "amenity": "fuel", "building": "yes", "name": "Orlen", "opening_hours": "24/7"}}, {"type": "way", "id": 537740619, "nodes": [5206514943, 5206514940, 5206514939, 5206514936, 5206514941, 5206514942, 5206514943], "tags": {"amenity": "fuel", "building": "yes", "source": "turistautak.hu", "source:date": "2011-11-09", "url": "http://turistautak.hu/poi.php?id=127465"}}, {"type": "way", "id": 548950828, "nodes": [10224605811, 5302952534, 5302952535, 5302952536, 10224605811], "tags": {"amenity": "fuel", "building": "retail", "fixme": "\u00dczemel? Milyen brand?"}}, {"type": "way", "id": 562740650, "nodes": [5424562535, 5424562536, 5424562537, 5424562538, 5424562539, 5424562540, 5424562541, 5424562542, 5424562535], "tags": {"addr:city": "\u00dajfeh\u00e9rt\u00f3", "addr:housenumber": "108", "addr:postcode": "4244", "addr:street": "Ny\u00edregyh\u00e1zi \u00fat", "air_conditioning": "yes", "amenity": "fuel", "brand": "MOL", "brand:wikidata": "Q549181", "brand:wikipedia": "hu:MOL Magyar Olaj- \u00e9s G\u00e1zipari Nyrt.", "building": "yes", "compressed_air": "yes", "contact:facebook": "https://www.facebook.com/mol.magyarorszag/", "contact:instagram": "https://www.instagram.com/mol.magyarorszag/", "contact:website": "https://www.mol.hu", "contact:youtube": "https://www.youtube.com/user/molgrouptv", "food": "no", "fuel:GTL_diesel": "yes", "fuel:adblue": "no", "fuel:diesel": "yes", "fuel:lpg": "no", "fuel:octane_100": "yes", "fuel:octane_95": "yes", "name": "MOL", "operator": "MOL Nyrt.", "operator:addr": "1117 Budapest, Domb\u00f3v\u00e1ri \u00fat 28.", "payment:cash": "yes", "payment:contactless": "yes", "payment:maestro": "yes", "payment:mastercard": "yes", "payment:mastercard_contactless": "yes", "payment:mastercard_electronic": "yes", "payment:visa": "yes", "payment:visa_electron": "yes", "ref:HU:company": "01-10-041683", "ref:HU:vatin": "10625790-4-44", "rent:lpg_bottles": "yes", "source": "website", "source:date": "2022-05-21", "truck": "no"}}, {"type": "way", "id": 616072855, "nodes": [5824994488, 5824994489, 5824994490, 5824994491, 5824994492, 5824994488], "tags": {"addr:city": "Ny\u00edrbogd\u00e1ny", "addr:housenumber": "4", "addr:postcode": "4511", "addr:street": "Kossuth utca", "amenity": "fuel", "fuel:diesel": "yes", "fuel:lpg": "yes", "fuel:octane_95": "yes", "name": "Ny\u00edr Bar\u00e1ts\u00e1g benzink\u00fat"}}, {"type": "way", "id": 760574185, "nodes": [7105163118, 7105163117, 7105163116, 7105163115, 7105163118], "tags": {"addr:city": "Nagyhal\u00e1sz", "addr:housenumber": "22", "addr:postcode": "4485", "addr:street": "Ibr\u00e1nyi utca", "amenity": "fuel", "building": "retail", "contact:email": "agipnagyhalasz@gmail.com", "contact:phone": "+36 42 202 043;+36 70 326 3743", "contact:website": "https://agip-nagyhalasz.aranyoldalak.hu/", "fuel:diesel": "yes", "fuel:octane_95": "yes", "name": "Csernyik P\u00e1l T\u00f6lt\u0151\u00e1llom\u00e1s", "old_name": "Agip", "opening_hours": "06:00-20:00"}}]}