{"version": 0.6, "generator": "Overpass API 0.7.59 e21c39fe", "osm3s": {"timestamp_osm_base": "2023-01-21T09:21:39Z", "copyright": "The data included in this document is from www.openstreetmap.org. The data is made available under ODbL."}, "elements": [{"type": "node", "id": 574784369, "lat": 48.2145078, "lon": 18.5985705}, {"type": "node", "id": 574784371, "lat": 48.2140922, "lon": 18.5989371}, {"type": "node", "id": 574784375, "lat": 48.2146798, "lon": 18.5988254}, {"type": "node", "id": 574784377, "lat": 48.2142127, "lon": 18.5992396}, {"type": "node", "id": 724007408, "lat": 48.2095923, "lon": 18.6078684}, {"type": "node", "id": 724008302, "lat": 48.2126248, "lon": 18.5926795}, {"type": "node", "id": 724008817, "lat": 48.2094695, "lon": 18.607603}, {"type": "node", "id": 724010980, "lat": 48.2047072, "lon": 18.5827867}, {"type": "node", "id": 724012375, "lat": 48.2045295, "lon": 18.5824669}, {"type": "node", "id": 724012887, "lat": 48.2152492, "lon": 18.6062526}, {"type": "node", "id": 724013398, "lat": 48.2095246, "lon": 18.6077229}, {"type": "node", "id": 724014434, "lat": 48.2126976, "lon": 18.5925882}, {"type": "node", "id": 724015137, "lat": 48.2094018, "lon": 18.6074572}, {"type": "node", "id": 724016823, "lat": 48.2091264, "lon": 18.6077438}, {"type": "node", "id": 724019186, "lat": 48.2045082, "lon": 18.5824902}, {"type": "node", "id": 724019676, "lat": 48.2127431, "lon": 18.5925537}, {"type": "node", "id": 724019710, "lat": 48.2151222, "lon": 18.607879}, {"type": "node", "id": 724022299, "lat": 48.2094326, "lon": 18.607524}, {"type": "node", "id": 724024680, "lat": 48.2046296, "lon": 18.5827499}, {"type": "node", "id": 724025722, "lat": 48.2093169, "lon": 18.6081556}, {"type": "node", "id": 724026961, "lat": 48.2128361, "lon": 18.5925216}, {"type": "node", "id": 724026996, "lat": 48.214987, "lon": 18.607762}, {"type": "node", "id": 724027682, "lat": 48.2094443, "lon": 18.607512}, {"type": "node", "id": 724028676, "lat": 48.2130451, "lon": 18.5931459}, {"type": "node", "id": 724030043, "lat": 48.2047634, "lon": 18.5829082}, {"type": "node", "id": 724032103, "lat": 48.2046509, "lon": 18.5827271}, {"type": "node", "id": 724032851, "lat": 48.2150086, "lon": 18.607706}, {"type": "node", "id": 724033558, "lat": 48.2095364, "lon": 18.6077115}, {"type": "node", "id": 724034467, "lat": 48.2128337, "lon": 18.5933036}, {"type": "node", "id": 724035110, "lat": 48.2094813, "lon": 18.6075909}, {"type": "node", "id": 724038341, "lat": 48.2041904, "lon": 18.583507}, {"type": "node", "id": 724042038, "lat": 48.2045076, "lon": 18.5824169}, {"type": "node", "id": 724057769, "lat": 48.2127538, "lon": 18.5925831}, {"type": "node", "id": 724057802, "lat": 48.2147699, "lon": 18.6074993}, {"type": "node", "id": 724058278, "lat": 48.2095734, "lon": 18.6077906}, {"type": "node", "id": 724059241, "lat": 48.2127072, "lon": 18.592618}, {"type": "node", "id": 724060735, "lat": 48.2039529, "lon": 18.5829986}, {"type": "node", "id": 724063333, "lat": 48.2095616, "lon": 18.6078022}, {"type": "node", "id": 724064346, "lat": 48.215623, "lon": 18.6065762}, {"type": "node", "id": 724074139, "lat": 48.2046868, "lon": 18.5828066}, {"type": "node", "id": 831789328, "lat": 48.2844901, "lon": 18.9875468, "tags": {"brand": "COOP Jednota", "brand:wikidata": "Q41629254", "name": "COOP Jednota", "operator": "COOP Jednota Slovensko", "shop": "supermarket"}}, {"type": "node", "id": 831800146, "lat": 48.2748436, "lon": 18.9520818, "tags": {"brand": "COOP Jednota", "brand:wikidata": "Q41629254", "name": "COOP Jednota", "operator": "COOP Jednota Slovensko", "shop": "supermarket"}}, {"type": "node", "id": 831821974, "lat": 48.1959934, "lon": 18.5446119, "tags": {"brand": "COOP Jednota", "brand:wikidata": "Q41629254", "name": "COOP Jednota", "operator": "COOP Jednota Slovensko", "shop": "supermarket"}}, {"type": "node", "id": 999692935, "lat": 48.2243309, "lon": 18.5970194}, {"type": "node", "id": 999693000, "lat": 48.2234601, "lon": 18.5970406}, {"type": "node", "id": 999693031, "lat": 48.2234303, "lon": 18.5977743}, {"type": "node", "id": 999693137, "lat": 48.2234367, "lon": 18.5982631}, {"type": "node", "id": 999693483, "lat": 48.2234674, "lon": 18.5977736}, {"type": "node", "id": 999693736, "lat": 48.2243435, "lon": 18.5982421}, {"type": "node", "id": 1242978204, "lat": 48.2583848, "lon": 18.7382227}, {"type": "node", "id": 1242978313, "lat": 48.2581719, "lon": 18.7383355}, {"type": "node", "id": 1242978318, "lat": 48.2582376, "lon": 18.7380414}, {"type": "node", "id": 1242978530, "lat": 48.2584181, "lon": 18.7382339}, {"type": "node", "id": 1242978693, "lat": 48.2583835, "lon": 18.7384099}, {"type": "node", "id": 1242978815, "lat": 48.2582333, "lon": 18.7380056}, {"type": "node", "id": 1242978824, "lat": 48.258373, "lon": 18.7381936}, {"type": "node", "id": 1242978954, "lat": 48.2582433, "lon": 18.7380433}, {"type": "node", "id": 1242979127, "lat": 48.2583237, "lon": 18.738176}, {"type": "node", "id": 1242979155, "lat": 48.2581163, "lon": 18.7379672}, {"type": "node", "id": 1242979166, "lat": 48.2581848, "lon": 18.738257}, {"type": "node", "id": 1242979335, "lat": 48.2582317, "lon": 18.738015}, {"type": "node", "id": 1242979374, "lat": 48.2583881, "lon": 18.7384114}, {"type": "node", "id": 1242979615, "lat": 48.2582421, "lon": 18.7380201}, {"type": "node", "id": 1242979618, "lat": 48.2583844, "lon": 18.7384059}, {"type": "node", "id": 1242979642, "lat": 48.2582211, "lon": 18.7381759}, {"type": "node", "id": 1242979773, "lat": 48.2580765, "lon": 18.7382165}, {"type": "node", "id": 1242979800, "lat": 48.258114, "lon": 18.7379662}, {"type": "node", "id": 1242979819, "lat": 48.2583177, "lon": 18.7382133}, {"type": "node", "id": 1242979998, "lat": 48.2583872, "lon": 18.738205}, {"type": "node", "id": 1242980242, "lat": 48.2583723, "lon": 18.7382001}, {"type": "node", "id": 1242980274, "lat": 48.2581148, "lon": 18.7379603}, {"type": "node", "id": 1368109285, "lat": 48.2145908, "lon": 18.5987621}, {"type": "node", "id": 1368109291, "lat": 48.2146363, "lon": 18.59873}, {"type": "node", "id": 1390821315, "lat": 48.215428, "lon": 18.6070834, "tags": {"amenity": "atm", "opening_hours": "24/7", "operator": "Slovensk\u00e1 sporite\u013e\u0148a"}}, {"type": "node", "id": 1390821316, "lat": 48.2153945, "lon": 18.6071707, "tags": {"amenity": "atm", "opening_hours": "24/7", "operator": "V\u00daB", "ref": "S6AV152H"}}, {"type": "node", "id": 1719464470, "lat": 48.2119232, "lon": 18.6745306}, {"type": "node", "id": 1719464487, "lat": 48.211964, "lon": 18.6743867}, {"type": "node", "id": 1719464509, "lat": 48.2120854, "lon": 18.6746313}, {"type": "node", "id": 1719464515, "lat": 48.2121262, "lon": 18.6744879}, {"type": "node", "id": 2467157470, "lat": 48.2234633, "lon": 18.5973602, "tags": {"entrance": "main"}}, {"type": "node", "id": 2893318885, "lat": 48.2156923, "lon": 18.6242078, "tags": {"name": "Coop Jednota", "opening_hours": "Mo-Th 06:00-19:00; Fr 06:00-20:00; Sa 06:00-18:00; Su 07:00-11:00", "shop": "supermarket"}}, {"type": "node", "id": 2992823654, "lat": 48.2196819, "lon": 18.607699, "tags": {"name": "Nitrazdroj", "opening_hours": "Mo-Fr 06:00-19:00; Sa 06:00-12:30; Su 07:30-11:30", "operator": "CBA", "shop": "supermarket", "source": "survey"}}, {"type": "node", "id": 4469157693, "lat": 48.2072407, "lon": 18.6048482}, {"type": "node", "id": 4469157694, "lat": 48.2073632, "lon": 18.6047583}, {"type": "node", "id": 4469157700, "lat": 48.2069921, "lon": 18.6043849}, {"type": "node", "id": 4469157704, "lat": 48.2071916, "lon": 18.604237}, {"type": "node", "id": 4850222848, "lat": 48.2086629, "lon": 18.6047824, "tags": {"name": "Potraviny", "opening_hours": "Mo-Fr 08:00-17:00", "shop": "supermarket"}}, {"type": "node", "id": 6274623473, "lat": 48.207261, "lon": 18.6049103}, {"type": "node", "id": 6274623474, "lat": 48.2073213, "lon": 18.6046308}, {"type": "node", "id": 6274623475, "lat": 48.2069834, "lon": 18.6043911}, {"type": "node", "id": 6274623476, "lat": 48.2071754, "lon": 18.604974}, {"type": "node", "id": 6274623477, "lat": 48.2072588, "lon": 18.6049122}, {"type": "node", "id": 6274623478, "lat": 48.2072611, "lon": 18.6049108}, {"type": "node", "id": 6340709063, "lat": 48.2150101, "lon": 18.607782}, {"type": "node", "id": 10075662907, "lat": 48.3208553, "lon": 19.0895101, "tags": {"name": "Jednota Bzov\u00edk", "shop": "supermarket"}}, {"type": "way", "id": 45258829, "nodes": [574784369, 1368109285, 1368109291, 574784375, 574784377, 574784371, 574784369], "tags": {"addr:city": "Levice", "addr:conscriptionnumber": "488", "addr:country": "SK", "addr:housenumber": "488/49", "addr:street": "\u013d. \u0160t\u00fara", "addr:streetnumber": "49", "building": "retail", "name": "Lidl", "opening_hours": "Mo-Sa 07:00-21:00; Su 08:00-20:00; PH off", "operator": "Lidl", "shop": "supermarket", "wheelchair": "yes"}}, {"type": "way", "id": 58380636, "nodes": [724028676, 724034467, 724008302, 724059241, 724014434, 724019676, 724057769, 724026961, 724028676], "tags": {"addr:city": "Levice", "addr:conscriptionnumber": "1604", "addr:country": "SK", "addr:housenumber": "1604/7", "addr:street": "N\u00e1dra\u017en\u00fd rad", "addr:streetnumber": "7", "building": "retail", "import": "budovy201004", "name": "BILLA", "operator": "BILLA", "shop": "supermarket", "source": "kapor2"}}, {"type": "way", "id": 58380763, "nodes": [724064346, 1390821315, 1390821316, 724019710, 6340709063, 724026996, 724032851, 724057802, 724012887, 724064346], "tags": {"addr:city": "Levice", "addr:conscriptionnumber": "5416", "addr:country": "SK", "addr:housenumber": "5416/23", "addr:street": "Komensk\u00e9ho", "addr:streetnumber": "23", "brand": "Kaufland", "brand:wikidata": "Q685967", "brand:wikipedia": "sk:Kaufland", "building": "retail", "import": "budovy201004", "name": "Kaufland", "opening_hours": "Mo-Sa 07:00-21:00; Su 08:00-20:00", "operator": "Kaufland Slovensk\u00e1 republika v.o.s.", "roof:shape": "flat", "shop": "supermarket", "source": "kapor2", "website": "https://www.kaufland.sk/"}}, {"type": "way", "id": 58396400, "nodes": [724016823, 724015137, 724022299, 724027682, 724035110, 724008817, 724013398, 724033558, 724058278, 724063333, 724007408, 724025722, 724016823], "tags": {"addr:city": "Levice", "addr:conscriptionnumber": "3958", "addr:country": "SK", "addr:housenumber": "3958/2", "addr:street": "Ku Bratke", "addr:streetnumber": "2", "building": "retail", "import": "budovy201004", "name": "Tempo Coop Jednota", "roof:shape": "flat", "shop": "supermarket", "source": "Local knowledge"}}, {"type": "way", "id": 58397494, "nodes": [724060735, 724042038, 724012375, 724019186, 724024680, 724032103, 724074139, 724010980, 724030043, 724038341, 724060735], "tags": {"addr:city": "Levice", "addr:conscriptionnumber": "4871", "addr:country": "SK", "addr:housenumber": "4871/1", "addr:street": "Jursk\u00e1 cesta", "addr:streetnumber": "1", "building": "yes", "import": "budovy201004", "name": "Nitrazdroj diskont", "opening_hours": "Mo-Fr 07:00-18:00; Sa 07:00-11:00", "shop": "supermarket", "source": "kapor2", "source:shop": "http://www.nitrazdroj.sk/html/predajne/diskont/303.html"}}, {"type": "way", "id": 86133771, "nodes": [999693736, 999693137, 999693031, 999693483, 2467157470, 999693000, 999692935, 999693736], "tags": {"addr:city": "Levice", "addr:conscriptionnumber": "5172", "addr:country": "SK", "addr:housenumber": "5172/7", "addr:street": "Tureck\u00fd rad", "addr:streetnumber": "7", "building": "retail", "building:levels": "2", "name": "Tesco Hypermarket", "opening_hours": "24/7", "operator": "Tesco Stores SR", "shop": "supermarket", "source": "kapor2", "website": "http://www.tesco.sk/tesco-v-sr/obchody/#shop-16"}}, {"type": "way", "id": 108313385, "nodes": [1242979642, 1242979819, 1242979127, 1242978824, 1242980242, 1242979998, 1242978204, 1242978530, 1242979374, 1242978693, 1242979618, 1242978313, 1242979166, 1242979773, 1242979155, 1242979800, 1242980274, 1242978815, 1242979335, 1242979615, 1242978318, 1242978954, 1242979642], "tags": {"addr:city": "\u017demberovce", "addr:conscriptionnumber": "162", "addr:country": "SK", "addr:housenumber": "162/42", "addr:postcode": "93502", "addr:street": "SNP", "addr:streetnumber": "42", "building": "retail", "name": "COOP Jednota", "opening_hours": "Mo-Fr 06:00-18:30; Sa 06:00-11:30; Su 07:30-10:30", "ref:minvskaddress": "37618944", "shop": "supermarket", "source": "kapor2", "source:addr": "minvskaddress 2022-01"}}, {"type": "way", "id": 159851258, "nodes": [1719464515, 1719464509, 1719464470, 1719464487, 1719464515], "tags": {"addr:city": "Kr\u0161kany", "addr:conscriptionnumber": "230", "addr:country": "SK", "addr:housenumber": "230", "addr:place": "Kr\u0161kany", "building": "retail", "name": "COOP Jednota", "shop": "supermarket", "source": "kapor2", "source:conscriptionnumber": "kapor2", "website": "https://www.coop.sk/"}}, {"type": "way", "id": 449998579, "nodes": [6274623478, 6274623477, 6274623476, 6274623475, 4469157700, 4469157704, 6274623474, 4469157694, 4469157693, 6274623473, 6274623478], "tags": {"addr:city": "Levice", "addr:postcode": "93405", "addr:street": "Ku Bratke", "brand": "Billa", "brand:wikidata": "Q537781", "brand:wikipedia": "sk:BILLA", "building": "yes", "email": "info@billa.sk", "name": "Billa", "opening_hours": "Mo-Sa 07:00-20:00; Su 08:00-18:00", "operator": "BILLA s.r.o.", "shop": "supermarket", "source": "kapor2", "website": "https://www.billa.sk"}}]}