{"version": 0.6, "generator": "Overpass API 0.7.59 e21c39fe", "osm3s": {"timestamp_osm_base": "2023-01-21T09:22:38Z", "copyright": "The data included in this document is from www.openstreetmap.org. The data is made available under ODbL."}, "elements": [{"type": "node", "id": 858440636, "lat": 46.2873324, "lon": 18.7570377, "tags": {"addr:city": "Decs", "addr:country": "HU", "addr:housenumber": "1", "addr:postcode": "7144", "addr:street": "B\u00e9lyei Tam\u00e1s utca", "name": "CBA", "opening_hours": "Mo-Sa 05:30-19:00; Su 07:00-12:00; PH off", "phone": "+36 30 306 1062", "shop": "supermarket", "website": "https://www.cba.hu/", "wheelchair": "yes"}}, {"type": "node", "id": 871609792, "lat": 46.4877867, "lon": 18.9537876, "tags": {"shop": "supermarket"}}, {"type": "node", "id": 872665801, "lat": 46.5239426, "lon": 18.9831657, "tags": {"brand": "Spar", "brand:wikidata": "Q610492", "brand:wikipedia": "en:Spar (retailer)", "contact:website": "http://www.spar.hu", "name": "Spar", "shop": "supermarket", "website": "http://www.spar.hu", "wheelchair": "yes"}}, {"type": "node", "id": 1343095740, "lat": 46.1972162, "lon": 18.7263348, "tags": {"brand": "Spar", "brand:wikidata": "Q610492", "brand:wikipedia": "en:SPAR (retailer)", "contact:website": "http://www.spar.hu", "name": "Spar", "opening_hours": "Mo-Fr 06:00-20:00; Sa 06:30-20:00; Su 07:00-18:00; PH off", "shop": "supermarket", "website": "http://www.spar.hu", "wheelchair": "yes"}}, {"type": "node", "id": 1343095748, "lat": 46.189869, "lon": 18.7250589, "tags": {"addr:city": "B\u00e1tasz\u00e9k", "addr:housenumber": "22", "addr:postcode": "7140", "addr:street": "Budai utca", "brand": "Coop", "name": "348. Coop ABC", "note": "Posta Pont", "opening_hours": "Mo-Fr 05:00-18:30, Sa 06:00-13:00, Su 06:00-10:00, PH off", "operator": "KOP-KA ZRT", "phone": "+36 74 492 403", "shop": "supermarket", "survey:date": "2020-03-07", "website": "http://www.coop.hu", "wheelchair": "no"}}, {"type": "node", "id": 1357856267, "lat": 46.1902235, "lon": 18.9346022}, {"type": "node", "id": 1357856270, "lat": 46.1902805, "lon": 18.9357903}, {"type": "node", "id": 1357856294, "lat": 46.1910094, "lon": 18.9341934}, {"type": "node", "id": 1357856298, "lat": 46.1910256, "lon": 18.9345257}, {"type": "node", "id": 1357856310, "lat": 46.191272, "lon": 18.9341551}, {"type": "node", "id": 1357856315, "lat": 46.1913412, "lon": 18.9356668}, {"type": "node", "id": 1357909690, "lat": 46.1826824, "lon": 18.9346271}, {"type": "node", "id": 1357909714, "lat": 46.1827879, "lon": 18.9348931}, {"type": "node", "id": 1357909742, "lat": 46.1828427, "lon": 18.9348478}, {"type": "node", "id": 1357909782, "lat": 46.1829461, "lon": 18.9344089}, {"type": "node", "id": 1357909783, "lat": 46.1829693, "lon": 18.9351669}, {"type": "node", "id": 1357909802, "lat": 46.1830731, "lon": 18.9347291}, {"type": "node", "id": 1357909811, "lat": 46.1831136, "lon": 18.9346956}, {"type": "node", "id": 1357909813, "lat": 46.183117, "lon": 18.9348244}, {"type": "node", "id": 1357909818, "lat": 46.1831529, "lon": 18.9347946}, {"type": "node", "id": 1357909825, "lat": 46.1831828, "lon": 18.9349903}, {"type": "node", "id": 1639349505, "lat": 46.1844204, "lon": 18.9447153, "tags": {"brand": "PENNY", "brand:wikidata": "Q284688", "brand:wikipedia": "en:Penny (supermarket)", "contact:website": "http://www.penny.hu", "name": "PENNY", "shop": "supermarket", "website": "http://www.penny.hu", "wheelchair": "yes"}}, {"type": "node", "id": 2379578870, "lat": 46.1941325, "lon": 18.9523351}, {"type": "node", "id": 2379578871, "lat": 46.19389, "lon": 18.9521311}, {"type": "node", "id": 2379578872, "lat": 46.1937812, "lon": 18.9523765}, {"type": "node", "id": 2379578873, "lat": 46.1937297, "lon": 18.9523406}, {"type": "node", "id": 2379578874, "lat": 46.1936667, "lon": 18.9524895}, {"type": "node", "id": 2379578875, "lat": 46.1937278, "lon": 18.9525337}, {"type": "node", "id": 2379578876, "lat": 46.1935941, "lon": 18.9528315}, {"type": "node", "id": 2379578877, "lat": 46.1938289, "lon": 18.953019}, {"type": "node", "id": 2379578878, "lat": 46.1939931, "lon": 18.9525971}, {"type": "node", "id": 2379578879, "lat": 46.1940256, "lon": 18.9526219}, {"type": "node", "id": 2379578893, "lat": 46.193912, "lon": 18.9528056}, {"type": "node", "id": 2381698146, "lat": 46.3347275, "lon": 18.7006645}, {"type": "node", "id": 2381698149, "lat": 46.3344301, "lon": 18.7006304}, {"type": "node", "id": 2381698151, "lat": 46.3344508, "lon": 18.7014724}, {"type": "node", "id": 2381698153, "lat": 46.3346777, "lon": 18.7015739}, {"type": "node", "id": 2407097576, "lat": 46.5393521, "lon": 18.9861153}, {"type": "node", "id": 2407097577, "lat": 46.5390138, "lon": 18.9861478}, {"type": "node", "id": 2407097578, "lat": 46.5390093, "lon": 18.9860664}, {"type": "node", "id": 2407097579, "lat": 46.5387741, "lon": 18.986086}, {"type": "node", "id": 2407097580, "lat": 46.5387898, "lon": 18.9865354}, {"type": "node", "id": 2407097581, "lat": 46.5394272, "lon": 18.9864777}, {"type": "node", "id": 2407097583, "lat": 46.5393588, "lon": 18.9863335}, {"type": "node", "id": 2407106456, "lat": 46.5198075, "lon": 18.9804205}, {"type": "node", "id": 2407106457, "lat": 46.5194848, "lon": 18.9795021}, {"type": "node", "id": 2407106458, "lat": 46.5189448, "lon": 18.9798929}, {"type": "node", "id": 2407106459, "lat": 46.5192585, "lon": 18.9808276}, {"type": "node", "id": 2407113918, "lat": 46.5221291, "lon": 18.9788247}, {"type": "node", "id": 2407113919, "lat": 46.5220978, "lon": 18.9792122}, {"type": "node", "id": 2407113929, "lat": 46.5218954, "lon": 18.9787807}, {"type": "node", "id": 2407113934, "lat": 46.5215639, "lon": 18.9791145}, {"type": "node", "id": 2407113935, "lat": 46.5215286, "lon": 18.979108}, {"type": "node", "id": 2407113936, "lat": 46.5215577, "lon": 18.9787172}, {"type": "node", "id": 2510284764, "lat": 46.1835855, "lon": 18.952548}, {"type": "node", "id": 2510284765, "lat": 46.1834977, "lon": 18.9529865}, {"type": "node", "id": 2510284766, "lat": 46.183266, "lon": 18.9528634}, {"type": "node", "id": 2510284767, "lat": 46.1831808, "lon": 18.952625}, {"type": "node", "id": 2510284769, "lat": 46.1832154, "lon": 18.9524365}, {"type": "node", "id": 2510284770, "lat": 46.1831941, "lon": 18.9524211}, {"type": "node", "id": 2510284772, "lat": 46.1832261, "lon": 18.9523057}, {"type": "node", "id": 2510284774, "lat": 46.183266, "lon": 18.9523057}, {"type": "node", "id": 2510284776, "lat": 46.1833139, "lon": 18.9523326}, {"type": "node", "id": 2510284778, "lat": 46.1833033, "lon": 18.9524173}, {"type": "node", "id": 2510300740, "lat": 46.1835503, "lon": 18.9527236}, {"type": "node", "id": 2519505975, "lat": 46.1950837, "lon": 18.9580116}, {"type": "node", "id": 2573281610, "lat": 46.5260472, "lon": 18.9850218}, {"type": "node", "id": 2573281611, "lat": 46.5260054, "lon": 18.9850871}, {"type": "node", "id": 2573281612, "lat": 46.5259467, "lon": 18.9852271}, {"type": "node", "id": 2573281613, "lat": 46.5259504, "lon": 18.9853395}, {"type": "node", "id": 2573281614, "lat": 46.5261082, "lon": 18.9854793}, {"type": "node", "id": 2573281615, "lat": 46.5260892, "lon": 18.9855246}, {"type": "node", "id": 2573281616, "lat": 46.5262266, "lon": 18.9856463}, {"type": "node", "id": 2573281617, "lat": 46.5262428, "lon": 18.9856078}, {"type": "node", "id": 2573281618, "lat": 46.5262871, "lon": 18.9856471}, {"type": "node", "id": 2573281619, "lat": 46.5262516, "lon": 18.985203}, {"type": "node", "id": 2573281620, "lat": 46.5262801, "lon": 18.9851352}, {"type": "node", "id": 2573281621, "lat": 46.5263695, "lon": 18.9852143}, {"type": "node", "id": 2573281622, "lat": 46.5263121, "lon": 18.9853511}, {"type": "node", "id": 2573281623, "lat": 46.5263844, "lon": 18.9854152}, {"type": "node", "id": 2619848910, "lat": 46.1815105, "lon": 18.9411677, "tags": {"name": "S\u00c9F ABC", "opening_hours:covid19": "open", "shop": "supermarket", "wheelchair": "no"}}, {"type": "node", "id": 2920840839, "lat": 46.3441308, "lon": 18.701706}, {"type": "node", "id": 2920840841, "lat": 46.344132, "lon": 18.7016426}, {"type": "node", "id": 2920840842, "lat": 46.3441647, "lon": 18.7018482}, {"type": "node", "id": 2920840843, "lat": 46.3441666, "lon": 18.7017078}, {"type": "node", "id": 2920840844, "lat": 46.3441684, "lon": 18.7016452}, {"type": "node", "id": 2920840845, "lat": 46.3441721, "lon": 18.7014888}, {"type": "node", "id": 2920840846, "lat": 46.3442322, "lon": 18.7014934, "tags": {"amenity": "atm", "brand": "OTP", "opening_hours": "24/7", "operator": "OTP Bank"}}, {"type": "node", "id": 2920840847, "lat": 46.3442666, "lon": 18.7018875}, {"type": "node", "id": 2920840848, "lat": 46.3442675, "lon": 18.7018536}, {"type": "node", "id": 2920840849, "lat": 46.344277, "lon": 18.7014968}, {"type": "node", "id": 2920840850, "lat": 46.3442783, "lon": 18.7014566}, {"type": "node", "id": 2920840851, "lat": 46.3443024, "lon": 18.7018893}, {"type": "node", "id": 2920840852, "lat": 46.3443033, "lon": 18.7018536}, {"type": "node", "id": 2920840853, "lat": 46.3443122, "lon": 18.7014995}, {"type": "node", "id": 2920840854, "lat": 46.3443135, "lon": 18.7014593}, {"type": "node", "id": 2920840855, "lat": 46.3444091, "lon": 18.7018562}, {"type": "node", "id": 2920840856, "lat": 46.3444122, "lon": 18.7017248}, {"type": "node", "id": 2920840857, "lat": 46.344415, "lon": 18.70166}, {"type": "node", "id": 2920840858, "lat": 46.3444184, "lon": 18.7015067}, {"type": "node", "id": 2920840859, "lat": 46.3444455, "lon": 18.7017266}, {"type": "node", "id": 2920840860, "lat": 46.3444471, "lon": 18.7016636}, {"type": "node", "id": 2923512763, "lat": 46.3453064, "lon": 18.702801, "tags": {"addr:city": "Szeksz\u00e1rd", "addr:housenumber": "31", "addr:postcode": "7100", "addr:street": "Arany J\u00e1nos utca", "air_conditioning": "yes", "branch": "Szeksz\u00e1rd Szupermarket", "brand": "Tesco", "brand:wikidata": "Q487494", "brand:wikipedia": "hu:Tesco", "contact:facebook": "https://www.facebook.com/tescoaruhazak", "contact:pinterest": "https://www.pinterest.com/tescohungary/", "contact:website": "https://tesco.hu/aruhazak/aruhaz/tesco-szekszard-szupermarket/", "contact:youtube": "https://www.youtube.com/user/TescoMagyarorszag", "import": "osm_poi_matchmaker", "internet_access": "wlan", "internet_access:fee": "no", "internet_access:ssid": "tesco-internet", "loyalty_card": "yes", "name": "Tesco", "opening_hours": "Mo-Sa 06:00-21:00; Su 08:00-14:00; PH off", "operator": "TESCO-GLOBAL \u00c1ruh\u00e1zak Zrt.", "operator:addr": "2040 Buda\u00f6rs, Kinizsi \u00fat 1-3.", "payment:american_express": "yes", "payment:cash": "yes", "payment:contactless": "yes", "payment:edenred_card": "yes", "payment:edenred_voucher": "yes", "payment:gift_card": "yes", "payment:jcb": "yes", "payment:maestro": "yes", "payment:mastercard": "yes", "payment:mastercard_contactless": "yes", "payment:mastercard_electronic": "yes", "payment:multipay": "yes", "payment:otp_bankpont": "yes", "payment:otp_cafeteria": "yes", "payment:unionpay": "yes", "payment:v_pay": "yes", "payment:visa": "yes", "payment:visa_electron": "yes", "payment:wire_transfer": "yes", "ref:HU:company": "13-10-040628", "ref:HU:vatin": "10307078-2-44", "ref:vatin": "HU10307078", "shop": "supermarket", "source": "tesco.hu", "source:date": "2020-09-28", "source:wheelchair": "website", "wheelchair": "yes"}}, {"type": "node", "id": 2923512776, "lat": 46.3471347, "lon": 18.7029532, "tags": {"addr:city": "Szeksz\u00e1rd", "addr:housenumber": "17,21", "addr:postcode": "7100", "addr:street": "Arany J\u00e1nos utca", "brand": "Coop Szuper", "brand:wikidata": "Q868980", "brand:wikipedia": "hu:Coop (magyar \u00fczletl\u00e1nc)", "name": "Coop szuper", "note": "Posta Pont", "opening_hours": "Mo 06:00-18:00; Tu-Fr 06:00-19:00; Sa 06:00-13:30; PH off", "operator": "Mecsek F\u00fcsz\u00e9rt Zrt.", "phone": "+36 74 412 536; +36 74 412 043; +36 74 510 575", "shop": "supermarket", "survey:date": "2021-12-01", "toilets:wheelchair": "no", "website": "http://coop.hu", "wheelchair": "yes"}}, {"type": "node", "id": 2923512799, "lat": 46.3521732, "lon": 18.6932403, "tags": {"addr:city": "Szeksz\u00e1rd", "addr:housenumber": "13", "addr:postcode": "7100", "addr:street": "K\u0151r\u00f6si Csoma S\u00e1ndor utca", "brand": "Coop", "name": "Coop mini", "opening_hours": "Mo-Fr 06:00-18:00, Sa 07:00-12:00, Su 07:00-11:00, PH closed", "operator": "Mecsek F\u00fcsz\u00e9rt Zrt.", "phone": "+36 74 311 848", "shop": "supermarket", "survey:date": "2019-11-22", "website": "http://coop.hu", "wheelchair": "yes"}}, {"type": "node", "id": 2923513902, "lat": 46.3585551, "lon": 18.7036026, "tags": {"addr:city": "Szeksz\u00e1rd", "addr:country": "HU", "addr:housenumber": "74-76", "addr:postcode": "7100", "addr:street": "R\u00e1k\u00f3czi utca", "name": "\u00dajv\u00e1rosi ABC: Coop", "opening_hours": "Mo-Fr 06:00-19:00, Sa 06:00-13:00, Su 07:00-12:00, PH off", "operator": "Mecsek F\u00fcsz\u00e9rt Zrt.", "phone": "+36 74 511 195", "shop": "supermarket", "survey:date": "2019-11-22", "website": "http://coop.hu/", "wheelchair": "yes"}}, {"type": "node", "id": 2925699761, "lat": 46.350371, "lon": 18.7027618, "tags": {"addr:city": "Szeksz\u00e1rd", "addr:country": "HU", "addr:housenumber": "18-20", "addr:postcode": "7100", "addr:street": "Sz\u00e9chenyi utca", "brand": "Spar", "brand:wikidata": "Q610492", "brand:wikipedia": "en:Spar (retailer)", "email": "info@spar.hu", "name": "Spar", "opening_hours": "Mo-Fr 06:30-20:00, Sa 06:30-17:00, Su 07:00-13:00", "phone": "+36 20 823 7964", "shop": "supermarket", "wheelchair": "yes"}}, {"type": "node", "id": 2967967554, "lat": 46.4170663, "lon": 18.7621749, "tags": {"name": "Harm\u00f3nia \u00dczleth\u00e1z", "shop": "supermarket"}}, {"type": "node", "id": 2990731007, "lat": 46.4734827, "lon": 18.684257, "tags": {"name": "\u00e9lelmiszer CBA \u00e1ruh\u00e1z", "shop": "supermarket", "wheelchair": "yes"}}, {"type": "node", "id": 3040025791, "lat": 46.1953373, "lon": 19.1431077}, {"type": "node", "id": 3040025793, "lat": 46.195364, "lon": 19.1432591}, {"type": "node", "id": 3040025796, "lat": 46.1953999, "lon": 19.1429999}, {"type": "node", "id": 3040025797, "lat": 46.1954139, "lon": 19.1430794}, {"type": "node", "id": 3040025798, "lat": 46.1954732, "lon": 19.1429728}, {"type": "node", "id": 3040025799, "lat": 46.195481, "lon": 19.1430167, "tags": {"amenity": "atm", "operator": "OTP"}}, {"type": "node", "id": 3040025801, "lat": 46.1955141, "lon": 19.1432038}, {"type": "node", "id": 3417744917, "lat": 46.34979, "lon": 18.705017, "tags": {"addr:city": "Szeksz\u00e1rd", "addr:housenumber": "1", "addr:postcode": "7100", "addr:street": "K\u00f6lcsey lak\u00f3telep", "name": "Coop ABC", "note": "Posta Pont", "opening_hours": "Mo-Fr 06:00-21:00; Sa 06:00-13:00; Su 08:00-12:00, PH off", "operator": "MECSEK F\u00dcSZ\u00c9RT ZRT.", "phone": "+36 74 412 468", "shop": "supermarket", "source": "turistautak.hu", "survey:date": "2019-11-22", "url": "http://turistautak.hu/poi.php?id=77995", "website": "http://coop.hu", "wheelchair": "yes"}}, {"type": "node", "id": 3459052957, "lat": 46.5337006, "lon": 18.9852512}, {"type": "node", "id": 3459075285, "lat": 46.5336853, "lon": 18.9851935}, {"type": "node", "id": 3459076639, "lat": 46.533544, "lon": 18.9851144}, {"type": "node", "id": 3459076654, "lat": 46.5337706, "lon": 18.985212}, {"type": "node", "id": 3459076655, "lat": 46.5337961, "lon": 18.9853082}, {"type": "node", "id": 3459076711, "lat": 46.5334245, "lon": 18.9851815}, {"type": "node", "id": 3459076712, "lat": 46.5335019, "lon": 18.9854731}, {"type": "node", "id": 3459076713, "lat": 46.5335806, "lon": 18.9852522}, {"type": "node", "id": 3459077197, "lat": 46.539425, "lon": 18.9863279}, {"type": "node", "id": 3671027491, "lat": 46.3353291, "lon": 18.6993674}, {"type": "node", "id": 3671027492, "lat": 46.3348609, "lon": 18.6991995}, {"type": "node", "id": 3671027493, "lat": 46.3348502, "lon": 18.6992547}, {"type": "node", "id": 3671027494, "lat": 46.3348273, "lon": 18.6992481}, {"type": "node", "id": 3671027495, "lat": 46.3347709, "lon": 18.6995574}, {"type": "node", "id": 3671027496, "lat": 46.3348105, "lon": 18.6995684}, {"type": "node", "id": 3671027497, "lat": 46.334806, "lon": 18.6995905}, {"type": "node", "id": 3671027498, "lat": 46.3350195, "lon": 18.6996457}, {"type": "node", "id": 3671027499, "lat": 46.335039, "lon": 18.6995284}, {"type": "node", "id": 3671027500, "lat": 46.3351964, "lon": 18.6995795}, {"type": "node", "id": 3671027501, "lat": 46.3351949, "lon": 18.6996236}, {"type": "node", "id": 3671027502, "lat": 46.3352803, "lon": 18.6996214}, {"type": "node", "id": 4051884515, "lat": 46.3479793, "lon": 18.7100439}, {"type": "node", "id": 4051884516, "lat": 46.3478218, "lon": 18.7100007}, {"type": "node", "id": 4051884517, "lat": 46.3478527, "lon": 18.709765}, {"type": "node", "id": 4051884518, "lat": 46.3480102, "lon": 18.7098083}, {"type": "node", "id": 4051985088, "lat": 46.3444058, "lon": 18.7057432}, {"type": "node", "id": 4051985089, "lat": 46.3444004, "lon": 18.7061692}, {"type": "node", "id": 4051985090, "lat": 46.3445032, "lon": 18.706139}, {"type": "node", "id": 4051985091, "lat": 46.3446272, "lon": 18.7057491}, {"type": "node", "id": 4449943092, "lat": 46.4184024, "lon": 18.9202318, "tags": {"addr:postcode": "6352", "name": "Piact\u00e9r", "name:hu": "Piact\u00e9r", "opening_hours": "Mo-Sa 06:00-13:00", "operator": "Fajsz K\u00f6zs\u00e9g \u00d6nkorm\u00e1nyzata", "shop": "supermarket"}}, {"type": "node", "id": 4964353546, "lat": 46.4650039, "lon": 18.8265674, "tags": {"addr:city": "Fadd", "addr:country": "HU", "addr:housenumber": "23", "addr:postcode": "7133", "addr:street": "M\u00e1ty\u00e1s kir\u00e1ly utca", "brand": "CBA", "brand:wikidata": "Q779845", "brand:wikipedia": "en:CBA (food retail)", "name": "CBA", "opening_hours": "Mo-Fr 05:30-17:30; Sa 06:00-11:00; PH off", "phone": "+36 30 530 2295", "shop": "supermarket", "wheelchair": "yes"}}, {"type": "node", "id": 5071007529, "lat": 46.3491266, "lon": 18.7031909, "tags": {"addr:city": "Szeksz\u00e1rd", "addr:housenumber": "2-4", "addr:postcode": "7100", "addr:street": "Liszt Ferenc t\u00e9r", "brand": "Auchan", "brand:wikidata": "Q758603", "brand:wikipedia": "en:Auchan", "name": "Auchan", "opening_hours": "Mo-Sa 06:00-20:00; Su 08:00-16:00", "operator": "Auchan", "payment:cash": "yes", "payment:mastercard": "yes", "shop": "supermarket", "wheelchair": "yes"}}, {"type": "node", "id": 5573149421, "lat": 46.1725044, "lon": 18.9530088, "tags": {"name": "Delta CBA", "shop": "supermarket"}}, {"type": "node", "id": 6432370920, "lat": 46.1948286, "lon": 18.9580893}, {"type": "node", "id": 6432370921, "lat": 46.1949066, "lon": 18.9586553}, {"type": "node", "id": 6432370922, "lat": 46.195018, "lon": 18.9586365}, {"type": "node", "id": 6432370923, "lat": 46.1950495, "lon": 18.9587304}, {"type": "node", "id": 6432370924, "lat": 46.1951776, "lon": 18.9586338}, {"type": "node", "id": 7074311941, "lat": 46.3444854, "lon": 18.7061714, "tags": {"brand": "Nemzeti Doh\u00e1nybolt", "brand:wikidata": "Q20639040", "brand:wikipedia": "en:Doh\u00e1nybolt", "name": "Nemzeti Doh\u00e1nybolt", "opening_hours": "Mo-Fr 06:00-12:30, 13:00-20:00; Sa 06:00-12:30, 13:00-17:30; Su 06:00-13:30", "operator": "Merkl Krisztina", "shop": "tobacco", "survey:date": "2019-12-03", "wheelchair": "yes"}}, {"type": "node", "id": 7544939459, "lat": 46.3445027, "lon": 18.7061719}, {"type": "node", "id": 7544939460, "lat": 46.3445755, "lon": 18.7061409}, {"type": "node", "id": 7544939461, "lat": 46.3445787, "lon": 18.7058897}, {"type": "node", "id": 7544939462, "lat": 46.3446254, "lon": 18.7058909}, {"type": "node", "id": 7686644770, "lat": 46.3305273, "lon": 18.706408, "tags": {"addr:city": "Szeksz\u00e1rd", "addr:housenumber": "40", "addr:postcode": "7100", "addr:street": "Tartsay Vilmos utca", "air_conditioning": "yes", "branch": "Szeksz\u00e1rd Hipermarket", "brand": "Tesco", "brand:wikidata": "Q487494", "brand:wikipedia": "hu:Tesco", "contact:facebook": "https://www.facebook.com/tescoaruhazak", "contact:pinterest": "https://www.pinterest.com/tescohungary/", "contact:website": "https://tesco.hu/aruhazak/aruhaz/tesco-szekszard-hipermarket/", "contact:youtube": "https://www.youtube.com/user/TescoMagyarorszag", "import": "osm_poi_matchmaker", "internet_access": "wlan", "internet_access:fee": "no", "internet_access:ssid": "tesco-internet", "loyalty_card": "yes", "name": "Tesco", "opening_hours": "Mo-Sa 06:00-21:00; Su 07:00-20:00; PH off", "operator": "TESCO-GLOBAL \u00c1ruh\u00e1zak Zrt.", "operator:addr": "2040 Buda\u00f6rs, Kinizsi \u00fat 1-3.", "payment:american_express": "yes", "payment:cash": "yes", "payment:contactless": "yes", "payment:edenred_card": "yes", "payment:edenred_voucher": "yes", "payment:gift_card": "yes", "payment:jcb": "yes", "payment:maestro": "yes", "payment:mastercard": "yes", "payment:mastercard_contactless": "yes", "payment:mastercard_electronic": "yes", "payment:multipay": "yes", "payment:otp_bankpont": "yes", "payment:otp_cafeteria": "yes", "payment:unionpay": "yes", "payment:v_pay": "yes", "payment:visa": "yes", "payment:visa_electron": "yes", "payment:wire_transfer": "yes", "ref": "41600", "ref:HU:company": "13-10-040628", "ref:HU:vatin": "10307078-2-44", "ref:vatin": "HU10307078", "shop": "supermarket", "source": "website", "source:date": "2020-09-28", "source:wheelchair": "website", "toilets:wheelchair": "yes", "wheelchair": "yes"}}, {"type": "node", "id": 7704179069, "lat": 46.3454708, "lon": 18.709423, "tags": {"brand": "Interspar", "name": "Interspar", "opening_hours": "Mo-Sa 06:00-22:00; Su 08:00-19:00; PH off", "phone": "+36 20 823 7497", "shop": "supermarket", "website": "https://www.spar.hu/", "wheelchair": "yes"}}, {"type": "node", "id": 7770723457, "lat": 46.3346201, "lon": 18.7014918}, {"type": "node", "id": 7770723458, "lat": 46.334616, "lon": 18.7015669}, {"type": "node", "id": 7770723459, "lat": 46.3344794, "lon": 18.7009499}, {"type": "node", "id": 7770723460, "lat": 46.3344131, "lon": 18.7009423}, {"type": "node", "id": 8634290640, "lat": 46.1817221, "lon": 18.9393237, "tags": {"name": "Sug\u00f3 p\u00e9ks\u00e9g", "opening_hours:covid19": "open", "shop": "supermarket"}}, {"type": "node", "id": 8649897382, "lat": 46.1847341, "lon": 18.9369722, "tags": {"opening_hours:covid19": "open", "shop": "supermarket"}}, {"type": "node", "id": 8649897388, "lat": 46.185387, "lon": 18.932308, "tags": {"name": "Delta market", "opening_hours:covid19": "same", "shop": "supermarket"}}, {"type": "node", "id": 8654160108, "lat": 46.190929, "lon": 18.9500231, "tags": {"opening_hours": "24/7", "opening_hours:covid19": "open", "shop": "supermarket"}}, {"type": "node", "id": 8688647577, "lat": 46.424504, "lon": 18.790341}, {"type": "node", "id": 8688647578, "lat": 46.4245403, "lon": 18.7902932}, {"type": "node", "id": 8688647579, "lat": 46.4242429, "lon": 18.7902954}, {"type": "node", "id": 8688647580, "lat": 46.4242174, "lon": 18.7903289}, {"type": "node", "id": 8688647581, "lat": 46.4241249, "lon": 18.7901811}, {"type": "node", "id": 8688647582, "lat": 46.4244683, "lon": 18.7906554}, {"type": "node", "id": 8688647583, "lat": 46.424621, "lon": 18.7904222}, {"type": "node", "id": 8688647584, "lat": 46.4242662, "lon": 18.7899612}, {"type": "node", "id": 8718069717, "lat": 46.1855899, "lon": 18.9432205, "tags": {"shop": "supermarket"}}, {"type": "node", "id": 9319548224, "lat": 46.4219372, "lon": 18.7834653}, {"type": "node", "id": 9319548226, "lat": 46.4220597, "lon": 18.782957}, {"type": "node", "id": 9319548227, "lat": 46.4218209, "lon": 18.7830023}, {"type": "node", "id": 9319548228, "lat": 46.4218628, "lon": 18.7834767}, {"type": "node", "id": 9319548229, "lat": 46.4221026, "lon": 18.7834326}, {"type": "node", "id": 9319548244, "lat": 46.424582, "lon": 18.7904735}, {"type": "node", "id": 9319548245, "lat": 46.424593, "lon": 18.790491}, {"type": "node", "id": 9319548246, "lat": 46.4241476, "lon": 18.7901511}, {"type": "node", "id": 9319548247, "lat": 46.4241361, "lon": 18.7901326}, {"type": "node", "id": 9500786104, "lat": 46.5260159, "lon": 18.9850965}, {"type": "node", "id": 9500786105, "lat": 46.5259175, "lon": 18.9852012}, {"type": "node", "id": 9500786106, "lat": 46.5258781, "lon": 18.985295}, {"type": "node", "id": 9500786107, "lat": 46.5259444, "lon": 18.9853538}, {"type": "node", "id": 10208304244, "lat": 46.3344525, "lon": 18.700633}, {"type": "node", "id": 10208304247, "lat": 46.3344258, "lon": 18.7007092}, {"type": "way", "id": 121249543, "nodes": [1357856294, 1357856310, 1357856315, 1357856270, 1357856267, 1357856298, 1357856294], "tags": {"addr:city": "Baja", "addr:housenumber": "11", "addr:postcode": "6500", "addr:street": "Gr\u00e1n\u00e1tos utca", "air_conditioning": "yes", "branch": "Baja Hipermarket", "brand": "Tesco", "brand:wikidata": "Q487494", "brand:wikipedia": "en:Tesco", "building": "retail", "contact:facebook": "https://www.facebook.com/tescoaruhazak", "contact:phone": "+36 20 827 0000", "contact:pinterest": "https://www.pinterest.com/tescohungary/", "contact:website": "https://tesco.hu/aruhazak/aruhaz/tesco-baja-hipermarket/", "contact:youtube": "https://www.youtube.com/user/TescoMagyarorszag", "import": "osm_poi_matchmaker", "internet_access": "wlan", "internet_access:fee": "no", "internet_access:ssid": "tesco-internet", "loyalty_card": "yes", "name": "Tesco", "opening_hours": "Mo-Sa 06:00-22:00; Su 07:00-20:00; PH off", "operator": "TESCO-GLOBAL \u00c1ruh\u00e1zak Zrt.", "operator:addr": "2040 Buda\u00f6rs, Kinizsi \u00fat 1-3.", "payment:american_express": "yes", "payment:cash": "yes", "payment:contactless": "yes", "payment:edenred_card": "yes", "payment:edenred_voucher": "yes", "payment:gift_card": "yes", "payment:jcb": "yes", "payment:maestro": "yes", "payment:mastercard": "yes", "payment:mastercard_contactless": "yes", "payment:mastercard_electronic": "yes", "payment:multipay": "yes", "payment:otp_bankpont": "yes", "payment:otp_cafeteria": "yes", "payment:unionpay": "yes", "payment:v_pay": "yes", "payment:visa": "yes", "payment:visa_electron": "yes", "payment:wire_transfer": "yes", "ref:HU:company": "13-10-040628", "ref:HU:vatin": "10307078-2-44", "ref:vatin": "HU10307078", "shop": "supermarket", "source": "website", "source:date": "2020-09-28", "source:wheelchair": "website", "toilets:wheelchair": "yes", "wheelchair": "yes"}}, {"type": "way", "id": 121253689, "nodes": [1357909783, 1357909742, 1357909714, 1357909690, 1357909782, 1357909802, 1357909811, 1357909818, 1357909813, 1357909825, 1357909783], "tags": {"brand": "Lidl", "brand:wikidata": "Q151954", "brand:wikipedia": "en:Lidl", "building": "retail", "name": "Lidl", "shop": "supermarket", "website": "https://www.lidl.hu/"}}, {"type": "way", "id": 229346430, "nodes": [2379578870, 2379578871, 2379578872, 2379578873, 2379578874, 2379578875, 2379578876, 2379578877, 2379578893, 2379578878, 2379578879, 2379578870], "tags": {"addr:city": "Baja", "addr:housenumber": "87", "addr:postcode": "6500", "addr:street": "D\u00f3zsa Gy\u00f6rgy \u00fat", "air_conditioning": "yes", "brand": "Aldi", "brand:wikidata": "Q125054", "brand:wikipedia": "hu:Aldi", "building": "retail", "contact:facebook": "https://www.facebook.com/ALDI.Magyarorszag", "contact:instagram": "https://www.instagram.com/aldi.magyarorszag", "contact:phone": "+36 80 088 264", "contact:website": "https://www.aldi.hu", "contact:youtube": "https://www.youtube.com/user/ALDIMagyarorszag", "name": "Aldi", "opening_hours": "Mo-Sa 07:00-20:00; Su 07:00-19:00; PH off", "operator": "ALDI Magyarorsz\u00e1g \u00c9lelmiszer Bt.", "operator:addr": "2051 Biatorb\u00e1gy, M\u00e9sz\u00e1rosok \u00fatja 2.", "payment:cash": "yes", "payment:contactless": "yes", "payment:maestro": "yes", "payment:mastercard": "yes", "payment:mastercard_contactless": "yes", "payment:mastercard_electronic": "yes", "payment:visa": "yes", "payment:visa_electron": "yes", "ref:HU:company": "13 06 058506", "ref:HU:vatin": "22234663-2-44", "ref:vatin": "HU22234663", "shop": "supermarket", "source": "import;website", "source:date": "2022-10-14"}}, {"type": "way", "id": 229599121, "nodes": [2381698146, 10208304244, 2381698149, 10208304247, 7770723460, 7770723459, 2381698151, 7770723457, 7770723458, 2381698153, 2381698146], "tags": {"addr:city": "Szeksz\u00e1rd", "addr:housenumber": "94B", "addr:postcode": "7100", "addr:street": "B\u00e9ri Balogh \u00c1d\u00e1m utca", "brand": "Lidl", "brand:wikidata": "Q151954", "brand:wikipedia": "en:Lidl", "building": "retail", "building:levels": "1", "name": "Lidl", "opening_hours": "Mo-Sa 06:30-21:00; Su 07:00-17:00; PH off", "opening_hours:covid19": "Mo-Sa 06:00-19:00; Su 07:00-19:00; PH off", "shop": "supermarket", "website": "https://www.lidl.hu/", "wheelchair": "yes"}}, {"type": "way", "id": 232355081, "nodes": [2407097576, 2407097577, 2407097578, 2407097579, 2407097580, 2407097581, 3459077197, 2407097583, 2407097576], "tags": {"building": "retail", "name": "Lidl", "shop": "supermarket", "website": "https://www.lidl.hu/", "wheelchair": "yes"}}, {"type": "way", "id": 232355923, "nodes": [2407106456, 2407106457, 2407106458, 2407106459, 2407106456], "tags": {"addr:city": "Kalocsa", "addr:housenumber": "8-10", "addr:postcode": "6300", "addr:street": "B\u00e1tyai \u00fat", "air_conditioning": "yes", "branch": "Kalocsa Hipermarket", "brand": "Tesco", "brand:wikidata": "Q487494", "brand:wikipedia": "hu:Tesco", "building": "retail", "contact:facebook": "https://www.facebook.com/tescoaruhazak", "contact:pinterest": "https://www.pinterest.com/tescohungary/", "contact:website": "https://tesco.hu/aruhazak/aruhaz/tesco-kalocsa-hipermarket/", "contact:youtube": "https://www.youtube.com/user/TescoMagyarorszag", "import": "osm_poi_matchmaker", "internet_access": "wlan", "internet_access:fee": "no", "internet_access:ssid": "tesco-internet", "loyalty_card": "yes", "name": "Tesco", "opening_hours": "Mo-Sa 06:00-21:00; Su 07:00-18:00; PH off", "operator": "TESCO-GLOBAL \u00c1ruh\u00e1zak Zrt.", "operator:addr": "2040 Buda\u00f6rs, Kinizsi \u00fat 1-3.", "payment:american_express": "yes", "payment:cash": "yes", "payment:contactless": "yes", "payment:edenred_card": "yes", "payment:edenred_voucher": "yes", "payment:gift_card": "yes", "payment:jcb": "yes", "payment:maestro": "yes", "payment:mastercard": "yes", "payment:mastercard_contactless": "yes", "payment:mastercard_electronic": "yes", "payment:multipay": "yes", "payment:otp_bankpont": "yes", "payment:otp_cafeteria": "yes", "payment:unionpay": "yes", "payment:v_pay": "yes", "payment:visa": "yes", "payment:visa_electron": "yes", "payment:wire_transfer": "yes", "ref:HU:company": "13-10-040628", "ref:HU:vatin": "10307078-2-44", "ref:vatin": "HU10307078", "shop": "supermarket", "source": "website", "source:date": "2020-09-28", "source:wheelchair": "website", "wheelchair": "yes"}}, {"type": "way", "id": 232356438, "nodes": [2407113918, 2407113929, 2407113936, 2407113935, 2407113934, 2407113919, 2407113918], "tags": {"addr:city": "Kalocsa", "addr:housenumber": "5/A", "addr:postcode": "6300", "addr:street": "B\u00e1tyai \u00fat", "air_conditioning": "yes", "brand": "Aldi", "brand:wikidata": "Q125054", "brand:wikipedia": "hu:Aldi", "building": "retail", "contact:facebook": "https://www.facebook.com/ALDI.Magyarorszag", "contact:instagram": "https://www.instagram.com/aldi.magyarorszag", "contact:phone": "+36 80 088 264", "contact:website": "https://www.aldi.hu", "contact:youtube": "https://www.youtube.com/user/ALDIMagyarorszag", "name": "Aldi", "name:fa": "\u0622\u0644\u062f\u06cc", "opening_hours": "Mo-Sa 07:00-20:00; Su 07:00-19:00; PH off", "operator": "ALDI Magyarorsz\u00e1g \u00c9lelmiszer Bt.", "operator:addr": "2051 Biatorb\u00e1gy, M\u00e9sz\u00e1rosok \u00fatja 2.", "payment:cash": "yes", "payment:contactless": "yes", "payment:maestro": "yes", "payment:mastercard": "yes", "payment:mastercard_contactless": "yes", "payment:mastercard_electronic": "yes", "payment:visa": "yes", "payment:visa_electron": "yes", "ref:HU:company": "13 06 058506", "ref:HU:vatin": "22234663-2-44", "ref:vatin": "HU22234663", "shop": "supermarket", "source": "import;website", "source:date": "2022-10-14", "wheelchair": "yes"}}, {"type": "way", "id": 243648748, "nodes": [2510284764, 2510300740, 2510284765, 2510284766, 2510284767, 2510284769, 2510284770, 2510284772, 2510284774, 2510284776, 2510284778, 2510284764], "tags": {"addr:city": "Baja", "addr:housenumber": "4", "addr:postcode": "6500", "addr:street": "Jelky Andr\u00e1s t\u00e9r", "brand": "Spar", "brand:wikidata": "Q610492", "brand:wikipedia": "en:SPAR (retailer)", "building": "retail", "contact:website": "http://www.spar.hu", "name": "Spar", "opening_hours": "Mo-Fr 06:30-20:00; Sa 06:30-17:00; Su 07:00-15:00", "phone": "+36 20 823 7534", "ref": "534", "shop": "supermarket", "website": "http://www.spar.hu", "wheelchair": "yes"}}, {"type": "way", "id": 251031328, "nodes": [2573281610, 9500786104, 2573281611, 2573281612, 9500786105, 9500786106, 9500786107, 2573281613, 2573281614, 2573281615, 2573281616, 2573281617, 2573281618, 2573281623, 2573281622, 2573281621, 2573281620, 2573281619, 2573281610], "tags": {"addr:city": "Kalocsa", "addr:country": "HU", "addr:housenumber": "10", "addr:postcode": "6300", "addr:street": "Sz\u00e9chenyi utca", "alt_name": "Penny Market", "brand:wikidata": "Q284688", "brand:wikipedia": "en:Penny (supermarket)", "building": "retail", "building:levels": "1", "name": "Penny", "opening_hours": "Mo-Sa 07:00-20:00; Su 07:00-18:00; PH off", "shop": "supermarket", "website": "https://www.penny.hu", "wheelchair": "yes"}}, {"type": "way", "id": 288525448, "nodes": [2920840858, 2920840857, 2920840860, 2920840859, 2920840856, 2920840855, 2920840852, 2920840851, 2920840847, 2920840848, 2920840842, 2920840843, 2920840839, 2920840841, 2920840844, 2920840845, 2920840846, 2920840849, 2920840850, 2920840854, 2920840853, 2920840858], "tags": {"addr:city": "Szeksz\u00e1rd", "addr:housenumber": "2", "addr:postcode": "7100", "addr:street": "B\u00e9ri Balogh \u00c1d\u00e1m utca", "brand": "Coop", "building": "retail", "building:levels": "1", "name": "Coop", "opening_hours": "Mo-Fr 06:00-17:30, Sa 06:00-11:30, PH off", "operator": "Mecsek F\u00fcsz\u00e9rt Zrt.", "phone": "+36 74 415 237", "shop": "supermarket", "survey:date": "2019-11-22", "website": "http://coop.hu", "wheelchair": "yes"}}, {"type": "way", "id": 299917242, "nodes": [3040025796, 3040025797, 3040025791, 3040025793, 3040025801, 3040025799, 3040025798, 3040025796], "tags": {"brand": "CBA", "brand:wikidata": "Q779845", "brand:wikipedia": "en:CBA (food retail)", "building": "retail", "name": "CBA", "opening_hours": "Mo-Fr 05:30-19:00; Sa 06:00-16:00; Su 07:00-12:00; PH off", "payment:debit_cards": "yes", "shop": "supermarket", "wheelchair": "no"}}, {"type": "way", "id": 338768505, "nodes": [3459076711, 3459076712, 3459076655, 3459076654, 3459052957, 3459075285, 3459076713, 3459076639, 3459076711], "tags": {"building": "retail", "name": "Re\u00e1l", "shop": "supermarket", "source": "survey;Bing", "toilets:wheelchair": "no", "wheelchair": "no"}}, {"type": "way", "id": 362854955, "nodes": [3671027491, 3671027492, 3671027493, 3671027494, 3671027495, 3671027496, 3671027497, 3671027498, 3671027499, 3671027500, 3671027501, 3671027502, 3671027491], "tags": {"addr:city": "Szeksz\u00e1rd", "addr:housenumber": "79", "addr:postcode": "7100", "addr:street": "B\u00e9ri Balogh \u00c1d\u00e1m utca", "brand": "Penny", "brand:wikidata": "Q284688", "brand:wikipedia": "en:Penny (supermarket)", "building": "retail", "building:levels": "1", "name": "Penny", "opening_hours": "Mo-Sa 06:30-21:00; Su 07:00-18:00; PH off", "shop": "supermarket", "website": "https://www.penny.hu/"}}, {"type": "way", "id": 402775274, "nodes": [4051884515, 4051884516, 4051884517, 4051884518, 4051884515], "tags": {"addr:city": "Szeksz\u00e1rd", "addr:country": "HU", "addr:housenumber": "3", "addr:postcode": "7100", "addr:street": "Bajcsy-Zsilinszky utca", "building": "retail", "building:levels": "1", "name": "Coop mini", "opening_hours": "Mo-Fr 06:00-17:00; Sa 06:30-11:30, PH off", "operator": "MECSEK F\u00dcSZ\u00c9RT ZRT.", "phone": "+36 74 412 354", "shop": "supermarket", "wheelchair": "limited"}}, {"type": "way", "id": 402784170, "nodes": [4051985088, 4051985089, 7074311941, 7544939459, 4051985090, 7544939460, 7544939461, 7544939462, 4051985091, 4051985088], "tags": {"addr:city": "Szeksz\u00e1rd", "addr:country": "HU", "addr:housenumber": "18", "addr:postcode": "7100", "addr:street": "Wessel\u00e9nyi utca", "brand": "CBA", "brand:wikidata": "Q779845", "brand:wikipedia": "en:CBA (food retail)", "building": "retail", "building:levels": "1", "imagery_used": "Maxar", "name": "CBA", "opening_hours": "Mo-Sa 06:00-20:00, Su 06:00-14:00, PH off", "shop": "supermarket", "wheelchair": "yes"}}, {"type": "way", "id": 686265382, "nodes": [2519505975, 6432370924, 6432370923, 6432370922, 6432370921, 6432370920, 2519505975], "tags": {"brand": "Spar", "brand:wikidata": "Q610492", "brand:wikipedia": "en:SPAR (retailer)", "building": "retail", "contact:website": "http://www.spar.hu", "name": "Spar", "shop": "supermarket", "website": "http://www.spar.hu", "wheelchair": "yes"}}, {"type": "way", "id": 937835660, "nodes": [8688647584, 8688647577, 8688647578, 8688647583, 9319548244, 9319548245, 8688647582, 8688647579, 8688647580, 8688647581, 9319548246, 9319548247, 8688647584], "tags": {"addr:city": "Tolna", "addr:housenumber": "5", "addr:postcode": "7130", "addr:street": "Arany J\u00e1nos utca", "alt_name": "Penny Market", "brand:wikidata": "Q284688", "brand:wikipedia": "en:Penny (supermarket)", "building": "retail", "building:levels": "1", "contact:website": "http://www.penny.hu", "name": "Penny", "opening_hours": "Mo-Sa 07:00-21:00; Su 07:00-18:00; PH off", "roof:shape": "hipped", "shop": "supermarket", "source": "Bing", "website": "http://www.penny.hu", "wheelchair": "yes"}}, {"type": "way", "id": 1010063461, "nodes": [9319548229, 9319548224, 9319548228, 9319548227, 9319548226, 9319548229], "tags": {"addr:city": "Tolna", "addr:housenumber": "81", "addr:postcode": "7130", "addr:street": "De\u00e1k Ferenc utca", "brand:wikidata": "Q610492", "building": "retail", "building:levels": "1", "name": "Spar", "opening_hours": "Mo-Fr 06:30-20:00; Sa 06:30-18:00; Su 07:00-14:00; PH off", "phone": "+36 20 823 7965", "roof:shape": "gabled", "shop": "supermarket", "website": "http://www.spar.hu", "wheelchair": "yes"}}]}