{"version": 0.6, "generator": "Overpass API 0.7.59 e21c39fe", "osm3s": {"timestamp_osm_base": "2023-01-20T17:55:59Z", "copyright": "The data included in this document is from www.openstreetmap.org. The data is made available under ODbL."}, "elements": [{"type": "node", "id": 256056268, "lat": 48.328798, "lon": 19.6689564, "tags": {"addr:city": "Lu\u010denec", "addr:conscriptionnumber": "2", "addr:housenumber": "2/2", "addr:postcode": "984 01", "addr:street": "J. K\u00e1rmana", "addr:streetnumber": "2", "amenity": "library", "contact:email": "nklc@nklc.sk", "contact:phone": "+421 47 451 3237", "name": "Novohradsk\u00e1 kni\u017enica", "source:addr": "minvskaddress", "website": "https://www.nklc.sk/"}}, {"type": "node", "id": 1929011565, "lat": 48.3544223, "lon": 19.573782, "tags": {"addr:city": "Hali\u010d", "addr:housenumber": "68/66", "addr:postcode": "98511", "addr:street": "Mieru", "addr:streetnumber": "66", "amenity": "library", "contact:email": "obec@halic.sk", "contact:phone": "+421 47 451 1694", "name": "Obecn\u00e1 kni\u017enica"}}, {"type": "node", "id": 2650365838, "lat": 48.2080338, "lon": 19.3479509, "tags": {"addr:city": "Ve\u013ek\u00fd Krt\u00ed\u0161", "addr:housenumber": "5", "addr:postcode": "990 01", "addr:street": "N\u00e1mestie Augusta Horislava \u0160kult\u00e9tyho", "addr:streetnumber": "5", "amenity": "library", "contact:email": "info@hnk-vk.sk", "contact:phone": "+421 47 483 0223", "name": "Hontiansko-novohradsk\u00e1 kni\u017enica A. H. \u0160kult\u00e9tyho", "opening_hours": "Mo-We 09:00-17:00; Th-Fr 10:00-18:00", "website": "https://www.hnk-vk.sk/", "wikidata": "Q12767001"}}, {"type": "node", "id": 2756562680, "lat": 48.1961452, "lon": 19.3966686, "tags": {"addr:city": "Ve\u013ek\u00e9 Straciny", "addr:conscriptionnumber": "13", "addr:housenumber": "13", "addr:place": "Ve\u013ek\u00e9 Straciny", "addr:postcode": "991 01", "amenity": "library", "contact:email": "velke.straciny@gmail.com", "contact:phone": "+421 47 483 0517", "name": "Obecn\u00e1 kni\u017enica Ve\u013ek\u00e9 Straciny"}}, {"type": "node", "id": 4514894709, "lat": 48.2326932, "lon": 19.7507981, "tags": {"addr:city": "Ple\u0161", "addr:conscriptionnumber": "7", "addr:housenumber": "7", "addr:place": "Ple\u0161", "addr:postcode": "985 31", "amenity": "library", "contact:email": "obecnyurad.ples@centrum.sk", "contact:phone": "+421 47 439 9841", "name": "Obecn\u00e1 kni\u017enica Ple\u0161"}}, {"type": "node", "id": 4514894714, "lat": 48.4059944, "lon": 19.5983795, "tags": {"addr:city": "Podre\u010dany", "addr:conscriptionnumber": "190", "addr:housenumber": "190", "addr:place": "Podre\u010dany", "addr:postcode": "985 54", "amenity": "library", "contact:email": "obec@podrecany.sk", "contact:phone": "+421 47 439 6171", "name": "Obecn\u00e1 kni\u017enica"}}, {"type": "node", "id": 4514894717, "lat": 48.3331286, "lon": 19.5642073, "tags": {"addr:city": "Ma\u0161kov\u00e1", "addr:conscriptionnumber": "76", "addr:housenumber": "76", "addr:place": "Ma\u0161kov\u00e1", "addr:postcode": "985 11", "amenity": "library", "contact:email": "obec.maskova@gmail.com", "contact:phone": "+421 902 740 286", "name": "Obecn\u00e1 kni\u017enica Ma\u0161kov\u00e1"}}, {"type": "node", "id": 4514894719, "lat": 48.2613974, "lon": 19.6174596, "tags": {"addr:city": "Ve\u013ek\u00e1 nad Ip\u013eom", "addr:conscriptionnumber": "68", "addr:housenumber": "68", "addr:place": "Ve\u013ek\u00e1 nad Ip\u013eom", "addr:postcode": "985 32", "amenity": "library", "contact:email": "obec.velkanadiplom@azet.sk", "contact:phone": "+421 47 437 4102", "name": "Obecn\u00e1 kni\u017enica Ve\u013ek\u00e1 nad Ip\u013eom"}}, {"type": "node", "id": 4514894721, "lat": 48.3630223, "lon": 19.5078523, "tags": {"amenity": "library", "contact:email": "obecpraha@azet.sk", "contact:phone": "+421 47 439 2348", "name": "Obecn\u00e1 kni\u017enica Praha"}}, {"type": "node", "id": 4514894726, "lat": 48.2852463, "lon": 19.7168346, "tags": {"addr:city": "Trebe\u013eovce", "addr:conscriptionnumber": "109", "addr:housenumber": "109", "addr:place": "Trebe\u013eovce", "addr:postcode": "985 31", "amenity": "library", "contact:email": "obectrebelovce@dkn.sk", "contact:phone": "+421 47 439 8151", "name": "Obecn\u00e1 kni\u017enica Trebe\u013eovce"}}, {"type": "node", "id": 4514894727, "lat": 48.3599817, "lon": 19.5416568, "tags": {"addr:city": "Lupo\u010d", "addr:conscriptionnumber": "102", "addr:housenumber": "102", "addr:place": "Lupo\u010d", "addr:postcode": "985 11", "amenity": "library", "contact:email": "obeclupoc@gmail.com", "contact:phone": "+421 47 439 2345", "name": "Obecn\u00e1 kni\u017enica Lupo\u010d"}}, {"type": "node", "id": 4518821611, "lat": 48.2987433, "lon": 19.178989, "tags": {"addr:city": "Litava", "addr:conscriptionnumber": "5", "addr:housenumber": "5", "addr:place": "Litava", "addr:postcode": "962 44", "amenity": "library", "contact:email": "starosta@obeclitava.sk", "contact:phone": "+421 45 540 2840", "name": "Obecn\u00e1 kni\u017enica Litava"}}, {"type": "node", "id": 4518821615, "lat": 48.2531406, "lon": 19.1553257, "tags": {"addr:city": "Cerovo", "addr:conscriptionnumber": "259", "addr:housenumber": "259", "addr:place": "Cerovo", "addr:postcode": "962 52", "amenity": "library", "contact:email": "cerovo3@gmail.com", "contact:phone": "+421 904 997 344", "name": "Obecn\u00e1 kni\u017enica Cerovo"}}, {"type": "node", "id": 4520192689, "lat": 48.4208701, "lon": 19.7384572, "tags": {"addr:city": "Brezni\u010dka", "addr:conscriptionnumber": "206", "addr:housenumber": "206", "addr:place": "Brezni\u010dka", "addr:postcode": "985 02", "amenity": "library", "contact:email": "breznickapt@gmail.com", "contact:phone": "+421 47 448 6722", "contact:website": "https://www.obecbreznicka.sk/p/4298/obecna-kniznica.html", "name": "Obecn\u00e1 kni\u017enica Brezni\u010dka", "opening_hours": "Mo-Th 08:00-15:00; Fr 08:00-12:00; PH off"}}, {"type": "node", "id": 4825498419, "lat": 48.1817857, "lon": 19.2030383, "tags": {"addr:city": "Kosihovce", "addr:conscriptionnumber": "156", "addr:housenumber": "156", "addr:place": "Kosihovce", "addr:postcode": "991 25", "amenity": "library", "contact:email": "kosihovce@gmail.com", "contact:phone": "+421 47 489 5121", "name": "Obecn\u00e1 kni\u017enica Kosihovce"}}, {"type": "node", "id": 4825498420, "lat": 48.2341662, "lon": 19.4215723, "tags": {"addr:city": "P\u00f4tor", "addr:conscriptionnumber": "75", "addr:housenumber": "75", "addr:place": "P\u00f4tor", "addr:postcode": "991 03", "amenity": "library", "contact:email": "obecpotor@centrum.sk", "contact:phone": "+421 47 489 6326", "name": "Obecn\u00e1 kni\u017enica P\u00f4tor"}}, {"type": "node", "id": 4825498425, "lat": 48.3119648, "lon": 19.396422, "tags": {"addr:city": "Senn\u00e9", "addr:conscriptionnumber": "81", "addr:housenumber": "81", "addr:place": "Senn\u00e9", "addr:postcode": "991 01", "amenity": "library", "contact:email": "obecsenne@gmail.com", "contact:phone": "+421 47 499 8122", "name": "Obecn\u00e1 kni\u017enica Senn\u00e9"}}, {"type": "node", "id": 4825498426, "lat": 48.1953483, "lon": 19.1775329, "tags": {"addr:city": "Opava", "addr:conscriptionnumber": "131", "addr:housenumber": "131", "addr:place": "Opava", "addr:postcode": "991 25", "amenity": "library", "contact:email": "obecnyurad26@zoznam.sk", "contact:phone": "+421 949 282 554", "name": "Obecn\u00e1 kni\u017enica Opava"}}, {"type": "node", "id": 4825498428, "lat": 48.1717, "lon": 19.3338221, "tags": {"addr:city": "Obeckov", "addr:conscriptionnumber": "165", "addr:housenumber": "165", "addr:place": "Obeckov", "addr:postcode": "991 05", "amenity": "library", "contact:email": "obeckov@gmail.com", "contact:phone": "+421 47 489 0114", "name": "Obecn\u00e1 kni\u017enica Obeckov"}}, {"type": "node", "id": 4825498429, "lat": 48.2100105, "lon": 19.4141989, "tags": {"addr:city": "Mal\u00e9 Straciny", "addr:conscriptionnumber": "86", "addr:housenumber": "86", "addr:place": "Mal\u00e9 Straciny", "addr:postcode": "990 01", "amenity": "library", "contact:email": "tatianakassayova@gmail.com", "contact:phone": "+421 47 489 6431", "name": "Obecn\u00e1 kni\u017enica Mal\u00e9 Straciny"}}, {"type": "node", "id": 4825498433, "lat": 48.2912991, "lon": 19.4606606, "tags": {"addr:city": "Chr\u0165any", "addr:conscriptionnumber": "101", "addr:housenumber": "101", "addr:place": "Chr\u0165any", "addr:postcode": "991 21", "amenity": "library", "contact:email": "obecchrtany@post.sk", "contact:phone": "+421 907 884 690", "name": "Obecn\u00e1 kni\u017enica Chr\u0165any"}}, {"type": "node", "id": 4825498434, "lat": 48.2795094, "lon": 19.4314399, "tags": {"addr:city": "Horn\u00e1 Strehov\u00e1", "addr:conscriptionnumber": "81", "addr:housenumber": "81", "addr:place": "Horn\u00e1 Strehov\u00e1", "addr:postcode": "991 02", "amenity": "library", "contact:email": "hornastrehova@procomp.sk", "contact:phone": "+421 47 489 7197", "name": "Obecn\u00e1 kni\u017enica Horn\u00e1 Strehov\u00e1"}}, {"type": "node", "id": 4825498436, "lat": 48.3230109, "lon": 19.2494853, "tags": {"addr:city": "Da\u010dov Lom", "addr:conscriptionnumber": "113", "addr:housenumber": "113", "addr:place": "Da\u010dov Lom", "addr:postcode": "991 35", "amenity": "library", "contact:email": "darina.rellova@obecdacovlom.sk", "contact:phone": "+421 47 487 4121", "name": "Obecn\u00e1 kni\u017enica Da\u010dov Lom"}}, {"type": "node", "id": 4825498437, "lat": 48.1833638, "lon": 19.1427246, "tags": {"addr:city": "\u010celovce", "addr:conscriptionnumber": "113", "addr:housenumber": "113", "addr:place": "\u010celovce", "addr:postcode": "991 41", "amenity": "library", "contact:email": "obeccelovce@gmail.com", "contact:phone": "+421 47 488 3127", "name": "Obecn\u00e1 kni\u017enica \u010celovce"}}, {"type": "node", "id": 4825498438, "lat": 48.2991608, "lon": 19.4021067, "tags": {"addr:city": "Brusn\u00edk", "addr:conscriptionnumber": "45", "addr:housenumber": "45", "addr:place": "Brusn\u00edk", "addr:postcode": "991 01", "amenity": "library", "contact:phone": "+421 47 489 8129", "name": "Obecn\u00e1 kni\u017enica Brusn\u00edk"}}, {"type": "node", "id": 4825498440, "lat": 48.2021707, "lon": 19.309902, "tags": {"addr:city": "Doln\u00e9 Plachtince", "addr:conscriptionnumber": "95", "addr:housenumber": "95", "addr:place": "Doln\u00e9 Plachtince", "addr:postcode": "991 24", "amenity": "library", "contact:email": "obecdp@gmail.com", "contact:phone": "+421 919 319 501", "name": "Obecn\u00e1 kni\u017enica Doln\u00e9 Plachtince"}}, {"type": "node", "id": 4825498444, "lat": 48.3135831, "lon": 19.2227789, "tags": {"addr:city": "Such\u00e1\u0148", "addr:conscriptionnumber": "82", "addr:housenumber": "82", "addr:place": "Such\u00e1\u0148", "addr:postcode": "991 35", "amenity": "library", "contact:email": "obec.suchan@inmail.sk", "contact:phone": "+421 902 139 111", "name": "Obecn\u00e1 kni\u017enica Such\u00e1\u0148"}}]}