{"version": 0.6, "generator": "Overpass API 0.7.59 e21c39fe", "osm3s": {"timestamp_osm_base": "2023-01-21T09:24:38Z", "copyright": "The data included in this document is from www.openstreetmap.org. The data is made available under ODbL."}, "elements": [{"type": "node", "id": 365154682, "lat": 47.8425976, "lon": 16.9307761}, {"type": "node", "id": 365155472, "lat": 47.841778, "lon": 16.9305771}, {"type": "node", "id": 365155557, "lat": 47.8418736, "lon": 16.9304352}, {"type": "node", "id": 410844225, "lat": 47.7742717, "lon": 17.0346332, "tags": {"addr:city": "Andau", "addr:housenumber": "31", "addr:postcode": "7163", "addr:street": "Hauptgasse", "name": "ADEG Gelbmann", "operator": "ADEG", "shop": "supermarket"}}, {"type": "node", "id": 469125209, "lat": 47.9370937, "lon": 17.0737725, "tags": {"addr:city": "Nickelsdorf", "addr:country": "AT", "addr:housenumber": "6", "addr:postcode": "2425", "addr:street": "Lindengasse", "name": "A&O", "shop": "supermarket"}}, {"type": "node", "id": 470252507, "lat": 47.8575337, "lon": 16.8422026}, {"type": "node", "id": 470252508, "lat": 47.8577382, "lon": 16.8425466}, {"type": "node", "id": 470252509, "lat": 47.8576642, "lon": 16.8426439}, {"type": "node", "id": 470252510, "lat": 47.8576132, "lon": 16.8425579}, {"type": "node", "id": 470252511, "lat": 47.8574089, "lon": 16.8428267}, {"type": "node", "id": 470252513, "lat": 47.8572824, "lon": 16.8426131}, {"type": "node", "id": 579548022, "lat": 47.8005063, "lon": 16.6755698, "tags": {"name": "Triebaumer Richard", "organic": "only", "shop": "supermarket", "website": "http://www.triebaumerrichard.at/"}}, {"type": "node", "id": 702924652, "lat": 47.8724714, "lon": 17.268818, "tags": {"brand": "Spar", "brand:wikidata": "Q610492", "brand:wikipedia": "en:Spar (retailer)", "contact:website": "http://www.spar.hu", "name": "Spar", "shop": "supermarket", "website": "http://www.spar.hu", "wheelchair": "yes"}}, {"type": "node", "id": 944554787, "lat": 47.8704921, "lon": 16.9741946, "tags": {"addr:city": "Halbturn", "addr:housenumber": "13", "addr:postcode": "7131", "addr:street": "Erzherzog-Friedrich-Stra\u00dfe", "email": "info@weingut-biohoflang.at", "name": "Biohof Lang", "organic": "only", "phone": "+43 (2172) 8765", "shop": "supermarket", "website": "https://www.weingut-biohoflang.at/"}}, {"type": "node", "id": 1025370679, "lat": 47.8429731, "lon": 16.9308589}, {"type": "node", "id": 1025370681, "lat": 47.8424322, "lon": 16.9305214}, {"type": "node", "id": 1025370683, "lat": 47.8427066, "lon": 16.9310385}, {"type": "node", "id": 1078876623, "lat": 47.7597801, "lon": 16.808438}, {"type": "node", "id": 1078876628, "lat": 47.7594476, "lon": 16.8082604}, {"type": "node", "id": 1078876707, "lat": 47.7596696, "lon": 16.8085985}, {"type": "node", "id": 1078876797, "lat": 47.7596322, "lon": 16.8079921}, {"type": "node", "id": 1078876952, "lat": 47.7597219, "lon": 16.8081287}, {"type": "node", "id": 1078876995, "lat": 47.7596477, "lon": 16.8082364}, {"type": "node", "id": 1134225491, "lat": 47.8420925, "lon": 16.9310545}, {"type": "node", "id": 1134225543, "lat": 47.842185, "lon": 16.9309314}, {"type": "node", "id": 1149111469, "lat": 47.8767551, "lon": 17.2628248}, {"type": "node", "id": 1149111470, "lat": 47.8768908, "lon": 17.2624625}, {"type": "node", "id": 1149111474, "lat": 47.8770664, "lon": 17.2627028}, {"type": "node", "id": 1149111488, "lat": 47.8770881, "lon": 17.2626394}, {"type": "node", "id": 1149162822, "lat": 47.8763818, "lon": 17.2580966}, {"type": "node", "id": 1149162823, "lat": 47.8771427, "lon": 17.2567436}, {"type": "node", "id": 1149162832, "lat": 47.8757765, "lon": 17.25734}, {"type": "node", "id": 1149162834, "lat": 47.8765373, "lon": 17.2559869}, {"type": "node", "id": 1296328543, "lat": 47.8920034, "lon": 16.923877}, {"type": "node", "id": 1296328574, "lat": 47.8918, "lon": 16.9239708}, {"type": "node", "id": 1296328588, "lat": 47.8917784, "lon": 16.923943}, {"type": "node", "id": 1296328592, "lat": 47.8917145, "lon": 16.9244609}, {"type": "node", "id": 1296328601, "lat": 47.891601, "lon": 16.9243149}, {"type": "node", "id": 1296328614, "lat": 47.8918963, "lon": 16.9237392}, {"type": "node", "id": 1296415703, "lat": 47.8378348, "lon": 16.9228888, "tags": {"addr:city": "Frauenkirchen", "addr:country": "AT", "addr:housenumber": "2", "addr:postcode": "7132", "addr:street": "Neustiftstra\u00dfe", "at_bev:addr_date": "2018-10-01", "brand": "Spar", "brand:wikidata": "Q610492", "brand:wikipedia": "en:Spar (retailer)", "contact:phone": "+43 2172 7117", "name": "Spar", "opening_hours": "Mo-Fr 07:15-19:30; Sa 07:15-18:00", "shop": "supermarket", "website": "https://www.spar.at/standorte/spar-frauenkirchen-7132-neustiftgasse-2"}}, {"type": "node", "id": 1311786439, "lat": 47.8572501, "lon": 16.8425717}, {"type": "node", "id": 1350171350, "lat": 47.7649084, "lon": 16.9859567, "tags": {"brand": "Nah & Frisch", "brand:wikidata": "Q1963643", "brand:wikipedia": "de:Nah & Frisch", "name": "Nah & Frisch", "shop": "supermarket"}}, {"type": "node", "id": 1350189227, "lat": 47.7655952, "lon": 16.8008628, "tags": {"addr:city": "Illmitz", "addr:country": "AT", "addr:housenumber": "53", "addr:postcode": "7142", "addr:street": "Obere Hauptstra\u00dfe", "at_bev:addr_date": "2018-10-01", "brand": "Spar", "brand:wikidata": "Q610492", "brand:wikipedia": "en:Spar (retailer)", "name": "Spar", "shop": "supermarket"}}, {"type": "node", "id": 1350245340, "lat": 47.8425698, "lon": 16.9288783, "tags": {"addr:city": "Frauenkirchen", "addr:country": "AT", "addr:housenumber": "7", "addr:postcode": "7132", "addr:street": "M\u00f6nchhoferstra\u00dfe", "brand": "Penny", "brand:wikidata": "Q284688", "brand:wikipedia": "en:Penny (supermarket)", "name": "Penny", "opening_hours": "Mo-Fr 07:30-19:00; Sa 07:30-18:00", "shop": "supermarket", "website": "https://www.penny.at/", "wheelchair": "yes"}}, {"type": "node", "id": 1350245364, "lat": 47.8413856, "lon": 16.9288123, "tags": {"addr:city": "Frauenkirchen", "addr:country": "AT", "addr:housenumber": "5a", "addr:postcode": "7132", "addr:street": "M\u00f6nchhoferstra\u00dfe", "at_bev:addr_date": "2018-10-01", "brand": "Lidl", "brand:wikidata": "Q151954", "brand:wikipedia": "en:Lidl", "name": "Lidl", "opening_hours": "Mo-Fr 07:40-20:00; Sa 07:40-18:00", "shop": "supermarket"}}, {"type": "node", "id": 1399805423, "lat": 47.8920083, "lon": 16.923953}, {"type": "node", "id": 1399805433, "lat": 47.8919802, "lon": 16.9239169}, {"type": "node", "id": 1814219312, "lat": 47.8582577, "lon": 16.8434996}, {"type": "node", "id": 1901987151, "lat": 47.7843423, "lon": 16.9317066}, {"type": "node", "id": 1901987235, "lat": 47.7841125, "lon": 16.9316153}, {"type": "node", "id": 1901987260, "lat": 47.7843747, "lon": 16.9316623}, {"type": "node", "id": 1901987262, "lat": 47.7841336, "lon": 16.9318105}, {"type": "node", "id": 1901987264, "lat": 47.7844189, "lon": 16.9315503}, {"type": "node", "id": 1901987342, "lat": 47.7844288, "lon": 16.9316495}, {"type": "node", "id": 1901987356, "lat": 47.7843445, "lon": 16.9317193}, {"type": "node", "id": 1901987358, "lat": 47.7842325, "lon": 16.931745}, {"type": "node", "id": 1901987607, "lat": 47.7842364, "lon": 16.931783}, {"type": "node", "id": 1901987689, "lat": 47.7843774, "lon": 16.9316982}, {"type": "node", "id": 2321941465, "lat": 47.7830687, "lon": 17.02834}, {"type": "node", "id": 2321941466, "lat": 47.782994, "lon": 17.027726}, {"type": "node", "id": 2321941467, "lat": 47.7828389, "lon": 17.0279094}, {"type": "node", "id": 2321941468, "lat": 47.7832239, "lon": 17.0281565}, {"type": "node", "id": 2381075528, "lat": 47.8010122, "lon": 16.6723163, "tags": {"addr:city": "Rust", "addr:country": "AT", "addr:housenumber": "3", "addr:postcode": "7071", "addr:street": "Oggauerstra\u00dfe", "at_bev:addr_date": "2020-10-01", "brand": "ADEG", "brand:wikidata": "Q290211", "brand:wikipedia": "de:ADEG \u00d6sterreich", "name": "ADEG", "shop": "supermarket"}}, {"type": "node", "id": 2767603867, "lat": 47.7952305, "lon": 16.6728362}, {"type": "node", "id": 2767603870, "lat": 47.79527, "lon": 16.6736782}, {"type": "node", "id": 2767603876, "lat": 47.7954203, "lon": 16.6736626}, {"type": "node", "id": 2963352964, "lat": 47.8792022, "lon": 17.2574652}, {"type": "node", "id": 2963352965, "lat": 47.879137, "lon": 17.2569603}, {"type": "node", "id": 2963352966, "lat": 47.8789444, "lon": 17.2574313}, {"type": "node", "id": 2963352967, "lat": 47.8791444, "lon": 17.2575973}, {"type": "node", "id": 2963352968, "lat": 47.8790285, "lon": 17.2578805}, {"type": "node", "id": 2963352969, "lat": 47.8792583, "lon": 17.2575162}, {"type": "node", "id": 2963352970, "lat": 47.8792032, "lon": 17.2576509}, {"type": "node", "id": 2963352971, "lat": 47.8793351, "lon": 17.2571403}, {"type": "node", "id": 3136051441, "lat": 47.755848, "lon": 16.6664065}, {"type": "node", "id": 3136051444, "lat": 47.7558555, "lon": 16.6662648}, {"type": "node", "id": 3136051447, "lat": 47.7558729, "lon": 16.6662709}, {"type": "node", "id": 3136051451, "lat": 47.7558843, "lon": 16.666122}, {"type": "node", "id": 3136051456, "lat": 47.7558993, "lon": 16.6661078}, {"type": "node", "id": 3136051477, "lat": 47.7559498, "lon": 16.666448}, {"type": "node", "id": 3136051478, "lat": 47.7559662, "lon": 16.666305}, {"type": "node", "id": 3136051482, "lat": 47.7559939, "lon": 16.6661178}, {"type": "node", "id": 3136051488, "lat": 47.7560351, "lon": 16.6663367}, {"type": "node", "id": 3136051489, "lat": 47.756042, "lon": 16.6662891}, {"type": "node", "id": 3136051490, "lat": 47.7560678, "lon": 16.6664961}, {"type": "node", "id": 3136051491, "lat": 47.7560932, "lon": 16.6662937}, {"type": "node", "id": 3205295070, "lat": 47.8769613, "lon": 17.263117}, {"type": "node", "id": 3205295072, "lat": 47.8769958, "lon": 17.2630391}, {"type": "node", "id": 3205295075, "lat": 47.8770504, "lon": 17.2631991}, {"type": "node", "id": 3205295076, "lat": 47.8770715, "lon": 17.2631553}, {"type": "node", "id": 3205295077, "lat": 47.8772258, "lon": 17.2632812}, {"type": "node", "id": 3205295078, "lat": 47.8773592, "lon": 17.2629723}, {"type": "node", "id": 3387268877, "lat": 47.9980312, "lon": 17.1994518}, {"type": "node", "id": 3387268890, "lat": 47.9981169, "lon": 17.1992467}, {"type": "node", "id": 3387268920, "lat": 47.9982761, "lon": 17.1996807}, {"type": "node", "id": 3387268948, "lat": 47.9983619, "lon": 17.1994757}, {"type": "node", "id": 3499085197, "lat": 47.8818343, "lon": 16.9422238}, {"type": "node", "id": 3499085208, "lat": 47.881594, "lon": 16.94169}, {"type": "node", "id": 3499085214, "lat": 47.8815855, "lon": 16.9418653}, {"type": "node", "id": 3499085216, "lat": 47.881929, "lon": 16.9419295}, {"type": "node", "id": 3499085217, "lat": 47.8815383, "lon": 16.9420121}, {"type": "node", "id": 3499085251, "lat": 47.8815465, "lon": 16.9418374}, {"type": "node", "id": 3709184313, "lat": 47.9397305, "lon": 17.0720359, "tags": {"name": "Nah & Frisch", "shop": "supermarket"}}, {"type": "node", "id": 3715442519, "lat": 47.9136298, "lon": 17.1574829, "tags": {"name": "ABC", "shop": "supermarket"}}, {"type": "node", "id": 4218967203, "lat": 47.7952631, "lon": 16.6735308, "tags": {"entrance": "main"}}, {"type": "node", "id": 4279721938, "lat": 47.8916755, "lon": 16.9244107}, {"type": "node", "id": 4279721941, "lat": 47.8916224, "lon": 16.9243424}, {"type": "node", "id": 4464373907, "lat": 47.8427383, "lon": 16.9309957}, {"type": "node", "id": 4464373908, "lat": 47.8426086, "lon": 16.9301924}, {"type": "node", "id": 4464373909, "lat": 47.8428297, "lon": 16.9305469}, {"type": "node", "id": 4464373910, "lat": 47.842801, "lon": 16.9305902}, {"type": "node", "id": 4464373919, "lat": 47.8427701, "lon": 16.9311389}, {"type": "node", "id": 4562198126, "lat": 47.8582884, "lon": 16.8439625}, {"type": "node", "id": 4562198127, "lat": 47.8582663, "lon": 16.8439309}, {"type": "node", "id": 4562198128, "lat": 47.8582622, "lon": 16.8440029}, {"type": "node", "id": 4562198129, "lat": 47.8582995, "lon": 16.8438797}, {"type": "node", "id": 4562198130, "lat": 47.8580912, "lon": 16.8437569}, {"type": "node", "id": 4562198131, "lat": 47.8583438, "lon": 16.8439434}, {"type": "node", "id": 4562198132, "lat": 47.8584511, "lon": 16.8437776}, {"type": "node", "id": 5484728159, "lat": 47.7726362, "lon": 17.0210538}, {"type": "node", "id": 5484728160, "lat": 47.7726455, "lon": 17.0211111}, {"type": "node", "id": 5484728161, "lat": 47.7724623, "lon": 17.0212336}, {"type": "node", "id": 5484728162, "lat": 47.7726542, "lon": 17.0211646}, {"type": "node", "id": 5484728163, "lat": 47.7724433, "lon": 17.0211166}, {"type": "node", "id": 5484728164, "lat": 47.7726352, "lon": 17.0210476}, {"type": "node", "id": 5484728165, "lat": 47.772685, "lon": 17.0210969}, {"type": "node", "id": 5484728166, "lat": 47.7726757, "lon": 17.0210396}, {"type": "node", "id": 5484728167, "lat": 47.7724521, "lon": 17.0212373}, {"type": "node", "id": 5484728168, "lat": 47.7724918, "lon": 17.0214814}, {"type": "node", "id": 5484728169, "lat": 47.7727767, "lon": 17.0213789}, {"type": "node", "id": 5484728170, "lat": 47.772737, "lon": 17.0211348}, {"type": "node", "id": 5484729346, "lat": 47.7829848, "lon": 17.0277369}, {"type": "node", "id": 5484729347, "lat": 47.7829158, "lon": 17.0276926}, {"type": "node", "id": 5484729348, "lat": 47.7829436, "lon": 17.0276597}, {"type": "node", "id": 5484729349, "lat": 47.7828521, "lon": 17.0278938}, {"type": "node", "id": 5484729350, "lat": 47.7828724, "lon": 17.0276114}, {"type": "node", "id": 5484729351, "lat": 47.7827675, "lon": 17.0277354}, {"type": "node", "id": 5485071638, "lat": 47.8424563, "lon": 16.9304053}, {"type": "node", "id": 5485071639, "lat": 47.8424852, "lon": 16.9304524}, {"type": "node", "id": 5540874063, "lat": 47.744308, "lon": 16.8300229}, {"type": "node", "id": 5540874064, "lat": 47.7441026, "lon": 16.8302027}, {"type": "node", "id": 5540874065, "lat": 47.7440268, "lon": 16.8300113}, {"type": "node", "id": 5540874066, "lat": 47.744218, "lon": 16.8298903}, {"type": "node", "id": 5579008790, "lat": 47.8789955, "lon": 16.9445862, "tags": {"addr:city": "M\u00f6nchhof", "addr:housenumber": "48", "addr:postcode": "7123", "addr:street": "Stiftsgasse", "name": "Nah & Frisch Gindl", "operator": "Gerhard Gindl", "shop": "supermarket"}}, {"type": "node", "id": 5745074397, "lat": 47.7565812, "lon": 16.6700902, "tags": {"entrance": "main"}}, {"type": "node", "id": 5765949752, "lat": 47.7240061, "lon": 16.9330859}, {"type": "node", "id": 5765950753, "lat": 47.7239743, "lon": 16.9336733}, {"type": "node", "id": 5765950754, "lat": 47.7238023, "lon": 16.9333143}, {"type": "node", "id": 5765950759, "lat": 47.7241811, "lon": 16.9334328}, {"type": "node", "id": 5864741998, "lat": 47.8817957, "lon": 16.9421962, "tags": {"entrance": "main"}}, {"type": "node", "id": 6513554240, "lat": 47.7953808, "lon": 16.6728206}, {"type": "node", "id": 6904030510, "lat": 47.8789155, "lon": 17.2574051}, {"type": "node", "id": 6904030511, "lat": 47.8788044, "lon": 17.2576767}, {"type": "node", "id": 7021255643, "lat": 47.7560812, "lon": 16.6663858}, {"type": "node", "id": 7021255646, "lat": 47.7559848, "lon": 16.6661766}, {"type": "node", "id": 7021255654, "lat": 47.7559808, "lon": 16.6664606}, {"type": "node", "id": 7084867231, "lat": 47.8786394, "lon": 17.2585933, "tags": {"addr:city": "Mosonmagyar\u00f3v\u00e1r", "addr:housenumber": "19", "addr:postcode": "9200", "addr:street": "Szekeres Rich\u00e1rd utca", "name": "EcoFamily", "old_name": "EuroFamily", "opening_hours": "Mo-Sa 09:00-20:00; Su 09:00-18:00", "phone": "+36 20 225 2842", "shop": "supermarket", "website": "https://corporate.ecofamily.hu/"}}, {"type": "node", "id": 7345776405, "lat": 47.8704659, "lon": 16.9775478, "tags": {"addr:city": "Halbturn", "addr:housenumber": "35", "addr:postcode": "7131", "addr:street": "Budapester Stra\u00dfe", "brand": "Nah & Frisch", "brand:wikidata": "Q1963643", "brand:wikipedia": "de:Nah & Frisch", "name": "Nah & Frisch", "shop": "supermarket"}}, {"type": "node", "id": 7837001411, "lat": 47.7564946, "lon": 16.6705833}, {"type": "node", "id": 7837001412, "lat": 47.7566012, "lon": 16.6699764}, {"type": "node", "id": 7837001413, "lat": 47.7567905, "lon": 16.6700545}, {"type": "node", "id": 7837001414, "lat": 47.7566786, "lon": 16.6706587}, {"type": "node", "id": 8549058711, "lat": 47.7440938, "lon": 16.8299527}, {"type": "node", "id": 8549058712, "lat": 47.7441074, "lon": 16.8299871}, {"type": "node", "id": 8549058713, "lat": 47.7442294, "lon": 16.8299192}, {"type": "node", "id": 8549058714, "lat": 47.7442574, "lon": 16.8298948}, {"type": "node", "id": 9842192871, "lat": 47.871388, "lon": 16.9738291, "tags": {"addr:city": "Halbturn", "addr:housenumber": "2", "addr:postcode": "7131", "addr:street": "Erzherzog-Friedrich-Stra\u00dfe", "brand": "Nah & Frisch", "brand:wikidata": "Q1963643", "name": "Nah & Frisch", "operator": "Frischauf", "shop": "supermarket"}}, {"type": "way", "id": 39247649, "nodes": [470252507, 470252508, 470252509, 470252510, 470252511, 470252513, 1311786439, 470252507], "tags": {"addr:city": "Podersdorf am See", "addr:country": "AT", "addr:housenumber": "54", "addr:postcode": "7141", "addr:street": "Neusiedler Stra\u00dfe", "at_bev:addr_date": "2019-10-01", "brand": "Spar", "brand:wikidata": "Q610492", "brand:wikipedia": "en:Spar (retailer)", "building": "yes", "name": "Spar", "shop": "supermarket"}}, {"type": "way", "id": 88270249, "nodes": [1025370679, 4464373910, 4464373909, 4464373908, 5485071638, 5485071639, 1025370681, 365154682, 4464373907, 1025370683, 4464373919, 1025370679], "tags": {"addr:city": "Frauenkirchen", "addr:housenumber": "7", "addr:postcode": "7132", "addr:street": "M\u00f6nchhoferstra\u00dfe", "brand": "Hofer", "brand:wikidata": "Q15815751", "brand:wikipedia": "de:Hofer KG", "building": "yes", "name": "Hofer", "opening_hours": "Mo-Fr 07:15-19:30; Sa 07:15-18:00", "shop": "supermarket"}}, {"type": "way", "id": 93077358, "nodes": [1078876628, 1078876707, 1078876623, 1078876995, 1078876952, 1078876797, 1078876628], "tags": {"addr:city": "Illmitz", "addr:country": "AT", "addr:housenumber": "40", "addr:postcode": "7142", "addr:street": "Apetlonerstra\u00dfe", "at_bev:addr_date": "2017-10-01", "brand": "Billa", "brand:wikidata": "Q537781", "brand:wikipedia": "en:Billa (supermarket)", "building": "yes", "name": "Billa", "opening_hours": "Mo-Fr 07:15-19:30; Sa 07:15-18:00", "shop": "supermarket", "source": "bing;personal knowledge", "wheelchair": "yes"}}, {"type": "way", "id": 98013703, "nodes": [1134225491, 365155472, 365155557, 1134225543, 1134225491], "tags": {"addr:city": "Frauenkirchen", "addr:country": "AT", "addr:housenumber": "3", "addr:postcode": "7132", "addr:street": "Lang\u00e4ckergasse", "at_bev:addr_date": "2020-10-01", "brand": "Billa", "brand:wikidata": "Q537781", "brand:wikipedia": "en:Billa (supermarket)", "building": "yes", "fixme": "Building was torn down about 2 years ago and replaced with a new building", "name": "Billa", "opening_hours": "Mo-Fr 07:15-19:30; Sa 07:15-18:00", "phone": "+43 59915 07084", "shop": "supermarket", "source": "Bing", "wheelchair": "yes"}}, {"type": "way", "id": 99344962, "nodes": [1149111488, 1149111470, 1149111469, 3205295072, 3205295070, 3205295075, 3205295076, 3205295077, 3205295078, 1149111474, 1149111488], "tags": {"addr:city": "Mosonmagyar\u00f3v\u00e1r", "addr:housenumber": "49", "addr:postcode": "9200", "addr:street": "Kir\u00e1lyhidai \u00fat", "brand": "Lidl", "brand:wikidata": "Q151954", "brand:wikipedia": "en:Lidl", "building": "retail", "building:levels": "1", "name": "Lidl", "operator": "Lidl", "shop": "supermarket", "website": "https://www.lidl.hu/"}}, {"type": "way", "id": 99349847, "nodes": [1149162823, 1149162834, 1149162832, 1149162822, 1149162823], "tags": {"addr:city": "Mosonmagyar\u00f3v\u00e1r", "addr:housenumber": "42", "addr:postcode": "9200", "addr:street": "Kir\u00e1lyhidai \u00fat", "air_conditioning": "yes", "branch": "Mosonmagyar\u00f3v\u00e1r Hipermarket", "brand": "Tesco", "brand:wikidata": "Q487494", "brand:wikipedia": "en:Tesco", "building": "retail", "contact:facebook": "https://www.facebook.com/tescoaruhazak", "contact:pinterest": "https://www.pinterest.com/tescohungary/", "contact:website": "https://tesco.hu/aruhazak/aruhaz/tesco-mosonmagyarovar-hipermarket/", "contact:youtube": "https://www.youtube.com/user/TescoMagyarorszag", "import": "osm_poi_matchmaker", "internet_access": "wlan", "internet_access:fee": "no", "internet_access:ssid": "tesco-internet", "loyalty_card": "yes", "name": "Tesco", "opening_hours": "Mo-Sa 06:00-22:00; Su 07:00-20:00; PH off", "operator": "TESCO-GLOBAL \u00c1ruh\u00e1zak Zrt.", "operator:addr": "2040 Buda\u00f6rs, Kinizsi \u00fat 1-3.", "payment:american_express": "yes", "payment:cash": "yes", "payment:contactless": "yes", "payment:edenred_card": "yes", "payment:edenred_voucher": "yes", "payment:gift_card": "yes", "payment:jcb": "yes", "payment:maestro": "yes", "payment:mastercard": "yes", "payment:mastercard_contactless": "yes", "payment:mastercard_electronic": "yes", "payment:multipay": "yes", "payment:otp_bankpont": "yes", "payment:otp_cafeteria": "yes", "payment:unionpay": "yes", "payment:v_pay": "yes", "payment:visa": "yes", "payment:visa_electron": "yes", "payment:wire_transfer": "yes", "ref:HU:company": "13-10-040628", "ref:HU:vatin": "10307078-2-44", "ref:vatin": "HU10307078", "shop": "supermarket", "source": "website", "source:date": "2020-09-28", "source:wheelchair": "website", "toilets:wheelchair": "yes", "wheelchair": "yes"}}, {"type": "way", "id": 114435719, "nodes": [1296328614, 1296328543, 1399805433, 1399805423, 1296328592, 4279721938, 4279721941, 1296328601, 1296328574, 1296328588, 1296328614], "tags": {"addr:city": "Gols", "addr:country": "AT", "addr:housenumber": "2", "addr:postcode": "7122", "addr:street": "Volksfestgasse", "brand": "Billa", "brand:wikidata": "Q537781", "brand:wikipedia": "en:Billa (supermarket)", "building": "yes", "name": "Billa", "opening_hours": "Mo-Fr 07:15-19:30; Sa 07:15-18:00", "payment:cash": "yes", "payment:mastercard": "yes", "phone": "+43 59915 07327", "shop": "supermarket", "source": "geoimage.at", "wheelchair": "yes"}}, {"type": "way", "id": 179756262, "nodes": [1901987235, 1901987262, 1901987607, 1901987358, 1901987356, 1901987151, 1901987689, 1901987260, 1901987342, 1901987264, 1901987235], "tags": {"addr:city": "St.Andr\u00e4 am Zickssee", "addr:country": "AT", "addr:full": "Bahngasse 16, 7161 St.Andr\u00e4 am Zicksee, Austria", "addr:housenumber": "16", "addr:postcode": "7161", "addr:street": "Bahngasse", "building": "house", "name": "Kaufhaus Herzog", "shop": "supermarket", "source": "geoimage.at"}}, {"type": "way", "id": 223279220, "nodes": [5484729347, 5484729348, 5484729346, 2321941466, 2321941468, 2321941465, 2321941467, 5484729349, 5484729351, 5484729350, 5484729347], "tags": {"addr:city": "Andau", "addr:country": "AT", "addr:housenumber": "34", "addr:postcode": "7163", "addr:street": "Halbturnerstra\u00dfe", "at_bev:addr_date": "2018-10-01", "building": "yes", "name": "Spar", "shop": "supermarket"}}, {"type": "way", "id": 271820243, "nodes": [6513554240, 2767603867, 4218967203, 2767603870, 2767603876, 6513554240], "tags": {"addr:city": "Rust", "addr:country": "AT", "addr:housenumber": "10", "addr:postcode": "7071", "addr:street": "M\u00f6rbischerstra\u00dfe", "at_bev:addr_date": "2019-04-01", "building": "yes", "name": "Billa", "opening_hours": "Mo-Fr 07:00-19:15; Sa 07:15-18:00", "phone": "+43 59915 07232", "shop": "supermarket"}}, {"type": "way", "id": 292799437, "nodes": [2963352971, 2963352965, 2963352966, 6904030510, 6904030511, 2963352968, 2963352967, 2963352970, 2963352969, 2963352964, 2963352971], "tags": {"addr:city": "Mosonmagyar\u00f3v\u00e1r", "addr:housenumber": "63", "addr:postcode": "9200", "addr:street": "Kir\u00e1lyhidai \u00fat", "air_conditioning": "yes", "brand": "Aldi", "brand:wikidata": "Q125054", "brand:wikipedia": "hu:Aldi", "building": "retail", "contact:facebook": "https://www.facebook.com/ALDI.Magyarorszag", "contact:instagram": "https://www.instagram.com/aldi.magyarorszag", "contact:phone": "+36 80 088 264", "contact:website": "https://www.aldi.hu", "contact:youtube": "https://www.youtube.com/user/ALDIMagyarorszag", "name": "Aldi", "opening_hours": "Mo-Sa 06:30-20:00; Su 07:00-19:00; PH off", "operator": "ALDI Magyarorsz\u00e1g \u00c9lelmiszer Bt.", "operator:addr": "2051 Biatorb\u00e1gy, M\u00e9sz\u00e1rosok \u00fatja 2.", "payment:cash": "yes", "payment:contactless": "yes", "payment:maestro": "yes", "payment:mastercard": "yes", "payment:mastercard_contactless": "yes", "payment:mastercard_electronic": "yes", "payment:visa": "yes", "payment:visa_electron": "yes", "ref:HU:company": "13 06 058506", "ref:HU:vatin": "22234663-2-44", "ref:vatin": "HU22234663", "shop": "supermarket", "source": "import;website", "source:date": "2022-10-14"}}, {"type": "way", "id": 308314817, "nodes": [3136051490, 7021255654, 3136051477, 3136051441, 3136051447, 3136051444, 3136051451, 3136051456, 3136051482, 7021255646, 3136051478, 3136051488, 3136051489, 3136051491, 7021255643, 3136051490], "tags": {"addr:city": "M\u00f6rbisch am See", "addr:country": "AT", "addr:housenumber": "16", "addr:postcode": "7072", "addr:street": "Herrengasse", "building": "commercial", "contact:email": "sommer@peiso-comm.eu", "contact:phone": "+43 2685 60991", "email": "sommer@peiso-comm.eu", "name": "dio", "opening_hours": "Mo-Fr 09:30-12:30, 15:30-18:00; Sa 09:30-13:00", "operator": "Klaus Sommer", "phone": "+43 2685 60991", "shop": "supermarket", "website": "http://www.casapeiso.at"}}, {"type": "way", "id": 331627995, "nodes": [3387268948, 3387268920, 3387268877, 3387268890, 3387268948], "tags": {"addr:city": "Rajka", "addr:housenumber": "2", "addr:postcode": "9224", "addr:street": "Szabads\u00e1g t\u00e9r", "brand": "CBA", "brand:wikidata": "Q779845", "building": "retail", "name": "CBA", "shop": "supermarket", "source": "bing", "toilets:wheelchair": "no", "wheelchair": "no"}}, {"type": "way", "id": 342971930, "nodes": [3499085208, 3499085216, 3499085197, 5864741998, 3499085217, 3499085214, 3499085251, 3499085208], "tags": {"addr:city": "M\u00f6nchhof", "addr:country": "AT", "addr:housenumber": "18", "addr:postcode": "7123", "addr:street": "Kirchenplatz", "brand": "Spar", "brand:wikidata": "Q610492", "brand:wikipedia": "en:Spar (retailer)", "building": "yes", "name": "Spar", "shop": "supermarket", "source": "geoimage.at"}}, {"type": "way", "id": 460592030, "nodes": [1814219312, 4562198132, 4562198131, 4562198129, 4562198127, 4562198126, 4562198128, 4562198130, 1814219312], "tags": {"addr:city": "Podersdorf am See", "addr:housenumber": "68", "addr:postcode": "7141", "addr:street": "Neusiedler Stra\u00dfe", "brand": "Billa", "brand:wikidata": "Q537781", "brand:wikipedia": "en:Billa (supermarket)", "building": "retail", "building:levels": "1", "contact:phone": "0043 2177 21172", "name": "Billa", "opening_hours": "Mo-Fr 07:15-19:30; Sa 07:15-18:00", "roof:shape": "flat", "shop": "supermarket", "wheelchair": "yes"}}, {"type": "way", "id": 570486239, "nodes": [5484728166, 5484728165, 5484728160, 5484728162, 5484728170, 5484728169, 5484728168, 5484728167, 5484728161, 5484728163, 5484728164, 5484728159, 5484728166], "tags": {"addr:city": "Andau", "addr:country": "AT", "addr:housenumber": "51", "addr:postcode": "7163", "addr:street": "\u00d6denburgerstra\u00dfe", "brand": "Billa", "brand:wikidata": "Q537781", "building": "yes", "contact:phone": "+43 2176 279 93", "name": "Billa", "opening_hours": "Mo-Fr 07:15-19:30; Sa 07:15-18:00; PH off", "shop": "supermarket", "wheelchair": "yes"}}, {"type": "way", "id": 578193332, "nodes": [5540874063, 5540874064, 5540874065, 8549058711, 8549058712, 5540874066, 8549058713, 8549058714, 5540874063], "tags": {"addr:city": "Apetlon", "addr:country": "AT", "addr:housenumber": "9", "addr:postcode": "7143", "addr:street": "Kirchengasse", "at_bev:addr_date": "2020-10-01", "brand": "Spar", "brand:wikidata": "Q610492", "brand:wikipedia": "en:Spar (retailer)", "building": "yes", "contact:phone": "+43 2175 2265", "name": "Spar", "opening_hours": "Mo-Fr 06:15-13:00, 15:00-18:00; Sa 06:15-14:00", "shop": "supermarket"}}, {"type": "way", "id": 605820218, "nodes": [7837001413, 7837001412, 5745074397, 7837001411, 7837001414, 7837001413], "tags": {"addr:city": "M\u00f6rbisch am See", "addr:country": "AT", "addr:housenumber": "20", "addr:postcode": "7072", "addr:street": "Ruster Stra\u00dfe", "building": "yes", "name": "Spar", "opening_hours": "Mo-Fr 06:30-18:30; Sa 06:30-17:00", "operator": "Sonja Gornik", "phone": "+43 2685 60903", "shop": "supermarket"}}, {"type": "way", "id": 608648597, "nodes": [5765949752, 5765950759, 5765950753, 5765950754, 5765949752], "tags": {"addr:city": "Wallern im Burgenland", "addr:country": "AT", "addr:housenumber": "2a", "addr:postcode": "7151", "addr:street": "Pamhagenerstra\u00dfe", "brand": "Spar", "brand:wikidata": "Q610492", "brand:wikipedia": "en:SPAR (retailer)", "building": "yes", "name": "Spar", "opening_hours": "Mo-Fr 06:00-18:30; Sa 06:00-15:30", "payment:cash": "yes", "payment:mastercard": "yes", "shop": "supermarket", "website": "https://www.spar.at/standorte/spar-wallern-7151-pamhagenerstrasse-2a"}}]}