{"version": 0.6, "generator": "Overpass API 0.7.59 e21c39fe", "osm3s": {"timestamp_osm_base": "2023-01-21T09:23:38Z", "copyright": "The data included in this document is from www.openstreetmap.org. The data is made available under ODbL."}, "elements": [{"type": "node", "id": 2688863895, "lat": 47.6909308, "lon": 21.6723072}, {"type": "node", "id": 2688863898, "lat": 47.6906966, "lon": 21.6722652}, {"type": "node", "id": 2688863901, "lat": 47.6906919, "lon": 21.6723492}, {"type": "node", "id": 2688863904, "lat": 47.6902801, "lon": 21.6722768}, {"type": "node", "id": 2688863907, "lat": 47.6902644, "lon": 21.6724963}, {"type": "node", "id": 2688863910, "lat": 47.6902157, "lon": 21.6724893}, {"type": "node", "id": 2688863913, "lat": 47.6902015, "lon": 21.6726294}, {"type": "node", "id": 2688863916, "lat": 47.6908962, "lon": 21.6727415}, {"type": "node", "id": 2688867843, "lat": 47.6924368, "lon": 21.6721007}, {"type": "node", "id": 2688867845, "lat": 47.6922639, "lon": 21.6720657}, {"type": "node", "id": 2688867847, "lat": 47.6922026, "lon": 21.6728782}, {"type": "node", "id": 2688867849, "lat": 47.692344, "lon": 21.6728992}, {"type": "node", "id": 2688867850, "lat": 47.6923488, "lon": 21.6728315}, {"type": "node", "id": 2688867851, "lat": 47.6923896, "lon": 21.6728339}, {"type": "node", "id": 2688867852, "lat": 47.6924195, "lon": 21.6723552}, {"type": "node", "id": 2688867853, "lat": 47.6924541, "lon": 21.6723552}, {"type": "node", "id": 2688867854, "lat": 47.6924666, "lon": 21.672152}, {"type": "node", "id": 2688867855, "lat": 47.6924336, "lon": 21.6721474}, {"type": "node", "id": 2688869481, "lat": 47.6924641, "lon": 21.6721933}, {"type": "node", "id": 2784580249, "lat": 47.5490375, "lon": 21.6596459}, {"type": "node", "id": 2784580250, "lat": 47.5489113, "lon": 21.6593674}, {"type": "node", "id": 2784580251, "lat": 47.5488013, "lon": 21.6594701}, {"type": "node", "id": 2784580252, "lat": 47.5488178, "lon": 21.6595079}, {"type": "node", "id": 2784580253, "lat": 47.548657, "lon": 21.6596658}, {"type": "node", "id": 2784580254, "lat": 47.5485545, "lon": 21.6596624}, {"type": "node", "id": 2784580255, "lat": 47.5485435, "lon": 21.6598107}, {"type": "node", "id": 2784580256, "lat": 47.5484891, "lon": 21.6598116}, {"type": "node", "id": 2784580257, "lat": 47.5485046, "lon": 21.6599961}, {"type": "node", "id": 2784580258, "lat": 47.5487164, "lon": 21.6599658}, {"type": "node", "id": 2784666112, "lat": 47.3916871, "lon": 21.7345304}, {"type": "node", "id": 2784666113, "lat": 47.3916526, "lon": 21.7346549}, {"type": "node", "id": 2784666114, "lat": 47.3918373, "lon": 21.7347665}, {"type": "node", "id": 2784666115, "lat": 47.3917659, "lon": 21.7350242}, {"type": "node", "id": 2784666116, "lat": 47.3921147, "lon": 21.735235}, {"type": "node", "id": 2784666117, "lat": 47.3921577, "lon": 21.7349411}, {"type": "node", "id": 2784666118, "lat": 47.3921876, "lon": 21.7348331}, {"type": "node", "id": 2829966241, "lat": 47.5321162, "lon": 21.6431819, "tags": {"name": "Coop", "operator": "COOP-Szolnok", "shop": "supermarket", "website": "http://coop.hu", "wheelchair": "yes"}}, {"type": "node", "id": 3213592704, "lat": 47.5143002, "lon": 21.6602467}, {"type": "node", "id": 3213592720, "lat": 47.5145534, "lon": 21.6604208}, {"type": "node", "id": 3497015968, "lat": 47.5812017, "lon": 21.7266557, "tags": {"name": "\u00c9lelmiszerbolt", "shop": "supermarket"}}, {"type": "node", "id": 3832322327, "lat": 47.5144917, "lon": 21.64591, "tags": {"name": "Cs\u00edkos ABC", "shop": "supermarket"}}, {"type": "node", "id": 3843426959, "lat": 47.5317155, "lon": 21.6430583, "tags": {"name": "Priv\u00e1t \u00c9lelmiszer", "operator": "Priv\u00e1t", "shop": "supermarket", "wheelchair": "yes"}}, {"type": "node", "id": 4278011217, "lat": 47.5273584, "lon": 21.8968436, "tags": {"addr:city": "V\u00e1mosp\u00e9rcs", "addr:housenumber": "2", "addr:postcode": "4287", "addr:street": "Debreceni utca", "name": "Priv\u00e1t MAX szupermarket", "opening_hours": "Mo-Sa 05:00-21:00; Su 05:00-18:00", "operator": "Sallai Szabolcs", "shop": "supermarket", "wheelchair": "yes"}}, {"type": "node", "id": 4278011218, "lat": 47.5272111, "lon": 21.8968437, "tags": {"addr:city": "V\u00e1mosp\u00e9rcs", "addr:housenumber": "2", "addr:postcode": "4287", "addr:street": "Debreceni utca", "name": "Z\u00f6lds\u00e9g-gy\u00fcm\u00f6lcs", "shop": "supermarket"}}, {"type": "node", "id": 4296157532, "lat": 47.5248658, "lon": 21.6685245, "tags": {"name": "Bal\u00e1zs Csemege", "shop": "supermarket", "wheelchair": "no"}}, {"type": "node", "id": 4298389665, "lat": 47.5177751, "lon": 21.6685239, "tags": {"name": "Re\u00e1l Pont", "shop": "supermarket"}}, {"type": "node", "id": 4307083673, "lat": 47.5188139, "lon": 21.6588576, "tags": {"name": "Priv\u00e1tMax", "shop": "supermarket", "wheelchair": "yes"}}, {"type": "node", "id": 4773612512, "lat": 47.5253174, "lon": 21.8927725, "tags": {"name": "Vir\u00e1gbolt", "shop": "supermarket"}}, {"type": "node", "id": 5209247193, "lat": 47.5138375, "lon": 22.1417241, "tags": {"brand": "PENNY", "brand:wikidata": "Q284688", "building": "commercial", "name": "PENNY", "opening_hours": "Mo-Sa 07:30-21:00; Su 08:00-19:00", "shop": "supermarket"}}, {"type": "node", "id": 7610044345, "lat": 47.5410067, "lon": 22.2049154}, {"type": "node", "id": 7610044346, "lat": 47.5410145, "lon": 22.2048765}, {"type": "node", "id": 7610044347, "lat": 47.5409384, "lon": 22.2048431}, {"type": "node", "id": 7610044348, "lat": 47.541138, "lon": 22.2049731}, {"type": "node", "id": 7610044349, "lat": 47.5409307, "lon": 22.204882}, {"type": "node", "id": 7610044350, "lat": 47.5409022, "lon": 22.2050242}, {"type": "node", "id": 7610044351, "lat": 47.5411095, "lon": 22.2051153}, {"type": "node", "id": 7613252340, "lat": 47.5422445, "lon": 22.2054358}, {"type": "node", "id": 7613252341, "lat": 47.5423113, "lon": 22.2055416}, {"type": "node", "id": 7613252342, "lat": 47.5421972, "lon": 22.2055023}, {"type": "node", "id": 7613252343, "lat": 47.5422095, "lon": 22.2054237}, {"type": "node", "id": 7613252344, "lat": 47.5422547, "lon": 22.2053682}, {"type": "node", "id": 7613252345, "lat": 47.5423335, "lon": 22.2053942}, {"type": "node", "id": 7613252346, "lat": 47.5421793, "lon": 22.2054961}, {"type": "node", "id": 7613252347, "lat": 47.5421624, "lon": 22.2056034}, {"type": "node", "id": 7613252348, "lat": 47.5422946, "lon": 22.205649}, {"type": "node", "id": 8727837511, "lat": 47.5143118, "lon": 22.1367883, "tags": {"brand": "Profi", "brand:wikidata": "Q956664", "contact:email": "contact@profi.ro", "contact:facebook": "https://www.facebook.com/Profi.ro", "contact:instagram": "https://www.instagram.com/profi.ro", "contact:phone": "+40 741 227 633;+40 741 256 856", "contact:website": "https://www.profi.ro/", "contact:youtube": "https://www.youtube.com/user/magazineleprofi", "name": "Profi", "opening_hours": "Mo-Fr 06:00-22:00;Sa 07:00-22:00;Su 08:00-22:00", "operator": "Profi Rom Food", "shop": "supermarket"}}, {"type": "node", "id": 9213561865, "lat": 47.3921906, "lon": 21.734961}, {"type": "node", "id": 9353075440, "lat": 47.5296019, "lon": 21.649989}, {"type": "node", "id": 9353075441, "lat": 47.5291213, "lon": 21.6499921}, {"type": "node", "id": 9353075442, "lat": 47.5291226, "lon": 21.650412}, {"type": "node", "id": 9353075443, "lat": 47.5294801, "lon": 21.6504096}, {"type": "node", "id": 9353075444, "lat": 47.5294799, "lon": 21.6503542}, {"type": "node", "id": 9353075445, "lat": 47.5296029, "lon": 21.6503534}, {"type": "node", "id": 9401932839, "lat": 47.5144944, "lon": 21.660627}, {"type": "node", "id": 9401932840, "lat": 47.514236, "lon": 21.6604567}, {"type": "node", "id": 9401932844, "lat": 47.514521, "lon": 21.660534}, {"type": "node", "id": 9442256401, "lat": 47.3921777, "lon": 21.7348687}, {"type": "node", "id": 9442256402, "lat": 47.3916778, "lon": 21.7345641}, {"type": "node", "id": 9442256403, "lat": 47.3919559, "lon": 21.734695}, {"type": "node", "id": 9922048242, "lat": 47.5488892, "lon": 21.659388, "tags": {"access": "customers", "entrance": "main"}}, {"type": "node", "id": 9922048243, "lat": 47.5485526, "lon": 21.6596941, "tags": {"access": "private", "entrance": "service"}}, {"type": "node", "id": 9922048244, "lat": 47.5485155, "lon": 21.6598111, "tags": {"access": "delivery", "door": "loadingdock", "entrance": "service"}}, {"type": "way", "id": 263268421, "nodes": [2688863895, 2688863898, 2688863901, 2688863904, 2688863907, 2688863910, 2688863913, 2688863916, 2688863895], "tags": {"brand": "Lidl", "brand:wikidata": "Q151954", "brand:wikipedia": "en:Lidl", "building": "retail", "name": "Lidl", "shop": "supermarket", "website": "https://www.lidl.hu/"}}, {"type": "way", "id": 263268588, "nodes": [2688867843, 2688867845, 2688867847, 2688867849, 2688867850, 2688867851, 2688867852, 2688867853, 2688869481, 2688867854, 2688867855, 2688867843], "tags": {"addr:city": "Hajd\u00fahadh\u00e1z", "addr:country": "HU", "addr:housenumber": "57/A", "addr:postcode": "4242", "addr:street": "Dr. F\u00f6ldi J\u00e1nos utca", "alt_name": "Penny Market", "brand": "PENNY", "brand:wikidata": "Q284688", "brand:wikipedia": "en:Penny (supermarket)", "building": "retail", "name": "PENNY", "opening_hours": "Mo-Sa 07:00-20:00; Su 07:00-18:00; PH off", "shop": "supermarket", "website": "https://www.penny.hu"}}, {"type": "way", "id": 273622927, "nodes": [2784580249, 2784580250, 9922048242, 2784580251, 2784580252, 2784580253, 2784580254, 9922048243, 2784580255, 9922048244, 2784580256, 2784580257, 2784580258, 2784580249], "tags": {"addr:city": "Debrecen", "addr:housenumber": "99-103", "addr:postcode": "4033", "addr:street": "S\u00e1msoni \u00fat", "alt_name": "Penny Market", "brand:wikidata": "Q284688", "brand:wikipedia": "en:Penny (supermarket)", "building": "retail", "name": "Penny", "opening_hours": "Mo-Sa 06:00-21:00; Su 07:00-18:00;PH off", "shop": "supermarket", "website": "https://www.penny.hu", "wheelchair": "yes"}}, {"type": "way", "id": 273630955, "nodes": [2784666118, 9442256403, 2784666112, 9442256402, 2784666113, 2784666114, 2784666115, 2784666116, 9213561865, 2784666117, 9442256401, 2784666118], "tags": {"addr:city": "Hossz\u00fap\u00e1lyi", "addr:housenumber": "5", "addr:postcode": "4274", "addr:street": "Szabads\u00e1g t\u00e9r", "building": "yes", "name": "Priv\u00e1t Max \u00c1ruh\u00e1z", "shop": "supermarket", "wheelchair": "yes"}}, {"type": "way", "id": 315252636, "nodes": [3213592720, 3213592704, 9401932840, 9401932839, 9401932844, 3213592720], "tags": {"building": "retail", "shop": "supermarket", "wheelchair": "yes"}}, {"type": "way", "id": 814697782, "nodes": [7610044345, 7610044348, 7610044351, 7610044350, 7610044349, 7610044347, 7610044346, 7610044345], "tags": {"building": "retail", "name": "Magazin mixt", "shop": "supermarket"}}, {"type": "way", "id": 815059687, "nodes": [7613252348, 7613252347, 7613252346, 7613252342, 7613252343, 7613252340, 7613252344, 7613252345, 7613252341, 7613252348], "tags": {"building": "yes", "name": "Magazin mixt Leon", "shop": "supermarket", "wheelchair": "no"}}, {"type": "way", "id": 1013768837, "nodes": [9353075440, 9353075441, 9353075442, 9353075443, 9353075444, 9353075445, 9353075440], "tags": {"addr:city": "Debrecen", "addr:housenumber": "58", "addr:postcode": "4034", "addr:street": "Farakt\u00e1r utca", "brand": "Lidl", "brand:wikidata": "Q151954", "brand:wikipedia": "en:Lidl", "building": "yes", "name": "Lidl", "shop": "supermarket"}}]}