{"version": 0.6, "generator": "Overpass API 0.7.59 e21c39fe", "osm3s": {"timestamp_osm_base": "2023-01-20T17:57:01Z", "copyright": "The data included in this document is from www.openstreetmap.org. The data is made available under ODbL."}, "elements": [{"type": "node", "id": 1329326864, "lat": 48.1005162, "lon": 20.6893004}, {"type": "node", "id": 1329326884, "lat": 48.1005703, "lon": 20.6890711}, {"type": "node", "id": 1329326901, "lat": 48.1006849, "lon": 20.6893895}, {"type": "node", "id": 1329327004, "lat": 48.1007389, "lon": 20.6891602}, {"type": "node", "id": 1330754001, "lat": 48.0968563, "lon": 20.7874821}, {"type": "node", "id": 1330754028, "lat": 48.0972851, "lon": 20.7870395}, {"type": "node", "id": 1330754030, "lat": 48.0968694, "lon": 20.7870135}, {"type": "node", "id": 1330754105, "lat": 48.0972721, "lon": 20.7875081}, {"type": "node", "id": 1330818679, "lat": 48.1030092, "lon": 20.7813606, "tags": {"amenity": "library"}}, {"type": "node", "id": 1336927554, "lat": 48.0803266, "lon": 20.7654929}, {"type": "node", "id": 1336927572, "lat": 48.0798148, "lon": 20.7649584}, {"type": "node", "id": 1336927574, "lat": 48.0801206, "lon": 20.7659353}, {"type": "node", "id": 1336927636, "lat": 48.0796086, "lon": 20.7654013}, {"type": "node", "id": 1337061503, "lat": 48.0817055, "lon": 20.7630367}, {"type": "node", "id": 1337061553, "lat": 48.0817736, "lon": 20.7628865}, {"type": "node", "id": 1337061586, "lat": 48.0814726, "lon": 20.7625486}, {"type": "node", "id": 1337061591, "lat": 48.0813937, "lon": 20.7627095}, {"type": "node", "id": 1339431117, "lat": 48.1204128, "lon": 20.7873527, "tags": {"addr:city": "Miskolc", "addr:housenumber": "95", "addr:postcode": "3526", "addr:street": "Szentp\u00e9teri kapu", "amenity": "library", "name": "J\u00f3zsef Attila K\u00f6nyvt\u00e1r", "operator": "II. R\u00e1k\u00f3czi Ferenc Megyei \u00e9s V\u00e1rosi K\u00f6nyvt\u00e1r", "operator:type": "local_authority", "phone": "+36 46 324 105", "source": "local knowledge", "website": "https://rfmlib.hu"}}, {"type": "node", "id": 1670635619, "lat": 48.0840674, "lon": 20.7750388, "tags": {"amenity": "library", "wheelchair": "yes"}}, {"type": "node", "id": 1944696340, "lat": 47.8126949, "lon": 20.5764297, "tags": {"amenity": "library", "name": "Gyerekk\u00f6nyvt\u00e1r"}}, {"type": "node", "id": 1944696344, "lat": 47.8130502, "lon": 20.5761514, "tags": {"amenity": "library", "name": "V\u00e1rosi k\u00f6nyvt\u00e1r", "wheelchair": "yes"}}, {"type": "node", "id": 2341754645, "lat": 48.1044729, "lon": 20.9665736, "tags": {"amenity": "library", "name": "K\u00f6zs\u00e9gi k\u00f6nyvt\u00e1r"}}, {"type": "node", "id": 2345440120, "lat": 48.0912154, "lon": 20.9608167, "tags": {"amenity": "library"}}, {"type": "node", "id": 2698073284, "lat": 47.8056074, "lon": 20.4147039, "tags": {"amenity": "library", "name": "Pet\u0151fi Eml\u00e9kk\u00f6nyvt\u00e1r"}}, {"type": "node", "id": 2937366371, "lat": 48.1788609, "lon": 20.7419241, "tags": {"addr:city": "Saj\u00f3b\u00e1bony", "addr:housenumber": "2", "addr:postcode": "3792", "addr:street": "Bocskai \u00fat", "amenity": "library", "name": "D\u00e9ryn\u00e9 Szabadid\u0151k\u00f6zpont \u00e9s V\u00e1rosi K\u00f6nyvt\u00e1r"}}, {"type": "node", "id": 3437142892, "lat": 48.09953, "lon": 20.784065, "tags": {"amenity": "library", "name": "Miskolci V\u00e1rosi K\u00f6nyvt\u00e1r", "source": "turistautak.hu", "source:date": "2011-07-04", "url": "http://turistautak.hu/poi.php?id=59241"}}, {"type": "node", "id": 3437148042, "lat": 48.080202, "lon": 20.762627, "tags": {"amenity": "library", "name": "B\u00f6lcs\u00e9szkari k\u00f6nyvt\u00e1r bej\u00e1rata", "source": "turistautak.hu", "source:date": "2013-12-02", "url": "http://turistautak.hu/poi.php?id=30493"}}, {"type": "node", "id": 3481275283, "lat": 48.1186701, "lon": 20.9105582, "tags": {"amenity": "library"}}, {"type": "node", "id": 3905737477, "lat": 47.9215597, "lon": 20.6342372}, {"type": "node", "id": 3905737478, "lat": 47.9215597, "lon": 20.6344419}, {"type": "node", "id": 3905737479, "lat": 47.9216909, "lon": 20.6342372}, {"type": "node", "id": 3905737480, "lat": 47.9216909, "lon": 20.6343071}, {"type": "node", "id": 3905737485, "lat": 47.9219429, "lon": 20.6343071}, {"type": "node", "id": 3905737486, "lat": 47.9219429, "lon": 20.6344419}, {"type": "node", "id": 4642177312, "lat": 48.169457, "lon": 20.4276198, "tags": {"amenity": "library", "name": "K\u00f6nyvt\u00e1r"}}, {"type": "node", "id": 4758525699, "lat": 47.935287, "lon": 20.4761094}, {"type": "node", "id": 4758525700, "lat": 47.9352922, "lon": 20.4759677}, {"type": "node", "id": 4758525701, "lat": 47.9354059, "lon": 20.4759648}, {"type": "node", "id": 4758525702, "lat": 47.9354003, "lon": 20.4761187}, {"type": "node", "id": 4770238230, "lat": 48.0815713, "lon": 20.7628989}, {"type": "node", "id": 4770238233, "lat": 48.0816125, "lon": 20.7629444}, {"type": "node", "id": 4850026043, "lat": 47.9675431, "lon": 20.9856727}, {"type": "node", "id": 4850026044, "lat": 47.9675449, "lon": 20.985772}, {"type": "node", "id": 4850026045, "lat": 47.9674353, "lon": 20.9857787}, {"type": "node", "id": 4850026046, "lat": 47.9674308, "lon": 20.985831}, {"type": "node", "id": 4850026047, "lat": 47.9673653, "lon": 20.9858404}, {"type": "node", "id": 4850026048, "lat": 47.967359, "lon": 20.9856781}, {"type": "node", "id": 4850026092, "lat": 48.001985, "lon": 20.9508355}, {"type": "node", "id": 4850026093, "lat": 48.001924, "lon": 20.9508515}, {"type": "node", "id": 4850026094, "lat": 48.0019006, "lon": 20.9506209}, {"type": "node", "id": 4850026095, "lat": 48.0018145, "lon": 20.9506316}, {"type": "node", "id": 4850026096, "lat": 48.0018665, "lon": 20.9510098}, {"type": "node", "id": 4850026097, "lat": 48.0020011, "lon": 20.9509615}, {"type": "node", "id": 4894318984, "lat": 48.0801333, "lon": 20.7652906}, {"type": "node", "id": 4894318985, "lat": 48.080176, "lon": 20.7653358}, {"type": "node", "id": 4953795225, "lat": 48.0855852, "lon": 20.7864242, "tags": {"amenity": "library"}}, {"type": "node", "id": 4972223421, "lat": 47.8248351, "lon": 20.685258, "tags": {"amenity": "library"}}, {"type": "node", "id": 5081371908, "lat": 48.0801789, "lon": 20.7658101, "tags": {"entrance": "yes"}}, {"type": "node", "id": 5081371909, "lat": 48.0802801, "lon": 20.7655927, "tags": {"entrance": "yes"}}, {"type": "node", "id": 5856229081, "lat": 47.9353235, "lon": 20.4759212}, {"type": "node", "id": 5856229082, "lat": 47.9353217, "lon": 20.4759701}, {"type": "node", "id": 5856229083, "lat": 47.9353763, "lon": 20.4759255}, {"type": "node", "id": 5856229084, "lat": 47.935375, "lon": 20.4759623}, {"type": "node", "id": 8533462631, "lat": 48.0731275, "lon": 20.8832535, "tags": {"addr:city": "Als\u00f3zsolca", "addr:housenumber": "1", "addr:postcode": "3571", "addr:street": "G\u00f6rgey Art\u00far utca", "amenity": "library"}}, {"type": "node", "id": 9689278904, "lat": 47.9577776, "lon": 20.6141925, "tags": {"amenity": "library", "name": "Lesznai Anna K\u00f6nyvt\u00e1r"}}, {"type": "way", "id": 118133946, "nodes": [1329327004, 1329326901, 1329326864, 1329326884, 1329327004], "tags": {"amenity": "library", "building": "yes", "name": "Pet\u0151fi S\u00e1ndor k\u00f6nyvt\u00e1r"}}, {"type": "way", "id": 118309922, "nodes": [1330754028, 1330754105, 1330754001, 1330754030, 1330754028], "tags": {"addr:city": "Miskolc", "addr:housenumber": "11", "addr:postcode": "3530", "addr:street": "G\u00f6rgey Art\u00far utca", "amenity": "library", "building": "public", "name": "II. R\u00e1k\u00f3czi Ferenc Megyei K\u00f6nyvt\u00e1r", "wheelchair": "yes"}}, {"type": "way", "id": 118934144, "nodes": [1336927636, 1336927572, 4894318984, 4894318985, 1336927554, 5081371909, 5081371908, 1336927574, 1336927636], "tags": {"amenity": "library", "building": "yes", "name": "Miskolci Egyetem K\u00f6nyvt\u00e1r, Lev\u00e9lt\u00e1r, M\u00fazeum"}}, {"type": "way", "id": 118941787, "nodes": [1337061591, 1337061586, 1337061553, 1337061503, 4770238233, 4770238230, 1337061591], "tags": {"amenity": "library", "building": "yes", "old_name": "Telefonk\u00f6zpont"}}, {"type": "way", "id": 387259963, "nodes": [3905737486, 3905737478, 3905737477, 3905737479, 3905737480, 3905737485, 3905737486], "tags": {"amenity": "library", "building": "yes", "name": "szabadid\u0151k\u00f6zpont \u00e9s k\u00f6nyvt\u00e1r"}}, {"type": "way", "id": 483096865, "nodes": [4758525699, 4758525700, 5856229082, 5856229081, 5856229083, 5856229084, 4758525701, 4758525702, 4758525699], "tags": {"amenity": "library", "building": "yes"}}, {"type": "way", "id": 493060070, "nodes": [4850026043, 4850026044, 4850026045, 4850026046, 4850026047, 4850026048, 4850026043], "tags": {"addr:city": "Girincs", "addr:housenumber": "12", "addr:postcode": "3578", "addr:street": "R\u00e1k\u00f3czi Ferenc utca", "amenity": "library", "building": "yes", "internet_access": "yes", "name": "K\u00f6zs\u00e9gi K\u00f6nyvt\u00e1r Girincs"}}, {"type": "way", "id": 493060101, "nodes": [4850026092, 4850026093, 4850026094, 4850026095, 4850026096, 4850026097, 4850026092], "tags": {"addr:city": "Saj\u00f3h\u00eddv\u00e9g", "addr:housenumber": "33", "addr:postcode": "3576", "addr:street": "T\u00e1ncsics Mih\u00e1ly utca", "amenity": "library", "building": "yes", "internet_access": "yes", "name": "K\u00f6zs\u00e9gi K\u00f6nyvt\u00e1r", "operator": "Saj\u00f3hidv\u00e9gi Polg\u00e1rmesteri Hivatal"}}]}