{"version": 0.6, "generator": "Overpass API 0.7.59 e21c39fe", "osm3s": {"timestamp_osm_base": "2023-01-20T17:58:06Z", "copyright": "The data included in this document is from www.openstreetmap.org. The data is made available under ODbL."}, "elements": [{"type": "node", "id": 846300139, "lat": 46.8521085, "lon": 17.663015, "tags": {"amenity": "library"}}, {"type": "node", "id": 1243306176, "lat": 46.8484372, "lon": 17.8794338, "tags": {"amenity": "library", "name": "Bajor Gizi K\u00f6z\u00f6ss\u00e9gih\u00e1z"}}, {"type": "node", "id": 1325241761, "lat": 46.7742956, "lon": 17.6666569}, {"type": "node", "id": 1325241778, "lat": 46.7743901, "lon": 17.6662269}, {"type": "node", "id": 1325241799, "lat": 46.7744341, "lon": 17.6666242}, {"type": "node", "id": 1325241859, "lat": 46.7742516, "lon": 17.6662596}, {"type": "node", "id": 1783700505, "lat": 46.8824299, "lon": 17.4397529}, {"type": "node", "id": 1783700516, "lat": 46.882215, "lon": 17.4398119}, {"type": "node", "id": 1783700540, "lat": 46.8823969, "lon": 17.439496}, {"type": "node", "id": 1868310825, "lat": 46.8248647, "lon": 17.3668531, "tags": {"amenity": "library", "name": "K\u00f6nyvt\u00e1r \u00e9s Teleh\u00e1z", "opening_hours": "Mo,Th 08:00-12:00,15:00-18:00; Tu 08:00-16:00; We 08:00-12:00; Sa 15:00-19:00; PH closed", "phone": "+36 87 566 004", "wheelchair": "no"}}, {"type": "node", "id": 1965543039, "lat": 46.8822534, "lon": 17.4395354}, {"type": "node", "id": 1965543040, "lat": 46.882182, "lon": 17.439555}, {"type": "node", "id": 1966428033, "lat": 46.7152476, "lon": 17.4910817, "tags": {"amenity": "library"}}, {"type": "node", "id": 2051782245, "lat": 46.8058111, "lon": 17.5131255}, {"type": "node", "id": 2051782295, "lat": 46.8058178, "lon": 17.5132279}, {"type": "node", "id": 2051782345, "lat": 46.8059622, "lon": 17.5131044}, {"type": "node", "id": 2051782359, "lat": 46.8059689, "lon": 17.5132069}, {"type": "node", "id": 2087745489, "lat": 46.8095917, "lon": 17.3809737}, {"type": "node", "id": 2087745495, "lat": 46.8096584, "lon": 17.3806806}, {"type": "node", "id": 2087745555, "lat": 46.8096414, "lon": 17.3806863}, {"type": "node", "id": 2087745556, "lat": 46.8096817, "lon": 17.3809437}, {"type": "node", "id": 2087745596, "lat": 46.8096995, "lon": 17.3805785}, {"type": "node", "id": 2087745598, "lat": 46.8096062, "lon": 17.3810662}, {"type": "node", "id": 2087745605, "lat": 46.8096453, "lon": 17.3805967}, {"type": "node", "id": 2087745610, "lat": 46.8097675, "lon": 17.3810123}, {"type": "node", "id": 2342099816, "lat": 46.8331503, "lon": 17.4321494, "tags": {"source": "bing"}}, {"type": "node", "id": 2342099818, "lat": 46.8331694, "lon": 17.4322804, "tags": {"source": "bing"}}, {"type": "node", "id": 2342099836, "lat": 46.8333136, "lon": 17.4320984, "tags": {"source": "bing"}}, {"type": "node", "id": 2342099838, "lat": 46.8333327, "lon": 17.4322294, "tags": {"source": "bing"}}, {"type": "node", "id": 2386592017, "lat": 46.6430363, "lon": 17.3945336}, {"type": "node", "id": 2386592020, "lat": 46.6427073, "lon": 17.3945024}, {"type": "node", "id": 2386592022, "lat": 46.6426917, "lon": 17.3947661}, {"type": "node", "id": 2386592024, "lat": 46.6427385, "lon": 17.3947689}, {"type": "node", "id": 2386592026, "lat": 46.6427248, "lon": 17.3949957}, {"type": "node", "id": 2386592028, "lat": 46.6428689, "lon": 17.3950127}, {"type": "node", "id": 2386592030, "lat": 46.6428805, "lon": 17.3949107}, {"type": "node", "id": 2386592032, "lat": 46.6428046, "lon": 17.3948993}, {"type": "node", "id": 2386592034, "lat": 46.6428124, "lon": 17.3947831}, {"type": "node", "id": 2386592036, "lat": 46.6430265, "lon": 17.3948029}, {"type": "node", "id": 2421354268, "lat": 46.9131081, "lon": 17.8879176, "tags": {"addr:city": "Tihany", "addr:housenumber": "1", "addr:postcode": "8237", "addr:street": "M\u00e1dl Ferenc t\u00e9r", "amenity": "library", "name": "N\u00e9meth L\u00e1szl\u00f3 M\u0171vel\u0151d\u00e9si H\u00e1z"}}, {"type": "node", "id": 2429575031, "lat": 46.7041601, "lon": 17.4351779, "tags": {"amenity": "library"}}, {"type": "node", "id": 2859335219, "lat": 46.7075544, "lon": 17.6769858, "tags": {"addr:city": "Sz\u0151l\u0151sgy\u00f6r\u00f6k", "addr:housenumber": "4", "addr:postcode": "8692", "addr:street": "Bat\u00f3 B\u00e9la utca", "amenity": "library"}}, {"type": "node", "id": 2930711866, "lat": 46.9161184, "lon": 17.722618}, {"type": "node", "id": 2930711870, "lat": 46.9161553, "lon": 17.7227544}, {"type": "node", "id": 2930711887, "lat": 46.9163717, "lon": 17.7224711}, {"type": "node", "id": 2930711890, "lat": 46.9164062, "lon": 17.7225982}, {"type": "node", "id": 3355649513, "lat": 46.6990904, "lon": 17.3705507, "tags": {"amenity": "library", "name": "Pet\u0151fi S\u00e1ndor K\u00f6zs\u00e9gi K\u00f6nyvt\u00e1r"}}, {"type": "node", "id": 3408728327, "lat": 46.6177521, "lon": 17.5236137}, {"type": "node", "id": 3441443850, "lat": 46.878228, "lon": 17.947118, "tags": {"amenity": "library", "source": "turistautak.hu", "source:date": "2012-10-14", "url": "http://turistautak.hu/poi.php?id=115369"}}, {"type": "node", "id": 3448565492, "lat": 46.913858, "lon": 17.458255, "tags": {"amenity": "library", "name": "Teleh\u00e1z \u00e9s k\u00f6nyvt\u00e1r", "source": "turistautak.hu", "source:date": "2011-05-26", "url": "http://turistautak.hu/poi.php?id=97087"}}, {"type": "node", "id": 3458341620, "lat": 46.879183, "lon": 17.672783, "tags": {"amenity": "library", "name": "K\u00f6zs\u00e9gi K\u00f6nyvt\u00e1r", "source": "turistautak.hu", "source:date": "2011-05-26", "url": "http://turistautak.hu/poi.php?id=81510"}}, {"type": "node", "id": 3476820554, "lat": 46.7545579, "lon": 17.3523269, "tags": {"addr:city": "Balatongy\u00f6r\u00f6k", "addr:housenumber": "29", "addr:postcode": "8313", "addr:street": "Kossuth Lajos utca", "amenity": "library", "internet_access": "terminal", "internet_access:fee": "no", "name": "M\u0171vel\u0151d\u00e9si h\u00e1z \u00e9s k\u00f6nyvt\u00e1r", "note": "Bertha Bulcs\u00fa M\u0171vel\u0151d\u00e9si H\u00e1z \u00e9s K\u00f6nyvt\u00e1r Balatongy\u00f6r\u00f6k", "opening_hours": "Sep 01-Jun 18: Mo-Fr 10:00-12:00,14:00-18:00; Jun 19-Aug 31: Mo-Fr 10:00-12:00,15:00-19:00; Jun 19-Aug 31: Sa 14:00-18:00", "phone": "+36 83 546 919", "website": "http://balatongyorok.info.hu/onkormanyzat/muvelodesi_haz_es_konyvtar/"}}, {"type": "node", "id": 4187012890, "lat": 46.8819641, "lon": 17.7525135, "tags": {"amenity": "library", "name": "K\u00f6zs\u00e9gi K\u00f6nyvt\u00e1r", "opening_hours": "Th, Sa 15:00-18:00"}}, {"type": "node", "id": 4749599808, "lat": 46.6202097, "lon": 17.7622544, "tags": {"addr:city": "Gam\u00e1s", "addr:housenumber": "94", "addr:postcode": "8685", "addr:street": "F\u0151 utca", "amenity": "library", "internet_access": "no", "name": "K\u00f6zm\u0171vel\u0151d\u00e9si \u00e9s Iskolai K\u00f6nyvt\u00e1r Gam\u00e1s", "opening_hours": "Mo, Th 16:00-18:00; PH closed"}}, {"type": "node", "id": 5402531118, "lat": 46.617747, "lon": 17.5234877}, {"type": "node", "id": 5402531119, "lat": 46.6176697, "lon": 17.5234942}, {"type": "node", "id": 5402531120, "lat": 46.6176784, "lon": 17.5237116}, {"type": "node", "id": 5402532021, "lat": 46.617795, "lon": 17.5237018}, {"type": "node", "id": 5402532022, "lat": 46.6177913, "lon": 17.5236104}, {"type": "node", "id": 5665495542, "lat": 46.5953569, "lon": 17.9029836}, {"type": "node", "id": 5665495543, "lat": 46.595328, "lon": 17.9030977}, {"type": "node", "id": 5665495544, "lat": 46.5954896, "lon": 17.9030549}, {"type": "node", "id": 5665495547, "lat": 46.5954606, "lon": 17.9031689}, {"type": "node", "id": 5810961140, "lat": 46.8083775, "lon": 17.7802257, "tags": {"addr:city": "Balatonszemes", "addr:housenumber": "1", "addr:postcode": "8636", "addr:street": "Szabads\u00e1g utca", "amenity": "library", "contact:email": "konyvtar.balatonszemes@gmail.com", "contact:phone": "+36 84 361 204", "disused:internet_access:ssid": "Latinovits_konyvtar", "internet_access": "wlan", "internet_access:fee": "no", "internet_access:ssid": "Konyvtar Wifi", "name": "Latinovits Zolt\u00e1n M\u0171vel\u0151d\u00e9si H\u00e1z k\u00f6nyvt\u00e1ra", "opening_hours": "Jun 18-Aug 31 Mo-Fr 09:00-12:00"}}, {"type": "node", "id": 5821330329, "lat": 46.8065598, "lon": 17.8016442, "tags": {"amenity": "library", "name": "K\u00f6zs\u00e9gi K\u00f6nyvt\u00e1r", "operator": "Balaton\u0151sz\u00f6d \u00d6nkorm\u00e1nyzata"}}, {"type": "node", "id": 5865671406, "lat": 46.6734677, "lon": 17.3856239, "tags": {"amenity": "library", "name": "K\u00f6nyvt\u00e1r"}}, {"type": "node", "id": 6459722679, "lat": 46.9044791, "lon": 17.8067096, "tags": {"amenity": "library", "name": "K\u00f6zs\u00e9gi K\u00f6nyvt\u00e1r"}}, {"type": "node", "id": 7844411996, "lat": 46.7856022, "lon": 17.6961664}, {"type": "node", "id": 7844411997, "lat": 46.7854297, "lon": 17.6962761}, {"type": "node", "id": 7844411998, "lat": 46.7854932, "lon": 17.6964894}, {"type": "node", "id": 7844411999, "lat": 46.7856658, "lon": 17.6963798}, {"type": "node", "id": 8072279896, "lat": 46.9135934, "lon": 17.8161293, "tags": {"addr:city": "\u00d6rv\u00e9nyes", "addr:housenumber": "47", "addr:postcode": "8242", "addr:street": "Szent Imre utca", "amenity": "library"}}, {"type": "node", "id": 10054560920, "lat": 46.8323105, "lon": 17.898503, "tags": {"addr:city": "K\u0151r\u00f6shegy", "addr:housenumber": "1", "addr:postcode": "8617", "addr:street": "Kozma S\u00e1ndor t\u00e9r", "amenity": "library", "contact:facebook": "https://www.facebook.com/K%C5%91r%C3%B6shegy-K%C3%B6nyvt%C3%A1ri-K%C3%B6z%C3%B6ss%C3%A9gi-%C3%A9s-Inform%C3%A1ci%C3%B3s-Hely-1514625525468125/", "fixme": "resurvey position", "name": "K\u00f6zs\u00e9gi K\u00f6nyvt\u00e1r", "opening_hours": "Mo-Fr 08:00-16:00"}}, {"type": "node", "id": 10307699562, "lat": 46.8604973, "lon": 17.8993215, "tags": {"addr:city": "Sz\u00e1nt\u00f3d", "addr:housenumber": "9", "addr:postcode": "8622", "addr:street": "Iskola utca", "amenity": "library", "contact:phone": "+36 84 345 384", "name": "T\u00fcsk\u00e9s Tibor K\u00f6zs\u00e9gi K\u00f6nyvt\u00e1r", "opening_hours": "Mo, Th 15:00-18:00"}}, {"type": "way", "id": 117680383, "nodes": [1325241778, 1325241799, 1325241761, 1325241859, 1325241778], "tags": {"addr:city": "Balatonbogl\u00e1r", "addr:housenumber": "1", "addr:postcode": "8630", "addr:street": "Tavasz utca", "amenity": "library", "building": "yes", "internet_access": "yes", "name": "Luk\u00e1cs K\u00e1roly V\u00e1rosi K\u00f6nyvt\u00e1r"}}, {"type": "way", "id": 166979475, "nodes": [1783700505, 1783700516, 1965543040, 1965543039, 1783700540, 1783700505], "tags": {"addr:city": "Tapolca", "addr:housenumber": "1", "addr:postcode": "8300", "addr:street": "Bats\u00e1nyi J\u00e1nos utca", "amenity": "library", "building": "library", "internet_access": "wlan", "name": "Wass Albert K\u00f6nyvt\u00e1r \u00e9s M\u00fazeum", "website": "http://www.vktapolca.hu/"}}, {"type": "way", "id": 194673679, "nodes": [2051782295, 2051782245, 2051782345, 2051782359, 2051782295], "tags": {"amenity": "library", "building": "residential"}}, {"type": "way", "id": 198670098, "nodes": [2087745598, 2087745489, 2087745556, 2087745555, 2087745495, 2087745605, 2087745596, 2087745610, 2087745598], "tags": {"amenity": "library", "building": "residential", "name": "M\u0171vel\u0151d\u00e9si h\u00e1z \u00e9s k\u00f6nyvt\u00e1r"}}, {"type": "way", "id": 225432793, "nodes": [2342099836, 2342099838, 2342099818, 2342099816, 2342099836], "tags": {"addr:city": "Hegymagas", "addr:country": "HU", "addr:housenumber": "11", "addr:postcode": "8265", "addr:street": "J\u00f3zsef Attila utca", "alt_name": "Faluh\u00e1z", "amenity": "library", "building": "civic", "email": "konyvtar@hegymagas.hu", "name": "K\u00f6nyvt\u00e1r", "opening_hours": "Mo,We 15:00-18:00; Fr 14:00-18:00; Sa 10:00-16:00", "phone": "+36 87 510 215", "source": "bing", "website": "http://www.hegymagas.hu/hegymagasi_konyvtar"}}, {"type": "way", "id": 230130685, "nodes": [2386592017, 2386592020, 2386592022, 2386592024, 2386592026, 2386592028, 2386592030, 2386592032, 2386592034, 2386592036, 2386592017], "tags": {"amenity": "library", "building": "yes", "name": "K\u00f6zs\u00e9gi K\u00f6nyvt\u00e1r"}}, {"type": "way", "id": 289511120, "nodes": [2930711870, 2930711866, 2930711887, 2930711890, 2930711870], "tags": {"amenity": "library", "building": "yes", "name": "K\u00f6nyvt\u00e1r \u00e9s Teleh\u00e1z", "source": "Bing;survey"}}, {"type": "way", "id": 560208923, "nodes": [5402531118, 5402531119, 5402531120, 5402532021, 5402532022, 3408728327, 5402531118], "tags": {"amenity": "library", "building": "yes", "name": "K\u00f6nyvt\u00e1r"}}, {"type": "way", "id": 594019013, "nodes": [5665495547, 5665495543, 5665495542, 5665495544, 5665495547], "tags": {"amenity": "library", "building": "yes"}}, {"type": "way", "id": 840673173, "nodes": [7844411999, 7844411998, 7844411997, 7844411996, 7844411999], "tags": {"amenity": "library", "building": "public", "name": "V\u00e1rosi k\u00f6nyvt\u00e1r", "opening_hours": "Mo 09:00-12:00, 13:00-17:00; We-Fr 09:00-12:00, 13:00-17:00"}}]}