{"version": 0.6, "generator": "Overpass API 0.7.59 e21c39fe", "osm3s": {"timestamp_osm_base": "2023-01-21T09:46:07Z", "copyright": "The data included in this document is from www.openstreetmap.org. The data is made available under ODbL."}, "elements": [{"type": "node", "id": 280520579, "lat": 46.8476786, "lon": 19.6644812, "tags": {"addr:city": "Kecskem\u00e9t", "addr:postcode": "6000", "addr:street": "M5 aut\u00f3p\u00e1lya", "air_conditioning": "yes", "amenity": "fuel", "brand": "MOL", "brand:wikidata": "Q549181", "brand:wikipedia": "hu:MOL Magyar Olaj- \u00e9s G\u00e1zipari Nyrt.", "compressed_air": "yes", "contact:facebook": "https://www.facebook.com/mol.magyarorszag/", "contact:instagram": "https://www.instagram.com/mol.magyarorszag/", "contact:website": "https://www.mol.hu", "contact:youtube": "https://www.youtube.com/user/molgrouptv", "food": "yes", "fuel:GTL_diesel": "yes", "fuel:adblue": "yes", "fuel:diesel": "yes", "fuel:lpg": "no", "fuel:octane_100": "yes", "fuel:octane_95": "yes", "internet_access": "wlan", "name": "MOL", "operator": "MOL Nyrt.", "operator:addr": "1117 Budapest, Domb\u00f3v\u00e1ri \u00fat 28.", "payment:cash": "yes", "payment:contactless": "yes", "payment:maestro": "yes", "payment:mastercard": "yes", "payment:mastercard_contactless": "yes", "payment:mastercard_electronic": "yes", "payment:visa": "yes", "payment:visa_electron": "yes", "ref:HU:company": "01-10-041683", "ref:HU:vatin": "10625790-4-44", "rent:lpg_bottles": "yes", "source": "website", "source:date": "2022-05-21", "truck": "no"}}, {"type": "node", "id": 280520855, "lat": 46.8477945, "lon": 19.6667214, "tags": {"amenity": "fuel", "brand": "MOL", "brand:wikidata": "Q549181", "brand:wikipedia": "en:MOL (company)", "internet_access": "wlan", "name": "MOL", "website": "https://mol.hu/"}}, {"type": "node", "id": 289119998, "lat": 46.7085518, "lon": 19.2601902, "tags": {"amenity": "fuel", "name": "Gold Oil 2001"}}, {"type": "node", "id": 384905561, "lat": 46.5648562, "lon": 19.4090997, "tags": {"addr:city": "Soltvadkert", "addr:housenumber": "1", "addr:postcode": "6230", "addr:street": "Halasi utca", "amenity": "fuel", "fuel:diesel": "yes", "fuel:lpg": "yes", "fuel:octane_95": "yes", "name": "Orlen", "website": "https://orlen.hu/"}}, {"type": "node", "id": 938891584, "lat": 46.9223133, "lon": 19.6758027, "tags": {"addr:city": "Kecskem\u00e9t", "addr:postcode": "6000", "addr:street": "Budai utca", "air_conditioning": "yes", "amenity": "fuel", "brand": "MOL", "brand:wikidata": "Q549181", "brand:wikipedia": "hu:MOL Magyar Olaj- \u00e9s G\u00e1zipari Nyrt.", "compressed_air": "yes", "contact:facebook": "https://www.facebook.com/mol.magyarorszag/", "contact:instagram": "https://www.instagram.com/mol.magyarorszag/", "contact:phone": "+36 70 373 7970", "contact:website": "https://www.mol.hu", "contact:youtube": "https://www.youtube.com/user/molgrouptv", "food": "no", "fuel:GTL_diesel": "yes", "fuel:adblue": "no", "fuel:diesel": "yes", "fuel:lpg": "no", "fuel:octane_100": "yes", "fuel:octane_95": "yes", "name": "MOL", "opening_hours": "Mo-Su 06:00-22:00", "operator": "MOL Nyrt.", "operator:addr": "1117 Budapest, Domb\u00f3v\u00e1ri \u00fat 28.", "payment:cash": "yes", "payment:contactless": "yes", "payment:maestro": "yes", "payment:mastercard": "yes", "payment:mastercard_contactless": "yes", "payment:mastercard_electronic": "yes", "payment:visa": "yes", "payment:visa_electron": "yes", "ref:HU:company": "01-10-041683", "ref:HU:vatin": "10625790-4-44", "rent:lpg_bottles": "no", "source": "http://www.mol.hu/hu/autozzon_velunk/mit_kinalunk_onnek/toltoallomasok/mol/45203?shire=B%E1cs-Kiskun&city=kecskem%E9t&send_x=-966&send_y=-370&PHPSESSID=5cdbb0bfe07fc949d71dd8c14a3b9dc6&popupSFShown=1&", "source:date": "2022-05-21", "truck": "no"}}, {"type": "node", "id": 1095512518, "lat": 46.9314928, "lon": 19.6644423, "tags": {"addr:city": "Kecskem\u00e9t", "addr:housenumber": "1", "addr:place": "Talf\u00e1ja tanya", "addr:postcode": "6000", "amenity": "fuel", "brand": "Shell", "brand:wikidata": "Q154950", "brand:wikipedia": "en:Royal Dutch Shell", "contact:phone": "+36 76 701 418", "contact:website": "https://www.shell.hu/", "fuel:diesel": "yes", "fuel:octane_95": "yes", "name": "Shell", "opening_hours": "Mo-Su 06:00-21:59", "operator": "Shell Hungary Zrt.", "wheelchair": "yes"}}, {"type": "node", "id": 1095514809, "lat": 46.8881968, "lon": 19.6390648, "tags": {"addr:city": "Kecskem\u00e9t", "addr:housenumber": "2", "addr:postcode": "6000", "addr:street": "Dunaf\u00f6ldv\u00e1ri \u00fat", "amenity": "fuel", "brand": "Auchan", "brand:wikidata": "Q758603", "brand:wikipedia": "en:Auchan", "fuel:diesel": "yes", "fuel:octane_95": "yes", "fuel:octane_98": "yes", "name": "Auchan", "opening_hours": "Mo-Th 06:00-21:00; Fr-Sa 06:00-22:00; Su 06:00-21:00", "payment:cash": "yes", "payment:debit_cards": "yes", "self_service": "yes"}}, {"type": "node", "id": 1352366937, "lat": 46.6130096, "lon": 19.2953229, "tags": {"addr:city": "Kisk\u0151r\u00f6s", "addr:housenumber": "94", "addr:postcode": "6200", "addr:street": "Pet\u0151fi S\u00e1ndor utca", "air_conditioning": "yes", "amenity": "fuel", "brand": "MOL", "brand:wikidata": "Q549181", "brand:wikipedia": "hu:MOL Magyar Olaj- \u00e9s G\u00e1zipari Nyrt.", "compressed_air": "yes", "contact:facebook": "https://www.facebook.com/mol.magyarorszag/", "contact:instagram": "https://www.instagram.com/mol.magyarorszag/", "contact:website": "https://www.mol.hu", "contact:youtube": "https://www.youtube.com/user/molgrouptv", "food": "no", "fuel:GTL_diesel": "yes", "fuel:adblue": "no", "fuel:diesel": "yes", "fuel:lpg": "no", "fuel:octane_100": "yes", "fuel:octane_95": "yes", "name": "MOL", "operator": "MOL Nyrt.", "operator:addr": "1117 Budapest, Domb\u00f3v\u00e1ri \u00fat 28.", "payment:cash": "yes", "payment:contactless": "yes", "payment:maestro": "yes", "payment:mastercard": "yes", "payment:mastercard_contactless": "yes", "payment:mastercard_electronic": "yes", "payment:visa": "yes", "payment:visa_electron": "yes", "ref:HU:company": "01-10-041683", "ref:HU:vatin": "10625790-4-44", "rent:lpg_bottles": "yes", "source": "website", "source:date": "2022-05-21", "truck": "no"}}, {"type": "node", "id": 1352366942, "lat": 46.6306378, "lon": 19.2680625, "tags": {"addr:city": "Kisk\u0151r\u00f6s", "addr:housenumber": "92", "addr:postcode": "6200", "addr:street": "D\u00f3zsa Gy\u00f6rgy utca", "amenity": "fuel", "brand": "Gal\u00e1ntai", "contact:facebook": "https://facebook.com/galantaibt/", "fuel:diesel": "yes", "fuel:lpg": "yes", "fuel:octane_95": "yes", "name": "Gal\u00e1ntai", "operator": "Gal\u00e1ntai"}}, {"type": "node", "id": 1352366958, "lat": 46.6257548, "lon": 19.2742164, "tags": {"addr:city": "Kisk\u0151r\u00f6s", "addr:housenumber": "99", "addr:postcode": "6200", "addr:street": "D\u00f3zsa Gy\u00f6rgy utca", "air_conditioning": "yes", "amenity": "fuel", "brand": "OMV", "brand:wikidata": "Q168238", "brand:wikipedia": "en:OMV", "compressed_air": "yes", "contact:email": "info.hungary@omv.com", "contact:facebook": "https://www.facebook.com/omvmagyarorszag", "contact:fax": "+36 1 381 9899", "contact:instagram": "https://www.instagram.com/omv/", "contact:linkedin": "https://www.linkedin.com/company/omv", "contact:phone": "+36 78 413 100", "contact:twitter": "omv", "contact:website": "https://www.omv.hu", "contact:youtube": "https://www.youtube.com/user/omvofficial", "fuel:GTL_diesel": "yes", "fuel:diesel": "yes", "fuel:octane_100": "yes", "fuel:octane_95": "yes", "name": "OMV", "opening_hours": "24/7", "opening_hours:covid19": "same", "operator": "OMV Hung\u00e1ria Kft.", "operator:addr": "1117 Budapest, Okt\u00f3ber huszonharmadika utca 6-10 5. emelet 5/A.", "payment:cash": "yes", "payment:contactless": "yes", "payment:maestro": "yes", "payment:mastercard": "yes", "payment:mastercard_contactless": "yes", "payment:mastercard_electronic": "yes", "payment:visa": "yes", "payment:visa_electron": "yes", "ref:HU:company": "01-09-071584", "ref:HU:vatin": "10542925-2-44", "ref:vatin": "HU10542925", "source": "website", "source:date": "2020-10-03"}}, {"type": "node", "id": 1408250310, "lat": 46.8717217, "lon": 19.2318132, "tags": {"addr:city": "Szabadsz\u00e1ll\u00e1s", "addr:housenumber": "19", "addr:postcode": "6080", "addr:street": "Pet\u0151fi S\u00e1ndor \u00fat", "air_conditioning": "yes", "amenity": "fuel", "brand": "MOL", "brand:wikidata": "Q549181", "brand:wikipedia": "hu:MOL Magyar Olaj- \u00e9s G\u00e1zipari Nyrt.", "compressed_air": "yes", "contact:facebook": "https://www.facebook.com/mol.magyarorszag/", "contact:instagram": "https://www.instagram.com/mol.magyarorszag/", "contact:website": "https://www.mol.hu", "contact:youtube": "https://www.youtube.com/user/molgrouptv", "food": "no", "fuel:GTL_diesel": "yes", "fuel:adblue": "no", "fuel:diesel": "yes", "fuel:lpg": "yes", "fuel:octane_100": "yes", "fuel:octane_95": "yes", "name": "MOL", "operator": "MOL Nyrt.", "operator:addr": "1117 Budapest, Domb\u00f3v\u00e1ri \u00fat 28.", "payment:cash": "yes", "payment:contactless": "yes", "payment:maestro": "yes", "payment:mastercard": "yes", "payment:mastercard_contactless": "yes", "payment:mastercard_electronic": "yes", "payment:visa": "yes", "payment:visa_electron": "yes", "ref:HU:company": "01-10-041683", "ref:HU:vatin": "10625790-4-44", "rent:lpg_bottles": "yes", "source": "website", "source:date": "2022-05-21", "truck": "no"}}, {"type": "node", "id": 1513158331, "lat": 46.7958751, "lon": 19.3631758, "tags": {"addr:city": "Izs\u00e1k", "addr:postcode": "6070", "addr:street": "R\u00e1k\u00f3czi utca", "amenity": "fuel", "contact:phone": "+36 76 374 543", "currency:HUF": "yes", "fuel:diesel": "yes", "fuel:octane_95": "yes", "name": "T\u00f6lt\u0151\u00e1llom\u00e1s", "opening_hours": "Mo-Su 05:30-21:00", "operator": "Mondok Kft.", "payment:cash": "yes", "payment:contactless": "yes", "payment:maestro": "yes", "payment:mastercard": "yes", "payment:visa": "yes", "payment:visa_debit": "yes", "payment:visa_electron": "yes", "wheelchair": "yes"}}, {"type": "node", "id": 1572862762, "lat": 46.8430365, "lon": 19.2838471, "tags": {"addr:city": "F\u00fcl\u00f6psz\u00e1ll\u00e1s", "addr:housenumber": "9", "addr:place": "H\u00e1rmaspuszta", "addr:postcode": "6085", "amenity": "fuel", "fuel:diesel": "yes", "fuel:octane_100": "yes", "fuel:octane_95": "yes", "name": "Orlen", "opening_hours": "Mo-Fr 05:00-21:00", "shop": "convenience", "website": "https://orlen.hu/", "wheelchair": "yes"}}, {"type": "node", "id": 1612901402, "lat": 46.8907082, "lon": 19.64908, "tags": {"addr:city": "Kecskem\u00e9t", "addr:housenumber": "67", "addr:postcode": "6000", "addr:street": "Izs\u00e1ki \u00fat", "air_conditioning": "yes", "amenity": "fuel", "brand": "MOL", "brand:wikidata": "Q549181", "brand:wikipedia": "hu:MOL Magyar Olaj- \u00e9s G\u00e1zipari Nyrt.", "compressed_air": "yes", "contact:facebook": "https://www.facebook.com/mol.magyarorszag/", "contact:instagram": "https://www.instagram.com/mol.magyarorszag/", "contact:website": "https://www.mol.hu", "contact:youtube": "https://www.youtube.com/user/molgrouptv", "food": "no", "fuel:GTL_diesel": "yes", "fuel:adblue": "no", "fuel:diesel": "yes", "fuel:lpg": "yes", "fuel:octane_100": "yes", "fuel:octane_95": "yes", "name": "MOL", "operator": "MOL Nyrt.", "operator:addr": "1117 Budapest, Domb\u00f3v\u00e1ri \u00fat 28.", "payment:cash": "yes", "payment:contactless": "yes", "payment:maestro": "yes", "payment:mastercard": "yes", "payment:mastercard_contactless": "yes", "payment:mastercard_electronic": "yes", "payment:visa": "yes", "payment:visa_electron": "yes", "ref:HU:company": "01-10-041683", "ref:HU:vatin": "10625790-4-44", "rent:lpg_bottles": "yes", "source": "website", "source:date": "2021-12-17", "truck": "no"}}, {"type": "node", "id": 1684414117, "lat": 46.894844, "lon": 19.6654497}, {"type": "node", "id": 1684414144, "lat": 46.8949448, "lon": 19.6653654}, {"type": "node", "id": 1684414146, "lat": 46.8949605, "lon": 19.6657346}, {"type": "node", "id": 1684414154, "lat": 46.8950548, "lon": 19.6656469}, {"type": "node", "id": 1865899136, "lat": 46.9279618, "lon": 19.4927514, "tags": {"amenity": "fuel", "brand": "AVIA"}}, {"type": "node", "id": 1865899144, "lat": 46.9305699, "lon": 19.4900112, "tags": {"amenity": "fuel", "name": "\u00d6regk\u00fat Kft."}}, {"type": "node", "id": 2003847360, "lat": 46.7664882, "lon": 19.7569855, "tags": {"amenity": "fuel"}}, {"type": "node", "id": 2003847692, "lat": 46.8886779, "lon": 19.6230979, "tags": {"amenity": "fuel"}}, {"type": "node", "id": 2458457575, "lat": 46.9051607, "lon": 19.6925069}, {"type": "node", "id": 2458457576, "lat": 46.9052099, "lon": 19.692555}, {"type": "node", "id": 2458457577, "lat": 46.905101, "lon": 19.6927927}, {"type": "node", "id": 2458457578, "lat": 46.9050519, "lon": 19.6927445}, {"type": "node", "id": 2676145361, "lat": 46.9025495, "lon": 19.7045417, "tags": {"addr:city": "Kecskem\u00e9t", "addr:housenumber": "2", "addr:postcode": "6000", "addr:street": "Kurucz t\u00e9r", "amenity": "fuel", "building": "yes", "contact:email": "info@normbenz.hu", "contact:phone": "+36 30 513 2120", "contact:website": "https://orlen.hu/", "fuel:diesel": "yes", "fuel:octane_100": "yes", "fuel:octane_95": "yes", "internet_access": "wlan", "name": "Orlen", "opening_hours": "Mo-Su 06:00-21:00", "operator": "Normbenz Magyarorsz\u00e1g Kft.", "payment:cash": "yes", "payment:maestro": "yes", "payment:mastercard": "yes", "payment:visa": "yes", "payment:visa_electron": "yes", "wheelchair": "yes"}}, {"type": "node", "id": 2677423197, "lat": 46.9147539, "lon": 19.6876793, "tags": {"amenity": "fuel", "brand": "Agip", "contact:website": "https://www.eni.com/", "name": "Agip"}}, {"type": "node", "id": 2677440392, "lat": 46.9381457, "lon": 19.7078515, "tags": {"addr:city": "Kecskem\u00e9t", "addr:housenumber": "236", "addr:place": "\u00darr\u00e9t tanya", "addr:postcode": "6000", "amenity": "fuel", "contact:website": "http://www.envikut.hu/", "fuel:diesel": "yes", "fuel:octane_95": "yes", "name": "ENVI", "opening_hours": "Mo-Sa 06:00-21:30; Su 07:30-17:30", "payment:cash": "yes", "payment:debit_cards": "yes"}}, {"type": "node", "id": 2705787855, "lat": 46.9185695, "lon": 19.6884119}, {"type": "node", "id": 2705787861, "lat": 46.9184018, "lon": 19.6884868}, {"type": "node", "id": 2705787863, "lat": 46.9185394, "lon": 19.6882698}, {"type": "node", "id": 2705787865, "lat": 46.9183631, "lon": 19.6885056}, {"type": "node", "id": 2705787867, "lat": 46.918333, "lon": 19.6883636}, {"type": "node", "id": 3342998153, "lat": 46.9211941, "lon": 19.6788769}, {"type": "node", "id": 3342998154, "lat": 46.9211416, "lon": 19.6789647}, {"type": "node", "id": 3342998155, "lat": 46.9210257, "lon": 19.6788162}, {"type": "node", "id": 3342998156, "lat": 46.9210782, "lon": 19.6787284}, {"type": "node", "id": 3439443435, "lat": 46.925545, "lon": 19.596783, "tags": {"amenity": "fuel", "name": "J&T", "source": "turistautak.hu", "source:date": "2011-06-24", "url": "http://turistautak.hu/poi.php?id=41000"}}, {"type": "node", "id": 3439444416, "lat": 46.90694, "lon": 19.683833, "tags": {"amenity": "fuel", "name": "Jo-K\u00f3", "opening_hours": "Mo-Fr 07:00-18:00; Sa 07:00-14:00; Su off", "operator": "Jo-K\u00f3 Petrol Kft.", "source": "turistautak.hu", "source:date": "2010-12-27", "url": "http://turistautak.hu/poi.php?id=17687"}}, {"type": "node", "id": 3461942704, "lat": 46.955466, "lon": 19.298803, "tags": {"amenity": "fuel", "source": "turistautak.hu", "source:date": "2013-12-17", "url": "http://turistautak.hu/poi.php?id=164011"}}, {"type": "node", "id": 3485199052, "lat": 46.691696, "lon": 19.693486, "tags": {"amenity": "fuel", "source": "turistautak.hu", "source:date": "2014-03-28", "url": "http://turistautak.hu/poi.php?id=167041"}}, {"type": "node", "id": 3490706164, "lat": 46.5708853, "lon": 19.7560453, "tags": {"addr:city": "J\u00e1szszentl\u00e1szl\u00f3", "amenity": "fuel", "name": "P.OIL - benzink\u00fat", "source": "turistautak.hu", "source:date": "2012-10-15", "url": "http://turistautak.hu/poi.php?id=140382"}}, {"type": "node", "id": 3883255007, "lat": 46.8947203, "lon": 19.2158851}, {"type": "node", "id": 3883255008, "lat": 46.8947304, "lon": 19.2161179}, {"type": "node", "id": 3883255026, "lat": 46.8948854, "lon": 19.2158698}, {"type": "node", "id": 3883255028, "lat": 46.8948955, "lon": 19.2161025}, {"type": "node", "id": 4033791119, "lat": 46.9024473, "lon": 19.7045298}, {"type": "node", "id": 4033791121, "lat": 46.9026302, "lon": 19.7044468}, {"type": "node", "id": 4033791122, "lat": 46.9024949, "lon": 19.7043638}, {"type": "node", "id": 4033791124, "lat": 46.902582, "lon": 19.7046151}, {"type": "node", "id": 4045319093, "lat": 46.8949792, "lon": 19.6654574}, {"type": "node", "id": 4208093999, "lat": 46.8821196, "lon": 19.682007}, {"type": "node", "id": 4208094000, "lat": 46.8821583, "lon": 19.6818883}, {"type": "node", "id": 4208094001, "lat": 46.8820546, "lon": 19.6818158}, {"type": "node", "id": 4208094002, "lat": 46.8820159, "lon": 19.6819345}, {"type": "node", "id": 4209754915, "lat": 46.9092081, "lon": 19.7324914}, {"type": "node", "id": 4209754916, "lat": 46.909249, "lon": 19.7323031}, {"type": "node", "id": 4209754978, "lat": 46.9093118, "lon": 19.7323323}, {"type": "node", "id": 4209754979, "lat": 46.9092687, "lon": 19.732531}, {"type": "node", "id": 4209754980, "lat": 46.9092059, "lon": 19.7325018}, {"type": "node", "id": 4213198573, "lat": 46.9612088, "lon": 19.7255598}, {"type": "node", "id": 4213198574, "lat": 46.9611683, "lon": 19.7255235}, {"type": "node", "id": 4213198575, "lat": 46.9611254, "lon": 19.7256263}, {"type": "node", "id": 4213198576, "lat": 46.9611659, "lon": 19.7256626}, {"type": "node", "id": 4360598390, "lat": 46.6183716, "lon": 19.4834871, "tags": {"addr:city": "B\u00f3csa", "addr:housenumber": "1", "addr:postcode": "6235", "addr:street": "III. k\u00f6rzet", "air_conditioning": "yes", "amenity": "fuel", "brand": "MOL", "brand:wikidata": "Q549181", "brand:wikipedia": "hu:MOL Magyar Olaj- \u00e9s G\u00e1zipari Nyrt.", "compressed_air": "yes", "contact:facebook": "https://www.facebook.com/mol.magyarorszag/", "contact:instagram": "https://www.instagram.com/mol.magyarorszag/", "contact:website": "https://www.mol.hu", "contact:youtube": "https://www.youtube.com/user/molgrouptv", "food": "no", "fuel:GTL_diesel": "yes", "fuel:adblue": "no", "fuel:diesel": "yes", "fuel:lpg": "yes", "fuel:octane_100": "yes", "fuel:octane_95": "yes", "name": "MOL", "operator": "MOL Nyrt.", "operator:addr": "1117 Budapest, Domb\u00f3v\u00e1ri \u00fat 28.", "payment:cash": "yes", "payment:contactless": "yes", "payment:maestro": "yes", "payment:mastercard": "yes", "payment:mastercard_contactless": "yes", "payment:mastercard_electronic": "yes", "payment:visa": "yes", "payment:visa_electron": "yes", "ref:HU:company": "01-10-041683", "ref:HU:vatin": "10625790-4-44", "rent:lpg_bottles": "yes", "source": "website", "source:date": "2022-05-21", "truck": "no"}}, {"type": "node", "id": 4360647190, "lat": 46.6100372, "lon": 19.4677054, "tags": {"amenity": "fuel"}}, {"type": "node", "id": 4396178123, "lat": 46.9121297, "lon": 19.7191513}, {"type": "node", "id": 4396178124, "lat": 46.9122867, "lon": 19.71922}, {"type": "node", "id": 4396178125, "lat": 46.9122477, "lon": 19.7194106}, {"type": "node", "id": 4396178126, "lat": 46.9120908, "lon": 19.7193419}, {"type": "node", "id": 4396178156, "lat": 46.9104038, "lon": 19.7190649}, {"type": "node", "id": 4396178157, "lat": 46.91038, "lon": 19.71918}, {"type": "node", "id": 4396178158, "lat": 46.910238, "lon": 19.7191173}, {"type": "node", "id": 4396178159, "lat": 46.9102617, "lon": 19.7190021}, {"type": "node", "id": 4403310686, "lat": 46.9600381, "lon": 19.6437411}, {"type": "node", "id": 4403310687, "lat": 46.960108, "lon": 19.6436895}, {"type": "node", "id": 4403310688, "lat": 46.9600755, "lon": 19.643595}, {"type": "node", "id": 4403310789, "lat": 46.9600056, "lon": 19.6436466}, {"type": "node", "id": 4425488863, "lat": 46.891853, "lon": 19.7421362}, {"type": "node", "id": 4425488864, "lat": 46.8918092, "lon": 19.7422877}, {"type": "node", "id": 4425488865, "lat": 46.8916988, "lon": 19.7422194}, {"type": "node", "id": 4425488866, "lat": 46.8917425, "lon": 19.7420679}, {"type": "node", "id": 4425488869, "lat": 46.8917955, "lon": 19.7422811}, {"type": "node", "id": 4425488870, "lat": 46.8917202, "lon": 19.7422323}, {"type": "node", "id": 4459254988, "lat": 46.8878922, "lon": 19.6341814}, {"type": "node", "id": 4459257089, "lat": 46.8878902, "lon": 19.6339808}, {"type": "node", "id": 4459257090, "lat": 46.888015, "lon": 19.6339723}, {"type": "node", "id": 4942113412, "lat": 46.8880184, "lon": 19.6341835}, {"type": "node", "id": 4942113413, "lat": 46.8879599, "lon": 19.6341825}, {"type": "node", "id": 5303579031, "lat": 46.6970365, "lon": 19.1996515}, {"type": "node", "id": 5303579032, "lat": 46.696989, "lon": 19.1996147}, {"type": "node", "id": 5303579033, "lat": 46.6969682, "lon": 19.1996721}, {"type": "node", "id": 5303579034, "lat": 46.6970157, "lon": 19.1997088}, {"type": "node", "id": 5303579152, "lat": 46.6114987, "lon": 19.2994565}, {"type": "node", "id": 5303579153, "lat": 46.6114265, "lon": 19.2994776}, {"type": "node", "id": 5303579154, "lat": 46.6114403, "lon": 19.2995776}, {"type": "node", "id": 5303579155, "lat": 46.6113753, "lon": 19.2995966}, {"type": "node", "id": 5303579156, "lat": 46.6113877, "lon": 19.2996866}, {"type": "node", "id": 5303579157, "lat": 46.6114582, "lon": 19.2996659}, {"type": "node", "id": 5303579158, "lat": 46.6114462, "lon": 19.2995786}, {"type": "node", "id": 5303579159, "lat": 46.6115128, "lon": 19.2995591}, {"type": "node", "id": 5303641264, "lat": 46.5824128, "lon": 19.3763013}, {"type": "node", "id": 5303641278, "lat": 46.5824359, "lon": 19.3760505}, {"type": "node", "id": 5303641279, "lat": 46.5823581, "lon": 19.3760939}, {"type": "node", "id": 5303641280, "lat": 46.5824266, "lon": 19.3763534}, {"type": "node", "id": 5303641281, "lat": 46.5825044, "lon": 19.37631}, {"type": "node", "id": 5424615789, "lat": 46.8464967, "lon": 19.2976655}, {"type": "node", "id": 5424615790, "lat": 46.8464368, "lon": 19.297701}, {"type": "node", "id": 5424615791, "lat": 46.8464594, "lon": 19.2977911}, {"type": "node", "id": 5424615792, "lat": 46.846396, "lon": 19.2978279}, {"type": "node", "id": 5424615793, "lat": 46.846429, "lon": 19.2979548}, {"type": "node", "id": 5424615794, "lat": 46.8464021, "lon": 19.29797}, {"type": "node", "id": 5424615795, "lat": 46.8463899, "lon": 19.297918}, {"type": "node", "id": 5424615796, "lat": 46.8463379, "lon": 19.2979459}, {"type": "node", "id": 5424615797, "lat": 46.8463691, "lon": 19.298055}, {"type": "node", "id": 5424615798, "lat": 46.8463717, "lon": 19.298159}, {"type": "node", "id": 5424615799, "lat": 46.8464229, "lon": 19.2981565}, {"type": "node", "id": 5424615800, "lat": 46.8464246, "lon": 19.2981184}, {"type": "node", "id": 5424615801, "lat": 46.846534, "lon": 19.2980639}, {"type": "node", "id": 5424615802, "lat": 46.8465227, "lon": 19.2980017}, {"type": "node", "id": 5424615803, "lat": 46.846573, "lon": 19.2979763}, {"type": "node", "id": 6333355554, "lat": 46.9040088, "lon": 19.7470242}, {"type": "node", "id": 6333355555, "lat": 46.9040151, "lon": 19.7468548}, {"type": "node", "id": 6333355556, "lat": 46.9041671, "lon": 19.7468668}, {"type": "node", "id": 6333355557, "lat": 46.9041609, "lon": 19.7470362}, {"type": "node", "id": 6537180221, "lat": 46.9210288, "lon": 19.6790558, "tags": {"addr:city": "Kecskem\u00e9t", "addr:postcode": "6000", "addr:street": "Budai \u00fat", "air_conditioning": "yes", "amenity": "fuel", "brand": "OMV", "brand:wikidata": "Q168238", "brand:wikipedia": "en:OMV", "compressed_air": "yes", "contact:email": "info.hungary@omv.com", "contact:facebook": "https://www.facebook.com/omvmagyarorszag", "contact:fax": "+36 1 381 9899", "contact:instagram": "https://www.instagram.com/omv/", "contact:linkedin": "https://www.linkedin.com/company/omv", "contact:phone": "+36 76 482 243", "contact:twitter": "omv", "contact:website": "https://www.omv.hu", "contact:youtube": "https://www.youtube.com/user/omvofficial", "fuel:GTL_diesel": "yes", "fuel:diesel": "yes", "fuel:octane_100": "yes", "fuel:octane_95": "yes", "name": "OMV", "opening_hours": "24/7", "opening_hours:covid19": "same", "operator": "OMV Hung\u00e1ria Kft.", "operator:addr": "1117 Budapest, Okt\u00f3ber huszonharmadika utca 6-10 5. emelet 5/A.", "payment:cash": "yes", "payment:contactless": "yes", "payment:maestro": "yes", "payment:mastercard": "yes", "payment:mastercard_contactless": "yes", "payment:mastercard_electronic": "yes", "payment:visa": "yes", "payment:visa_electron": "yes", "ref:HU:company": "01-09-071584", "ref:HU:vatin": "10542925-2-44", "ref:vatin": "HU10542925", "source": "website", "source:date": "2020-10-03", "website": "https://www.omv.hu/hu-hu", "wheelchair": "yes"}}, {"type": "node", "id": 6952088894, "lat": 46.829495, "lon": 19.230425, "tags": {"addr:city": "F\u00fcl\u00f6psz\u00e1ll\u00e1s", "addr:postcode": "6085", "air_conditioning": "yes", "amenity": "fuel", "brand": "MOL", "brand:wikidata": "Q549181", "brand:wikipedia": "hu:MOL Magyar Olaj- \u00e9s G\u00e1zipari Nyrt.", "compressed_air": "yes", "contact:facebook": "https://www.facebook.com/mol.magyarorszag/", "contact:instagram": "https://www.instagram.com/mol.magyarorszag/", "contact:website": "https://www.mol.hu", "contact:youtube": "https://www.youtube.com/user/molgrouptv", "food": "no", "fuel:GTL_diesel": "yes", "fuel:adblue": "no", "fuel:diesel": "yes", "fuel:lpg": "yes", "fuel:octane_100": "yes", "fuel:octane_95": "yes", "name": "MOL", "operator": "MOL Nyrt.", "operator:addr": "1117 Budapest, Domb\u00f3v\u00e1ri \u00fat 28.", "payment:cash": "yes", "payment:contactless": "yes", "payment:maestro": "yes", "payment:mastercard": "yes", "payment:mastercard_contactless": "yes", "payment:mastercard_electronic": "yes", "payment:visa": "yes", "payment:visa_electron": "yes", "ref:HU:company": "01-10-041683", "ref:HU:vatin": "10625790-4-44", "rent:lpg_bottles": "yes", "source": "website", "source:date": "2022-05-21", "truck": "no"}}, {"type": "node", "id": 6952088895, "lat": 46.7571561, "lon": 19.589461, "tags": {"addr:city": "Jakabsz\u00e1ll\u00e1s", "addr:housenumber": "19", "addr:postcode": "6078", "addr:street": "II. k\u00f6rzet tanya", "air_conditioning": "yes", "amenity": "fuel", "brand": "MOL", "brand:wikidata": "Q549181", "brand:wikipedia": "hu:MOL Magyar Olaj- \u00e9s G\u00e1zipari Nyrt.", "compressed_air": "yes", "contact:facebook": "https://www.facebook.com/mol.magyarorszag/", "contact:instagram": "https://www.instagram.com/mol.magyarorszag/", "contact:website": "https://www.mol.hu", "contact:youtube": "https://www.youtube.com/user/molgrouptv", "food": "no", "fuel:GTL_diesel": "yes", "fuel:adblue": "no", "fuel:diesel": "yes", "fuel:lpg": "yes", "fuel:octane_100": "yes", "fuel:octane_95": "yes", "name": "MOL", "opening_hours": "Mo-Su 05:00-21:00", "operator": "MOL Nyrt.", "operator:addr": "1117 Budapest, Domb\u00f3v\u00e1ri \u00fat 28.", "payment:cash": "yes", "payment:contactless": "yes", "payment:maestro": "yes", "payment:mastercard": "yes", "payment:mastercard_contactless": "yes", "payment:mastercard_electronic": "yes", "payment:visa": "yes", "payment:visa_electron": "yes", "ref:HU:company": "01-10-041683", "ref:HU:vatin": "10625790-4-44", "rent:lpg_bottles": "no", "source": "website", "source:date": "2022-05-21", "truck": "no", "wheelchair": "yes"}}, {"type": "node", "id": 7644354727, "lat": 46.7525224, "lon": 19.485782}, {"type": "node", "id": 7644354728, "lat": 46.7524488, "lon": 19.4858267}, {"type": "node", "id": 7644354729, "lat": 46.7524298, "lon": 19.4857598}, {"type": "node", "id": 7644354730, "lat": 46.7525033, "lon": 19.4857152}, {"type": "node", "id": 8441510071, "lat": 46.8817367, "lon": 19.7070613, "tags": {"addr:city": "Kecskem\u00e9t", "addr:housenumber": "50", "addr:postcode": "6000", "addr:street": "Kiskunf\u00e9legyh\u00e1zai \u00fat", "amenity": "fuel", "brand": "Shell", "brand:wikidata": "Q154950", "brand:wikipedia": "en:Royal Dutch Shell", "contact:phone": "+36 76 481 764", "contact:website": "https://www.shell.hu/", "fuel:diesel": "yes", "fuel:octane_100": "yes", "fuel:octane_95": "yes", "fuel:octane_98": "yes", "name": "Shell", "opening_hours": "24/7", "operator": "Shell Hungary Zrt."}}, {"type": "node", "id": 8441510072, "lat": 46.8821061, "lon": 19.7078962, "tags": {"addr:city": "Kecskem\u00e9t", "addr:postcode": "6000", "addr:street": "Kiskunf\u00e9legyh\u00e1zai \u00fat", "air_conditioning": "yes", "amenity": "fuel", "brand": "MOL", "brand:wikidata": "Q549181", "brand:wikipedia": "hu:MOL Magyar Olaj- \u00e9s G\u00e1zipari Nyrt.", "compressed_air": "yes", "contact:facebook": "https://www.facebook.com/mol.magyarorszag/", "contact:instagram": "https://www.instagram.com/mol.magyarorszag/", "contact:website": "https://www.mol.hu", "contact:youtube": "https://www.youtube.com/user/molgrouptv", "food": "yes", "fuel:GTL_diesel": "yes", "fuel:adblue": "no", "fuel:diesel": "yes", "fuel:lpg": "no", "fuel:octane_100": "yes", "fuel:octane_95": "yes", "name": "MOL", "opening_hours": "Mo-Su 06:00-22:00", "operator": "MOL Nyrt.", "operator:addr": "1117 Budapest, Domb\u00f3v\u00e1ri \u00fat 28.", "payment:cash": "yes", "payment:contactless": "yes", "payment:maestro": "yes", "payment:mastercard": "yes", "payment:mastercard_contactless": "yes", "payment:mastercard_electronic": "yes", "payment:visa": "yes", "payment:visa_electron": "yes", "ref:HU:company": "01-10-041683", "ref:HU:vatin": "10625790-4-44", "rent:lpg_bottles": "yes", "source": "website", "source:date": "2022-05-21", "truck": "yes"}}, {"type": "node", "id": 8459104274, "lat": 46.899066, "lon": 19.6759343, "tags": {"addr:city": "Kecskem\u00e9t", "addr:housenumber": "4", "addr:postcode": "6000", "addr:street": "Izs\u00e1ki \u00fat", "amenity": "fuel", "brand": "Shell", "brand:wikidata": "Q154950", "brand:wikipedia": "en:Royal Dutch Shell", "contact:phone": "+36 76 505 347", "contact:website": "https://www.shell.hu/", "fuel:diesel": "yes", "fuel:octane_95": "yes", "name": "Shell", "opening_hours": "24/7", "operator": "Shell Hungary Zrt."}}, {"type": "node", "id": 9763410158, "lat": 46.89742, "lon": 19.6703, "tags": {"addr:city": "Kecskem\u00e9t", "addr:housenumber": "67", "addr:postcode": "6000", "addr:street": "Izs\u00e1ki \u00fat", "air_conditioning": "yes", "amenity": "fuel", "brand": "MOL", "brand:wikidata": "Q549181", "brand:wikipedia": "hu:MOL Magyar Olaj- \u00e9s G\u00e1zipari Nyrt.", "compressed_air": "yes", "contact:facebook": "https://www.facebook.com/mol.magyarorszag/", "contact:instagram": "https://www.instagram.com/mol.magyarorszag/", "contact:website": "https://www.mol.hu", "contact:youtube": "https://www.youtube.com/user/molgrouptv", "fixme": "verify import", "food": "no", "fuel:GTL_diesel": "yes", "fuel:adblue": "no", "fuel:diesel": "yes", "fuel:lpg": "yes", "fuel:octane_100": "yes", "fuel:octane_95": "yes", "name": "MOL", "operator": "MOL Nyrt.", "operator:addr": "1117 Budapest, Domb\u00f3v\u00e1ri \u00fat 28.", "payment:cash": "yes", "payment:contactless": "yes", "payment:maestro": "yes", "payment:mastercard": "yes", "payment:mastercard_contactless": "yes", "payment:mastercard_electronic": "yes", "payment:visa": "yes", "payment:visa_electron": "yes", "ref:HU:company": "01-10-041683", "ref:HU:vatin": "10625790-4-44", "rent:lpg_bottles": "yes", "source": "website", "source:date": "2022-05-21", "truck": "no"}}, {"type": "way", "id": 156156185, "nodes": [1684414154, 4045319093, 1684414144, 1684414117, 1684414146, 1684414154], "tags": {"addr:city": "Kecskem\u00e9t", "addr:housenumber": "12/A", "addr:postcode": "6000", "addr:street": "Izs\u00e1ki \u00fat", "air_conditioning": "yes", "amenity": "fuel", "brand": "MOL", "brand:wikidata": "Q549181", "brand:wikipedia": "hu:MOL Magyar Olaj- \u00e9s G\u00e1zipari Nyrt.", "building": "commercial", "compressed_air": "yes", "contact:facebook": "https://www.facebook.com/mol.magyarorszag/", "contact:instagram": "https://www.instagram.com/mol.magyarorszag/", "contact:website": "https://www.mol.hu", "contact:youtube": "https://www.youtube.com/user/molgrouptv", "food": "yes", "fuel:GTL_diesel": "yes", "fuel:adblue": "no", "fuel:diesel": "yes", "fuel:lpg": "no", "fuel:octane_100": "yes", "fuel:octane_95": "yes", "fuel:octane_98": "yes", "name": "MOL", "old_name": "Agip", "opening_hours": "Mo-Su 00:00-24:00", "operator": "MOL Nyrt.", "operator:addr": "1117 Budapest, Domb\u00f3v\u00e1ri \u00fat 28.", "payment:cash": "yes", "payment:contactless": "yes", "payment:maestro": "yes", "payment:mastercard": "yes", "payment:mastercard_contactless": "yes", "payment:mastercard_electronic": "yes", "payment:visa": "yes", "payment:visa_electron": "yes", "ref:HU:company": "01-10-041683", "ref:HU:vatin": "10625790-4-44", "rent:lpg_bottles": "yes", "source": "website", "source:date": "2022-05-21", "truck": "no"}}, {"type": "way", "id": 237988893, "nodes": [2458457575, 2458457576, 2458457577, 2458457578, 2458457575], "tags": {"addr:city": "Kecskem\u00e9t", "addr:housenumber": "20", "addr:postcode": "6000", "addr:street": "Katona J\u00f3zsef t\u00e9r", "air_conditioning": "yes", "amenity": "fuel", "brand": "MOL", "brand:wikidata": "Q549181", "brand:wikipedia": "hu:MOL Magyar Olaj- \u00e9s G\u00e1zipari Nyrt.", "building": "yes", "compressed_air": "yes", "contact:facebook": "https://www.facebook.com/mol.magyarorszag/", "contact:instagram": "https://www.instagram.com/mol.magyarorszag/", "contact:phone": "+36 70 373 7971", "contact:website": "https://www.mol.hu", "contact:youtube": "https://www.youtube.com/user/molgrouptv", "food": "no", "fuel:GTL_diesel": "yes", "fuel:adblue": "no", "fuel:diesel": "yes", "fuel:lpg": "no", "fuel:octane_100": "yes", "fuel:octane_95": "yes", "name": "MOL", "operator": "MOL Nyrt.", "operator:addr": "1117 Budapest, Domb\u00f3v\u00e1ri \u00fat 28.", "payment:cash": "yes", "payment:contactless": "yes", "payment:maestro": "yes", "payment:mastercard": "yes", "payment:mastercard_contactless": "yes", "payment:mastercard_electronic": "yes", "payment:visa": "yes", "payment:visa_electron": "yes", "ref:HU:company": "01-10-041683", "ref:HU:vatin": "10625790-4-44", "rent:lpg_bottles": "no", "source": "http://www.mol.hu/hu/autozzon_velunk/mit_kinalunk_onnek/toltoallomasok/45103", "source:date": "2022-05-21", "truck": "no", "wheelchair": "limited"}}, {"type": "way", "id": 264931924, "nodes": [2705787863, 2705787855, 2705787861, 2705787865, 2705787867, 2705787863], "tags": {"addr:city": "Kecskem\u00e9t", "addr:housenumber": "57-61", "addr:postcode": "6000", "addr:street": "Bethlen k\u00f6r\u00fat", "amenity": "fuel", "brand": "Shell", "brand:wikidata": "Q154950", "brand:wikipedia": "en:Royal Dutch Shell", "building": "retail", "contact:phone": "+36 76 410 578", "contact:website": "https://www.shell.hu/", "fuel:diesel": "yes", "fuel:lpg": "yes", "fuel:octane_95": "yes", "name": "Shell", "opening_hours": "Mo-Su 06:00-22:00", "operator": "Shell Hungary Zrt.", "source": "http://www.shell.hu/products-services/on-the-road/shell-station-locator.html"}}, {"type": "way", "id": 327511573, "nodes": [3342998153, 3342998154, 3342998155, 3342998156, 3342998153], "tags": {"addr:city": "Kecskem\u00e9t", "addr:country": "HU", "addr:postcode": "6000", "addr:street": "Budai \u00fat", "amenity": "fuel", "brand": "OMV", "brand:wikidata": "Q168238", "building": "commercial", "building:levels": "1", "contact:phone": "+36 76 482 243", "contact:website": "https://www.omv.hu/", "name": "OMV", "opening_hours": "24/7", "operator": "OMV Hung\u00e1ria Kft.", "roof:levels": "0", "source": "http://www.omv.hu/portal/01/hu/omv_hu/Egyeni_uegyfeleknek/e_Szolgaltatasok/Toeltoallomas_kereso", "wheelchair": "yes"}}, {"type": "way", "id": 384972088, "nodes": [3883255028, 3883255008, 3883255007, 3883255026, 3883255028], "tags": {"amenity": "fuel", "building": "yes"}}, {"type": "way", "id": 400881771, "nodes": [4033791121, 4033791122, 4033791119, 4033791124, 4033791121], "tags": {"addr:city": "Kecskem\u00e9t", "addr:postcode": "6000", "addr:street": "Kurucz t\u00e9r", "amenity": "fuel", "building": "commercial", "contact:email": "info@normbenz.hu", "contact:website": "https://orlen.hu/", "name": "Orlen", "operator": "Normbenz Magyarorsz\u00e1g Kft.", "wheelchair": "yes"}}, {"type": "way", "id": 420918865, "nodes": [4208093999, 4208094000, 4208094001, 4208094002, 4208093999], "tags": {"addr:city": "Kecskem\u00e9t", "addr:postcode": "6000", "addr:street": "Halasi \u00fat", "amenity": "fuel", "building": "commercial", "fuel:diesel": "yes", "fuel:e85": "yes", "fuel:lpg": "yes", "fuel:octane_95": "yes", "fuel:octane_98": "yes", "name": "Tiko", "opening_hours": "Mo-Su 05:00-22:00", "operator": "Tiko Kft.", "payment:cash": "yes", "payment:debit_cards": "yes", "shop": "cafe"}}, {"type": "way", "id": 421159660, "nodes": [4209754978, 4209754979, 4209754980, 4209754915, 4209754916, 4209754978], "tags": {"addr:city": "Kecskem\u00e9t", "addr:postcode": "6000", "addr:street": "B\u00e9k\u00e9scsabai \u00fat", "amenity": "fuel", "building": "commercial", "contact:phone": "+36 30 327 1086", "contact:website": "https://orlen.hu/", "fuel:diesel": "yes", "fuel:octane_95": "yes", "fuel:octane_98": "yes", "name": "Orlen", "opening_hours": "Mo-Su 07:00-19:00", "operator": "Normbenz Magyarorsz\u00e1g Kft.", "payment:cash": "yes", "payment:dkv": "yes", "payment:maestro": "yes", "payment:mastercard": "yes", "payment:uta": "yes", "payment:visa": "yes", "payment:visa_electron": "yes", "wheelchair": "yes"}}, {"type": "way", "id": 421569818, "nodes": [4213198573, 4213198574, 4213198575, 4213198576, 4213198573], "tags": {"addr:city": "Kecskem\u00e9t", "addr:conscriptionnumber": "15380/2", "addr:housenumber": "1", "addr:postcode": "6000", "addr:street": "Ez\u00fcstfeny\u0151 utca", "air_conditioning": "yes", "amenity": "fuel", "brand": "OMV", "brand:wikidata": "Q168238", "brand:wikipedia": "en:OMV", "compressed_air": "yes", "contact:email": "info.hungary@omv.com", "contact:facebook": "https://www.facebook.com/omvmagyarorszag", "contact:fax": "+36 1 381 9899", "contact:instagram": "https://www.instagram.com/omv/", "contact:linkedin": "https://www.linkedin.com/company/omv", "contact:twitter": "omv", "contact:website": "https://www.omv.hu", "contact:youtube": "https://www.youtube.com/user/omvofficial", "fuel:GTL_diesel": "yes", "fuel:diesel": "yes", "fuel:lpg": "yes", "fuel:octane_100": "yes", "fuel:octane_95": "yes", "name": "OMV", "opening_hours": "Mo-Su 05:00-22:00; PH off", "operator": "OMV Hung\u00e1ria Kft.", "operator:addr": "1117 Budapest, Okt\u00f3ber huszonharmadika utca 6-10 5. emelet 5/A.", "payment:cash": "yes", "payment:contactless": "yes", "payment:maestro": "yes", "payment:mastercard": "yes", "payment:mastercard_contactless": "yes", "payment:mastercard_electronic": "yes", "payment:visa": "yes", "payment:visa_electron": "yes", "ref:HU:company": "01-09-071584", "ref:HU:vatin": "10542925-2-44", "ref:vatin": "HU10542925", "shop": "yes", "source:www.omv.hu:date": "2020-10-03"}}, {"type": "way", "id": 441926859, "nodes": [4396178123, 4396178124, 4396178125, 4396178126, 4396178123], "tags": {"addr:city": "Kecskem\u00e9t", "addr:postcode": "6000", "addr:street": "B\u00e9k\u00e9scsabai \u00fat", "air_conditioning": "yes", "amenity": "fuel", "brand": "MOL", "brand:wikidata": "Q549181", "brand:wikipedia": "hu:MOL Magyar Olaj- \u00e9s G\u00e1zipari Nyrt.", "building": "retail", "compressed_air": "yes", "contact:facebook": "https://www.facebook.com/mol.magyarorszag/", "contact:instagram": "https://www.instagram.com/mol.magyarorszag/", "contact:phone": "+36 76 498 098", "contact:website": "https://www.mol.hu", "contact:youtube": "https://www.youtube.com/user/molgrouptv", "food": "yes", "fuel:GTL_diesel": "yes", "fuel:adblue": "no", "fuel:diesel": "yes", "fuel:lpg": "yes", "fuel:octane_100": "yes", "fuel:octane_95": "yes", "name": "MOL", "opening_hours": "24/7", "operator": "MOL Nyrt.", "operator:addr": "1117 Budapest, Domb\u00f3v\u00e1ri \u00fat 28.", "payment:cash": "yes", "payment:contactless": "yes", "payment:maestro": "yes", "payment:mastercard": "yes", "payment:mastercard_contactless": "yes", "payment:mastercard_electronic": "yes", "payment:visa": "yes", "payment:visa_electron": "yes", "ref:HU:company": "01-10-041683", "ref:HU:vatin": "10625790-4-44", "rent:lpg_bottles": "yes", "source": "website", "source:date": "2022-05-21", "truck": "yes"}}, {"type": "way", "id": 441926864, "nodes": [4396178156, 4396178157, 4396178158, 4396178159, 4396178156], "tags": {"amenity": "fuel", "building": "retail", "fuel:diesel": "yes", "fuel:octane_95": "yes"}}, {"type": "way", "id": 442658761, "nodes": [4403310686, 4403310687, 4403310688, 4403310789, 4403310686], "tags": {"amenity": "fuel", "brand": "J&T", "building": "retail", "fuel:lpg": "yes", "name": "J&T", "operator": "J&T"}}, {"type": "way", "id": 445097172, "nodes": [4425488863, 4425488864, 4425488869, 4425488870, 4425488865, 4425488866, 4425488863], "tags": {"amenity": "fuel", "building": "retail", "contact:phone": "+36 30 327 1425", "contact:website": "https://orlen.hu/", "fuel:diesel": "yes", "fuel:octane_100": "yes", "fuel:octane_95": "yes", "name": "Orlen", "opening_hours": "24/7", "payment:cash": "yes", "payment:debit_cards": "yes", "wheelchair": "yes"}}, {"type": "way", "id": 448957342, "nodes": [4459254988, 4942113413, 4942113412, 4459257090, 4459257089, 4459254988], "tags": {"addr:city": "Kecskem\u00e9t", "addr:housenumber": "4", "addr:postcode": "6000", "addr:street": "Dunaf\u00f6ldv\u00e1ri \u00fat", "air_conditioning": "yes", "amenity": "fuel", "brand": "OMV", "brand:wikidata": "Q168238", "brand:wikipedia": "en:OMV", "building": "retail", "compressed_air": "yes", "contact:email": "info.hungary@omv.com", "contact:facebook": "https://www.facebook.com/omvmagyarorszag", "contact:fax": "+36 1 381 9899", "contact:instagram": "https://www.instagram.com/omv/", "contact:linkedin": "https://www.linkedin.com/company/omv", "contact:phone": "+36 76 494 688", "contact:twitter": "omv", "contact:website": "https://www.omv.hu", "contact:youtube": "https://www.youtube.com/user/omvofficial", "fuel:GTL_diesel": "yes", "fuel:HGV_diesel": "yes", "fuel:diesel": "yes", "fuel:octane_100": "yes", "fuel:octane_91": "yes", "fuel:octane_95": "yes", "fuel:octane_98": "yes", "name": "OMV", "opening_hours": "24/7", "opening_hours:covid19": "same", "operator": "OMV Hung\u00e1ria Kft.", "operator:addr": "1117 Budapest, Okt\u00f3ber huszonharmadika utca 6-10 5. emelet 5/A.", "payment:cash": "yes", "payment:contactless": "yes", "payment:maestro": "yes", "payment:mastercard": "yes", "payment:mastercard_contactless": "yes", "payment:mastercard_electronic": "yes", "payment:visa": "yes", "payment:visa_electron": "yes", "ref": "H2064", "ref:HU:company": "01-09-071584", "ref:HU:vatin": "22172952-2-06", "source:www.omv.hu:date": "2020-10-03", "wheelchair": "yes"}}, {"type": "way", "id": 549022173, "nodes": [5303579031, 5303579032, 5303579033, 5303579034, 5303579031], "tags": {"amenity": "fuel", "brand": "Agip", "building": "yes", "fixme": "\u0150ket nem v\u00e1s\u00e1rolta fel a Mol?", "name": "Agip"}}, {"type": "way", "id": 549022198, "nodes": [5303579152, 5303579153, 5303579154, 5303579155, 5303579156, 5303579157, 5303579158, 5303579159, 5303579152], "tags": {"amenity": "fuel", "building": "roof"}}, {"type": "way", "id": 549029847, "nodes": [5303641278, 5303641279, 5303641264, 5303641280, 5303641281, 5303641278], "tags": {"amenity": "fuel", "building": "yes", "name": "J\u00f3rem\u00e9nys\u00e9g benzink\u00fat", "source": "turistautak.hu", "source:date": "2012-11-20", "url": "http://turistautak.hu/poi.php?id=147347"}}, {"type": "way", "id": 562747859, "nodes": [5424615789, 5424615790, 5424615791, 5424615792, 5424615793, 5424615794, 5424615795, 5424615796, 5424615797, 5424615798, 5424615799, 5424615800, 5424615801, 5424615802, 5424615803, 5424615789], "tags": {"amenity": "fuel", "building": "yes", "layer": "1"}}, {"type": "way", "id": 676286278, "nodes": [6333355554, 6333355555, 6333355556, 6333355557, 6333355554], "tags": {"addr:city": "Kecskem\u00e9t", "amenity": "fuel", "building": "retail", "fuel:diesel": "yes", "fuel:octane_98": "yes", "name": "M Petrol"}}, {"type": "way", "id": 818564380, "nodes": [7644354727, 7644354728, 7644354729, 7644354730, 7644354727], "tags": {"addr:city": "Orgov\u00e1ny", "addr:housenumber": "1", "addr:postcode": "6077", "addr:street": "T\u00f3th sor", "amenity": "fuel", "building": "retail", "compressed_air": "yes", "currency:HUF": "yes", "fuel:diesel": "yes", "fuel:octane_100": "yes", "fuel:octane_95": "yes", "name": "Cs\u00edk K\u00fat", "opening_hours": "Mo-Su 05:00-21:00", "operator": "Cs\u00edk K\u00fat Kft.", "operator:addr": "6077 Orgov\u00e1ny, T\u00f3th sor 1.", "payment:american_express": "yes", "payment:cash": "yes", "payment:contactless": "yes", "payment:maestro": "yes", "payment:mastercard": "yes", "payment:visa": "yes", "payment:visa_debit": "yes", "payment:visa_electron": "yes", "ref:HU:company": "03-09-135804", "ref:HU:vatin": "27715312-2-03", "self_service": "yes", "smoking": "no", "toilets": "no", "url": "http://turistautak.hu/poi.php?id=67157"}}]}