{"version": 0.6, "generator": "Overpass API 0.7.59 e21c39fe", "osm3s": {"timestamp_osm_base": "2023-01-20T17:55:59Z", "copyright": "The data included in this document is from www.openstreetmap.org. The data is made available under ODbL."}, "elements": [{"type": "node", "id": 687036409, "lat": 48.1986265, "lon": 18.9701614}, {"type": "node", "id": 687036410, "lat": 48.1986541, "lon": 18.9701503}, {"type": "node", "id": 687036412, "lat": 48.1986507, "lon": 18.9701275}, {"type": "node", "id": 687036413, "lat": 48.198665, "lon": 18.9701213}, {"type": "node", "id": 687036414, "lat": 48.1986695, "lon": 18.9701437}, {"type": "node", "id": 687036416, "lat": 48.1986762, "lon": 18.9701408}, {"type": "node", "id": 687036418, "lat": 48.1987041, "lon": 18.9702903}, {"type": "node", "id": 687036427, "lat": 48.1986716, "lon": 18.9704481}, {"type": "node", "id": 687036450, "lat": 48.1987639, "lon": 18.9702688}, {"type": "node", "id": 687036451, "lat": 48.1987847, "lon": 18.9704115}, {"type": "node", "id": 1256686063, "lat": 48.2196134, "lon": 18.6056338, "tags": {"amenity": "library", "name": "Tekovsk\u00e1 Kni\u017enica - Beletria"}}, {"type": "node", "id": 1382139962, "lat": 48.2144505, "lon": 18.6037279, "tags": {"addr:city": "Levice", "addr:housenumber": "2", "addr:postcode": "934 68", "addr:street": "A. Sl\u00e1dkovi\u010da", "addr:streetnumber": "2", "amenity": "library", "contact:email": "tklevice@kniznicalevice.sk", "contact:phone": "+421 36 631 2334", "name": "Tekovsk\u00e1 kni\u017enica v Leviciach", "website": "https://www.kniznicalevice.sk/"}}, {"type": "node", "id": 4518791681, "lat": 48.2359029, "lon": 18.522669, "tags": {"addr:city": "Nov\u00fd Tekov", "addr:conscriptionnumber": "26", "addr:housenumber": "26", "addr:place": "Nov\u00fd Tekov", "addr:postcode": "935 33", "amenity": "library", "contact:email": "obec@novytekov.sk", "contact:phone": "+421 36 638 7121", "name": "Obecn\u00e1 kni\u017enica Nov\u00fd Tekov"}}, {"type": "node", "id": 4518821610, "lat": 48.2338188, "lon": 19.0011069, "tags": {"addr:city": "Medovarce", "addr:conscriptionnumber": "59", "addr:housenumber": "59", "addr:place": "Medovarce", "addr:postcode": "962 65", "amenity": "library", "contact:email": "obecmedovarce@gmail.com", "contact:phone": "+421 45 559 4515", "name": "Obecn\u00e1 kni\u017enica Medovarce"}}, {"type": "node", "id": 4518821613, "lat": 48.2675082, "lon": 18.9016738, "tags": {"addr:city": "Ladzany", "addr:conscriptionnumber": "113", "addr:housenumber": "113", "addr:place": "Ladzany", "addr:postcode": "962 65", "amenity": "library", "contact:email": "obec@ladzany.sk", "contact:phone": "+421 910 211 736", "name": "Obecn\u00e1 kni\u017enica Ladzany"}}, {"type": "node", "id": 4518821614, "lat": 48.1809601, "lon": 18.8962852, "tags": {"addr:city": "Terany", "addr:conscriptionnumber": "116", "addr:housenumber": "116", "addr:place": "Terany", "addr:postcode": "962 68", "amenity": "library", "contact:email": "obecterany@obecterany.sk", "contact:phone": "+421 45 558 3225", "name": "Obecn\u00e1 kni\u017enica Terany"}}, {"type": "node", "id": 4518821616, "lat": 48.3004711, "lon": 19.1163437, "tags": {"addr:city": "Koz\u00ed Vrbovok", "addr:conscriptionnumber": "42", "addr:housenumber": "42", "addr:place": "Koz\u00ed Vrbovok", "addr:postcode": "962 41", "amenity": "library", "contact:email": "obeckozivrbovok@zvnet.net", "contact:phone": "+421 918 566 730", "name": "Obecn\u00e1 kni\u017enica Koz\u00ed Vrbovok"}}, {"type": "node", "id": 4518821617, "lat": 48.2785638, "lon": 19.07503, "tags": {"addr:city": "Horn\u00fd Bad\u00edn", "addr:conscriptionnumber": "38", "addr:housenumber": "38", "addr:place": "Horn\u00fd Bad\u00edn", "addr:postcode": "962 51", "amenity": "library", "contact:email": "obechornybadin@gmail.com", "contact:phone": "+421 910 947 326", "name": "Obecn\u00e1 kni\u017enica Horn\u00fd Bad\u00edn"}}, {"type": "node", "id": 4518821618, "lat": 48.2572788, "lon": 19.0776072, "tags": {"amenity": "library", "contact:email": "obec@cabradskyvrbovok.sk", "contact:phone": "+421 45 559 7112", "name": "Obecn\u00e1 kni\u017enica \u010cabrdsk\u00fd Vrbovok"}}, {"type": "node", "id": 4518821619, "lat": 48.2893818, "lon": 18.9872629, "tags": {"addr:city": "Hontianske Nemce", "addr:conscriptionnumber": "500", "addr:housenumber": "500", "addr:place": "Hontianske Nemce", "addr:postcode": "962 65", "amenity": "library", "contact:email": "obec@hontianskenemce.sk", "contact:phone": "+421 45 559 1610", "name": "Obecn\u00e1 kni\u017enica Hontianske Nemce"}}, {"type": "node", "id": 4518821621, "lat": 48.1973437, "lon": 18.9267328, "tags": {"addr:city": "Hontianske Tes\u00e1re", "addr:conscriptionnumber": "66", "addr:housenumber": "66", "addr:place": "Hontianske Tes\u00e1re", "addr:postcode": "962 68", "amenity": "library", "contact:email": "obec@honttesare.sk", "contact:phone": "+421 45 559 6015", "name": "Obecn\u00e1 kni\u017enica Hontianske Tes\u00e1re"}}, {"type": "node", "id": 4518821622, "lat": 48.3203584, "lon": 19.0899985, "tags": {"addr:city": "Bzov\u00edk", "addr:conscriptionnumber": "299", "addr:housenumber": "299", "addr:place": "Bzov\u00edk", "addr:postcode": "962 41", "amenity": "library", "contact:email": "obecbzovik@stonline.sk", "contact:phone": "+421 45 551 9398", "name": "Obecn\u00e1 kni\u017enica Bzov\u00edk"}}, {"type": "node", "id": 4518831795, "lat": 48.2651799, "lon": 18.7071537, "tags": {"addr:city": "Dr\u017eenice", "addr:conscriptionnumber": "83", "addr:housenumber": "83", "addr:place": "Dr\u017eenice", "addr:postcode": "935 03", "amenity": "library", "contact:email": "obec.drzenice@pobox.sk", "contact:phone": "+421 905 555 973", "name": "Obecn\u00e1 kni\u017enica Dr\u017eenice"}}, {"type": "node", "id": 4518831796, "lat": 48.2169886, "lon": 18.6682989, "tags": {"addr:city": "Kr\u0161kany", "addr:conscriptionnumber": "115", "addr:housenumber": "115", "addr:place": "Kr\u0161kany", "addr:postcode": "934 01", "amenity": "library", "contact:email": "obeckrskany@gmail.com", "contact:phone": "+421 36 631 3191", "name": "Obecn\u00e1 kni\u017enica Kr\u0161kany"}}, {"type": "node", "id": 4518831800, "lat": 48.2061601, "lon": 18.80366, "tags": {"addr:city": "Hontianske Trs\u0165any", "addr:conscriptionnumber": "27", "addr:housenumber": "27", "addr:place": "Hontianske Trs\u0165any", "addr:postcode": "935 86", "amenity": "library", "contact:email": "hont.trstany@mail.t-com.sk", "contact:phone": "+421 36 632 3121", "name": "Obecn\u00e1 kni\u017enica Hontianske Trs\u0165any"}}, {"type": "node", "id": 4518831805, "lat": 48.1759523, "lon": 18.5637584, "tags": {"addr:city": "Doln\u00e1 Se\u010d", "addr:conscriptionnumber": "22", "addr:housenumber": "22", "addr:place": "Doln\u00e1 Se\u010d", "addr:postcode": "935 31", "amenity": "library", "contact:email": "urad@dolnasec.sk", "contact:phone": "+421 902 523 300", "name": "Obecn\u00e1 kni\u017enica Doln\u00fd Se\u010d"}}, {"type": "node", "id": 4518831810, "lat": 48.2149156, "lon": 18.7398818, "tags": {"addr:city": "Brhlovce", "addr:conscriptionnumber": "156", "addr:housenumber": "156", "addr:place": "Brhlovce", "addr:postcode": "93502", "amenity": "library", "contact:email": "obec@brhlovce.sk", "contact:phone": "+421 36 631 6321", "name": "Obecn\u00e1 kni\u017enica Brhlovce"}}, {"type": "node", "id": 4518831813, "lat": 48.2541364, "lon": 18.6072949, "tags": {"addr:city": "Podlu\u017eany", "addr:conscriptionnumber": "165", "addr:housenumber": "165", "addr:place": "Podlu\u017eany", "addr:postcode": "935 27", "amenity": "library", "contact:email": "podluzany@imilsoft.sk", "contact:phone": "+421 36 632 2105", "name": "Obecn\u00e1 kni\u017enica Podlu\u017eany"}}, {"type": "node", "id": 4518831814, "lat": 48.241044, "lon": 18.5697436, "tags": {"addr:city": "Hronsk\u00e9 K\u013ea\u010dany", "addr:conscriptionnumber": "572", "addr:housenumber": "572", "addr:place": "Hronsk\u00e9 K\u013ea\u010dany", "addr:postcode": "935 29", "amenity": "library", "contact:email": "klacany@imilsoft.sk", "contact:phone": "+42166392010", "email": "starosta@hronskeklacany.sk", "name": "Obecn\u00e1 kni\u017enica Hronsk\u00e9 K\u013ea\u010dany", "phone": "+4210949578586", "website": "http://www.hronskeklacany.sk"}}, {"type": "node", "id": 5478460711, "lat": 48.2599944, "lon": 18.7436708, "tags": {"amenity": "library"}}, {"type": "way", "id": 54565754, "nodes": [687036409, 687036410, 687036412, 687036413, 687036414, 687036416, 687036418, 687036450, 687036451, 687036427, 687036409], "tags": {"amenity": "library", "building": "yes", "name": "Kni\u017enica", "source": "kapor2"}}]}