{"version": 0.6, "generator": "Overpass API 0.7.59 e21c39fe", "osm3s": {"timestamp_osm_base": "2023-01-17T15:17:22Z", "copyright": "The data included in this document is from www.openstreetmap.org. The data is made available under ODbL."}, "elements": [{"type": "node", "id": 448139736, "lat": 48.4728278, "lon": 20.6860743, "tags": {"amenity": "pub"}}, {"type": "node", "id": 448139774, "lat": 48.4684714, "lon": 20.6892105, "tags": {"amenity": "pub"}}, {"type": "node", "id": 1657900368, "lat": 48.4906848, "lon": 20.4825601, "tags": {"amenity": "pub", "name": "\u0160port", "name:hu": "Vend\u00e9gl\u0151"}}, {"type": "node", "id": 1791666494, "lat": 48.184329, "lon": 20.6534164, "tags": {"addr:city": "Radosty\u00e1n", "addr:housenumber": "4", "addr:postcode": "3776", "addr:street": "R\u00e1k\u00f3czi Ferenc utca", "amenity": "pub", "name": "Malom Klub", "website": "http://malomklub.hu"}}, {"type": "node", "id": 2293041447, "lat": 48.2851004, "lon": 20.6548042, "tags": {"amenity": "pub"}}, {"type": "node", "id": 3107931306, "lat": 48.2199767, "lon": 20.7059982}, {"type": "node", "id": 3107931307, "lat": 48.2198052, "lon": 20.7059311}, {"type": "node", "id": 3107931308, "lat": 48.2199912, "lon": 20.70592}, {"type": "node", "id": 3107931309, "lat": 48.2199196, "lon": 20.7058593}, {"type": "node", "id": 3107931310, "lat": 48.2198263, "lon": 20.705822}, {"type": "node", "id": 3255409692, "lat": 48.442484, "lon": 20.5881319}, {"type": "node", "id": 3255410984, "lat": 48.4424188, "lon": 20.5880682}, {"type": "node", "id": 3255410988, "lat": 48.4424439, "lon": 20.5880099}, {"type": "node", "id": 3255410997, "lat": 48.4425428, "lon": 20.5879952}, {"type": "node", "id": 3255411731, "lat": 48.4423432, "lon": 20.5879116}, {"type": "node", "id": 3255411733, "lat": 48.4423768, "lon": 20.5878332}, {"type": "node", "id": 3280471998, "lat": 48.3710435, "lon": 20.9198447, "tags": {"amenity": "pub"}}, {"type": "node", "id": 3280472006, "lat": 48.4606296, "lon": 20.8389366, "tags": {"amenity": "pub"}}, {"type": "node", "id": 3328676600, "lat": 48.5179741, "lon": 20.6801649}, {"type": "node", "id": 3328676601, "lat": 48.5180296, "lon": 20.680284}, {"type": "node", "id": 3328676602, "lat": 48.5180534, "lon": 20.6800806}, {"type": "node", "id": 3328676603, "lat": 48.5180638, "lon": 20.6802476}, {"type": "node", "id": 3328676604, "lat": 48.5181678, "lon": 20.6804706}, {"type": "node", "id": 3328676605, "lat": 48.518213, "lon": 20.6804227}, {"type": "node", "id": 3329792481, "lat": 48.250234, "lon": 20.412945, "tags": {"amenity": "pub", "name": "Pincesor", "source": "turistautak.hu", "url": "http://turistautak.hu/poi.php?id=82306"}}, {"type": "node", "id": 3329997584, "lat": 48.5215063, "lon": 20.6765237}, {"type": "node", "id": 3329997585, "lat": 48.5215472, "lon": 20.6765683}, {"type": "node", "id": 3329997586, "lat": 48.5215897, "lon": 20.6763486}, {"type": "node", "id": 3329997587, "lat": 48.5216307, "lon": 20.6763932}, {"type": "node", "id": 3373012812, "lat": 48.4827639, "lon": 20.5523562, "tags": {"amenity": "pub", "name": "J\u00f3sva \u00c9tterem", "opening_hours": "Mo-Su 06:30-20:30", "toilets:wheelchair": "no", "wheelchair": "no"}}, {"type": "node", "id": 3380396405, "lat": 48.2868706, "lon": 20.4371067}, {"type": "node", "id": 3380396406, "lat": 48.2868787, "lon": 20.436816}, {"type": "node", "id": 3380396410, "lat": 48.2869806, "lon": 20.4371136}, {"type": "node", "id": 3380396411, "lat": 48.2869887, "lon": 20.4368229}, {"type": "node", "id": 3382786053, "lat": 48.2941365, "lon": 20.4442459}, {"type": "node", "id": 3382786054, "lat": 48.2941365, "lon": 20.4443593}, {"type": "node", "id": 3382786065, "lat": 48.2941997, "lon": 20.4442459}, {"type": "node", "id": 3382786066, "lat": 48.2941997, "lon": 20.4443593}, {"type": "node", "id": 3421972336, "lat": 48.284355, "lon": 20.580409, "tags": {"amenity": "pub", "source": "turistautak.hu", "url": "http://turistautak.hu/poi.php?id=72433"}}, {"type": "node", "id": 3421972337, "lat": 48.372819, "lon": 20.50104, "tags": {"amenity": "pub", "source": "turistautak.hu", "url": "http://turistautak.hu/poi.php?id=108473"}}, {"type": "node", "id": 3427459567, "lat": 48.5361743, "lon": 20.7320975, "tags": {"addr:city": "B\u00f3dvaszilas", "addr:housenumber": "1", "addr:postcode": "3763", "addr:street": "Kossuth Lajos \u00fat", "amenity": "pub"}}, {"type": "node", "id": 3437751774, "lat": 48.198217, "lon": 20.681767, "tags": {"amenity": "pub", "name": "Evita s\u00f6r\u00f6z\u0151", "source": "turistautak.hu", "source:date": "2011-07-04", "url": "http://turistautak.hu/poi.php?id=73660"}}, {"type": "node", "id": 3437753645, "lat": 48.187614, "lon": 20.64865, "tags": {"amenity": "pub", "name": "Kond\u00f3i italbolt", "source": "turistautak.hu", "source:date": "2013-08-05", "toilets:wheelchair": "limited", "url": "http://turistautak.hu/poi.php?id=157377", "wheelchair": "limited"}}, {"type": "node", "id": 3437754910, "lat": 48.187798, "lon": 20.648703, "tags": {"amenity": "pub", "name": "S\u00f6r\u00f6z\u0151", "source": "turistautak.hu", "source:date": "2013-08-05", "url": "http://turistautak.hu/poi.php?id=157378"}}, {"type": "node", "id": 3454463533, "lat": 48.215872, "lon": 20.647436, "tags": {"amenity": "pub", "name": "Calypso Pressz\u00f3", "source": "turistautak.hu", "source:date": "2012-05-18", "url": "http://turistautak.hu/poi.php?id=133153"}}, {"type": "node", "id": 3454463541, "lat": 48.276817, "lon": 20.667067, "tags": {"addr:city": "M\u00facsony", "addr:housenumber": "250", "addr:postcode": "3744", "addr:street": "Kossuth Lajos \u00fat", "amenity": "pub", "name": "Delta s\u00f6r\u00f6z\u0151", "phone": "+36 48 403 403", "source": "turistautak.hu", "source:date": "2011-06-23", "url": "http://turistautak.hu/poi.php?id=65177"}}, {"type": "node", "id": 3454463734, "lat": 48.219583, "lon": 20.711717, "tags": {"amenity": "pub", "name": "Korona s\u00f6r\u00f6z\u0151", "source": "turistautak.hu", "source:date": "2011-07-04", "url": "http://turistautak.hu/poi.php?id=41592"}}, {"type": "node", "id": 3454463782, "lat": 48.301318, "lon": 20.639355, "tags": {"amenity": "pub", "name": "Nosztalgia pressz\u00f3", "source": "turistautak.hu", "source:date": "2011-06-23", "url": "http://turistautak.hu/poi.php?id=108524"}}, {"type": "node", "id": 3454463823, "lat": 48.306885, "lon": 20.654139, "tags": {"amenity": "pub", "name": "P\u00e1lma pressz\u00f3", "source": "turistautak.hu", "source:date": "2011-06-23", "url": "http://turistautak.hu/poi.php?id=88401"}}, {"type": "node", "id": 3454463824, "lat": 48.2720428, "lon": 20.5815565, "tags": {"addr:city": "Saj\u00f3iv\u00e1nka", "addr:housenumber": "10", "addr:postcode": "3720", "addr:street": "\u00c1llom\u00e1s utca", "amenity": "pub", "name": "P\u00e1ntlik\u00e1s cs\u00e1rda", "phone": "+36 48 355 398", "source": "turistautak.hu", "source:date": "2011-07-04", "url": "http://turistautak.hu/poi.php?id=76145"}}, {"type": "node", "id": 3454463874, "lat": 48.284543, "lon": 20.651542, "tags": {"amenity": "pub", "name": "Serry s\u00f6r\u00f6z\u0151", "source": "turistautak.hu", "source:date": "2011-06-23", "url": "http://turistautak.hu/poi.php?id=108525"}}, {"type": "node", "id": 3454463907, "lat": 48.22785, "lon": 20.501633, "tags": {"amenity": "pub", "name": "S\u00f6r\u00f6z\u0151", "source": "turistautak.hu", "source:date": "2011-04-18", "url": "http://turistautak.hu/poi.php?id=74502"}}, {"type": "node", "id": 3454463939, "lat": 48.273711, "lon": 20.55713, "tags": {"amenity": "pub", "name": "V\u00e1rhegy kocsma", "source": "turistautak.hu", "source:date": "2011-07-04", "url": "http://turistautak.hu/poi.php?id=107098"}}, {"type": "node", "id": 3454464227, "lat": 48.273867, "lon": 20.556085, "tags": {"amenity": "pub", "source": "turistautak.hu", "source:date": "2011-07-04", "url": "http://turistautak.hu/poi.php?id=49342"}}, {"type": "node", "id": 3454464307, "lat": 48.4102222, "lon": 20.6548175, "tags": {"addr:city": "Als\u00f3telekes", "addr:housenumber": "21", "addr:postcode": "3735", "addr:street": "B\u00e9ke utca", "amenity": "pub", "name": "Italbolt", "opening_hours": "Mo-Su 07:30-09:30,15:30-17:00"}}, {"type": "node", "id": 3462281439, "lat": 48.446803, "lon": 20.740418, "tags": {"amenity": "pub", "name": "Gesztenye s\u00f6r\u00f6z\u0151", "source": "turistautak.hu", "source:date": "2013-04-18", "url": "http://turistautak.hu/poi.php?id=152484"}}, {"type": "node", "id": 3462281441, "lat": 48.344684, "lon": 20.870966, "tags": {"amenity": "pub", "name": "G\u00f3l s\u00f6r\u00f6z\u0151", "source": "turistautak.hu", "source:date": "2011-06-23", "url": "http://turistautak.hu/poi.php?id=80109"}}, {"type": "node", "id": 3462281445, "lat": 48.5583404, "lon": 20.8386241, "tags": {"amenity": "pub", "name": "Hat\u00e1r s\u00f6r\u00f6z\u0151", "url": "http://turistautak.hu/poi.php?id=76096"}}, {"type": "node", "id": 3462281466, "lat": 48.442532, "lon": 20.5880569, "tags": {"amenity": "pub", "description": "kocsma (minden este) \u00e9s \u00e9lelmiszerbolt (nem minden nap)", "source": "turistautak.hu", "source:date": "2012-08-17", "url": "http://turistautak.hu/poi.php?id=139026"}}, {"type": "node", "id": 3462281467, "lat": 48.4727, "lon": 20.690267, "tags": {"amenity": "pub", "source": "turistautak.hu", "source:date": "2010-02-15", "url": "http://turistautak.hu/poi.php?id=14718"}}, {"type": "node", "id": 3462281468, "lat": 48.396579, "lon": 20.875607, "tags": {"amenity": "pub", "note": "m\u0171k\u00f6d\u00e9se bizonytalan", "source": "turistautak.hu", "source:date": "2010-04-23", "url": "http://turistautak.hu/poi.php?id=8427"}}, {"type": "node", "id": 3462281481, "lat": 48.39955, "lon": 20.721967, "tags": {"amenity": "pub", "name": "Lokomot\u00edv s\u00f6r\u00f6z\u0151", "source": "turistautak.hu", "source:date": "2013-04-14", "toilets:wheelchair": "limited", "url": "http://turistautak.hu/poi.php?id=152373", "wheelchair": "no"}}, {"type": "node", "id": 3462281489, "lat": 48.345159, "lon": 20.871002, "tags": {"amenity": "pub", "description": "S\u00f6r\u00f6z\u0151, italkim\u00e9r\u00e9s", "name": "Musk\u00e1tli pressz\u00f3", "source": "turistautak.hu", "source:date": "2011-06-23", "url": "http://turistautak.hu/poi.php?id=118432"}}, {"type": "node", "id": 3462281871, "lat": 48.315663, "lon": 20.81779, "tags": {"amenity": "pub", "source": "turistautak.hu", "source:date": "2011-06-23", "url": "http://turistautak.hu/poi.php?id=80607"}}, {"type": "node", "id": 3462282096, "lat": 48.407627, "lon": 20.727478, "tags": {"amenity": "pub", "source": "turistautak.hu", "source:date": "2011-06-23", "url": "http://turistautak.hu/poi.php?id=23355"}}, {"type": "node", "id": 3462282107, "lat": 48.4398154, "lon": 20.7943863, "tags": {"addr:city": "Meszes", "addr:housenumber": "16", "addr:postcode": "3754", "addr:street": "F\u0151 utca", "amenity": "pub", "shop": "grocery", "source": "survey", "source:date": "2018-04-15", "url": "http://turistautak.hu/poi.php?id=152485"}}, {"type": "node", "id": 3462282118, "lat": 48.448607, "lon": 20.737332, "tags": {"amenity": "pub", "description": "(Vas\u00e1rnap z\u00e1rva.)", "source": "turistautak.hu", "source:date": "2011-06-23", "url": "http://turistautak.hu/poi.php?id=23382"}}, {"type": "node", "id": 3462282142, "lat": 48.484817, "lon": 20.6250866, "tags": {"amenity": "pub", "source": "turistautak.hu", "source:date": "2011-06-23", "url": "http://turistautak.hu/poi.php?id=116354"}}, {"type": "node", "id": 3468082682, "lat": 48.243087, "lon": 20.411507, "tags": {"amenity": "pub", "name": "Borospince", "source": "turistautak.hu", "source:date": "2013-12-02", "url": "http://turistautak.hu/poi.php?id=82217"}}, {"type": "node", "id": 3468095694, "lat": 48.27229, "lon": 20.461742, "tags": {"amenity": "pub", "name": "Eperfa s\u00f6r\u00f6z\u0151", "source": "turistautak.hu", "source:date": "2011-07-04", "url": "http://turistautak.hu/poi.php?id=42281"}}, {"type": "node", "id": 3468095725, "lat": 48.27208, "lon": 20.462997, "tags": {"amenity": "pub", "name": "Man\u00f3 s\u00f6r\u00f6z\u0151", "source": "turistautak.hu", "source:date": "2011-07-04", "url": "http://turistautak.hu/poi.php?id=42280"}}, {"type": "node", "id": 3468096449, "lat": 48.408232, "lon": 20.518513, "tags": {"amenity": "pub", "name": "\u00c1rnyas Kert bisztr\u00f3", "source": "turistautak.hu", "source:date": "2011-06-23", "toilets:wheelchair": "yes", "url": "http://turistautak.hu/poi.php?id=108521", "wheelchair": "yes"}}, {"type": "node", "id": 3471880446, "lat": 48.236219, "lon": 20.905237, "tags": {"amenity": "pub", "name": "Pressz\u00f3", "source": "turistautak.hu", "source:date": "2011-06-23", "url": "http://turistautak.hu/poi.php?id=80120"}}, {"type": "node", "id": 3471880471, "lat": 48.24764, "lon": 20.99704, "tags": {"amenity": "pub", "name": "S\u00f6r\u00f6z\u0151", "source": "turistautak.hu", "source:date": "2011-06-23", "url": "http://turistautak.hu/poi.php?id=49950"}}, {"type": "node", "id": 3471880473, "lat": 48.243989, "lon": 20.904379, "tags": {"amenity": "pub", "name": "Vad\u00e1sz pressz\u00f3", "source": "turistautak.hu", "source:date": "2011-06-23", "url": "http://turistautak.hu/poi.php?id=80118"}}, {"type": "node", "id": 3471881725, "lat": 48.246295, "lon": 20.992632, "tags": {"amenity": "pub", "source": "turistautak.hu", "source:date": "2011-06-23", "url": "http://turistautak.hu/poi.php?id=50771"}}, {"type": "node", "id": 3471881728, "lat": 48.246799, "lon": 21.001841, "tags": {"amenity": "pub", "source": "turistautak.hu", "source:date": "2011-06-23", "url": "http://turistautak.hu/poi.php?id=49949"}}, {"type": "node", "id": 3471881736, "lat": 48.30922, "lon": 20.936591, "tags": {"amenity": "pub", "source": "turistautak.hu", "source:date": "2011-06-23", "url": "http://turistautak.hu/poi.php?id=80123"}}, {"type": "node", "id": 3484798464, "lat": 48.187731, "lon": 20.395814, "tags": {"amenity": "pub", "name": "G\u00f3l Pressz\u00f3", "source": "turistautak.hu", "source:date": "2011-07-04", "toilets:wheelchair": "no", "url": "http://turistautak.hu/poi.php?id=76242", "wheelchair": "yes"}}, {"type": "node", "id": 3633586024, "lat": 48.2830638, "lon": 20.495398, "tags": {"amenity": "pub"}}, {"type": "node", "id": 3981947398, "lat": 48.5124627, "lon": 20.7357603}, {"type": "node", "id": 3981947399, "lat": 48.5124661, "lon": 20.735974}, {"type": "node", "id": 3981947400, "lat": 48.5124706, "lon": 20.7360817}, {"type": "node", "id": 3981947404, "lat": 48.5125261, "lon": 20.7357073}, {"type": "node", "id": 3981947407, "lat": 48.512542, "lon": 20.7359654}, {"type": "node", "id": 3981947411, "lat": 48.5126258, "lon": 20.7359723}, {"type": "node", "id": 3981947412, "lat": 48.5126292, "lon": 20.7360543}, {"type": "node", "id": 4076701522, "lat": 48.3861085, "lon": 20.4877712}, {"type": "node", "id": 4076701525, "lat": 48.3861476, "lon": 20.4876621}, {"type": "node", "id": 4076701530, "lat": 48.3862083, "lon": 20.4878521}, {"type": "node", "id": 4076701535, "lat": 48.3862473, "lon": 20.487743}, {"type": "node", "id": 4245985212, "lat": 48.2078718, "lon": 20.3983486, "tags": {"amenity": "pub"}}, {"type": "node", "id": 4905367858, "lat": 48.3839069, "lon": 20.6730885}, {"type": "node", "id": 4905367859, "lat": 48.3839488, "lon": 20.6734096}, {"type": "node", "id": 4905367860, "lat": 48.3840654, "lon": 20.6733764}, {"type": "node", "id": 4905367861, "lat": 48.3840544, "lon": 20.6732814}, {"type": "node", "id": 4905367862, "lat": 48.3840108, "lon": 20.6732948}, {"type": "node", "id": 4905367863, "lat": 48.3839835, "lon": 20.6730686}, {"type": "node", "id": 4933478110, "lat": 48.2199663, "lon": 20.7881952, "tags": {"amenity": "pub", "fixme": "verify", "name": "S\u00f6rpatika", "source": "route4u", "toilets:wheelchair": "yes", "wheelchair": "yes"}}, {"type": "node", "id": 4933478157, "lat": 48.190813, "lon": 20.7731569, "tags": {"amenity": "pub", "fixme": "verify", "name": "Club S\u00f6r\u00f6z\u0151", "source": "route4u", "toilets:wheelchair": "limited", "wheelchair": "yes"}}, {"type": "node", "id": 4933478168, "lat": 48.2049195, "lon": 20.9223925, "tags": {"amenity": "pub", "name": "Fah\u00e1z S\u00f6r\u00f6z\u0151", "toilets:wheelchair": "no", "wheelchair": "no"}}, {"type": "node", "id": 4933478177, "lat": 48.213637, "lon": 20.7878087, "tags": {"amenity": "pub", "fixme": "verify", "name": "Aranysz\u0151l\u0151 Klubkocsma", "source": "route4u", "toilets:wheelchair": "no", "wheelchair": "no"}}, {"type": "node", "id": 4933478182, "lat": 48.2158746, "lon": 20.7255814, "tags": {"amenity": "pub", "fixme": "verify", "name": "Saj\u00f3v\u00f6lgye \u00c9tterem S\u00f6r\u00f6z\u0151", "source": "route4u", "toilets:wheelchair": "yes", "wheelchair": "no"}}, {"type": "node", "id": 4933478183, "lat": 48.2505011, "lon": 20.6216973, "tags": {"amenity": "pub", "fixme": "verify", "name": "Belv\u00e1rosi K\u00e1v\u00e9h\u00e1z-S\u00f6r\u00f6z\u0151", "source": "route4u", "toilets:wheelchair": "yes", "wheelchair": "yes"}}, {"type": "node", "id": 4933478189, "lat": 48.2535136, "lon": 20.6306518, "tags": {"amenity": "pub", "fixme": "verify", "name": "Fapados S\u00f6r\u00f6z\u0151", "source": "route4u", "toilets:wheelchair": "limited", "wheelchair": "no"}}, {"type": "node", "id": 4933478206, "lat": 48.2573475, "lon": 20.6310073, "tags": {"amenity": "pub", "name": "Pap\u00f3 S\u00f6r\u00f6z\u0151je", "source": "route4u", "survey_date": "2022-08-22", "toilets:wheelchair": "limited", "wheelchair": "no"}}, {"type": "node", "id": 4933478207, "lat": 48.2577265, "lon": 20.6295089, "tags": {"amenity": "pub", "name": "Sziv\u00e1rv\u00e1ny S\u00f6r\u00f6z\u0151", "source": "route4u", "survey:date": "2022-08-22", "toilets:wheelchair": "no", "wheelchair": "no"}}, {"type": "node", "id": 4933478259, "lat": 48.1878185, "lon": 20.9311046, "tags": {"amenity": "pub", "fixme": "verify", "name": "Kir\u00e1ly S\u00f6r\u00f6z\u0151", "source": "route4u", "toilets:wheelchair": "no", "wheelchair": "no"}}, {"type": "node", "id": 4933478294, "lat": 48.2953169, "lon": 20.7366578, "tags": {"amenity": "pub", "fixme": "verify", "name": "S\u00f6rudvar", "source": "route4u"}}, {"type": "node", "id": 4933478364, "lat": 48.2946967, "lon": 20.736694, "tags": {"amenity": "pub", "name": "Gasztro-Pub \u00c9telb\u00e1r \u00e9s S\u00f6r\u00f6z\u0151", "source": "route4u"}}, {"type": "node", "id": 4933478373, "lat": 48.3658457, "lon": 20.6221297, "tags": {"amenity": "pub", "fixme": "verify", "name": "Z\u00f6ldfa S\u00f6r\u00f6z\u0151", "source": "route4u", "toilets:wheelchair": "yes", "wheelchair": "limited"}}, {"type": "node", "id": 4933478436, "lat": 48.3373578, "lon": 20.6469153, "tags": {"amenity": "pub", "fixme": "verify", "name": "D\u00f6ri S\u00f6r\u00f6z\u0151", "source": "route4u", "toilets:wheelchair": "no", "wheelchair": "no"}}, {"type": "node", "id": 4933478523, "lat": 48.4033109, "lon": 20.728423, "tags": {"amenity": "pub", "fixme": "verify", "name": "P\u00f3ker S\u00f6r\u00f6z\u0151", "source": "route4u", "toilets:wheelchair": "no", "wheelchair": "limited"}}, {"type": "node", "id": 4933478526, "lat": 48.4049497, "lon": 20.5194917, "tags": {"amenity": "pub", "fixme": "verify", "name": "Rag\u00e1lyi Poharaz\u00f3", "source": "route4u", "toilets:wheelchair": "limited", "wheelchair": "no"}}, {"type": "node", "id": 4939176154, "lat": 48.1860647, "lon": 20.480405, "tags": {"amenity": "pub", "name": "Tapi kocsma", "source": "route4u", "toilets:wheelchair": "limited", "wheelchair": "no"}}, {"type": "node", "id": 4939177753, "lat": 48.2490536, "lon": 20.6248999, "tags": {"amenity": "pub", "fixme": "verify", "name": "Eldor\u00e1d\u00f3 Kokt\u00e9l \u00e9s Grill B\u00e1r", "source": "route4u", "toilets:wheelchair": "no", "wheelchair": "limited"}}, {"type": "node", "id": 4940557488, "lat": 48.2573243, "lon": 20.6263739, "tags": {"amenity": "pub", "fixme": "verify", "name": "Bajor S\u00f6r\u00f6z\u0151", "source": "route4u", "toilets:wheelchair": "no", "wheelchair": "no"}}, {"type": "node", "id": 4940558866, "lat": 48.5632043, "lon": 20.839863}, {"type": "node", "id": 5046169409, "lat": 48.5634175, "lon": 20.8398106}, {"type": "node", "id": 5046169410, "lat": 48.5634333, "lon": 20.8399574}, {"type": "node", "id": 5046169411, "lat": 48.5632202, "lon": 20.8400098}, {"type": "node", "id": 5362117128, "lat": 48.2987847, "lon": 20.7371703}, {"type": "node", "id": 5362117129, "lat": 48.2987141, "lon": 20.7371738}, {"type": "node", "id": 5362117130, "lat": 48.2987306, "lon": 20.7374428}, {"type": "node", "id": 5362117131, "lat": 48.2987942, "lon": 20.7374286}, {"type": "node", "id": 5696239839, "lat": 48.3286464, "lon": 20.5991884, "tags": {"amenity": "pub", "name": "Gerend\u00e1s italbolt"}}, {"type": "node", "id": 6175382068, "lat": 48.2351808, "lon": 20.6707919}, {"type": "node", "id": 6175382069, "lat": 48.235252, "lon": 20.6708764}, {"type": "node", "id": 6175382070, "lat": 48.2353132, "lon": 20.6707602}, {"type": "node", "id": 6175382071, "lat": 48.2352419, "lon": 20.6706756}, {"type": "node", "id": 7006779808, "lat": 48.5631823, "lon": 20.8398092, "tags": {"amenity": "pub", "name": "Gambrinus s\u00f6r\u00f6z\u0151"}}, {"type": "node", "id": 8224481101, "lat": 48.5387587, "lon": 20.7331281, "tags": {"addr:city": "B\u00f3dvaszilas", "addr:housenumber": "41", "addr:postcode": "3763", "addr:street": "Szabads\u00e1g \u00fat", "amenity": "pub", "name": "Hull\u00e1m s\u00f6r\u00f6z\u0151"}}, {"type": "node", "id": 10289787744, "lat": 48.3839555, "lon": 20.6732151, "tags": {"addr:city": "Szuhogy", "addr:housenumber": "76", "addr:postcode": "3734", "addr:street": "J\u00f3zsef Attila utca", "amenity": "pub", "name": "Kocsma", "opening_hours": "H-Cs \u00e9s V 07:00-21:00 P-Sz 07:00-24:00", "smoking": "separated"}}, {"type": "way", "id": 306027277, "nodes": [3107931306, 3107931308, 3107931309, 3107931310, 3107931307, 3107931306], "tags": {"addr:city": "Saj\u00f3szentp\u00e9ter", "addr:housenumber": "220", "addr:postcode": "3770", "addr:street": "Kossuth Lajos \u00fat", "amenity": "pub", "building": "yes", "name": "Tulip\u00e1n pressz\u00f3", "smoking": "isolated"}}, {"type": "way", "id": 319133543, "nodes": [3255409692, 3255410997, 3255411733, 3255411731, 3255410988, 3255410984, 3255409692], "tags": {"amenity": "pub", "building": "yes", "mapillary": "523749301982394", "name": "Borosty\u00e1n \u00c9lelmiszer \u00e9s Italbolt", "shop": "convenience", "source": "Bing", "wheelchair": "no"}}, {"type": "way", "id": 326249125, "nodes": [3328676600, 3328676601, 3328676603, 3328676604, 3328676605, 3328676602, 3328676600], "tags": {"addr:city": "Sz\u00f6gliget", "addr:housenumber": "26", "addr:postcode": "3762", "addr:street": "J\u00f3kai M\u00f3r utca", "amenity": "pub", "building": "yes", "name": "Sp\u00f3rolhat vegyesbolt \u00e9s kocsma"}}, {"type": "way", "id": 326368879, "nodes": [3329997587, 3329997586, 3329997584, 3329997585, 3329997587], "tags": {"amenity": "pub", "building": "yes", "name": "M\u00e9nes s\u00f6r\u00f6z\u0151", "opening_hours": "Mo-Su 08:00-20:00", "toilets:wheelchair": "no", "wheelchair": "no"}}, {"type": "way", "id": 330992240, "nodes": [3380396411, 3380396410, 3380396405, 3380396406, 3380396411], "tags": {"amenity": "pub", "building": "yes", "name": "Geszteny\u00e9s s\u00f6r\u00f6z\u0151"}}, {"type": "way", "id": 331224622, "nodes": [3382786054, 3382786066, 3382786065, 3382786053, 3382786054], "tags": {"amenity": "pub", "building": "yes", "name": "F6"}}, {"type": "way", "id": 395284480, "nodes": [3981947407, 3981947399, 3981947400, 3981947412, 3981947411, 3981947404, 3981947398, 3981947407], "tags": {"amenity": "pub", "building": "yes", "source": "Bing"}}, {"type": "way", "id": 405473493, "nodes": [4076701535, 4076701530, 4076701522, 4076701525, 4076701535], "tags": {"amenity": "pub", "building": "yes", "name": "Sziv\u00e1rv\u00e1ny pressz\u00f3", "opening_hours": "08:00-20:00", "outdoor_seating": "yes"}}, {"type": "way", "id": 499234695, "nodes": [4905367858, 4905367859, 4905367860, 4905367861, 4905367862, 4905367863, 4905367858], "tags": {"addr:city": "Szuhogy", "addr:housenumber": "76", "addr:postcode": "3734", "addr:street": "J\u00f3zsef Attila utca", "amenity": "pub", "building": "yes", "opening_hours": "H-Cs \u00e9s V 07:00-21:00 P-Sz 07:00-24:00", "smoking": "outside", "toilets:wheelchair": "yes"}}, {"type": "way", "id": 517010066, "nodes": [4940558866, 5046169411, 5046169410, 5046169409, 4940558866], "tags": {"amenity": "pub", "building": "yes", "name": "Gambrinus s\u00f6r\u00f6z\u0151"}}, {"type": "way", "id": 555821058, "nodes": [5362117128, 5362117129, 5362117130, 5362117131, 5362117128], "tags": {"amenity": "pub", "building": "yes"}}, {"type": "way", "id": 659571569, "nodes": [6175382071, 6175382070, 6175382069, 6175382068, 6175382071], "tags": {"addr:city": "Berente", "addr:housenumber": "43", "addr:postcode": "3704", "addr:street": "Pet\u0151fi S\u00e1ndor utca", "amenity": "pub", "building": "yes", "name": "Tall\u00e9ros"}}]}