{"version": 0.6, "generator": "Overpass API 0.7.59 e21c39fe", "osm3s": {"timestamp_osm_base": "2023-01-17T15:17:22Z", "copyright": "The data included in this document is from www.openstreetmap.org. The data is made available under ODbL."}, "elements": [{"type": "node", "id": 2450331475, "lat": 48.0501683, "lon": 22.7155199, "tags": {"amenity": "pub", "name": "B\u00e9ci pressz\u00f3"}}, {"type": "node", "id": 3007147373, "lat": 47.9130922, "lon": 22.7175054, "tags": {"amenity": "pub", "name": "Asszonybosszant\u00f3 kocsma"}}, {"type": "node", "id": 3068531966, "lat": 48.1543182, "lon": 22.4280885, "tags": {"amenity": "pub", "name": "11. sz. italbolt", "toilets:wheelchair": "yes", "wheelchair": "no"}}, {"type": "node", "id": 3465100687, "lat": 48.1267498, "lon": 22.3144163, "tags": {"amenity": "pub", "name": "Katica pressz\u00f3", "source": "turistautak.hu", "source:date": "2011-05-03", "url": "http://turistautak.hu/poi.php?id=64476"}}, {"type": "node", "id": 3465101815, "lat": 48.105, "lon": 22.533383, "tags": {"amenity": "pub", "name": "P\u00e9ter B\u00e1csi Kocsm\u00e1ja", "source": "turistautak.hu", "source:date": "2011-09-23", "url": "http://turistautak.hu/poi.php?id=8591"}}, {"type": "node", "id": 3465101864, "lat": 48.121641, "lon": 22.345097, "tags": {"amenity": "pub", "name": "Val\u00e9ria pressz\u00f3 \u00e9s fagyiz\u00f3", "source": "turistautak.hu", "source:date": "2010-05-10", "url": "http://turistautak.hu/poi.php?id=64762"}}, {"type": "node", "id": 3465102094, "lat": 48.08894, "lon": 22.33256, "tags": {"amenity": "pub", "source": "turistautak.hu", "source:date": "2013-05-01", "url": "http://turistautak.hu/poi.php?id=152907"}}, {"type": "node", "id": 3465102101, "lat": 48.1165, "lon": 22.369817, "tags": {"amenity": "pub", "source": "turistautak.hu", "source:date": "2011-05-03", "url": "http://turistautak.hu/poi.php?id=25630"}}, {"type": "node", "id": 3465102116, "lat": 48.1275527, "lon": 22.3032584, "tags": {"amenity": "pub", "source": "turistautak.hu", "source:date": "2013-04-21", "url": "http://turistautak.hu/poi.php?id=25698"}}, {"type": "node", "id": 3465156352, "lat": 48.098756, "lon": 22.8219, "tags": {"amenity": "pub", "name": "H\u00e9t Vez\u00e9r bisztr\u00f3", "source": "turistautak.hu", "source:date": "2014-07-28", "url": "http://turistautak.hu/poi.php?id=170353"}}, {"type": "node", "id": 3465156761, "lat": 47.9069027, "lon": 22.7984144, "tags": {"amenity": "pub", "source": "turistautak.hu", "source:date": "2012-12-13", "url": "http://turistautak.hu/poi.php?id=148515"}}, {"type": "node", "id": 3465156916, "lat": 47.973383, "lon": 22.637367, "tags": {"amenity": "pub", "source": "turistautak.hu", "source:date": "2010-01-26", "url": "http://turistautak.hu/poi.php?id=34691"}}, {"type": "node", "id": 3465156938, "lat": 48.029083, "lon": 22.586467, "tags": {"amenity": "pub", "source": "turistautak.hu", "source:date": "2010-11-03", "url": "http://turistautak.hu/poi.php?id=28962"}}, {"type": "node", "id": 3465156955, "lat": 48.110533, "lon": 22.7438, "tags": {"amenity": "pub", "source": "turistautak.hu", "source:date": "2010-01-26", "url": "http://turistautak.hu/poi.php?id=25628"}}, {"type": "node", "id": 3484824572, "lat": 47.95155, "lon": 22.315266, "tags": {"amenity": "pub", "source": "turistautak.hu", "source:date": "2013-03-26", "url": "http://turistautak.hu/poi.php?id=151916"}}, {"type": "node", "id": 3484824587, "lat": 47.9947, "lon": 22.32621, "tags": {"amenity": "pub", "source": "turistautak.hu", "source:date": "2013-05-01", "url": "http://turistautak.hu/poi.php?id=152899"}}, {"type": "node", "id": 3490733747, "lat": 47.8419987, "lon": 22.7012504, "tags": {"amenity": "pub", "name": "Kurta kocsma", "source": "turistautak.hu", "source:date": "2013-10-20", "url": "http://turistautak.hu/poi.php?id=160774"}}, {"type": "node", "id": 3501617969, "lat": 48.1041357, "lon": 22.781387, "tags": {"amenity": "pub", "name": "V\u00e9n Di\u00f3fa kocsma"}}, {"type": "node", "id": 3501617970, "lat": 48.1059971, "lon": 22.7813832, "tags": {"amenity": "pub", "name": "Kati b\u00fcf\u00e9"}}, {"type": "node", "id": 3751800267, "lat": 48.1296992, "lon": 22.3179747, "tags": {"amenity": "pub"}}, {"type": "node", "id": 3821438630, "lat": 47.9532868, "lon": 22.323021, "tags": {"amenity": "pub", "name": "Kocka B\u00e1r & Romkert"}}, {"type": "node", "id": 3821442127, "lat": 47.9538404, "lon": 22.3227466, "tags": {"amenity": "pub", "name": "Sport K\u00e1v\u00e9h\u00e1z", "toilets:wheelchair": "no", "wheelchair": "limited"}}, {"type": "node", "id": 3821460964, "lat": 47.9515336, "lon": 22.3153793, "tags": {"amenity": "pub", "name": "Kis Bakterh\u00e1z"}}, {"type": "node", "id": 4436792372, "lat": 47.9628899, "lon": 22.6085637, "tags": {"amenity": "pub"}}, {"type": "node", "id": 4439743063, "lat": 47.9709868, "lon": 22.4565569, "tags": {"amenity": "pub", "name": "Kurta kocsma"}}, {"type": "node", "id": 4653690292, "lat": 48.125291, "lon": 22.3425817, "tags": {"amenity": "pub", "name": "Katica Pressz\u00f3"}}, {"type": "node", "id": 4655281095, "lat": 48.1224681, "lon": 22.3158215, "tags": {"amenity": "pub", "toilets:wheelchair": "no", "wheelchair": "no"}}, {"type": "node", "id": 4655326690, "lat": 48.1585462, "lon": 22.4591574, "tags": {"amenity": "pub", "name": "Kiss K\u00f3sa Kiskocsma", "toilets:wheelchair": "yes", "wheelchair": "yes"}}, {"type": "node", "id": 4656904493, "lat": 48.0870863, "lon": 22.3245826, "tags": {"amenity": "pub"}}, {"type": "node", "id": 4662693189, "lat": 48.1065106, "lon": 22.5233595, "tags": {"amenity": "pub", "name": "Piccolo s\u00f6r\u00f6z\u0151", "name:hu": "Piccolo s\u00f6r\u00f6z\u0151"}}, {"type": "node", "id": 4665503193, "lat": 48.1461141, "lon": 22.2968056, "tags": {"amenity": "pub"}}, {"type": "node", "id": 4665544589, "lat": 48.1588584, "lon": 22.2778777, "tags": {"amenity": "pub"}}, {"type": "node", "id": 4684875272, "lat": 48.0640046, "lon": 22.5166567, "tags": {"amenity": "pub"}}, {"type": "node", "id": 4854294123, "lat": 47.9513316, "lon": 22.3080039, "tags": {"amenity": "pub"}}, {"type": "node", "id": 4854427173, "lat": 47.9557497, "lon": 22.3050135, "tags": {"amenity": "pub"}}, {"type": "node", "id": 4933477079, "lat": 47.8631136, "lon": 22.3866012, "tags": {"amenity": "pub", "fixme": "verify", "name": "Kaja Tanya", "source": "route4u"}}, {"type": "node", "id": 4933477088, "lat": 47.8647432, "lon": 22.6235615, "tags": {"amenity": "pub", "name": "Erdei Kocsma", "source": "route4u", "toilets:wheelchair": "no", "wheelchair": "no"}}, {"type": "node", "id": 4933477400, "lat": 47.9574959, "lon": 22.3296966, "tags": {"amenity": "pub", "fixme": "verify", "name": "B K\u00f6z\u00e9p Club", "source": "route4u", "toilets:wheelchair": "no", "wheelchair": "limited"}}, {"type": "node", "id": 4933477527, "lat": 47.9347373, "lon": 22.6552909, "tags": {"amenity": "pub", "fixme": "verify", "name": "Csita S\u00f6r\u00f6z\u0151", "source": "route4u"}}, {"type": "node", "id": 4933477873, "lat": 48.0562423, "lon": 22.525188, "tags": {"amenity": "pub", "fixme": "verify", "name": "Porta S\u00f6r\u00f6z\u0151", "source": "route4u", "toilets:wheelchair": "yes", "wheelchair": "yes"}}, {"type": "node", "id": 4933477914, "lat": 48.0892258, "lon": 22.6254279, "tags": {"amenity": "pub", "fixme": "verify", "name": "V\u00e9ndi\u00f3fa s\u00f6r\u00f6z\u0151", "source": "route4u", "toilets:wheelchair": "yes", "wheelchair": "no"}}, {"type": "node", "id": 4933478101, "lat": 48.1481961, "lon": 22.507933, "tags": {"amenity": "pub", "fixme": "verify", "name": "Rockefeller S\u00f6r\u00f6z\u0151", "source": "route4u", "toilets:wheelchair": "yes", "wheelchair": "limited"}}, {"type": "node", "id": 4933478104, "lat": 48.1485289, "lon": 22.5054913, "tags": {"amenity": "pub", "fixme": "verify", "name": "Gates S\u00f6r\u00f6z\u0151", "source": "route4u", "toilets:wheelchair": "yes", "wheelchair": "limited"}}, {"type": "node", "id": 4939178311, "lat": 48.0512221, "lon": 22.7456282, "tags": {"amenity": "pub", "fixme": "verify", "name": "T\u00f3v\u00e9g S\u00f6r\u00f6z\u0151", "source": "route4u", "toilets:wheelchair": "no", "wheelchair": "limited"}}, {"type": "node", "id": 4939179338, "lat": 47.9564322, "lon": 22.3049736, "tags": {"amenity": "pub", "fixme": "verify", "name": "Joker S\u00f6r\u00f6z\u0151", "source": "route4u", "toilets:wheelchair": "no", "wheelchair": "no"}}, {"type": "node", "id": 4940555770, "lat": 47.9425925, "lon": 22.3102311, "tags": {"amenity": "pub", "fixme": "verify", "name": "Fapuma S\u00f6r\u00f6z\u0151", "source": "route4u", "toilets:wheelchair": "no", "wheelchair": "no"}}, {"type": "node", "id": 4940561342, "lat": 47.9549527, "lon": 22.326895, "tags": {"amenity": "pub", "fixme": "verify", "name": "Brav\u00f3 Iv\u00f3", "source": "route4u", "toilets:wheelchair": "no", "wheelchair": "limited"}}, {"type": "node", "id": 4940563353, "lat": 47.9557169, "lon": 22.331256, "tags": {"amenity": "pub", "fixme": "verify", "name": "Kisp\u00e1ly\u00e1s S\u00f6r\u00f6z\u0151", "source": "route4u", "toilets:wheelchair": "no", "wheelchair": "no"}}, {"type": "node", "id": 4940563358, "lat": 48.1287417, "lon": 22.3049144, "tags": {"amenity": "pub", "fixme": "verify", "name": "M\u00e1ty\u00e1s Pince Boroz\u00f3", "source": "route4u", "toilets:wheelchair": "no", "wheelchair": "no"}}, {"type": "node", "id": 5270856261, "lat": 47.8460221, "lon": 22.6703559, "tags": {"amenity": "pub", "name": "Joe kocsm\u00e1ja"}}, {"type": "node", "id": 5381207711, "lat": 47.797502, "lon": 22.2803911, "tags": {"amenity": "pub"}}, {"type": "node", "id": 6010955244, "lat": 47.9639546, "lon": 22.609272}, {"type": "node", "id": 6010955245, "lat": 47.9638771, "lon": 22.6092765}, {"type": "node", "id": 6010955246, "lat": 47.9638855, "lon": 22.6096005}, {"type": "node", "id": 6010955247, "lat": 47.9639603, "lon": 22.6095962}, {"type": "node", "id": 6016603801, "lat": 47.9639596, "lon": 22.6095724}, {"type": "node", "id": 6016603802, "lat": 47.9639584, "lon": 22.6094205}, {"type": "node", "id": 6016603803, "lat": 47.963975, "lon": 22.6094195}, {"type": "node", "id": 6016603804, "lat": 47.9639789, "lon": 22.6095712}, {"type": "node", "id": 8488460864, "lat": 47.8435224, "lon": 22.6748368}, {"type": "node", "id": 8488460865, "lat": 47.8436405, "lon": 22.674955}, {"type": "node", "id": 8488460866, "lat": 47.8436054, "lon": 22.6750372}, {"type": "node", "id": 8488460867, "lat": 47.8434885, "lon": 22.6749159}, {"type": "node", "id": 8488460874, "lat": 47.8435527, "lon": 22.6749825}, {"type": "node", "id": 8488460879, "lat": 47.8433001, "lon": 22.6760738}, {"type": "node", "id": 8488460880, "lat": 47.8433695, "lon": 22.6761529}, {"type": "node", "id": 8488460881, "lat": 47.8435317, "lon": 22.6758531}, {"type": "node", "id": 8488460882, "lat": 47.843462, "lon": 22.6757735}, {"type": "node", "id": 8488460891, "lat": 47.828672, "lon": 22.6692358}, {"type": "node", "id": 8488460892, "lat": 47.8287349, "lon": 22.6691793}, {"type": "node", "id": 8488460893, "lat": 47.8286731, "lon": 22.6690341}, {"type": "node", "id": 8488460894, "lat": 47.8285543, "lon": 22.6691647}, {"type": "node", "id": 8488460895, "lat": 47.828607, "lon": 22.6692599}, {"type": "node", "id": 8488460896, "lat": 47.8286484, "lon": 22.6691907}, {"type": "node", "id": 8710562467, "lat": 47.9388558, "lon": 22.3797339, "tags": {"amenity": "pub", "name": "Family S\u00f6r\u00f6z\u0151"}}, {"type": "node", "id": 8932951014, "lat": 48.0848291, "lon": 22.6314658, "tags": {"amenity": "pub"}}, {"type": "node", "id": 9226023999, "lat": 47.9893149, "lon": 22.513495, "tags": {"amenity": "pub"}}, {"type": "node", "id": 9233847574, "lat": 47.9913383, "lon": 22.5155254, "tags": {"amenity": "pub"}}, {"type": "node", "id": 9234990934, "lat": 47.978766, "lon": 22.5231484, "tags": {"amenity": "pub"}}, {"type": "node", "id": 9238102405, "lat": 47.9836203, "lon": 22.5192801, "tags": {"amenity": "pub"}}, {"type": "way", "id": 637622874, "nodes": [6010955244, 6010955245, 6010955246, 6010955247, 6016603801, 6016603804, 6016603803, 6016603802, 6010955244], "tags": {"addr:city": "Nagyszekeres", "amenity": "pub", "building": "yes", "name": "G\u0151g\u0151 s\u00f6r\u00f6z\u0151"}}, {"type": "way", "id": 913790731, "nodes": [8488460864, 8488460865, 8488460866, 8488460874, 8488460867, 8488460864], "tags": {"amenity": "pub", "building": "yes", "name": "H\u00f3goly\u00f3 S\u00f6r\u00f6z\u0151"}}, {"type": "way", "id": 913790734, "nodes": [8488460879, 8488460880, 8488460881, 8488460882, 8488460879], "tags": {"amenity": "pub", "building": "yes", "name": "N\u00e1das S\u00f6r\u00f6z\u0151"}}, {"type": "way", "id": 913790737, "nodes": [8488460891, 8488460892, 8488460893, 8488460894, 8488460895, 8488460896, 8488460891], "tags": {"amenity": "pub", "building": "yes", "name": "Kurta Kocsma"}}]}