{"version": 0.6, "generator": "Overpass API 0.7.59 e21c39fe", "osm3s": {"timestamp_osm_base": "2023-01-21T09:47:07Z", "copyright": "The data included in this document is from www.openstreetmap.org. The data is made available under ODbL."}, "elements": [{"type": "node", "id": 347410354, "lat": 46.3747922, "lon": 17.7659119, "tags": {"amenity": "fuel", "name": "Teletank"}}, {"type": "node", "id": 347410434, "lat": 46.3785902, "lon": 17.7648853, "tags": {"amenity": "fuel", "created_by": "Potlatch 0.10f"}}, {"type": "node", "id": 348038162, "lat": 46.3532862, "lon": 17.6870507, "tags": {"addr:city": "Kaposf\u0151", "addr:conscriptionnumber": "643/5", "addr:postcode": "7523", "amenity": "fuel", "brand": "Avia", "brand:wikidata": "Q300147", "brand:wikipedia": "de:Avia International", "compressed_air": "yes", "contact:email": "avia@avia.hu", "contact:facebook": "https://www.facebook.com/AVIAHungary", "contact:phone": "+36 30 866 5518", "contact:website": "https://www.avia.hu/toltoallomas/?id=20", "contact:youtube": "https://www.youtube.com/channel/UCjvjkjf2RgmKBuTnKSXk-Rg", "food": "no", "fuel:diesel": "yes", "fuel:e85": "no", "fuel:lpg": "yes", "fuel:octane_95": "yes", "fuel:octane_98": "no", "name": "Avia", "operator": "AVIA Hung\u00e1ria Kft.", "payment:cash": "yes", "payment:contactless": "yes", "payment:maestro": "yes", "payment:mastercard": "yes", "payment:mastercard_contactless": "yes", "payment:mastercard_electronic": "yes", "payment:visa": "yes", "payment:visa_electron": "yes", "rent:lpg_bottles": "no", "restaurant": "no", "source:www.avia.hu:date": "2021-12-17", "truck": "no"}}, {"type": "node", "id": 355760096, "lat": 46.3565835, "lon": 17.7797133, "tags": {"amenity": "fuel", "fuel:lpg": "yes"}}, {"type": "node", "id": 355760098, "lat": 46.3559408, "lon": 17.7806714, "tags": {"addr:city": "Kaposv\u00e1r", "addr:postcode": "7400", "addr:street": "V\u00e1s\u00e1rt\u00e9ri \u00fat", "air_conditioning": "yes", "amenity": "fuel", "brand": "MOL", "brand:wikidata": "Q549181", "brand:wikipedia": "hu:MOL Magyar Olaj- \u00e9s G\u00e1zipari Nyrt.", "compressed_air": "yes", "contact:facebook": "https://www.facebook.com/mol.magyarorszag/", "contact:instagram": "https://www.instagram.com/mol.magyarorszag/", "contact:website": "https://www.mol.hu", "contact:youtube": "https://www.youtube.com/user/molgrouptv", "food": "no", "fuel:GTL_diesel": "yes", "fuel:adblue": "no", "fuel:diesel": "yes", "fuel:lpg": "no", "fuel:octane_100": "yes", "fuel:octane_95": "yes", "name": "MOL", "opening_hours": "06:00-21:00", "operator": "MOL Nyrt.", "operator:addr": "1117 Budapest, Domb\u00f3v\u00e1ri \u00fat 28.", "payment:cash": "yes", "payment:contactless": "yes", "payment:maestro": "yes", "payment:mastercard": "yes", "payment:mastercard_contactless": "yes", "payment:mastercard_electronic": "yes", "payment:visa": "yes", "payment:visa_electron": "yes", "ref:HU:company": "01-10-041683", "ref:HU:vatin": "10625790-4-44", "rent:lpg_bottles": "yes", "source": "website", "source:date": "2022-05-21", "truck": "no"}}, {"type": "node", "id": 355760100, "lat": 46.355032, "lon": 17.7855233}, {"type": "node", "id": 364143475, "lat": 46.3895506, "lon": 17.7797159, "tags": {"addr:city": "Kaposv\u00e1r", "addr:housenumber": "180", "addr:postcode": "7400", "addr:street": "F\u00fcredi \u00fat", "air_conditioning": "yes", "amenity": "fuel", "brand": "MOL", "brand:wikidata": "Q549181", "brand:wikipedia": "hu:MOL Magyar Olaj- \u00e9s G\u00e1zipari Nyrt.", "compressed_air": "yes", "contact:facebook": "https://www.facebook.com/mol.magyarorszag/", "contact:instagram": "https://www.instagram.com/mol.magyarorszag/", "contact:website": "https://www.mol.hu", "contact:youtube": "https://www.youtube.com/user/molgrouptv", "food": "no", "fuel:GTL_diesel": "yes", "fuel:adblue": "yes", "fuel:diesel": "yes", "fuel:lpg": "yes", "fuel:octane_100": "yes", "fuel:octane_95": "yes", "name": "MOL", "opening_hours": "06:00-20:00", "operator": "MOL Nyrt.", "operator:addr": "1117 Budapest, Domb\u00f3v\u00e1ri \u00fat 28.", "payment:cash": "yes", "payment:contactless": "yes", "payment:maestro": "yes", "payment:mastercard": "yes", "payment:mastercard_contactless": "yes", "payment:mastercard_electronic": "yes", "payment:visa": "yes", "payment:visa_electron": "yes", "ref:HU:company": "01-10-041683", "ref:HU:vatin": "10625790-4-44", "rent:lpg_bottles": "yes", "source": "website", "source:date": "2022-05-21", "truck": "no"}}, {"type": "node", "id": 1350425156, "lat": 46.3798865, "lon": 17.7816642, "tags": {"addr:city": "Kaposv\u00e1r", "addr:postcode": "7400", "addr:street": "F\u00fcredi \u00fat", "air_conditioning": "yes", "amenity": "fuel", "brand": "OMV", "brand:wikidata": "Q168238", "brand:wikipedia": "en:OMV", "compressed_air": "yes", "contact:email": "info.hungary@omv.com", "contact:facebook": "https://www.facebook.com/omvmagyarorszag", "contact:fax": "+36 1 381 9899", "contact:instagram": "https://www.instagram.com/omv/", "contact:linkedin": "https://www.linkedin.com/company/omv", "contact:phone": "+36 82 313 776", "contact:twitter": "omv", "contact:website": "https://www.omv.hu", "contact:youtube": "https://www.youtube.com/user/omvofficial", "fuel:GTL_diesel": "yes", "fuel:diesel": "yes", "fuel:octane_100": "yes", "fuel:octane_95": "yes", "name": "OMV", "opening_hours": "24/7", "opening_hours:covid19": "same", "operator": "OMV Hung\u00e1ria Kft.", "operator:addr": "1117 Budapest, Okt\u00f3ber huszonharmadika utca 6-10 5. emelet 5/A.", "payment:cash": "yes", "payment:contactless": "yes", "payment:maestro": "yes", "payment:mastercard": "yes", "payment:mastercard_contactless": "yes", "payment:mastercard_electronic": "yes", "payment:visa": "yes", "payment:visa_electron": "yes", "ref:HU:company": "01-09-071584", "ref:HU:vatin": "10542925-2-44", "ref:vatin": "HU10542925", "source": "website", "source:date": "2020-10-03"}}, {"type": "node", "id": 1364896498, "lat": 46.3655384, "lon": 17.8092304}, {"type": "node", "id": 1364896529, "lat": 46.3657146, "lon": 17.8090057}, {"type": "node", "id": 1364896532, "lat": 46.3656311, "lon": 17.8092879}, {"type": "node", "id": 1364896547, "lat": 46.3656218, "lon": 17.8089481}, {"type": "node", "id": 1368337152, "lat": 46.3687869, "lon": 17.8177187}, {"type": "node", "id": 1368337159, "lat": 46.368514, "lon": 17.8176784}, {"type": "node", "id": 1368337160, "lat": 46.3685611, "lon": 17.8175477}, {"type": "node", "id": 1368337162, "lat": 46.3687398, "lon": 17.8178494}, {"type": "node", "id": 1602939879, "lat": 46.4091651, "lon": 17.3855662, "tags": {"addr:city": "B\u00f6h\u00f6nye", "addr:housenumber": "30", "addr:postcode": "8719", "addr:street": "Szabads\u00e1g utca", "air_conditioning": "yes", "amenity": "fuel", "brand": "MOL", "brand:wikidata": "Q549181", "brand:wikipedia": "hu:MOL Magyar Olaj- \u00e9s G\u00e1zipari Nyrt.", "compressed_air": "yes", "contact:facebook": "https://www.facebook.com/mol.magyarorszag/", "contact:instagram": "https://www.instagram.com/mol.magyarorszag/", "contact:website": "https://www.mol.hu", "contact:youtube": "https://www.youtube.com/user/molgrouptv", "food": "no", "fuel:GTL_diesel": "yes", "fuel:adblue": "no", "fuel:diesel": "yes", "fuel:lpg": "no", "fuel:octane_100": "yes", "fuel:octane_95": "yes", "name": "MOL", "opening_hours": "Mo-Su 07:00-19:00", "operator": "MOL Nyrt.", "operator:addr": "1117 Budapest, Domb\u00f3v\u00e1ri \u00fat 28.", "payment:cash": "yes", "payment:contactless": "yes", "payment:maestro": "yes", "payment:mastercard": "yes", "payment:mastercard_contactless": "yes", "payment:mastercard_electronic": "yes", "payment:visa": "yes", "payment:visa_electron": "yes", "ref:HU:company": "01-10-041683", "ref:HU:vatin": "10625790-4-44", "rent:lpg_bottles": "yes", "source": "website", "source:date": "2022-05-21", "truck": "no"}}, {"type": "node", "id": 1805237409, "lat": 46.398709, "lon": 17.3830292, "tags": {"amenity": "fuel", "brand": "LUKOIL", "email": "info.HU@eu.lukoil.com", "fuel:diesel": "yes", "fuel:octane_95": "yes", "mobile": "+36 30 327 1215", "name": "LUKOIL", "opening_hours": "24/7", "operator": "LUKOIL Magyarorsz\u00e1g Kft.", "payment:dkv": "yes", "shop": "yes", "website": "http://www.lukoil.hu"}}, {"type": "node", "id": 2375553311, "lat": 46.3575852, "lon": 17.7837318}, {"type": "node", "id": 2375553312, "lat": 46.3576022, "lon": 17.7839389}, {"type": "node", "id": 2375553313, "lat": 46.357609, "lon": 17.7838455}, {"type": "node", "id": 2375553314, "lat": 46.3576299, "lon": 17.7840709}, {"type": "node", "id": 2375553315, "lat": 46.3576497, "lon": 17.7838275}, {"type": "node", "id": 2375553316, "lat": 46.3576671, "lon": 17.7839103}, {"type": "node", "id": 2375553318, "lat": 46.3577384, "lon": 17.783789}, {"type": "node", "id": 2375555550, "lat": 46.3577571, "lon": 17.7838778}, {"type": "node", "id": 2375555555, "lat": 46.3577582, "lon": 17.7836555}, {"type": "node", "id": 2375555563, "lat": 46.3577822, "lon": 17.7837697}, {"type": "node", "id": 2375555569, "lat": 46.3578009, "lon": 17.7838585}, {"type": "node", "id": 2375555574, "lat": 46.3578272, "lon": 17.7839839}, {"type": "node", "id": 2384509662, "lat": 46.3887255, "lon": 17.8268921, "tags": {"amenity": "fuel", "brand": "Independent", "fuel:diesel": "yes", "fuel:e85": "yes", "fuel:octane_95": "yes", "fuel:octane_98": "yes", "opening_hours": "Mo-Fr 06:00-20:00; Sa 06:00-18:00; Su 07:00-13:00", "shop": "kiosk"}}, {"type": "node", "id": 3285913206, "lat": 46.3515817, "lon": 17.7981669}, {"type": "node", "id": 3285913208, "lat": 46.3516819, "lon": 17.7976297}, {"type": "node", "id": 3285913210, "lat": 46.3517004, "lon": 17.7982134}, {"type": "node", "id": 3285913215, "lat": 46.3518007, "lon": 17.7976762}, {"type": "node", "id": 3376359435, "lat": 46.2418923, "lon": 17.6160656, "tags": {"addr:city": "Kadark\u00fat", "addr:postcode": "7530", "addr:street": "Kaposv\u00e1ri utca", "air_conditioning": "yes", "amenity": "fuel", "brand": "MOL", "brand:wikidata": "Q549181", "brand:wikipedia": "hu:MOL Magyar Olaj- \u00e9s G\u00e1zipari Nyrt.", "compressed_air": "yes", "contact:facebook": "https://www.facebook.com/mol.magyarorszag/", "contact:instagram": "https://www.instagram.com/mol.magyarorszag/", "contact:website": "https://www.mol.hu", "contact:youtube": "https://www.youtube.com/user/molgrouptv", "food": "no", "fuel:GTL_diesel": "yes", "fuel:adblue": "no", "fuel:diesel": "yes", "fuel:lpg": "no", "fuel:octane_100": "yes", "fuel:octane_95": "yes", "name": "MOL", "opening_hours": "Apr-Sep: Mo-Fr 06:00-21:00; Sa-Su 06:00-18:00; Oct-Mar: Mo-Fr 07:00-19:00; Sa-Su 07:00-16:00", "operator": "MOL Nyrt.", "operator:addr": "1117 Budapest, Domb\u00f3v\u00e1ri \u00fat 28.", "payment:cash": "yes", "payment:contactless": "yes", "payment:maestro": "yes", "payment:mastercard": "yes", "payment:mastercard_contactless": "yes", "payment:mastercard_electronic": "yes", "payment:visa": "yes", "payment:visa_electron": "yes", "ref:HU:company": "01-10-041683", "ref:HU:vatin": "10625790-4-44", "rent:lpg_bottles": "yes", "source": "website", "source:date": "2022-05-21", "truck": "no"}}, {"type": "node", "id": 3438327983, "lat": 46.3876627, "lon": 17.5207598, "tags": {"addr:city": "Nagybajom", "addr:housenumber": "1", "addr:postcode": "7561", "addr:street": "J\u00e1k\u00f3i utca", "air_conditioning": "yes", "amenity": "fuel", "brand": "OMV", "brand:wikidata": "Q168238", "brand:wikipedia": "en:OMV", "compressed_air": "yes", "contact:email": "info.hungary@omv.com", "contact:facebook": "https://www.facebook.com/omvmagyarorszag", "contact:fax": "+36 1 381 9899", "contact:instagram": "https://www.instagram.com/omv/", "contact:linkedin": "https://www.linkedin.com/company/omv", "contact:twitter": "omv", "contact:website": "https://www.omv.hu", "contact:youtube": "https://www.youtube.com/user/omvofficial", "fuel:GTL_diesel": "yes", "fuel:diesel": "yes", "fuel:octane_100": "yes", "fuel:octane_95": "yes", "name": "OMV", "opening_hours": "Mo-Su 06:00-21:00; PH off", "opening_hours:covid19": "same", "operator": "OMV Hung\u00e1ria Kft.", "operator:addr": "1117 Budapest, Okt\u00f3ber huszonharmadika utca 6-10 5. emelet 5/A.", "payment:cash": "yes", "payment:contactless": "yes", "payment:maestro": "yes", "payment:mastercard": "yes", "payment:mastercard_contactless": "yes", "payment:mastercard_electronic": "yes", "payment:visa": "yes", "payment:visa_electron": "yes", "ref:HU:company": "01-09-071584", "ref:HU:vatin": "10542925-2-44", "ref:vatin": "HU10542925", "source": "website", "source:date": "2020-10-03"}}, {"type": "node", "id": 3438331812, "lat": 46.485601, "lon": 17.716069, "tags": {"amenity": "fuel", "source": "turistautak.hu", "source:date": "2012-10-14", "url": "http://turistautak.hu/poi.php?id=84653"}}, {"type": "node", "id": 3461967435, "lat": 46.1609, "lon": 17.8334, "tags": {"amenity": "fuel", "description": "K\u00e9tf\u00e9le \u00fczemanyagot \u00e1rulnak: 95-\u00f6st \u00e9s d\u00edzelt.", "name": "Benzink\u00fat (mag\u00e1n)", "source": "turistautak.hu", "source:date": "2015-01-12", "url": "http://turistautak.hu/poi.php?id=36347"}}, {"type": "node", "id": 3732853929, "lat": 46.3790579, "lon": 17.7801157, "tags": {"amenity": "fuel", "brand": "ENVI", "self_service": "yes"}}, {"type": "node", "id": 3764653835, "lat": 46.3548199, "lon": 17.7853954}, {"type": "node", "id": 3764653837, "lat": 46.3548672, "lon": 17.7856024}, {"type": "node", "id": 3764653841, "lat": 46.3549058, "lon": 17.7853541}, {"type": "node", "id": 3764653842, "lat": 46.3549193, "lon": 17.7854134}, {"type": "node", "id": 3764653847, "lat": 46.3549983, "lon": 17.7853755}, {"type": "node", "id": 4303339133, "lat": 46.4157929, "lon": 17.6990826, "tags": {"amenity": "fuel", "brand": "Avia", "name": "Avia"}}, {"type": "node", "id": 5305495384, "lat": 46.3631929, "lon": 17.9568948}, {"type": "node", "id": 5305495385, "lat": 46.3630655, "lon": 17.9570758}, {"type": "node", "id": 5305495386, "lat": 46.3631519, "lon": 17.9572036}, {"type": "node", "id": 5305495387, "lat": 46.3632334, "lon": 17.9570878}, {"type": "node", "id": 5305495388, "lat": 46.3632199, "lon": 17.9570678}, {"type": "node", "id": 5305495389, "lat": 46.3632658, "lon": 17.9570027}, {"type": "node", "id": 5305527062, "lat": 46.3987355, "lon": 17.3829242}, {"type": "node", "id": 5305527065, "lat": 46.3987933, "lon": 17.3828834}, {"type": "node", "id": 5305527066, "lat": 46.3987674, "lon": 17.3828065}, {"type": "node", "id": 5305527067, "lat": 46.3987184, "lon": 17.3828411}, {"type": "node", "id": 5305527068, "lat": 46.3987078, "lon": 17.3828095}, {"type": "node", "id": 5305527069, "lat": 46.3986201, "lon": 17.3828714}, {"type": "node", "id": 5305527070, "lat": 46.3986566, "lon": 17.3829799}, {"type": "node", "id": 6086129766, "lat": 46.1670053, "lon": 17.8888267, "tags": {"amenity": "fuel", "fuel:diesel": "yes", "name": "D\u00edzel", "operator": "Mecsekerd\u0151 Zrt."}}, {"type": "node", "id": 6945844012, "lat": 46.3669803, "lon": 17.7504972, "tags": {"addr:city": "Kaposv\u00e1r", "addr:postcode": "7400", "addr:street": "Kanizsai utca", "air_conditioning": "yes", "amenity": "fuel", "brand": "MOL", "brand:wikidata": "Q549181", "brand:wikipedia": "hu:MOL Magyar Olaj- \u00e9s G\u00e1zipari Nyrt.", "compressed_air": "yes", "contact:facebook": "https://www.facebook.com/mol.magyarorszag/", "contact:instagram": "https://www.instagram.com/mol.magyarorszag/", "contact:website": "https://www.mol.hu", "contact:youtube": "https://www.youtube.com/user/molgrouptv", "food": "no", "fuel:GTL_diesel": "yes", "fuel:adblue": "no", "fuel:diesel": "yes", "fuel:lpg": "yes", "fuel:octane_100": "yes", "fuel:octane_95": "yes", "name": "MOL", "opening_hours": "06:00-20:00", "operator": "MOL Nyrt.", "operator:addr": "1117 Budapest, Domb\u00f3v\u00e1ri \u00fat 28.", "payment:cash": "yes", "payment:contactless": "yes", "payment:maestro": "yes", "payment:mastercard": "yes", "payment:mastercard_contactless": "yes", "payment:mastercard_electronic": "yes", "payment:visa": "yes", "payment:visa_electron": "yes", "ref:HU:company": "01-10-041683", "ref:HU:vatin": "10625790-4-44", "rent:lpg_bottles": "yes", "source": "website", "source:date": "2022-05-21", "truck": "no"}}, {"type": "node", "id": 6952077184, "lat": 46.1622266, "lon": 17.8334926, "tags": {"addr:city": "Szentl\u00e1szl\u00f3", "addr:conscriptionnumber": "066/2", "addr:postcode": "7936", "air_conditioning": "yes", "amenity": "fuel", "brand": "MOL", "brand:wikidata": "Q549181", "brand:wikipedia": "hu:MOL Magyar Olaj- \u00e9s G\u00e1zipari Nyrt.", "compressed_air": "yes", "contact:facebook": "https://www.facebook.com/mol.magyarorszag/", "contact:instagram": "https://www.instagram.com/mol.magyarorszag/", "contact:website": "https://www.mol.hu", "contact:youtube": "https://www.youtube.com/user/molgrouptv", "food": "no", "fuel:GTL_diesel": "yes", "fuel:adblue": "no", "fuel:diesel": "yes", "fuel:lpg": "no", "fuel:octane_100": "no", "fuel:octane_95": "yes", "name": "MOL", "opening_hours": "06:00-20:00", "operator": "MOL Nyrt.", "operator:addr": "1117 Budapest, Domb\u00f3v\u00e1ri \u00fat 28.", "payment:cash": "yes", "payment:contactless": "yes", "payment:maestro": "yes", "payment:mastercard": "yes", "payment:mastercard_contactless": "yes", "payment:mastercard_electronic": "yes", "payment:visa": "yes", "payment:visa_electron": "yes", "ref:HU:company": "01-10-041683", "ref:HU:vatin": "10625790-4-44", "rent:lpg_bottles": "no", "source": "website", "source:date": "2022-05-21", "truck": "yes"}}, {"type": "node", "id": 9347719698, "lat": 46.3550035, "lon": 17.785537}, {"type": "way", "id": 122072289, "nodes": [1364896529, 1364896547, 1364896498, 1364896532, 1364896529], "tags": {"addr:city": "Kaposv\u00e1r", "addr:housenumber": "33-35", "addr:postcode": "7400", "addr:street": "\u00c1rp\u00e1d utca", "amenity": "fuel", "fuel:diesel": "yes", "fuel:octane_95": "yes", "name": "Mobil Petrol"}}, {"type": "way", "id": 122455071, "nodes": [1368337162, 1368337159, 1368337160, 1368337152, 1368337162], "tags": {"addr:city": "Kaposv\u00e1r", "addr:conscriptionnumber": "3628/28", "addr:postcode": "7400", "addr:street": "Dr. Guba S\u00e1ndor utca", "air_conditioning": "yes", "amenity": "fuel", "brand": "MOL", "brand:wikidata": "Q549181", "brand:wikipedia": "hu:MOL Magyar Olaj- \u00e9s G\u00e1zipari Nyrt.", "building": "yes", "compressed_air": "yes", "contact:facebook": "https://www.facebook.com/mol.magyarorszag/", "contact:instagram": "https://www.instagram.com/mol.magyarorszag/", "contact:website": "https://www.mol.hu", "contact:youtube": "https://www.youtube.com/user/molgrouptv", "food": "yes", "fuel:GTL_diesel": "yes", "fuel:adblue": "no", "fuel:diesel": "yes", "fuel:lpg": "yes", "fuel:octane_100": "yes", "fuel:octane_95": "yes", "name": "MOL", "operator": "MOL Nyrt.", "operator:addr": "1117 Budapest, Domb\u00f3v\u00e1ri \u00fat 28.", "payment:cash": "yes", "payment:contactless": "yes", "payment:maestro": "yes", "payment:mastercard": "yes", "payment:mastercard_contactless": "yes", "payment:mastercard_electronic": "yes", "payment:visa": "yes", "payment:visa_electron": "yes", "ref:HU:company": "01-10-041683", "ref:HU:vatin": "10625790-4-44", "rent:lpg_bottles": "yes", "source": "website", "source:date": "2022-05-21", "truck": "no"}}, {"type": "way", "id": 228898993, "nodes": [2375555574, 2375553314, 2375553312, 2375553316, 2375553315, 2375553313, 2375553311, 2375555555, 2375555563, 2375553318, 2375555550, 2375555569, 2375555574], "tags": {"amenity": "fuel", "brand": "Shell", "brand:wikidata": "Q110716465", "brand:wikipedia": "en:Royal Dutch Shell", "building": "roof", "fuel:diesel": "yes", "name": "Shell"}}, {"type": "way", "id": 321822455, "nodes": [3285913215, 3285913210, 3285913206, 3285913208, 3285913215], "tags": {"amenity": "fuel", "brand": "M\u00c1V", "building": "yes", "fuel:diesel": "yes", "railway": "no", "usage": "main"}}, {"type": "way", "id": 372911704, "nodes": [355760100, 3764653847, 3764653842, 3764653841, 3764653835, 3764653837, 9347719698, 355760100], "tags": {"addr:city": "Kaposv\u00e1r", "addr:conscriptionnumber": "113/14", "addr:postcode": "7400", "addr:street": "\u00c1chim Andr\u00e1s utca", "air_conditioning": "yes", "amenity": "fuel", "brand": "OMV", "brand:wikidata": "Q168238", "brand:wikipedia": "en:OMV", "building": "retail", "compressed_air": "yes", "contact:email": "info.hungary@omv.com", "contact:facebook": "https://www.facebook.com/omvmagyarorszag", "contact:fax": "+36 1 381 9899", "contact:instagram": "https://www.instagram.com/omv/", "contact:linkedin": "https://www.linkedin.com/company/omv", "contact:phone": "+36 82 510 715", "contact:twitter": "omv", "contact:website": "https://www.omv.hu", "contact:youtube": "https://www.youtube.com/user/omvofficial", "fuel:GTL_diesel": "yes", "fuel:diesel": "yes", "fuel:octane_100": "yes", "fuel:octane_95": "yes", "name": "OMV", "opening_hours": "24/7", "operator": "OMV Hung\u00e1ria Kft.", "operator:addr": "1117 Budapest, Okt\u00f3ber huszonharmadika utca 6-10 5. emelet 5/A.", "payment:cash": "yes", "payment:contactless": "yes", "payment:maestro": "yes", "payment:mastercard": "yes", "payment:mastercard_contactless": "yes", "payment:mastercard_electronic": "yes", "payment:visa": "yes", "payment:visa_electron": "yes", "ref:HU:company": "01-09-071584", "ref:HU:vatin": "10542925-2-44", "ref:vatin": "HU10542925", "source:www.omv.hu:date": "2020-10-03"}}, {"type": "way", "id": 549230363, "nodes": [5305495384, 5305495385, 5305495386, 5305495387, 5305495388, 5305495389, 5305495384], "tags": {"amenity": "fuel", "building": "yes"}}, {"type": "way", "id": 549233706, "nodes": [5305527065, 5305527066, 5305527067, 5305527068, 5305527069, 5305527070, 5305527062, 5305527065], "tags": {"amenity": "fuel", "building": "yes", "email": "info@normbenz.hu", "name": "Orlen", "operator": "Normbenz Magyarorsz\u00e1g Kft.", "website": "https://orlen.hu/"}}]}