{"version": 0.6, "generator": "Overpass API 0.7.59 e21c39fe", "osm3s": {"timestamp_osm_base": "2023-01-21T09:23:38Z", "copyright": "The data included in this document is from www.openstreetmap.org. The data is made available under ODbL."}, "elements": [{"type": "node", "id": 1324419131, "lat": 46.2107233, "lon": 20.4614741}, {"type": "node", "id": 1324419133, "lat": 46.2100739, "lon": 20.4615587}, {"type": "node", "id": 1324419136, "lat": 46.2102197, "lon": 20.4619529}, {"type": "node", "id": 1324419138, "lat": 46.210646, "lon": 20.4611171}, {"type": "node", "id": 1415411048, "lat": 46.3139622, "lon": 20.8169742, "tags": {"opening_hours": "Mo-Fr 06:00-19:00; Sa 06:00-12:00", "shop": "supermarket", "toilets:wheelchair": "no", "wheelchair": "yes"}}, {"type": "node", "id": 2046983204, "lat": 46.2104137, "lon": 20.4617132}, {"type": "node", "id": 2046983206, "lat": 46.2104395, "lon": 20.4617831}, {"type": "node", "id": 2046983207, "lat": 46.2106558, "lon": 20.4612916}, {"type": "node", "id": 2046983208, "lat": 46.2106984, "lon": 20.4612587}, {"type": "node", "id": 2047211060, "lat": 46.21484, "lon": 20.5017301}, {"type": "node", "id": 2047211062, "lat": 46.2148845, "lon": 20.5019367}, {"type": "node", "id": 2047211063, "lat": 46.2149131, "lon": 20.5019128}, {"type": "node", "id": 2047211065, "lat": 46.2150014, "lon": 20.502229}, {"type": "node", "id": 2047211066, "lat": 46.2150288, "lon": 20.5022061}, {"type": "node", "id": 2047211068, "lat": 46.2150842, "lon": 20.5023447}, {"type": "node", "id": 2047211070, "lat": 46.2151126, "lon": 20.5023209}, {"type": "node", "id": 2047211072, "lat": 46.2151755, "lon": 20.5024784}, {"type": "node", "id": 2047211077, "lat": 46.2154075, "lon": 20.5012562}, {"type": "node", "id": 2047211095, "lat": 46.2157158, "lon": 20.5020272}, {"type": "node", "id": 2384494927, "lat": 46.5480059, "lon": 20.648735}, {"type": "node", "id": 2384494931, "lat": 46.5478257, "lon": 20.6502863}, {"type": "node", "id": 2384494936, "lat": 46.5484456, "lon": 20.6496694}, {"type": "node", "id": 2384494938, "lat": 46.5473859, "lon": 20.6493517}, {"type": "node", "id": 2435877936, "lat": 46.4061232, "lon": 20.9201172}, {"type": "node", "id": 2435877937, "lat": 46.4057912, "lon": 20.9202527}, {"type": "node", "id": 2435877938, "lat": 46.4057627, "lon": 20.9201057}, {"type": "node", "id": 2435877939, "lat": 46.4056699, "lon": 20.9201436}, {"type": "node", "id": 2435877940, "lat": 46.4057671, "lon": 20.920455}, {"type": "node", "id": 2435877941, "lat": 46.4061919, "lon": 20.9202817}, {"type": "node", "id": 2435877944, "lat": 46.4055695, "lon": 20.9185881}, {"type": "node", "id": 2435877945, "lat": 46.4056837, "lon": 20.9189476}, {"type": "node", "id": 2435877946, "lat": 46.4051327, "lon": 20.9188766}, {"type": "node", "id": 2435877947, "lat": 46.4050605, "lon": 20.9189087}, {"type": "node", "id": 2435877948, "lat": 46.4050317, "lon": 20.9187731}, {"type": "node", "id": 2435877953, "lat": 46.4054599, "lon": 20.9190994}, {"type": "node", "id": 2435877956, "lat": 46.4051633, "lon": 20.9192265}, {"type": "node", "id": 2437051570, "lat": 46.4066966, "lon": 20.9239219, "tags": {"name": "Coop szuper", "shop": "supermarket", "toilets:wheelchair": "no", "website": "http://www.coop.hu", "wheelchair": "yes"}}, {"type": "node", "id": 2500329009, "lat": 46.219377, "lon": 20.4777216}, {"type": "node", "id": 2500329036, "lat": 46.2195292, "lon": 20.4774313}, {"type": "node", "id": 2500329042, "lat": 46.219546, "lon": 20.4774534}, {"type": "node", "id": 2500329053, "lat": 46.2195882, "lon": 20.4779994}, {"type": "node", "id": 2500329055, "lat": 46.2196054, "lon": 20.4773103}, {"type": "node", "id": 2500329066, "lat": 46.2196493, "lon": 20.4778008}, {"type": "node", "id": 2500329076, "lat": 46.2196843, "lon": 20.4778468}, {"type": "node", "id": 2500329102, "lat": 46.2197983, "lon": 20.4775642}, {"type": "node", "id": 2616083546, "lat": 46.2125348, "lon": 20.4718365}, {"type": "node", "id": 2616083547, "lat": 46.2120523, "lon": 20.4721158}, {"type": "node", "id": 2616083548, "lat": 46.2120068, "lon": 20.4719517}, {"type": "node", "id": 2616083549, "lat": 46.2120525, "lon": 20.4719252}, {"type": "node", "id": 2616083550, "lat": 46.212035, "lon": 20.4718622}, {"type": "node", "id": 2616083551, "lat": 46.2123311, "lon": 20.4716908}, {"type": "node", "id": 2616083552, "lat": 46.2123178, "lon": 20.4716426}, {"type": "node", "id": 2616083553, "lat": 46.2123923, "lon": 20.4715994}, {"type": "node", "id": 2616083554, "lat": 46.2123169, "lon": 20.4713272}, {"type": "node", "id": 2616083555, "lat": 46.2122877, "lon": 20.4713441}, {"type": "node", "id": 2616083556, "lat": 46.212263, "lon": 20.4712548}, {"type": "node", "id": 2616083557, "lat": 46.2123583, "lon": 20.4711997}, {"type": "node", "id": 2616083577, "lat": 46.2166414, "lon": 20.476432}, {"type": "node", "id": 2616083578, "lat": 46.2163641, "lon": 20.4768589}, {"type": "node", "id": 2616083579, "lat": 46.2161611, "lon": 20.4765836}, {"type": "node", "id": 2616083580, "lat": 46.2164384, "lon": 20.4761567}, {"type": "node", "id": 2706919301, "lat": 46.5402812, "lon": 20.8853972, "tags": {"name": "Nagy Coop", "opening_hours": "Mo-Fr 06:00-18:00", "payment:cash": "yes", "payment:credit_cards": "yes", "shop": "supermarket", "source": "local knowledge", "toilets:wheelchair": "no", "wheelchair": "yes"}}, {"type": "node", "id": 2727023658, "lat": 46.5543901, "lon": 20.6540879}, {"type": "node", "id": 2727023659, "lat": 46.5539982, "lon": 20.6533101}, {"type": "node", "id": 2727023660, "lat": 46.5539199, "lon": 20.6533902}, {"type": "node", "id": 2727023661, "lat": 46.5539495, "lon": 20.653458}, {"type": "node", "id": 2727023662, "lat": 46.5538118, "lon": 20.6535936}, {"type": "node", "id": 2727023663, "lat": 46.55403, "lon": 20.6540126}, {"type": "node", "id": 2727023664, "lat": 46.5539877, "lon": 20.654065}, {"type": "node", "id": 2727023665, "lat": 46.5541338, "lon": 20.6543484}, {"type": "node", "id": 2992065459, "lat": 46.1689117, "lon": 20.7468864, "tags": {"name": "MILSOR SUPERMARKET", "shop": "supermarket"}}, {"type": "node", "id": 3043741614, "lat": 46.3131229, "lon": 20.8206622, "tags": {"name": "Coop", "shop": "supermarket", "website": "http://coop.hu"}}, {"type": "node", "id": 3488445982, "lat": 46.5568083, "lon": 20.6623507}, {"type": "node", "id": 3903608391, "lat": 46.2437194, "lon": 20.7234634, "tags": {"name": "Coop", "shop": "supermarket", "toilets:wheelchair": "no", "wheelchair": "limited"}}, {"type": "node", "id": 4119300607, "lat": 46.2156541, "lon": 20.5018729}, {"type": "node", "id": 5210503190, "lat": 46.1738146, "lon": 20.7421162}, {"type": "node", "id": 5210503191, "lat": 46.1736978, "lon": 20.7421589}, {"type": "node", "id": 5210503192, "lat": 46.1736682, "lon": 20.7420187}, {"type": "node", "id": 5210503193, "lat": 46.1737935, "lon": 20.7419719}, {"type": "node", "id": 5577301386, "lat": 46.3142815, "lon": 20.8147594, "tags": {"organic": "only", "shop": "supermarket"}}, {"type": "node", "id": 5829371107, "lat": 46.5567838, "lon": 20.6621112}, {"type": "node", "id": 5829371108, "lat": 46.5563243, "lon": 20.6624543}, {"type": "node", "id": 5829371109, "lat": 46.5562534, "lon": 20.6622259}, {"type": "node", "id": 6366045699, "lat": 46.2123945, "lon": 20.4713304}, {"type": "node", "id": 6366045700, "lat": 46.2123278, "lon": 20.4713665}, {"type": "node", "id": 6366045701, "lat": 46.2124512, "lon": 20.4715347}, {"type": "node", "id": 6366045702, "lat": 46.2123851, "lon": 20.4715735}, {"type": "node", "id": 8727849211, "lat": 46.169897, "lon": 20.751168, "tags": {"contact:email": "contact@profi.ro", "contact:facebook": "https://www.facebook.com/Profi.ro", "contact:instagram": "https://www.instagram.com/profi.ro", "contact:phone": "+40 799 005 427;+40 799 005 428", "contact:website": "https://www.profi.ro/", "contact:youtube": "https://www.youtube.com/user/magazineleprofi", "name": "Profi", "opening_hours": "Mo-Sa 07:00-22:00;Su 08:00-21:00", "operator": "Profi Rom Food", "shop": "supermarket"}}, {"type": "node", "id": 9169594876, "lat": 46.2678169, "lon": 20.6097749}, {"type": "node", "id": 9169594877, "lat": 46.2677668, "lon": 20.6097749}, {"type": "node", "id": 9169594878, "lat": 46.2677668, "lon": 20.609571}, {"type": "node", "id": 9169594879, "lat": 46.2678169, "lon": 20.609571}, {"type": "node", "id": 9500892182, "lat": 46.5562698, "lon": 20.6623865}, {"type": "node", "id": 9500892183, "lat": 46.5563164, "lon": 20.6623765}, {"type": "node", "id": 9500892184, "lat": 46.556653, "lon": 20.6623832}, {"type": "node", "id": 9500892185, "lat": 46.5566581, "lon": 20.6624323}, {"type": "node", "id": 9500892186, "lat": 46.5567932, "lon": 20.6624031}, {"type": "node", "id": 9500892187, "lat": 46.5567882, "lon": 20.6623551}, {"type": "way", "id": 117590555, "nodes": [1324419131, 2046983207, 2046983208, 1324419138, 1324419133, 1324419136, 2046983206, 2046983204, 1324419131], "tags": {"addr:city": "Mak\u00f3", "brand": "Lidl", "brand:wikidata": "Q151954", "brand:wikipedia": "en:Lidl", "building": "retail", "name": "Lidl", "shop": "supermarket", "website": "https://www.lidl.hu/", "wheelchair": "yes"}}, {"type": "way", "id": 194203730, "nodes": [2047211077, 2047211060, 2047211063, 2047211062, 2047211065, 2047211066, 2047211068, 2047211070, 2047211072, 2047211095, 4119300607, 2047211077], "tags": {"addr:city": "Mak\u00f3", "addr:housenumber": "103", "addr:postcode": "6900", "addr:street": "Aradi utca", "air_conditioning": "yes", "branch": "Mak\u00f3 Hipermarket", "brand": "Tesco", "brand:wikidata": "Q487494", "brand:wikipedia": "hu:Tesco", "building": "retail", "contact:facebook": "https://www.facebook.com/tescoaruhazak", "contact:phone": "+36 20 827 0000", "contact:pinterest": "https://www.pinterest.com/tescohungary/", "contact:website": "https://tesco.hu/aruhazak/aruhaz/tesco-mako-hipermarket/", "contact:youtube": "https://www.youtube.com/user/TescoMagyarorszag", "import": "osm_poi_matchmaker", "internet_access": "wlan", "internet_access:fee": "no", "internet_access:ssid": "tesco-internet", "loyalty_card": "yes", "name": "Tesco", "opening_hours": "Mo-Sa 06:00-20:00; Su 08:00-20:00; PH off", "operator": "TESCO-GLOBAL \u00c1ruh\u00e1zak Zrt.", "operator:addr": "2040 Buda\u00f6rs, Kinizsi \u00fat 1-3.", "payment:american_express": "yes", "payment:cash": "yes", "payment:contactless": "yes", "payment:edenred_card": "yes", "payment:edenred_voucher": "yes", "payment:gift_card": "yes", "payment:jcb": "yes", "payment:maestro": "yes", "payment:mastercard": "yes", "payment:mastercard_contactless": "yes", "payment:mastercard_electronic": "yes", "payment:multipay": "yes", "payment:otp_bankpont": "yes", "payment:otp_cafeteria": "yes", "payment:unionpay": "yes", "payment:v_pay": "yes", "payment:visa": "yes", "payment:visa_electron": "yes", "payment:wire_transfer": "yes", "ref:HU:company": "13-10-040628", "ref:HU:vatin": "10307078-2-44", "ref:vatin": "HU10307078", "shop": "supermarket", "source": "website", "source:date": "2020-09-28", "source:wheelchair": "website", "toilets:wheelchair": "no", "wheelchair": "yes"}}, {"type": "way", "id": 229913877, "nodes": [2384494936, 2384494927, 2384494938, 2384494931, 2384494936], "tags": {"addr:city": "Orosh\u00e1za", "addr:housenumber": "23/A", "addr:postcode": "5900", "addr:street": "V\u00e1s\u00e1rhelyi \u00fat", "air_conditioning": "yes", "branch": "Orosh\u00e1za Hipermarket", "brand": "Tesco", "brand:wikidata": "Q487494", "brand:wikipedia": "hu:Tesco", "building": "retail", "building:levels": "1", "contact:facebook": "https://www.facebook.com/tescoaruhazak", "contact:pinterest": "https://www.pinterest.com/tescohungary/", "contact:website": "https://tesco.hu/aruhazak/aruhaz/tesco-oroshaza-hipermarket/", "contact:youtube": "https://www.youtube.com/user/TescoMagyarorszag", "import": "osm_poi_matchmaker", "internet_access": "wlan", "internet_access:fee": "no", "internet_access:ssid": "tesco-internet", "loyalty_card": "yes", "name": "Tesco", "opening_hours": "Mo-Sa 06:00-21:00; Su 07:00-20:00; PH off", "operator": "TESCO-GLOBAL \u00c1ruh\u00e1zak Zrt.", "operator:addr": "2040 Buda\u00f6rs, Kinizsi \u00fat 1-3.", "payment:american_express": "yes", "payment:cash": "yes", "payment:contactless": "yes", "payment:edenred_card": "yes", "payment:edenred_voucher": "yes", "payment:gift_card": "yes", "payment:jcb": "yes", "payment:maestro": "yes", "payment:mastercard": "yes", "payment:mastercard_contactless": "yes", "payment:mastercard_electronic": "yes", "payment:multipay": "yes", "payment:otp_bankpont": "yes", "payment:otp_cafeteria": "yes", "payment:unionpay": "yes", "payment:v_pay": "yes", "payment:visa": "yes", "payment:visa_electron": "yes", "payment:wire_transfer": "yes", "ref:HU:company": "13-10-040628", "ref:HU:vatin": "10307078-2-44", "ref:vatin": "HU10307078", "roof:levels": "0", "shop": "supermarket", "source": "website", "source:date": "2020-09-28", "source:wheelchair": "website", "wheelchair": "yes"}}, {"type": "way", "id": 235548779, "nodes": [2435877936, 2435877937, 2435877938, 2435877939, 2435877940, 2435877941, 2435877936], "tags": {"addr:city": "Mez\u0151kov\u00e1csh\u00e1za", "addr:country": "HU", "addr:housenumber": "147-149", "addr:postcode": "5800", "addr:street": "\u00c1rp\u00e1d utca", "alt_name": "Penny Market", "brand:wikidata": "Q284688", "brand:wikipedia": "en:Penny (supermarket)", "building": "retail", "building:levels": "1", "contact:website": "http://www.penny.hu", "name": "Penny", "opening_hours": "Mo-Sa 07:00-20:00; Su 07:00-18:00; PH off", "shop": "supermarket", "website": "https://www.penny.hu"}}, {"type": "way", "id": 235548781, "nodes": [2435877944, 2435877945, 2435877953, 2435877956, 2435877946, 2435877947, 2435877948, 2435877944], "tags": {"addr:city": "Mez\u0151kov\u00e1csh\u00e1za", "addr:housenumber": "135", "addr:postcode": "5800", "addr:street": "\u00c1rp\u00e1d utca", "building": "retail", "name": "Lidl", "opening_hours": "Mo-Sa 07:00-21:00; Su 07:00-18:00; PH closed", "shop": "supermarket", "website": "https://www.lidl.hu/"}}, {"type": "way", "id": 242562824, "nodes": [2500329066, 2500329076, 2500329053, 2500329009, 2500329042, 2500329036, 2500329055, 2500329102, 2500329066], "tags": {"addr:street": "Kossuth utca", "brand": "Spar", "brand:wikidata": "Q610492", "brand:wikipedia": "en:Spar (retailer)", "building": "retail", "contact:website": "http://www.spar.hu", "name": "Spar", "shop": "supermarket", "website": "http://www.spar.hu"}}, {"type": "way", "id": 255896059, "nodes": [2616083546, 2616083547, 2616083548, 2616083549, 2616083550, 2616083551, 2616083552, 2616083553, 6366045702, 6366045700, 2616083554, 2616083555, 2616083556, 2616083557, 6366045699, 6366045701, 2616083546], "tags": {"brand": "Penny", "brand:wikidata": "Q284688", "brand:wikipedia": "en:Penny (supermarket)", "building": "retail", "contact:website": "http://www.penny.hu", "name": "Penny", "shop": "supermarket", "website": "http://www.penny.hu"}}, {"type": "way", "id": 255896065, "nodes": [2616083577, 2616083578, 2616083579, 2616083580, 2616083577], "tags": {"building": "retail", "name": "Coop", "shop": "supermarket", "website": "http://coop.hu"}}, {"type": "way", "id": 267232910, "nodes": [2727023658, 2727023659, 2727023660, 2727023661, 2727023662, 2727023663, 2727023664, 2727023665, 2727023658], "tags": {"addr:housename": "Lidl \u00fczlet", "building": "retail", "building:levels": "1", "name": "Lidl", "opening_hours": "Mo-Sa 07:00-21:00; Su 07:00-19:00", "roof:levels": "1", "shop": "supermarket", "website": "https://www.lidl.hu/"}}, {"type": "way", "id": 538294051, "nodes": [5210503191, 5210503192, 5210503193, 5210503190, 5210503191], "tags": {"building": "yes", "shop": "supermarket"}}, {"type": "way", "id": 616589935, "nodes": [5829371107, 3488445982, 9500892187, 9500892186, 9500892185, 9500892184, 5829371108, 9500892183, 9500892182, 5829371109, 5829371107], "tags": {"addr:city": "Orosh\u00e1za", "addr:housenumber": "2", "addr:postcode": "5900", "addr:street": "M\u00f3ricz Zsigmond utca", "alt_name": "Penny Market", "brand": "Penny", "brand:wikidata": "Q284688", "brand:wikipedia": "en:Penny (supermarket)", "building": "retail", "building:levels": "1", "name": "Penny", "opening_hours": "Mo-Sa 06:00-21:00; Su 07:00-18:00; PH off", "shop": "supermarket", "website": "https://www.penny.hu", "wheelchair": "yes"}}, {"type": "way", "id": 992455162, "nodes": [9169594879, 9169594876, 9169594877, 9169594878, 9169594879], "tags": {"addr:city": "Kir\u00e1lyhegyes", "addr:housenumber": "2", "addr:postcode": "6911", "addr:street": "Kis utca", "building": "yes", "email": "hegyesi.elestar@gmail.com", "name": "Hegyesi \u00c9l\u00e9st\u00e1r", "operator": "De\u00e1k Szilvia", "organic": "only", "phone": "+36 20 489 6263", "shop": "supermarket", "website": "https://hegyesi-elestar4.webnode.hu/"}}]}