{"version": 0.6, "generator": "Overpass API 0.7.59 e21c39fe", "osm3s": {"timestamp_osm_base": "2023-01-21T09:24:38Z", "copyright": "The data included in this document is from www.openstreetmap.org. The data is made available under ODbL."}, "elements": [{"type": "node", "id": 293152460, "lat": 47.2493362, "lon": 17.1529329, "tags": {"brand": "Penny", "brand:wikidata": "Q284688", "brand:wikipedia": "en:Penny (supermarket)", "contact:website": "http://www.penny.hu", "name": "Penny", "shop": "supermarket", "website": "http://www.penny.hu", "wheelchair": "yes"}}, {"type": "node", "id": 293152477, "lat": 47.2533817, "lon": 17.1533888, "tags": {"brand": "Spar", "brand:wikidata": "Q610492", "brand:wikipedia": "en:Spar (retailer)", "contact:website": "http://www.spar.hu", "name": "Spar", "shop": "supermarket", "toilets:wheelchair": "no", "website": "http://www.spar.hu", "wheelchair": "yes"}}, {"type": "node", "id": 293434732, "lat": 47.2571631, "lon": 17.1545967, "tags": {"shop": "supermarket"}}, {"type": "node", "id": 293434733, "lat": 47.2569672, "lon": 17.1526613, "tags": {"name": "coop", "shop": "supermarket", "toilets:wheelchair": "no", "wheelchair": "yes"}}, {"type": "node", "id": 293434880, "lat": 47.2541, "lon": 17.1506114, "tags": {"shop": "supermarket"}}, {"type": "node", "id": 623924499, "lat": 47.2464098, "lon": 16.9569207}, {"type": "node", "id": 1862046280, "lat": 46.9799415, "lon": 17.2907705}, {"type": "node", "id": 1862046302, "lat": 46.9801189, "lon": 17.2905037}, {"type": "node", "id": 1862046311, "lat": 46.9800917, "lon": 17.2905187}, {"type": "node", "id": 1862046324, "lat": 46.9799263, "lon": 17.2907111}, {"type": "node", "id": 1862046338, "lat": 46.9801144, "lon": 17.2906076}, {"type": "node", "id": 1862046340, "lat": 46.9796192, "lon": 17.2905989}, {"type": "node", "id": 1862046342, "lat": 46.9800786, "lon": 17.2903462}, {"type": "node", "id": 1862046344, "lat": 46.9796975, "lon": 17.2909047}, {"type": "node", "id": 1862167411, "lat": 46.984991, "lon": 17.2850572}, {"type": "node", "id": 1862167413, "lat": 46.9848727, "lon": 17.2856046}, {"type": "node", "id": 1862167415, "lat": 46.9854854, "lon": 17.285409}, {"type": "node", "id": 1862167417, "lat": 46.9853775, "lon": 17.2847805}, {"type": "node", "id": 1862167419, "lat": 46.9849074, "lon": 17.2852639}, {"type": "node", "id": 1862167421, "lat": 46.985095, "lon": 17.2857569}, {"type": "node", "id": 1862167431, "lat": 46.9849419, "lon": 17.2857306}, {"type": "node", "id": 1862167450, "lat": 46.985044, "lon": 17.2850018}, {"type": "node", "id": 1862167454, "lat": 46.9851888, "lon": 17.2846065}, {"type": "node", "id": 1862167464, "lat": 46.985273, "lon": 17.2853962}, {"type": "node", "id": 1862167477, "lat": 46.9850422, "lon": 17.2858512}, {"type": "node", "id": 1862167480, "lat": 46.9847705, "lon": 17.2855087}, {"type": "node", "id": 1862167481, "lat": 46.9851633, "lon": 17.2847237}, {"type": "node", "id": 1862167489, "lat": 46.9856042, "lon": 17.2849833}, {"type": "node", "id": 1862167495, "lat": 46.98565, "lon": 17.2850255}, {"type": "node", "id": 1862167499, "lat": 46.9850808, "lon": 17.2857399}, {"type": "node", "id": 1862167506, "lat": 46.9848883, "lon": 17.2852409}, {"type": "node", "id": 1862167518, "lat": 46.9849562, "lon": 17.285705}, {"type": "node", "id": 1862167519, "lat": 46.9853515, "lon": 17.2848412}, {"type": "node", "id": 1862167534, "lat": 46.9851456, "lon": 17.2847073}, {"type": "node", "id": 1862167538, "lat": 46.9848637, "lon": 17.2856207}, {"type": "node", "id": 1862167542, "lat": 46.9855762, "lon": 17.2850485}, {"type": "node", "id": 1870380911, "lat": 47.0197307, "lon": 17.1884139}, {"type": "node", "id": 1870380912, "lat": 47.0198713, "lon": 17.1882448}, {"type": "node", "id": 1870380979, "lat": 47.0198916, "lon": 17.188318}, {"type": "node", "id": 1870381065, "lat": 47.0196906, "lon": 17.1882691}, {"type": "node", "id": 1870447175, "lat": 47.0208354, "lon": 17.1858415}, {"type": "node", "id": 1870447177, "lat": 47.020989, "lon": 17.1857172}, {"type": "node", "id": 1870447178, "lat": 47.0208987, "lon": 17.1859009}, {"type": "node", "id": 1870447195, "lat": 47.0209262, "lon": 17.1860381}, {"type": "node", "id": 1870447207, "lat": 47.0210375, "lon": 17.1857531}, {"type": "node", "id": 1870447215, "lat": 47.0208009, "lon": 17.1859205}, {"type": "node", "id": 1993115694, "lat": 47.2523953, "lon": 17.1513525}, {"type": "node", "id": 1993115701, "lat": 47.2528345, "lon": 17.1511457}, {"type": "node", "id": 1993115703, "lat": 47.2524532, "lon": 17.1517319}, {"type": "node", "id": 1993115706, "lat": 47.2529013, "lon": 17.1515834}, {"type": "node", "id": 1993115715, "lat": 47.2527484, "lon": 17.1511742}, {"type": "node", "id": 1993115716, "lat": 47.2527573, "lon": 17.1512326}, {"type": "node", "id": 2235392931, "lat": 47.2581382, "lon": 17.1515066, "tags": {"name": "coop", "shop": "supermarket"}}, {"type": "node", "id": 2333553301, "lat": 46.9422336, "lon": 17.0730347}, {"type": "node", "id": 2333553305, "lat": 46.9423509, "lon": 17.072999}, {"type": "node", "id": 2333553309, "lat": 46.9419699, "lon": 17.0725576}, {"type": "node", "id": 2333553329, "lat": 46.9422381, "lon": 17.072476}, {"type": "node", "id": 2333553333, "lat": 46.942089, "lon": 17.0730187}, {"type": "node", "id": 2333553335, "lat": 46.9420434, "lon": 17.072697}, {"type": "node", "id": 2333553337, "lat": 46.9419919, "lon": 17.0727127}, {"type": "node", "id": 2333553346, "lat": 46.9422746, "lon": 17.0727331}, {"type": "node", "id": 2333553354, "lat": 46.9423116, "lon": 17.0727218}, {"type": "node", "id": 2333553356, "lat": 46.9422255, "lon": 17.0729772}, {"type": "node", "id": 2940856538, "lat": 47.0564606, "lon": 16.80812}, {"type": "node", "id": 2940856540, "lat": 47.0565237, "lon": 16.8084808}, {"type": "node", "id": 2940856543, "lat": 47.056567, "lon": 16.8084508}, {"type": "node", "id": 2940856545, "lat": 47.0565799, "lon": 16.8086554}, {"type": "node", "id": 2940856546, "lat": 47.0567448, "lon": 16.807923}, {"type": "node", "id": 2940856548, "lat": 47.0567858, "lon": 16.8081752}, {"type": "node", "id": 2940856549, "lat": 47.0568186, "lon": 16.8081524}, {"type": "node", "id": 2940856551, "lat": 47.0568746, "lon": 16.8084511}, {"type": "node", "id": 2993859039, "lat": 47.2463963, "lon": 16.9570127}, {"type": "node", "id": 2993859041, "lat": 47.2465301, "lon": 16.9560954}, {"type": "node", "id": 2993859046, "lat": 47.2466993, "lon": 16.9561463}, {"type": "node", "id": 2993859053, "lat": 47.2470318, "lon": 16.9572026}, {"type": "node", "id": 2993859057, "lat": 47.2471589, "lon": 16.9562858}, {"type": "node", "id": 3032002301, "lat": 47.2542521, "lon": 16.9289214}, {"type": "node", "id": 3032002302, "lat": 47.2543487, "lon": 16.9282428}, {"type": "node", "id": 3032002303, "lat": 47.2545151, "lon": 16.9290026}, {"type": "node", "id": 3032002304, "lat": 47.2545593, "lon": 16.9283607}, {"type": "node", "id": 3032002305, "lat": 47.2545664, "lon": 16.92831}, {"type": "node", "id": 3032002306, "lat": 47.2545951, "lon": 16.9284403}, {"type": "node", "id": 3086034918, "lat": 47.2543343, "lon": 16.9250528}, {"type": "node", "id": 3086034920, "lat": 47.2540754, "lon": 16.9254265}, {"type": "node", "id": 3086034922, "lat": 47.2543564, "lon": 16.9252158}, {"type": "node", "id": 3086034923, "lat": 47.2543473, "lon": 16.9255684}, {"type": "node", "id": 3086034938, "lat": 47.2543071, "lon": 16.9252312}, {"type": "node", "id": 3093700700, "lat": 47.2503476, "lon": 16.940967}, {"type": "node", "id": 3093700701, "lat": 47.2503752, "lon": 16.940884}, {"type": "node", "id": 3093700702, "lat": 47.2500176, "lon": 16.9403769}, {"type": "node", "id": 3093700703, "lat": 47.2500028, "lon": 16.9406155}, {"type": "node", "id": 3093700704, "lat": 47.2500597, "lon": 16.94025}, {"type": "node", "id": 3093700705, "lat": 47.2500696, "lon": 16.9404143}, {"type": "node", "id": 3093700706, "lat": 47.2506859, "lon": 16.9407014}, {"type": "node", "id": 3093700707, "lat": 47.2505494, "lon": 16.9411124}, {"type": "node", "id": 3295505102, "lat": 47.0493379, "lon": 16.7998354, "tags": {"name": "Coop", "shop": "supermarket", "toilets:wheelchair": "limited", "website": "http://coop.hu", "wheelchair": "yes"}}, {"type": "node", "id": 4420807752, "lat": 47.090606, "lon": 16.795785, "tags": {"name": "Coop mini", "shop": "supermarket", "toilets:wheelchair": "limited", "wheelchair": "yes"}}, {"type": "node", "id": 4933471975, "lat": 47.0209749, "lon": 17.1859265, "tags": {"name": "Vadr\u00f3zsa \u00dczleth\u00e1z", "shop": "convenience"}}, {"type": "node", "id": 4940557818, "lat": 46.9897367, "lon": 16.8383156, "tags": {"name": "Coop Abc", "shop": "supermarket", "toilets:wheelchair": "no", "wheelchair": "limited"}}, {"type": "node", "id": 4958449106, "lat": 47.2471376, "lon": 16.9564407}, {"type": "node", "id": 4958449109, "lat": 47.2471039, "lon": 16.9566859}, {"type": "node", "id": 4958449110, "lat": 47.247059, "lon": 16.9570077}, {"type": "node", "id": 4958449113, "lat": 47.2470385, "lon": 16.9571453}, {"type": "node", "id": 4993171175, "lat": 47.2464828, "lon": 16.9564195}, {"type": "node", "id": 5002887656, "lat": 47.2465076, "lon": 16.9562497}, {"type": "node", "id": 5016703011, "lat": 47.2471015, "lon": 16.9567032}, {"type": "node", "id": 5156676403, "lat": 47.2541263, "lon": 16.9256319}, {"type": "node", "id": 5160492695, "lat": 47.254121, "lon": 16.9255899}, {"type": "node", "id": 5160492696, "lat": 47.2541255, "lon": 16.9256249}, {"type": "node", "id": 5160492698, "lat": 47.2540961, "lon": 16.9255968}, {"type": "node", "id": 5160493844, "lat": 47.2540994, "lon": 16.9254201}, {"type": "node", "id": 5160493846, "lat": 47.2540647, "lon": 16.925131}, {"type": "node", "id": 5184559045, "lat": 47.0198324, "lon": 17.188268}, {"type": "node", "id": 5184559046, "lat": 47.0198125, "lon": 17.1881964}, {"type": "node", "id": 5185453186, "lat": 47.0306295, "lon": 17.1678728}, {"type": "node", "id": 5185453187, "lat": 47.0305487, "lon": 17.1678663}, {"type": "node", "id": 5185453188, "lat": 47.0305514, "lon": 17.167793}, {"type": "node", "id": 5185453189, "lat": 47.0305166, "lon": 17.167795}, {"type": "node", "id": 5185453190, "lat": 47.0305192, "lon": 17.1676932}, {"type": "node", "id": 5185453191, "lat": 47.0306357, "lon": 17.1677057}, {"type": "node", "id": 10111332181, "lat": 47.25724, "lon": 16.93812, "tags": {"addr:city": "S\u00e1rv\u00e1r", "addr:housenumber": "14", "addr:postcode": "9600", "addr:street": "De\u00e1k Ferenc utca", "air_conditioning": "yes", "brand": "Aldi", "brand:wikidata": "Q125054", "brand:wikipedia": "hu:Aldi", "contact:facebook": "https://www.facebook.com/ALDI.Magyarorszag", "contact:instagram": "https://www.instagram.com/aldi.magyarorszag", "contact:phone": "+36 80 088 264", "contact:website": "https://www.aldi.hu", "contact:youtube": "https://www.youtube.com/user/ALDIMagyarorszag", "fixme": "Ellen\u0151rizni a megl\u00e9t\u00e9t \u00e9s a pontos hely\u00e9re tenni;Check its existence and put it in the right place", "name": "Aldi", "opening_hours": "Mo-Sa 07:00-20:00; Su 07:00-19:00; PH off", "operator": "ALDI Magyarorsz\u00e1g \u00c9lelmiszer Bt.", "operator:addr": "2051 Biatorb\u00e1gy, M\u00e9sz\u00e1rosok \u00fatja 2.", "payment:cash": "yes", "payment:contactless": "yes", "payment:maestro": "yes", "payment:mastercard": "yes", "payment:mastercard_contactless": "yes", "payment:mastercard_electronic": "yes", "payment:visa": "yes", "payment:visa_electron": "yes", "ref:HU:company": "13-06-058506", "ref:HU:vatin": "22234663-2-44", "ref:vatin": "HU22234663", "shop": "supermarket", "source": "import;website", "source:date": "2022-10-14"}}, {"type": "way", "id": 175642009, "nodes": [1862046344, 1862046340, 1862046342, 1862046302, 1862046311, 1862046338, 1862046324, 1862046280, 1862046344], "tags": {"addr:city": "S\u00fcmeg", "addr:conscriptionnumber": "1623/10", "addr:postcode": "8330", "addr:street": "84-es f\u0151\u00fat", "brand": "Spar", "brand:wikidata": "Q610492", "brand:wikipedia": "en:SPAR (retailer)", "building": "retail", "name": "Spar", "opening_hours": "Mo-Fr 06:30-20:00; Sa 07:00-17:00; Su 07:00-13:00", "shop": "supermarket", "toilets:wheelchair": "no", "wheelchair": "yes"}}, {"type": "way", "id": 175650667, "nodes": [1862167450, 1862167481, 1862167534, 1862167454, 1862167417, 1862167519, 1862167542, 1862167489, 1862167495, 1862167415, 1862167450], "tags": {"brand": "Lidl", "brand:wikidata": "Q151954", "brand:wikipedia": "en:Lidl", "building": "yes", "disused:shop": "supermarket", "name": "Lidl", "old_name": "LIDL", "shop": "supermarket"}}, {"type": "way", "id": 175650669, "nodes": [1862167480, 1862167419, 1862167506, 1862167411, 1862167464, 1862167499, 1862167421, 1862167477, 1862167431, 1862167518, 1862167413, 1862167538, 1862167480], "tags": {"addr:city": "S\u00fcmeg", "addr:housenumber": "2", "addr:postcode": "8330", "addr:street": "Baglyassz\u00e9l utca", "air_conditioning": "yes", "branch": "S\u00fcmeg Szupermarket", "brand": "Tesco", "brand:wikidata": "Q487494", "brand:wikipedia": "en:Tesco", "building": "retail", "contact:facebook": "https://www.facebook.com/tescoaruhazak", "contact:pinterest": "https://www.pinterest.com/tescohungary/", "contact:website": "https://tesco.hu/aruhazak/aruhaz/tesco-sumeg-szupermarket/", "contact:youtube": "https://www.youtube.com/user/TescoMagyarorszag", "import": "osm_poi_matchmaker", "internet_access": "wlan", "internet_access:fee": "no", "internet_access:ssid": "tesco-internet", "loyalty_card": "yes", "name": "Tesco", "opening_hours": "Mo-Sa 06:00-21:00; Su 07:00-18:00; PH off", "operator": "TESCO-GLOBAL \u00c1ruh\u00e1zak Zrt.", "operator:addr": "2040 Buda\u00f6rs, Kinizsi \u00fat 1-3.", "payment:american_express": "yes", "payment:cash": "yes", "payment:contactless": "yes", "payment:edenred_card": "yes", "payment:edenred_voucher": "yes", "payment:gift_card": "yes", "payment:jcb": "yes", "payment:maestro": "yes", "payment:mastercard": "yes", "payment:mastercard_contactless": "yes", "payment:mastercard_electronic": "yes", "payment:multipay": "yes", "payment:otp_bankpont": "yes", "payment:otp_cafeteria": "yes", "payment:unionpay": "yes", "payment:v_pay": "yes", "payment:visa": "yes", "payment:visa_electron": "yes", "payment:wire_transfer": "yes", "ref:HU:company": "13-10-040628", "ref:HU:vatin": "10307078-2-44", "ref:vatin": "HU10307078", "shop": "supermarket", "source": "website", "source:date": "2020-09-28", "source:wheelchair": "website", "toilets:wheelchair": "no", "wheelchair": "yes"}}, {"type": "way", "id": 176528657, "nodes": [1870380911, 1870381065, 5184559046, 5184559045, 1870380912, 1870380979, 1870380911], "tags": {"addr:city": "G\u00f3g\u00e1nfa", "addr:housenumber": "4", "addr:postcode": "8346", "addr:street": "Vas\u00fat utca", "building": "retail", "name": "Coop Mini", "operator": "Sarvaly Zrt.", "shop": "supermarket"}}, {"type": "way", "id": 176538372, "nodes": [1870447215, 1870447175, 1870447178, 1870447177, 1870447207, 4933471975, 1870447195, 1870447215], "tags": {"addr:city": "G\u00f3g\u00e1nfa", "addr:housenumber": "62", "addr:postcode": "8346", "addr:street": "De\u00e1k Ferenc utca", "building": "retail", "name": "VADR\u00d3ZSA \u00dcZLETH\u00c1Z", "shop": "supermarket"}}, {"type": "way", "id": 188689765, "nodes": [1993115706, 1993115701, 1993115715, 1993115716, 1993115694, 1993115703, 1993115706], "tags": {"addr:city": "Celld\u00f6m\u00f6lk", "addr:housenumber": "41", "addr:postcode": "9500", "addr:street": "S\u00e1gi utca", "air_conditioning": "yes", "branch": "Celld\u00f6m\u00f6lk Szupermarket", "brand": "Tesco", "brand:wikidata": "Q487494", "brand:wikipedia": "hu:Tesco", "building": "retail", "contact:facebook": "https://www.facebook.com/tescoaruhazak", "contact:pinterest": "https://www.pinterest.com/tescohungary/", "contact:website": "https://tesco.hu/aruhazak/aruhaz/tesco-celldomolk-szupermarket/", "contact:youtube": "https://www.youtube.com/user/TescoMagyarorszag", "import": "osm_poi_matchmaker", "internet_access": "wlan", "internet_access:fee": "no", "internet_access:ssid": "tesco-internet", "loyalty_card": "yes", "name": "Tesco", "opening_hours": "Mo-Sa 06:00-21:00; Su 07:00-18:00; PH off", "operator": "TESCO-GLOBAL \u00c1ruh\u00e1zak Zrt.", "operator:addr": "2040 Buda\u00f6rs, Kinizsi \u00fat 1-3.", "payment:american_express": "yes", "payment:cash": "yes", "payment:contactless": "yes", "payment:edenred_card": "yes", "payment:edenred_voucher": "yes", "payment:gift_card": "yes", "payment:jcb": "yes", "payment:maestro": "yes", "payment:mastercard": "yes", "payment:mastercard_contactless": "yes", "payment:mastercard_electronic": "yes", "payment:multipay": "yes", "payment:otp_bankpont": "yes", "payment:otp_cafeteria": "yes", "payment:unionpay": "yes", "payment:v_pay": "yes", "payment:visa": "yes", "payment:visa_electron": "yes", "payment:wire_transfer": "yes", "ref:HU:company": "13-10-040628", "ref:HU:vatin": "10307078-2-44", "ref:vatin": "HU10307078", "shop": "supermarket", "source": "website", "source:date": "2020-09-28", "source:wheelchair": "website", "toilets:wheelchair": "limited", "wheelchair": "yes"}}, {"type": "way", "id": 224531215, "nodes": [2333553333, 2333553335, 2333553337, 2333553309, 2333553329, 2333553346, 2333553354, 2333553305, 2333553301, 2333553356, 2333553333], "tags": {"addr:city": "Zalaszentgr\u00f3t", "addr:housenumber": "2/A", "addr:postcode": "8790", "addr:street": "Batthy\u00e1ny Lajos utca", "alt_name": "Penny Market", "brand:wikidata": "Q284688", "brand:wikipedia": "en:Penny (supermarket)", "building": "retail", "contact:website": "http://www.penny.hu", "name": "Penny", "opening_hours": "Mo-Sa 07:00-20:00; Su 07:00-18:00; PH off", "shop": "supermarket", "website": "http://www.penny.hu"}}, {"type": "way", "id": 290570766, "nodes": [2940856546, 2940856538, 2940856543, 2940856540, 2940856545, 2940856551, 2940856548, 2940856549, 2940856546], "tags": {"addr:city": "Vasv\u00e1r", "addr:housenumber": "95", "addr:postcode": "9800", "addr:street": "Alkotm\u00e1ny utca", "building": "retail", "contact:website": "http://www.spar.hu", "name": "SPAR", "shop": "supermarket", "toilets:wheelchair": "limited", "website": "http://www.spar.hu", "wheelchair": "yes"}}, {"type": "way", "id": 295648546, "nodes": [2993859041, 5002887656, 4993171175, 623924499, 2993859039, 2993859053, 4958449113, 4958449110, 5016703011, 4958449109, 4958449106, 2993859057, 2993859046, 2993859041], "tags": {"wheelchair": "yes"}}, {"type": "way", "id": 299227331, "nodes": [3032002302, 3032002305, 3032002304, 3032002306, 3032002303, 3032002301, 3032002302], "tags": {"brand": "Spar", "building": "retail", "contact:website": "http://www.spar.hu", "name": "SPAR", "shop": "supermarket", "website": "http://www.spar.hu", "wheelchair": "yes"}}, {"type": "way", "id": 304085028, "nodes": [5160492698, 3086034920, 5160493844, 5160493846, 3086034918, 3086034922, 3086034938, 3086034923, 5156676403, 5160492696, 5160492695, 5160492698], "tags": {"alt_name": "Penny Market", "brand:wikidata": "Q284688", "brand:wikipedia": "en:Penny (supermarket)", "building": "retail", "contact:website": "http://www.penny.hu", "name": "Penny", "opening_hours": "Mo-Sa 06:00-20:00; Su 07:00-18:00; PH off", "shop": "supermarket", "website": "http://www.penny.hu"}}, {"type": "way", "id": 304770561, "nodes": [3093700703, 3093700705, 3093700702, 3093700704, 3093700706, 3093700707, 3093700700, 3093700701, 3093700703], "tags": {"addr:city": "S\u00e1rv\u00e1r", "addr:housenumber": "12", "addr:postcode": "9600", "addr:street": "R\u00e1k\u00f3czi Ferenc \u00fat", "building": "retail", "name": "Lidl", "shop": "supermarket", "website": "https://www.lidl.hu/", "wheelchair": "yes"}}, {"type": "way", "id": 534770934, "nodes": [5185453186, 5185453187, 5185453188, 5185453189, 5185453190, 5185453191, 5185453186], "tags": {"addr:city": "Dabronc", "addr:housenumber": "51", "addr:postcode": "8345", "addr:street": "Kossuth Lajos utca", "building": "retail", "name": "Mini Market", "shop": "supermarket"}}, {"type": "relation", "id": 7419051, "members": [{"type": "way", "ref": 295648546, "role": "outer"}], "tags": {"addr:city": "S\u00e1rv\u00e1r", "addr:housenumber": "83", "addr:postcode": "9600", "addr:street": "R\u00e1k\u00f3czi Ferenc \u00fat", "air_conditioning": "yes", "branch": "S\u00e1rv\u00e1r Hipermarket", "brand": "Tesco", "brand:wikidata": "Q487494", "brand:wikipedia": "hu:Tesco", "building": "retail;yes;warehouse", "contact:pinterest": "https://www.pinterest.com/tescohungary/", "facebook": "https://www.facebook.com/tescoaruhazak", "import": "osm_poi_matchmaker", "internet_access": "wlan", "internet_access:fee": "no", "internet_access:ssid": "tesco-internet", "loyalty_card": "yes", "man_made": "water_tower", "name": "Tesco", "opening_hours": "Mo-Sa 06:00-22:00; Su 07:00-20:00; PH off", "operator": "TESCO-GLOBAL \u00c1ruh\u00e1zak Zrt.", "operator:addr": "2040 Buda\u00f6rs, Kinizsi \u00fat 1-3.", "payment:american_express": "yes", "payment:cash": "yes", "payment:contactless": "yes", "payment:edenred_card": "yes", "payment:edenred_voucher": "yes", "payment:gift_card": "yes", "payment:jcb": "yes", "payment:maestro": "yes", "payment:mastercard": "yes", "payment:mastercard_contactless": "yes", "payment:mastercard_electronic": "yes", "payment:multipay": "yes", "payment:otp_bankpont": "yes", "payment:otp_cafeteria": "yes", "payment:unionpay": "yes", "payment:v_pay": "yes", "payment:visa": "yes", "payment:visa_electron": "yes", "payment:wire_transfer": "yes", "ref:HU:company": "13-10-040628", "ref:HU:vatin": "10307078-2-44", "ref:vatin": "HU10307078", "shop": "supermarket", "source": "website", "source:date": "2018-11-13", "source:wheelchair": "website", "toilets:wheelchair": "yes", "type": "multipolygon", "website": "https://tesco.hu/aruhazak/aruhaz/tesco-sarvar-hipermarket/", "wheelchair": "yes", "youtube": "https://www.youtube.com/user/TescoMagyarorszag"}}]}