{"version": 0.6, "generator": "Overpass API 0.7.59 e21c39fe", "osm3s": {"timestamp_osm_base": "2023-01-17T15:18:24Z", "copyright": "The data included in this document is from www.openstreetmap.org. The data is made available under ODbL."}, "elements": [{"type": "node", "id": 1800727226, "lat": 47.4534761, "lon": 17.117497, "tags": {"amenity": "pub"}}, {"type": "node", "id": 1820835007, "lat": 47.4335485, "lon": 17.1135357, "tags": {"amenity": "pub", "name": "F\u00e9nyes vend\u00e9gl\u0151"}}, {"type": "node", "id": 1905812272, "lat": 47.3322123, "lon": 17.0448251}, {"type": "node", "id": 1905812328, "lat": 47.3322124, "lon": 17.0447631}, {"type": "node", "id": 1905812332, "lat": 47.33201, "lon": 17.0447618}, {"type": "node", "id": 1905812391, "lat": 47.3317348, "lon": 17.0446757}, {"type": "node", "id": 1905812395, "lat": 47.3320102, "lon": 17.0446775}, {"type": "node", "id": 1905812453, "lat": 47.3317344, "lon": 17.0448221}, {"type": "node", "id": 2266828863, "lat": 47.6894543, "lon": 17.2514229, "tags": {"amenity": "pub", "name": "Horv\u00e1th-kert Pressz\u00f3"}}, {"type": "node", "id": 2313014379, "lat": 47.6191857, "lon": 16.8639991, "tags": {"amenity": "pub", "name": "Haydn S\u00f6r\u00f6z\u0151"}}, {"type": "node", "id": 2320987706, "lat": 47.622893, "lon": 16.8714076}, {"type": "node", "id": 2320987708, "lat": 47.6232019, "lon": 16.8713554}, {"type": "node", "id": 2320987709, "lat": 47.6232159, "lon": 16.8715375}, {"type": "node", "id": 2320987711, "lat": 47.622907, "lon": 16.8715896}, {"type": "node", "id": 2822181912, "lat": 47.5920942, "lon": 17.026339, "tags": {"amenity": "pub", "cuisine": "italian_pizza", "name": "Shop-Stop"}}, {"type": "node", "id": 2822564194, "lat": 47.6052624, "lon": 17.0270364, "tags": {"amenity": "pub"}}, {"type": "node", "id": 2837221553, "lat": 47.6075137, "lon": 17.2491784, "tags": {"amenity": "pub", "name": "Poncihter Boroz\u00f3"}}, {"type": "node", "id": 2895070176, "lat": 47.3100181, "lon": 16.8322571, "tags": {"addr:city": "Szeleste", "addr:country": "HU", "addr:housenumber": "54", "addr:postcode": "9622", "addr:street": "Berzsenyi D\u00e1niel utca", "amenity": "pub", "name": "Anita pressz\u00f3", "toilets:wheelchair": "no", "wheelchair": "no"}}, {"type": "node", "id": 2942558984, "lat": 47.3119875, "lon": 16.8311207}, {"type": "node", "id": 2942558985, "lat": 47.3120177, "lon": 16.8312961}, {"type": "node", "id": 2942558986, "lat": 47.3120319, "lon": 16.8310373}, {"type": "node", "id": 2942558987, "lat": 47.3120427, "lon": 16.8311}, {"type": "node", "id": 2942558988, "lat": 47.312086, "lon": 16.8310171}, {"type": "node", "id": 2942558989, "lat": 47.312127, "lon": 16.8312552}, {"type": "node", "id": 3087959181, "lat": 47.5940079, "lon": 17.0229861, "tags": {"amenity": "pub"}}, {"type": "node", "id": 3354868730, "lat": 47.412623, "lon": 17.128115, "tags": {"amenity": "pub", "name": "Belv\u00e1rosi Szam\u00e1rist\u00e1ll\u00f3", "source": "turistautak.hu", "url": "http://turistautak.hu/poi.php?id=121062"}}, {"type": "node", "id": 3355520731, "lat": 47.460073, "lon": 17.099328, "tags": {"amenity": "pub", "name": "S\u00f6r\u00f6z\u0151", "source": "turistautak.hu", "url": "http://turistautak.hu/poi.php?id=150220"}}, {"type": "node", "id": 3355567987, "lat": 47.4561455, "lon": 17.0314275, "tags": {"amenity": "pub", "name": "Boroz\u00f3", "source": "turistautak.hu", "url": "http://turistautak.hu/poi.php?id=123638"}}, {"type": "node", "id": 3355567992, "lat": 47.4572714, "lon": 17.0300505, "tags": {"amenity": "pub", "fixme": "which building?", "name": "S\u00f6r\u00f6z\u0151", "source": "turistautak.hu", "url": "http://turistautak.hu/poi.php?id=123637"}}, {"type": "node", "id": 3439644189, "lat": 47.4277024, "lon": 16.9752274, "tags": {"amenity": "pub", "name": "Italbolt", "source": "turistautak.hu", "source:date": "2013-05-11", "url": "http://turistautak.hu/poi.php?id=153347"}}, {"type": "node", "id": 3439644190, "lat": 47.594367, "lon": 17.1218674, "tags": {"amenity": "pub", "name": "Italbolt", "source": "turistautak.hu", "source:date": "2014-01-22", "url": "http://turistautak.hu/poi.php?id=165128"}}, {"type": "node", "id": 3439644707, "lat": 47.46619, "lon": 17.095205, "tags": {"amenity": "pub", "source": "turistautak.hu", "source:date": "2011-07-14", "toilets:wheelchair": "no", "url": "http://turistautak.hu/poi.php?id=121298", "wheelchair": "yes"}}, {"type": "node", "id": 3439644725, "lat": 47.601192, "lon": 17.0837828, "tags": {"addr:city": "Veszk\u00e9ny", "addr:housenumber": "1", "addr:postcode": "9352", "addr:street": "F\u0151 utca", "amenity": "pub", "source": "turistautak.hu", "source:date": "2011-07-30", "url": "http://turistautak.hu/poi.php?id=122437"}}, {"type": "node", "id": 3439644729, "lat": 47.6347002, "lon": 17.077224, "tags": {"amenity": "pub", "source": "turistautak.hu", "source:date": "2011-02-20", "url": "http://turistautak.hu/poi.php?id=105205"}}, {"type": "node", "id": 3439644730, "lat": 47.6404791, "lon": 17.0746342, "tags": {"amenity": "pub", "source": "turistautak.hu", "source:date": "2011-02-20", "url": "http://turistautak.hu/poi.php?id=105202"}}, {"type": "node", "id": 3446525386, "lat": 47.3881264, "lon": 16.7514714}, {"type": "node", "id": 3446525389, "lat": 47.3881816, "lon": 16.7513233}, {"type": "node", "id": 3446525390, "lat": 47.3882412, "lon": 16.7514193}, {"type": "node", "id": 3446525391, "lat": 47.3882548, "lon": 16.7513829}, {"type": "node", "id": 3446525392, "lat": 47.3882817, "lon": 16.7515978}, {"type": "node", "id": 3446527893, "lat": 47.3883234, "lon": 16.7514862}, {"type": "node", "id": 3465143464, "lat": 47.380234, "lon": 16.757241, "tags": {"amenity": "pub", "name": "Matr\u00f3z kocsma", "source": "turistautak.hu", "source:date": "2011-09-06", "url": "http://turistautak.hu/poi.php?id=103168"}}, {"type": "node", "id": 3466247665, "lat": 47.446092, "lon": 16.904539, "tags": {"amenity": "pub", "source": "turistautak.hu", "source:date": "2011-05-04", "toilets:wheelchair": "no", "url": "http://turistautak.hu/poi.php?id=116927", "wheelchair": "no"}}, {"type": "node", "id": 3466247671, "lat": 47.456833, "lon": 16.679667, "tags": {"amenity": "pub", "source": "turistautak.hu", "source:date": "2011-09-06", "url": "http://turistautak.hu/poi.php?id=39372"}}, {"type": "node", "id": 3466247678, "lat": 47.469585, "lon": 16.762642, "tags": {"amenity": "pub", "source": "turistautak.hu", "source:date": "2011-08-25", "url": "http://turistautak.hu/poi.php?id=123617"}}, {"type": "node", "id": 3466253906, "lat": 47.482206, "lon": 16.739233, "tags": {"amenity": "pub", "name": "boroz\u00f3", "url": "http://turistautak.hu/poi.php?id=123631"}}, {"type": "node", "id": 3466253920, "lat": 47.677226, "lon": 16.945781, "tags": {"amenity": "pub", "name": "K\u00e1v\u00e9z\u00f3", "source": "turistautak.hu", "source:date": "2011-04-14", "url": "http://turistautak.hu/poi.php?id=80212"}}, {"type": "node", "id": 3466255396, "lat": 47.497777, "lon": 16.7643686, "tags": {"amenity": "pub", "source": "turistautak.hu", "source:date": "2011-08-25", "url": "http://turistautak.hu/poi.php?id=123629"}}, {"type": "node", "id": 3466255399, "lat": 47.50138, "lon": 16.78774, "tags": {"amenity": "pub", "source": "turistautak.hu", "source:date": "2011-08-25", "url": "http://turistautak.hu/poi.php?id=123624"}}, {"type": "node", "id": 3466255432, "lat": 47.6036135, "lon": 16.6917798, "tags": {"amenity": "pub", "name": "Brummer", "source": "turistautak.hu", "source:date": "2012-03-09", "url": "http://turistautak.hu/poi.php?id=42983"}}, {"type": "node", "id": 3466255440, "lat": 47.6165767, "lon": 16.8331169, "tags": {"amenity": "pub", "source": "turistautak.hu", "source:date": "2010-12-05", "url": "http://turistautak.hu/poi.php?id=9130"}}, {"type": "node", "id": 3466299252, "lat": 47.5871724, "lon": 17.0386046, "tags": {"amenity": "pub", "name": "C\u00e9z\u00e1r", "source": "turistautak.hu", "source:date": "2011-02-20", "url": "http://turistautak.hu/poi.php?id=105208"}}, {"type": "node", "id": 3469861462, "lat": 47.3201731, "lon": 16.8276297, "tags": {"amenity": "pub", "name": "Golf s\u00f6r\u00f6z\u0151", "source": "turistautak.hu", "source:date": "2011-09-06", "url": "http://turistautak.hu/poi.php?id=91963"}}, {"type": "node", "id": 3474960290, "lat": 47.323701, "lon": 16.734512, "tags": {"amenity": "pub", "name": "Kocsma/fagylaltoz\u00f3", "source": "turistautak.hu", "source:date": "2011-09-06", "url": "http://turistautak.hu/poi.php?id=103158"}}, {"type": "node", "id": 3488488295, "lat": 47.5582666, "lon": 17.1859611, "tags": {"amenity": "pub", "name": "Italbolt", "source": "turistautak.hu", "source:date": "2014-01-22", "url": "http://turistautak.hu/poi.php?id=165140"}}, {"type": "node", "id": 3488488302, "lat": 47.520579, "lon": 17.16498, "tags": {"amenity": "pub", "name": "Pressz\u00f3", "source": "turistautak.hu", "source:date": "2014-01-29", "toilets:wheelchair": "no", "url": "http://turistautak.hu/poi.php?id=165299", "wheelchair": "no"}}, {"type": "node", "id": 3885716746, "lat": 47.6098436, "lon": 16.9395604, "tags": {"amenity": "pub", "smoking": "outside"}}, {"type": "node", "id": 4441464489, "lat": 47.7001055, "lon": 16.9077672, "tags": {"amenity": "pub", "name": "Heuriger SEV\u00dc", "name:de": "Heuriger SEV\u00dc"}}, {"type": "node", "id": 4933469610, "lat": 47.328258, "lon": 17.2681324, "tags": {"amenity": "pub", "fixme": "verify", "name": "Di\u00f3fa Italbolt", "source": "route4u", "toilets:wheelchair": "no", "wheelchair": "no"}}, {"type": "node", "id": 4933469611, "lat": 47.328963, "lon": 17.2084065, "tags": {"amenity": "pub", "fixme": "verify", "name": "T. Sz. Iroda", "source": "route4u"}}, {"type": "node", "id": 4933473867, "lat": 47.3783806, "lon": 17.2850999, "tags": {"amenity": "pub", "fixme": "verify", "name": "R\u00f3zsa S\u00f6r\u00f6z\u0151", "source": "route4u", "toilets:wheelchair": "no", "wheelchair": "no"}}, {"type": "node", "id": 4933473874, "lat": 47.3794465, "lon": 16.7851719, "tags": {"amenity": "pub", "fixme": "verify", "name": "Spa", "source": "route4u", "toilets:wheelchair": "yes", "wheelchair": "yes"}}, {"type": "node", "id": 4933473878, "lat": 47.3808416, "lon": 16.7856229, "tags": {"amenity": "pub", "fixme": "verify", "name": "Forr\u00e1s-H", "source": "route4u", "toilets:wheelchair": "yes", "wheelchair": "yes"}}, {"type": "node", "id": 4933474066, "lat": 47.3670886, "lon": 16.8172275, "tags": {"amenity": "pub", "fixme": "verify", "name": "Badacsony Boroz\u00f3", "source": "route4u", "toilets:wheelchair": "no", "wheelchair": "no"}}, {"type": "node", "id": 4933474268, "lat": 47.3846035, "lon": 16.754075, "tags": {"amenity": "pub", "name": "M\u00e1ty\u00e1s S\u00f6r\u00f6z\u0151", "source": "route4u", "toilets:wheelchair": "no", "wheelchair": "no"}}, {"type": "node", "id": 4933474289, "lat": 47.3975114, "lon": 16.7056649, "tags": {"amenity": "pub", "name": "Remete Kerthelyis\u00e9g", "outdoor_seating": "garden", "toilets:wheelchair": "no", "wheelchair": "yes"}}, {"type": "node", "id": 4933474298, "lat": 47.399036, "lon": 16.7089039, "tags": {"amenity": "pub", "fixme": "verify", "name": "Als\u00f3 Kocsma", "source": "route4u", "toilets:wheelchair": "no", "wheelchair": "no"}}, {"type": "node", "id": 4933474437, "lat": 47.4076682, "lon": 16.7062908, "tags": {"amenity": "pub", "fixme": "verify", "name": "Horv\u00e1th Kert", "source": "route4u", "toilets:wheelchair": "no", "wheelchair": "yes"}}, {"type": "node", "id": 4933474476, "lat": 47.4236648, "lon": 17.2313199, "tags": {"amenity": "pub", "fixme": "verify", "name": "Italbolt", "source": "route4u", "toilets:wheelchair": "no", "wheelchair": "no"}}, {"type": "node", "id": 4933475593, "lat": 47.6039209, "lon": 17.2445946, "tags": {"amenity": "pub", "name": "K\u00e9t L\u00e9pcs\u0151s"}}, {"type": "node", "id": 4933475596, "lat": 47.6046324, "lon": 17.2540816, "tags": {"amenity": "pub", "name": "So\u00f3s Italbolt"}}, {"type": "node", "id": 4939178746, "lat": 47.6480951, "lon": 16.6669045, "tags": {"amenity": "pub", "fixme": "verify", "name": "Floiger H\u00e1z", "source": "route4u"}}, {"type": "node", "id": 4939279579, "lat": 47.3770991, "lon": 17.2864483, "tags": {"amenity": "pub", "fixme": "verify", "name": "188. sz. Italbolt", "source": "route4u", "toilets:wheelchair": "no", "wheelchair": "no"}}, {"type": "node", "id": 4940534639, "lat": 47.3767145, "lon": 16.7725036, "tags": {"amenity": "pub", "fixme": "verify", "name": "Bambusz B\u00e1r", "source": "route4u", "toilets:wheelchair": "no", "wheelchair": "yes"}}, {"type": "node", "id": 4940559465, "lat": 47.617214, "lon": 17.2557852, "tags": {"amenity": "pub", "name": "Bermuda S\u00f6r\u00f6z\u0151"}}, {"type": "node", "id": 4940559571, "lat": 47.3882067, "lon": 16.7451663, "tags": {"amenity": "pub", "fixme": "verify", "name": "Hauer Boroz\u00f3", "source": "route4u", "toilets:wheelchair": "no", "wheelchair": "no"}}, {"type": "node", "id": 4986415524, "lat": 47.4988739, "lon": 17.2333082, "tags": {"amenity": "pub", "name": "Link\u00f3 Bisztr\u00f3", "name:hu": "Link\u00f3 Bisztr\u00f3"}}, {"type": "node", "id": 5017523645, "lat": 47.6084977, "lon": 17.2273451, "tags": {"amenity": "pub", "name": "Kopi b\u00fcf\u00e9"}}, {"type": "node", "id": 5079727431, "lat": 47.3881928, "lon": 16.7451464}, {"type": "node", "id": 6254346051, "lat": 47.4558354, "lon": 16.7774212, "tags": {"amenity": "pub", "name": "4 sz Italbolt", "source": "route4u"}}, {"type": "node", "id": 6254346054, "lat": 47.4456964, "lon": 16.9208711, "tags": {"amenity": "pub", "name": "Kiskocsma", "source": "route4u"}}, {"type": "node", "id": 6254346057, "lat": 47.485897, "lon": 16.9029919, "tags": {"amenity": "pub", "name": "20 sz Italbolt", "source": "route4u"}}, {"type": "node", "id": 6254346059, "lat": 47.5162856, "lon": 16.9232445, "tags": {"amenity": "pub", "name": "Magyar Tenger Boroz\u00f3", "source": "route4u"}}, {"type": "node", "id": 6254346060, "lat": 47.5168905, "lon": 16.9232923, "tags": {"amenity": "pub", "name": "Birka Cs\u00e1rda", "source": "route4u"}}, {"type": "node", "id": 6254346064, "lat": 47.5947617, "lon": 16.7297749, "tags": {"amenity": "pub", "name": "s\u00f6r\u00f6z\u0151"}}, {"type": "node", "id": 6255883805, "lat": 47.520291, "lon": 17.0106607, "tags": {"amenity": "pub", "name": "Pajti Boroz\u00f3"}}, {"type": "node", "id": 6255883815, "lat": 47.680289, "lon": 17.1946992, "tags": {"amenity": "pub", "name": "Sarokh\u00e1z Boroz\u00f3", "source": "route4u"}}, {"type": "node", "id": 7142765973, "lat": 47.5368914, "lon": 17.2080767, "tags": {"amenity": "pub", "name": "italbolt"}}, {"type": "node", "id": 8350128701, "lat": 47.6188046, "lon": 16.7926375, "tags": {"amenity": "pub", "name": "Sport b\u00fcf\u00e9"}}, {"type": "node", "id": 8350169771, "lat": 47.6154322, "lon": 16.8040148, "tags": {"amenity": "pub", "name": "Zsuga b\u00fcf\u00e9"}}, {"type": "node", "id": 8350178257, "lat": 47.6220032, "lon": 16.7950432, "tags": {"amenity": "pub", "name": "T\u00f3 vend\u00e9gl\u0151"}}, {"type": "node", "id": 8489012304, "lat": 47.5987651, "lon": 17.0869793, "tags": {"addr:city": "Veszk\u00e9ny", "addr:housenumber": "41", "addr:postcode": "9352", "addr:street": "F\u0151 utca", "amenity": "pub", "name": "Z\u00f6ld Angyal s\u00f6r\u00f6z\u0151"}}, {"type": "node", "id": 9135795402, "lat": 47.6006539, "lon": 16.7411854, "tags": {"amenity": "pub"}}, {"type": "node", "id": 9426156346, "lat": 47.6097186, "lon": 16.9396331}, {"type": "node", "id": 9426156347, "lat": 47.6097683, "lon": 16.9397335}, {"type": "node", "id": 9426156348, "lat": 47.6098651, "lon": 16.939628}, {"type": "node", "id": 9426156349, "lat": 47.6099766, "lon": 16.9398533}, {"type": "node", "id": 9426156350, "lat": 47.6100227, "lon": 16.939803}, {"type": "node", "id": 9426156351, "lat": 47.6098615, "lon": 16.9394775}, {"type": "node", "id": 9460594214, "lat": 47.5876321, "lon": 16.9855278, "tags": {"amenity": "pub", "name": "F\u00e9nyes kiskocsma"}}, {"type": "node", "id": 10159691654, "lat": 47.3882139, "lon": 16.7451928}, {"type": "node", "id": 10159691655, "lat": 47.3882806, "lon": 16.7450562}, {"type": "node", "id": 10159691656, "lat": 47.3882539, "lon": 16.7450265}, {"type": "node", "id": 10159691657, "lat": 47.3881854, "lon": 16.7451628}, {"type": "way", "id": 180151208, "nodes": [1905812453, 1905812391, 1905812395, 1905812332, 1905812328, 1905812272, 1905812453], "tags": {"amenity": "pub", "building": "yes"}}, {"type": "way", "id": 223171877, "nodes": [2320987708, 2320987709, 2320987711, 2320987706, 2320987708], "tags": {"addr:city": "Fert\u0151d", "addr:housenumber": "3/A", "addr:postcode": "9431", "addr:street": "Joseph Haydn \u00fat", "amenity": "pub", "building": "yes", "name": "Sport s\u00f6r\u00f6z\u0151", "toilets:wheelchair": "no", "wheelchair": "no"}}, {"type": "way", "id": 290754690, "nodes": [2942558988, 2942558986, 2942558987, 2942558984, 2942558985, 2942558989, 2942558988], "tags": {"amenity": "pub", "building": "yes", "name": "M\u00e1t\u00e9 vend\u00e9gl\u0151", "toilets:wheelchair": "no", "wheelchair": "no"}}, {"type": "way", "id": 337586917, "nodes": [3446525386, 3446525392, 3446527893, 3446525390, 3446525391, 3446525389, 3446525386], "tags": {"addr:city": "B\u00fck", "addr:housenumber": "19", "addr:postcode": "9737", "addr:street": "Vas\u00fat utca", "amenity": "pub", "name": "Resti Kocsma"}}, {"type": "way", "id": 1022030973, "nodes": [9426156346, 9426156347, 9426156348, 9426156349, 9426156350, 9426156351, 9426156346], "tags": {"addr:city": "Agyagosszerg\u00e9ny", "addr:housenumber": "3", "addr:postcode": "9441", "addr:street": "Sz\u00e9chenyi utca", "amenity": "pub", "building": "yes"}}, {"type": "way", "id": 1110561299, "nodes": [5079727431, 10159691657, 10159691654, 10159691655, 10159691656, 5079727431], "tags": {"amenity": "pub", "building": "yes"}}]}