{"version": 0.6, "generator": "Overpass API 0.7.59 e21c39fe", "osm3s": {"timestamp_osm_base": "2023-01-17T15:18:24Z", "copyright": "The data included in this document is from www.openstreetmap.org. The data is made available under ODbL."}, "elements": [{"type": "node", "id": 1267982140, "lat": 46.940972, "lon": 16.2459137, "tags": {"addr:city": "Szentgotth\u00e1rd", "addr:housenumber": "2", "addr:postcode": "9970", "addr:street": "Templom k\u00f6z", "amenity": "pub", "name": "H\u00e1rsfa kocsma"}}, {"type": "node", "id": 1345928211, "lat": 47.2382752, "lon": 16.4606674, "tags": {"amenity": "pub", "name": "D\u00fch\u00f6s t\u00fccs\u00f6k"}}, {"type": "node", "id": 1345928221, "lat": 47.2178956, "lon": 16.4423105, "tags": {"amenity": "pub"}}, {"type": "node", "id": 1719420696, "lat": 47.2850418, "lon": 16.5962117, "tags": {"addr:city": "Gencsap\u00e1ti", "amenity": "pub", "name": "B\u00e1zis pressz\u00f3", "shop": "alcohol"}}, {"type": "node", "id": 1943997382, "lat": 47.2407782, "lon": 16.5811152, "tags": {"addr:city": "Szombathely", "addr:housenumber": "4", "addr:postcode": "9700", "addr:street": "Ernuszt Kelemen utca", "amenity": "pub", "name": "Black Cab Pub", "website": "http://www.blackcab.hu"}}, {"type": "node", "id": 1944013382, "lat": 47.2398861, "lon": 16.5873564, "tags": {"addr:postcode": "9700", "addr:street": "M\u00e1rton \u00c1ron utca", "amenity": "pub", "name": "Kil\u00e1t\u00f3 Szomjolt\u00f3", "opening_hours": "Mo-Su 13:00-23:00", "wifi": "no"}}, {"type": "node", "id": 2161439563, "lat": 47.0097568, "lon": 16.5885332}, {"type": "node", "id": 2161439584, "lat": 47.0096636, "lon": 16.5886536}, {"type": "node", "id": 2161439594, "lat": 47.0097546, "lon": 16.5884611}, {"type": "node", "id": 2161439606, "lat": 47.0098326, "lon": 16.5886427}, {"type": "node", "id": 2161439656, "lat": 47.0098292, "lon": 16.5885286}, {"type": "node", "id": 2161439717, "lat": 47.009658, "lon": 16.5884673}, {"type": "node", "id": 2164118057, "lat": 47.001793, "lon": 16.5541342}, {"type": "node", "id": 2164118058, "lat": 47.0018288, "lon": 16.5545003}, {"type": "node", "id": 2164118135, "lat": 47.0017346, "lon": 16.5545201}, {"type": "node", "id": 2164118212, "lat": 47.0016988, "lon": 16.554154}, {"type": "node", "id": 2238371617, "lat": 47.0911796, "lon": 16.6207764, "tags": {"amenity": "pub"}}, {"type": "node", "id": 2306745065, "lat": 47.2377627, "lon": 16.6312335, "tags": {"amenity": "pub", "name": "Snapi eszpressz\u00f3", "toilets:wheelchair": "limited", "wheelchair": "limited"}}, {"type": "node", "id": 2334356464, "lat": 47.0079468, "lon": 16.5988484, "tags": {"amenity": "pub", "name": "Winchester S\u00f6r\u00f6z\u0151"}}, {"type": "node", "id": 2381509675, "lat": 47.2465865, "lon": 16.610768}, {"type": "node", "id": 2381509679, "lat": 47.2465269, "lon": 16.6105744}, {"type": "node", "id": 2381509691, "lat": 47.2464456, "lon": 16.6106451}, {"type": "node", "id": 2381509692, "lat": 47.2465186, "lon": 16.6108272}, {"type": "node", "id": 2381509715, "lat": 47.2465537, "lon": 16.6106861}, {"type": "node", "id": 2381509728, "lat": 47.2465671, "lon": 16.6106745}, {"type": "node", "id": 2381565867, "lat": 47.2463465, "lon": 16.6101488}, {"type": "node", "id": 2381565869, "lat": 47.2463759, "lon": 16.6101923}, {"type": "node", "id": 2381565878, "lat": 47.2462925, "lon": 16.6099155}, {"type": "node", "id": 2381565884, "lat": 47.2463507, "lon": 16.6098775}, {"type": "node", "id": 2381565890, "lat": 47.2463121, "lon": 16.6101713}, {"type": "node", "id": 2381565909, "lat": 47.2464828, "lon": 16.6103163}, {"type": "node", "id": 2381565911, "lat": 47.2463766, "lon": 16.6103856}, {"type": "node", "id": 2381565926, "lat": 47.2463623, "lon": 16.6102012}, {"type": "node", "id": 2383075521, "lat": 47.2292539, "lon": 16.610272}, {"type": "node", "id": 2383075527, "lat": 47.2293131, "lon": 16.6100779}, {"type": "node", "id": 2383075545, "lat": 47.2293519, "lon": 16.6102093}, {"type": "node", "id": 2383207008, "lat": 47.1416168, "lon": 16.5811188, "tags": {"amenity": "pub", "name": "503-as \u00e9tterem"}}, {"type": "node", "id": 2383322146, "lat": 47.2292034, "lon": 16.609545}, {"type": "node", "id": 2383322161, "lat": 47.2291361, "lon": 16.6095854}, {"type": "node", "id": 2383322164, "lat": 47.2291998, "lon": 16.6098161}, {"type": "node", "id": 2383322177, "lat": 47.2291611, "lon": 16.6098393}, {"type": "node", "id": 2383322178, "lat": 47.2293098, "lon": 16.6099298}, {"type": "node", "id": 2383620256, "lat": 47.2399073, "lon": 16.6260331}, {"type": "node", "id": 2383620261, "lat": 47.2398059, "lon": 16.6259833}, {"type": "node", "id": 2383620263, "lat": 47.2397769, "lon": 16.6261116}, {"type": "node", "id": 2383620267, "lat": 47.2398782, "lon": 16.6261614}, {"type": "node", "id": 2385568539, "lat": 47.2156359, "lon": 16.6353213}, {"type": "node", "id": 2385568544, "lat": 47.2157208, "lon": 16.6353353}, {"type": "node", "id": 2385568581, "lat": 47.2156845, "lon": 16.6352661}, {"type": "node", "id": 2385568601, "lat": 47.2156721, "lon": 16.6353905}, {"type": "node", "id": 2386686435, "lat": 47.2299244, "lon": 16.6287565}, {"type": "node", "id": 2386686445, "lat": 47.2299835, "lon": 16.628841}, {"type": "node", "id": 2386686451, "lat": 47.2299171, "lon": 16.6289417}, {"type": "node", "id": 2386686465, "lat": 47.229858, "lon": 16.6288572}, {"type": "node", "id": 2387802105, "lat": 47.2306194, "lon": 16.6288893}, {"type": "node", "id": 2387802108, "lat": 47.2305715, "lon": 16.6287564}, {"type": "node", "id": 2387802139, "lat": 47.2305121, "lon": 16.6289731}, {"type": "node", "id": 2387802141, "lat": 47.2304643, "lon": 16.6288401}, {"type": "node", "id": 2387837138, "lat": 47.2392377, "lon": 16.6303017}, {"type": "node", "id": 2387837150, "lat": 47.2391813, "lon": 16.6300847}, {"type": "node", "id": 2387837157, "lat": 47.2390135, "lon": 16.6304279}, {"type": "node", "id": 2387837168, "lat": 47.2389572, "lon": 16.630211}, {"type": "node", "id": 2390627365, "lat": 47.2412461, "lon": 16.594827}, {"type": "node", "id": 2390627368, "lat": 47.2413386, "lon": 16.5950795}, {"type": "node", "id": 2390627373, "lat": 47.241268, "lon": 16.595091}, {"type": "node", "id": 2390627378, "lat": 47.2411749, "lon": 16.5948386}, {"type": "node", "id": 2390627379, "lat": 47.2411949, "lon": 16.5951035}, {"type": "node", "id": 2390627380, "lat": 47.2413187, "lon": 16.5948154}, {"type": "node", "id": 2390627381, "lat": 47.2412481, "lon": 16.5948269}, {"type": "node", "id": 2390627382, "lat": 47.2412661, "lon": 16.5950919}, {"type": "node", "id": 2394112756, "lat": 47.2071906, "lon": 16.6486814, "tags": {"amenity": "pub", "name": "Harangl\u00e1b S\u00f6r\u00f6z\u0151", "wheelchair": "no"}}, {"type": "node", "id": 2420709917, "lat": 47.2394137, "lon": 16.631046, "tags": {"amenity": "pub", "name": "Fortuna"}}, {"type": "node", "id": 2420714388, "lat": 47.2361907, "lon": 16.6319233, "tags": {"amenity": "pub", "name": "Mosoly", "toilets:wheelchair": "limited", "wheelchair": "limited"}}, {"type": "node", "id": 2420721309, "lat": 47.2371919, "lon": 16.6324358, "tags": {"amenity": "pub", "name": "Resti"}}, {"type": "node", "id": 2461023200, "lat": 46.9530824, "lon": 16.2727711, "tags": {"addr:city": "Szentgotth\u00e1rd", "addr:housenumber": "3", "addr:postcode": "9970", "addr:street": "De\u00e1k Ferenc utca", "amenity": "pub", "name": "Club 912", "opening_hours": "We, Th 16:00-23:00; Fr, Sa 16:00-02:00; Su 17:00-23:00", "phone": "+36 94 445 599"}}, {"type": "node", "id": 2461380107, "lat": 46.9503042, "lon": 16.2875139, "tags": {"amenity": "pub", "name": "Adu \u00c1sz"}}, {"type": "node", "id": 2923891304, "lat": 47.240521, "lon": 16.4519699}, {"type": "node", "id": 2923891305, "lat": 47.2405291, "lon": 16.4518817}, {"type": "node", "id": 2923891306, "lat": 47.2406893, "lon": 16.4520037}, {"type": "node", "id": 2923891307, "lat": 47.2406975, "lon": 16.4519155}, {"type": "node", "id": 2940135324, "lat": 47.0513436, "lon": 16.5508478}, {"type": "node", "id": 2940135325, "lat": 47.0513569, "lon": 16.5507733}, {"type": "node", "id": 2940135326, "lat": 47.0513618, "lon": 16.5510265}, {"type": "node", "id": 2940135327, "lat": 47.0513641, "lon": 16.5508434}, {"type": "node", "id": 2940135330, "lat": 47.0514293, "lon": 16.5507575}, {"type": "node", "id": 2940135332, "lat": 47.0514546, "lon": 16.5510062}, {"type": "node", "id": 2940334889, "lat": 47.065931, "lon": 16.5532813}, {"type": "node", "id": 2940334890, "lat": 47.0659745, "lon": 16.5531478}, {"type": "node", "id": 2940334891, "lat": 47.0659866, "lon": 16.5533204}, {"type": "node", "id": 2940334894, "lat": 47.0660301, "lon": 16.5531869}, {"type": "node", "id": 2974816094, "lat": 47.2103822, "lon": 16.6004608, "tags": {"amenity": "pub", "name": "Kir\u00e1ly Sportpressz\u00f3"}}, {"type": "node", "id": 2986694637, "lat": 47.1370941, "lon": 16.6762735}, {"type": "node", "id": 2986694639, "lat": 47.1371291, "lon": 16.6765752}, {"type": "node", "id": 2986694649, "lat": 47.1372834, "lon": 16.676226}, {"type": "node", "id": 2986694651, "lat": 47.1373184, "lon": 16.6765277}, {"type": "node", "id": 3029731185, "lat": 47.2825649, "lon": 16.6521929, "tags": {"amenity": "pub", "name": "Falatoz\u00f3"}}, {"type": "node", "id": 3048002684, "lat": 47.2314626, "lon": 16.6213937, "tags": {"amenity": "pub", "name": "Royal S\u00f6r\u00f6z\u0151"}}, {"type": "node", "id": 3048530310, "lat": 47.2339985, "lon": 16.624431, "tags": {"amenity": "pub", "name": "Jobb mint otthon eszpressz\u00f3", "toilets:wheelchair": "no", "wheelchair": "no"}}, {"type": "node", "id": 3050900268, "lat": 47.0946901, "lon": 16.4789578, "tags": {"amenity": "pub", "name": "Pinka S\u00f6r\u00f6z\u0151", "opening_hours": "Mo-Th 07:00-22:00; Fr-Sa 07:00-02:00; Su 08:00-22:00", "toilets:wheelchair": "yes", "wheelchair": "yes"}}, {"type": "node", "id": 3051065773, "lat": 47.1408877, "lon": 16.5770046, "tags": {"amenity": "pub", "name": "Kaktusz Kocsma"}}, {"type": "node", "id": 3113341604, "lat": 47.2816184, "lon": 16.5986507, "tags": {"addr:city": "Gencsap\u00e1ti", "amenity": "pub", "name": "Bakonyi Kocsma", "toilets:wheelchair": "no", "wheelchair": "no"}}, {"type": "node", "id": 3161050432, "lat": 47.2604298, "lon": 16.6016341, "tags": {"addr:city": "Szombathely", "addr:housenumber": "197", "addr:postcode": "9707", "addr:street": "Szent Imre herceg \u00fatja", "addr:suburb": "Her\u00e9ny", "amenity": "pub", "name": "Boci Bet\u00e9r\u0151"}}, {"type": "node", "id": 3183545843, "lat": 47.2192258, "lon": 16.6203753, "tags": {"amenity": "pub", "name": "KISZ Kocsma"}}, {"type": "node", "id": 3183545845, "lat": 47.2194176, "lon": 16.6201265, "tags": {"amenity": "pub"}}, {"type": "node", "id": 3190600495, "lat": 47.2357971, "lon": 16.5999373}, {"type": "node", "id": 3190600496, "lat": 47.2357977, "lon": 16.5995909}, {"type": "node", "id": 3190600500, "lat": 47.2359595, "lon": 16.5999379}, {"type": "node", "id": 3190600502, "lat": 47.2359602, "lon": 16.5995915}, {"type": "node", "id": 3194457737, "lat": 47.0145836, "lon": 16.6055954, "tags": {"amenity": "pub", "name": "Csopaki boroz\u00f3"}}, {"type": "node", "id": 3197612583, "lat": 47.0440447, "lon": 16.6792132, "tags": {"amenity": "pub", "name": "Hubertus Pressz\u00f3"}}, {"type": "node", "id": 3213342375, "lat": 47.2459953, "lon": 16.579175, "tags": {"amenity": "pub", "name": "Villa Savaria"}}, {"type": "node", "id": 3246594138, "lat": 47.2266975, "lon": 16.6242194, "tags": {"amenity": "pub", "name": "Fila pressz\u00f3"}}, {"type": "node", "id": 3246594139, "lat": 47.2334119, "lon": 16.6249518, "tags": {"amenity": "pub", "name": "Gy\u00f6ngy\u00f6s S\u00f6r\u00f6z\u0151"}}, {"type": "node", "id": 3251982261, "lat": 47.2321652, "lon": 16.6225691, "tags": {"amenity": "pub", "name": "Pistons pub"}}, {"type": "node", "id": 3256320521, "lat": 47.2082125, "lon": 16.639686, "tags": {"amenity": "pub", "name": "Hangulat boroz\u00f3", "wheelchair": "no"}}, {"type": "node", "id": 3256403931, "lat": 47.2345817, "lon": 16.6232723, "tags": {"addr:city": "Szombathely", "addr:housenumber": "6", "addr:postcode": "9700", "addr:street": "Malom utca", "amenity": "pub", "name": "Malom s\u00f6r\u00f6z\u0151", "website": "http://malompub.hu/"}}, {"type": "node", "id": 3307642767, "lat": 47.2265215, "lon": 16.6321761, "tags": {"amenity": "pub", "name": "Hajnal pressz\u00f3"}}, {"type": "node", "id": 3325932308, "lat": 46.998497, "lon": 16.5117, "tags": {"amenity": "pub", "fixme": "resurvey", "name": "Simon s\u00f6r\u00f6z\u0151", "source": "turistautak.hu", "url": "http://turistautak.hu/poi.php?id=29142"}}, {"type": "node", "id": 3404463762, "lat": 47.0930527, "lon": 16.6805926, "tags": {"amenity": "pub", "name": "\u00c1szok s\u00f6r\u00f6z\u0151"}}, {"type": "node", "id": 3432013629, "lat": 47.288813, "lon": 16.577963, "tags": {"amenity": "pub", "name": "Kondor kocsma"}}, {"type": "node", "id": 3459862924, "lat": 47.0068416, "lon": 16.5419109, "tags": {"amenity": "pub", "name": "Italbolt", "source": "turistautak.hu", "source:date": "2011-09-06", "url": "http://turistautak.hu/poi.php?id=72786"}}, {"type": "node", "id": 3459862945, "lat": 47.056359, "lon": 16.69808, "tags": {"amenity": "pub", "source": "turistautak.hu", "source:date": "2014-01-04", "url": "http://turistautak.hu/poi.php?id=164579"}}, {"type": "node", "id": 3459862946, "lat": 47.025647, "lon": 16.563563, "tags": {"amenity": "pub", "opening_hours": "Mo-Su 07:00-09:00,17:00-22:00", "source": "turistautak.hu", "source:date": "2011-09-06", "url": "http://turistautak.hu/poi.php?id=102121"}}, {"type": "node", "id": 3459862947, "lat": 47.038872, "lon": 16.482065, "tags": {"amenity": "pub", "name": "Kocsma", "source": "turistautak.hu", "source:date": "2011-09-06", "url": "http://turistautak.hu/poi.php?id=51816"}}, {"type": "node", "id": 3459863186, "lat": 47.014694, "lon": 16.526623, "tags": {"amenity": "pub", "fixme": "position", "source": "turistautak.hu", "source:date": "2011-09-06", "url": "http://turistautak.hu/poi.php?id=102113"}}, {"type": "node", "id": 3459863217, "lat": 47.058813, "lon": 16.689732, "tags": {"amenity": "pub", "source": "turistautak.hu", "source:date": "2014-01-04", "url": "http://turistautak.hu/poi.php?id=164581"}}, {"type": "node", "id": 3465188386, "lat": 46.944709, "lon": 16.260631, "tags": {"amenity": "pub", "name": "H\u00e9th\u00e1z s\u00f6r\u00f6z\u0151 - ABC", "outdoor_seating": "yes", "source": "turistautak.hu", "source:date": "2012-08-07", "url": "http://turistautak.hu/poi.php?id=142942"}}, {"type": "node", "id": 3465190193, "lat": 46.927202, "lon": 16.202542, "tags": {"amenity": "pub", "name": "Kocsma (6-21)", "source": "turistautak.hu", "source:date": "2010-03-30", "url": "http://turistautak.hu/poi.php?id=51688"}}, {"type": "node", "id": 3465190194, "lat": 46.880516, "lon": 16.22459, "tags": {"amenity": "pub", "name": "Kocsma \u00e9s vegyesbolt", "source": "turistautak.hu", "source:date": "2012-12-10", "url": "http://turistautak.hu/poi.php?id=142923"}}, {"type": "node", "id": 3465190196, "lat": 46.924753, "lon": 16.227365, "tags": {"amenity": "pub", "name": "Kurta kocsma", "source": "turistautak.hu", "source:date": "2012-08-07", "url": "http://turistautak.hu/poi.php?id=103781"}}, {"type": "node", "id": 3465190318, "lat": 46.8767488, "lon": 16.1657883}, {"type": "node", "id": 3465190341, "lat": 46.88561, "lon": 16.184447, "tags": {"amenity": "pub", "source": "turistautak.hu", "source:date": "2012-12-10", "url": "http://turistautak.hu/poi.php?id=34093"}}, {"type": "node", "id": 3465190371, "lat": 46.8967201, "lon": 16.2550498, "tags": {"amenity": "pub", "source": "turistautak.hu", "source:date": "2010-03-30", "url": "http://turistautak.hu/poi.php?id=10798"}}, {"type": "node", "id": 3465190381, "lat": 46.9028101, "lon": 16.315493, "tags": {"amenity": "pub", "name": "Blazsi Koccint\u00f3", "opening_hours": "09:00-21:00", "source": "turistautak.hu", "source:date": "2010-08-31", "url": "http://turistautak.hu/poi.php?id=100850"}}, {"type": "node", "id": 3465190525, "lat": 46.941085, "lon": 16.283093, "tags": {"amenity": "pub", "source": "turistautak.hu", "source:date": "2010-03-30", "url": "http://turistautak.hu/poi.php?id=34101"}}, {"type": "node", "id": 3465190526, "lat": 46.94175, "lon": 16.422356, "tags": {"amenity": "pub", "source": "turistautak.hu", "source:date": "2013-12-14", "url": "http://turistautak.hu/poi.php?id=163929"}}, {"type": "node", "id": 3465190530, "lat": 46.9433263, "lon": 16.4205065, "tags": {"amenity": "pub", "source": "turistautak.hu", "source:date": "2011-04-07", "url": "http://turistautak.hu/poi.php?id=115258"}}, {"type": "node", "id": 3465190535, "lat": 46.944456, "lon": 16.317401, "tags": {"amenity": "pub", "source": "turistautak.hu", "source:date": "2010-03-30", "url": "http://turistautak.hu/poi.php?id=64540"}}, {"type": "node", "id": 3465190550, "lat": 46.963547, "lon": 16.449444, "tags": {"amenity": "pub", "source": "turistautak.hu", "source:date": "2010-09-20", "url": "http://turistautak.hu/poi.php?id=101980"}}, {"type": "node", "id": 3465190555, "lat": 46.966416, "lon": 16.43189, "tags": {"amenity": "pub", "source": "turistautak.hu", "source:date": "2010-09-20", "url": "http://turistautak.hu/poi.php?id=101974"}}, {"type": "node", "id": 3465190558, "lat": 46.9700425, "lon": 16.4094297, "tags": {"addr:city": "Vasszentmih\u00e1ly", "amenity": "pub", "name": "Italbolt", "source": "turistautak.hu", "source:date": "2010-03-30", "url": "http://turistautak.hu/poi.php?id=51740"}}, {"type": "node", "id": 3471869140, "lat": 47.202833, "lon": 16.660733, "tags": {"amenity": "pub", "name": "Azur pressz\u00f3", "source": "turistautak.hu", "source:date": "2011-09-06", "url": "http://turistautak.hu/poi.php?id=16681"}}, {"type": "node", "id": 3471878016, "lat": 47.2282688, "lon": 16.6201461, "tags": {"addr:city": "Szombathely", "addr:housenumber": "4", "addr:postcode": "9700", "addr:street": "Th\u00f6k\u00f6ly Imre utca", "amenity": "pub", "name": "S\u00f6rpatika", "source": "turistautak.hu", "source:date": "2011-09-06", "toilets:wheelchair": "no", "url": "http://turistautak.hu/poi.php?id=109667", "wheelchair": "no"}}, {"type": "node", "id": 3471878017, "lat": 47.2071595, "lon": 16.6773342, "tags": {"amenity": "pub", "name": "Tek\u00e9z\u0151", "source": "turistautak.hu", "source:date": "2011-09-06", "url": "http://turistautak.hu/poi.php?id=16676"}}, {"type": "node", "id": 3471878029, "lat": 47.206268, "lon": 16.6639, "tags": {"amenity": "pub", "name": "Zarkah\u00e1zi Boroz\u00f3", "source": "turistautak.hu", "source:date": "2011-09-06", "url": "http://turistautak.hu/poi.php?id=16678"}}, {"type": "node", "id": 3471878068, "lat": 47.2511908, "lon": 16.680711, "tags": {"amenity": "pub", "source": "turistautak.hu", "source:date": "2014-02-14", "url": "http://turistautak.hu/poi.php?id=165728"}}, {"type": "node", "id": 3474960286, "lat": 47.201986, "lon": 16.691515, "tags": {"amenity": "pub", "name": "Italkim\u00e9r\u0151", "source": "turistautak.hu", "source:date": "2011-09-06", "url": "http://turistautak.hu/poi.php?id=103096"}}, {"type": "node", "id": 3474961394, "lat": 47.278047, "lon": 16.598257, "tags": {"amenity": "pub", "source": "turistautak.hu", "source:date": "2013-08-26", "url": "http://turistautak.hu/poi.php?id=49405"}}, {"type": "node", "id": 3588303794, "lat": 47.2289903, "lon": 16.6197041, "tags": {"amenity": "pub", "name": "K\u00e9t Medve S\u00f6r\u00f6z\u0151"}}, {"type": "node", "id": 3680823295, "lat": 46.896196, "lon": 16.3934246}, {"type": "node", "id": 3680823296, "lat": 46.8962417, "lon": 16.3935513}, {"type": "node", "id": 3680823301, "lat": 46.8963406, "lon": 16.393313}, {"type": "node", "id": 3680823305, "lat": 46.8963863, "lon": 16.3934397}, {"type": "node", "id": 3685234805, "lat": 47.229688, "lon": 16.6190043, "tags": {"amenity": "pub", "name": "Mini Cocktail \u00e9s Tapas Bar", "website": "https://hovamenjek.hu/szombathely/mini-cocktail-es-tapas-bar"}}, {"type": "node", "id": 3687296602, "lat": 46.8768487, "lon": 16.165793}, {"type": "node", "id": 3687296603, "lat": 46.8769173, "lon": 16.1659656}, {"type": "node", "id": 3687296604, "lat": 46.8770693, "lon": 16.1656528}, {"type": "node", "id": 3687296605, "lat": 46.8770991, "lon": 16.165753}, {"type": "node", "id": 3687296606, "lat": 46.8768317, "lon": 16.1657357}, {"type": "node", "id": 3687296607, "lat": 46.8768931, "lon": 16.1658839}, {"type": "node", "id": 3687296608, "lat": 46.8771712, "lon": 16.1659646}, {"type": "node", "id": 3687296609, "lat": 46.8771311, "lon": 16.1658297}, {"type": "node", "id": 3687296610, "lat": 46.8768599, "lon": 16.1661624}, {"type": "node", "id": 3701116752, "lat": 47.2418993, "lon": 16.6125694, "tags": {"addr:city": "Szombathely", "addr:postcode": "9700", "addr:street": "Sz\u0171rcsap\u00f3 utca", "amenity": "pub", "name": "Anita pressz\u00f3", "wheelchair": "no"}}, {"type": "node", "id": 3884790126, "lat": 46.9534174, "lon": 16.2719105}, {"type": "node", "id": 3884790127, "lat": 46.953287, "lon": 16.2719254}, {"type": "node", "id": 3884790128, "lat": 46.9532791, "lon": 16.2717777}, {"type": "node", "id": 3884790129, "lat": 46.9534095, "lon": 16.2717627}, {"type": "node", "id": 4293251348, "lat": 46.9380604, "lon": 16.4971592}, {"type": "node", "id": 4293251350, "lat": 46.9380733, "lon": 16.4969456}, {"type": "node", "id": 4293251351, "lat": 46.9380958, "lon": 16.4969485}, {"type": "node", "id": 4293251352, "lat": 46.9380999, "lon": 16.4968799}, {"type": "node", "id": 4293251355, "lat": 46.9381617, "lon": 16.4971723}, {"type": "node", "id": 4293251356, "lat": 46.9381645, "lon": 16.4969548}, {"type": "node", "id": 4293251357, "lat": 46.9381685, "lon": 16.4968888}, {"type": "node", "id": 4293251358, "lat": 46.9381747, "lon": 16.4969561}, {"type": "node", "id": 4298961267, "lat": 46.953351, "lon": 16.2717695}, {"type": "node", "id": 4625471020, "lat": 46.9713543, "lon": 16.5637496}, {"type": "node", "id": 4625471021, "lat": 46.9714752, "lon": 16.5638302}, {"type": "node", "id": 4625471022, "lat": 46.9716627, "lon": 16.5636485}, {"type": "node", "id": 4625471023, "lat": 46.9716802, "lon": 16.5637631}, {"type": "node", "id": 4625471024, "lat": 46.9897887, "lon": 16.6772848}, {"type": "node", "id": 4625471025, "lat": 46.9898363, "lon": 16.6774887}, {"type": "node", "id": 4625471026, "lat": 46.9898697, "lon": 16.6772442}, {"type": "node", "id": 4625471027, "lat": 46.9899173, "lon": 16.6774481}, {"type": "node", "id": 4625471032, "lat": 47.0866703, "lon": 16.6124482}, {"type": "node", "id": 4625471033, "lat": 47.0867181, "lon": 16.6125241}, {"type": "node", "id": 4625471034, "lat": 47.086722, "lon": 16.6125188}, {"type": "node", "id": 4625471035, "lat": 47.0867612, "lon": 16.6123247}, {"type": "node", "id": 4625471036, "lat": 47.0867975, "lon": 16.6126387}, {"type": "node", "id": 4625471037, "lat": 47.0868845, "lon": 16.6125205}, {"type": "node", "id": 4855619775, "lat": 46.9329757, "lon": 16.519367, "tags": {"amenity": "pub", "name": "S\u00fct\u0151 S\u00f6r\u00f6z\u0151", "outdoor_seating": "yes"}}, {"type": "node", "id": 4933469036, "lat": 46.9639655, "lon": 16.4948234, "tags": {"amenity": "pub", "fixme": "verify", "name": "Fels\u0151 Kocsma", "source": "route4u", "toilets:wheelchair": "no", "wheelchair": "no"}}, {"type": "node", "id": 4933471620, "lat": 46.8753256, "lon": 16.1644394, "tags": {"amenity": "pub", "source": "route4u"}}, {"type": "node", "id": 4933471857, "lat": 46.9505362, "lon": 16.2813804, "tags": {"amenity": "pub", "name": "Rode\u00f3", "source": "route4u"}}, {"type": "node", "id": 4933471861, "lat": 46.9519488, "lon": 16.2857673, "tags": {"amenity": "pub", "name": "S\u00f6r\u00f6z\u0151", "source": "route4u"}}, {"type": "node", "id": 4933471970, "lat": 47.0184201, "lon": 16.6045832, "tags": {"addr:city": "K\u00f6rmend", "addr:housenumber": "48", "addr:postcode": "9900", "addr:street": "Hunyadi J\u00e1nos utca", "amenity": "pub", "name": "Papp Kocsma", "source": "route4u"}}, {"type": "node", "id": 4933472400, "lat": 47.1618825, "lon": 16.6360787, "tags": {"addr:city": "Balogunyom", "addr:postcode": "9771", "amenity": "pub", "brewery": "yes", "name": "G\u00f6sser S\u00f6r\u00f6z\u0151", "smoking": "separated", "source": "route4u", "toilets:wheelchair": "limited", "wheelchair": "yes"}}, {"type": "node", "id": 4933472931, "lat": 47.2355411, "lon": 16.6111172, "tags": {"amenity": "pub", "name": "Korner Boroz\u00f3", "source": "route4u", "toilets:wheelchair": "no", "wheelchair": "yes"}}, {"type": "node", "id": 4933472936, "lat": 47.2373829, "lon": 16.6256689, "tags": {"amenity": "pub", "fixme": "verify", "name": "P\u00f3ker B\u00e1r", "source": "route4u", "toilets:wheelchair": "yes", "wheelchair": "yes"}}, {"type": "node", "id": 4939174882, "lat": 46.9663916, "lon": 16.4327103, "tags": {"amenity": "pub", "name": "Z\u00f6ld Sas", "source": "route4u"}}, {"type": "node", "id": 4939175833, "lat": 47.2434431, "lon": 16.5510971, "tags": {"amenity": "pub", "fixme": "verify", "name": "Gejz\u00edr Italbolt", "source": "route4u", "toilets:wheelchair": "yes", "wheelchair": "yes"}}, {"type": "node", "id": 4939176777, "lat": 47.2784217, "lon": 16.5982542, "tags": {"amenity": "pub", "fixme": "verify", "name": "Vigad\u00f3 S\u00f6r\u00f6z\u0151", "source": "route4u"}}, {"type": "node", "id": 4939179008, "lat": 47.2285146, "lon": 16.620112, "tags": {"amenity": "pub", "fixme": "verify", "name": "Th\u00f6k\u00f6ly Club", "source": "route4u", "toilets:wheelchair": "no", "wheelchair": "no"}}, {"type": "node", "id": 4939179235, "lat": 47.2384441, "lon": 16.5208774, "tags": {"amenity": "pub", "fixme": "verify", "name": "Ariz\u00f3na Drink B\u00e1r", "source": "route4u", "toilets:wheelchair": "no", "wheelchair": "no"}}, {"type": "node", "id": 4939278923, "lat": 46.9774937, "lon": 16.3530162, "tags": {"amenity": "pub", "name": "Kurta Kocsma", "source": "route4u"}}, {"type": "node", "id": 4940554905, "lat": 47.2358409, "lon": 16.6364493, "tags": {"amenity": "pub", "name": "Stop Kocsma", "source": "route4u"}}, {"type": "node", "id": 4940561289, "lat": 47.2302092, "lon": 16.6204954, "tags": {"amenity": "pub", "name": "Desperad\u00f3 Eszpressz\u00f3", "source": "route4u"}}, {"type": "node", "id": 4940561743, "lat": 47.2254715, "lon": 16.6244781, "tags": {"amenity": "pub", "fixme": "verify", "name": "\u00c1trium Italbolt", "source": "route4u", "toilets:wheelchair": "no", "wheelchair": "yes"}}, {"type": "node", "id": 4940564575, "lat": 47.2300601, "lon": 16.6045683, "tags": {"amenity": "pub", "name": "M\u00e1rka Pressz\u00f3", "source": "route4u"}}, {"type": "node", "id": 5841725464, "lat": 47.0093875, "lon": 16.6006723}, {"type": "node", "id": 5841725465, "lat": 47.0092852, "lon": 16.6006862}, {"type": "node", "id": 5841725466, "lat": 47.0092776, "lon": 16.6005635}, {"type": "node", "id": 5841725467, "lat": 47.0093794, "lon": 16.6005493}, {"type": "node", "id": 5841725468, "lat": 47.0092967, "lon": 16.6005609}, {"type": "node", "id": 5841725473, "lat": 47.0093737, "lon": 16.6006743}, {"type": "node", "id": 5843750206, "lat": 46.9494109, "lon": 16.6863882, "tags": {"amenity": "pub", "name": "Italbolt"}}, {"type": "node", "id": 5882694306, "lat": 47.0102606, "lon": 16.598136, "tags": {"amenity": "pub", "name": "Piccolo"}}, {"type": "node", "id": 5882694307, "lat": 47.0098083, "lon": 16.5984519, "tags": {"amenity": "pub", "name": "Hubertus"}}, {"type": "node", "id": 5882730642, "lat": 47.0105263, "lon": 16.6008466, "tags": {"addr:city": "K\u00f6rmend", "addr:housenumber": "2", "addr:postcode": "9900", "addr:street": "De\u00e1k Ferenc utca", "amenity": "pub", "contact:facebook": "https://facebook.com/hunorpresszo/", "name": "Hunor pressz\u00f3"}}, {"type": "node", "id": 5907619530, "lat": 47.0146291, "lon": 16.6033214}, {"type": "node", "id": 5907619531, "lat": 47.0145265, "lon": 16.6033591}, {"type": "node", "id": 5907619532, "lat": 47.0145343, "lon": 16.6034045}, {"type": "node", "id": 5907619533, "lat": 47.0144864, "lon": 16.6034221}, {"type": "node", "id": 5907619534, "lat": 47.0145236, "lon": 16.6036398}, {"type": "node", "id": 5907619535, "lat": 47.0145768, "lon": 16.6036203}, {"type": "node", "id": 5907619536, "lat": 47.0145863, "lon": 16.6036763}, {"type": "node", "id": 5907619537, "lat": 47.0146835, "lon": 16.6036406}, {"type": "node", "id": 5918281562, "lat": 47.0166736, "lon": 16.6029734, "tags": {"addr:city": "K\u00f6rmend", "addr:housenumber": "42/B", "addr:postcode": "9900", "addr:street": "Hunyadi J\u00e1nos utca", "amenity": "pub", "name": "Rampa S\u00f6r\u00f6z\u0151 & Boroz\u00f3"}}, {"type": "node", "id": 6018523257, "lat": 47.0142325, "lon": 16.6138249, "tags": {"amenity": "pub", "name": "Sz\u00fczek kertje", "outdoor_seating": "yes"}}, {"type": "node", "id": 6031903008, "lat": 47.0219278, "lon": 16.6067014, "tags": {"addr:city": "K\u00f6rmend", "addr:housenumber": "4", "addr:postcode": "9900", "addr:street": "Dob\u00f3 t\u00e9r", "amenity": "pub", "name": "Ny\u00edrfa Eszpressz\u00f3"}}, {"type": "node", "id": 6036724748, "lat": 47.0183816, "lon": 16.6042178, "tags": {"amenity": "pub", "name": "Unicum Pressz\u00f3 \u00e9s italbolt"}}, {"type": "node", "id": 6060117804, "lat": 47.008423, "lon": 16.5980331, "tags": {"addr:city": "K\u00f6rmend", "addr:housenumber": "25", "addr:postcode": "9900", "addr:street": "B\u00e1stya utca", "amenity": "pub", "name": "Klub Trummerikum", "opening_hours": "Mo 7:00-1:00; Tu-Th 8:00-1:00; Fr 8:00-4:00; Sa 7:00-5:00; Su 8:00-1:00"}}, {"type": "node", "id": 6086595999, "lat": 46.9650883, "lon": 16.6046065, "tags": {"amenity": "pub", "name": "Red Wiking", "source": "route4u"}}, {"type": "node", "id": 6133598786, "lat": 47.1568275, "lon": 16.469068, "tags": {"amenity": "pub", "contact:facebook": "https://www.facebook.com/gaborkocsma/", "name": "G\u00e1bor Kocsma", "source": "route4u"}}, {"type": "node", "id": 6133598788, "lat": 47.2669405, "lon": 16.4921562, "tags": {"amenity": "pub", "name": "Varga G\u00e1bor", "source": "route4u"}}, {"type": "node", "id": 6139014047, "lat": 47.0167467, "lon": 16.5938154}, {"type": "node", "id": 6139014048, "lat": 47.0167072, "lon": 16.5936571}, {"type": "node", "id": 6139014049, "lat": 47.0166815, "lon": 16.5936709}, {"type": "node", "id": 6139014050, "lat": 47.0166668, "lon": 16.593612}, {"type": "node", "id": 6139014051, "lat": 47.0165775, "lon": 16.59366}, {"type": "node", "id": 6139014052, "lat": 47.0166318, "lon": 16.5938772}, {"type": "node", "id": 6304972388, "lat": 47.0202536, "lon": 16.2289119, "tags": {"addr:postcode": "7562", "amenity": "pub", "cuisine": "austrian", "name": "Hochzeitschenke", "opening_hours": "Mo, Fr 16:00-23:55; Sa-Su 14:00-23:55", "phone": "+4333252216", "website": "https://www.uhudlerei-mirth.at/"}}, {"type": "node", "id": 6505067882, "lat": 46.9071053, "lon": 16.7033608, "tags": {"amenity": "pub", "name": "HB s\u00f6r\u00f6z\u0151"}}, {"type": "node", "id": 6555289189, "lat": 46.9769284, "lon": 16.6285304}, {"type": "node", "id": 6555289190, "lat": 46.976738, "lon": 16.6284599}, {"type": "node", "id": 6555289191, "lat": 46.9767047, "lon": 16.6286531}, {"type": "node", "id": 6555289192, "lat": 46.9768951, "lon": 16.6287235}, {"type": "node", "id": 6694412792, "lat": 46.9553741, "lon": 16.2699764, "tags": {"amenity": "pub", "name": "Bet\u00e9r\u0151 Vend\u00e9gl\u0151", "opening_hours": "Mo-Su 08:00-22:00"}}, {"type": "node", "id": 7066760336, "lat": 46.9713652, "lon": 16.5638211}, {"type": "node", "id": 7066760337, "lat": 46.9714686, "lon": 16.5637872}, {"type": "node", "id": 7137377348, "lat": 47.23987, "lon": 16.6253612, "tags": {"addr:city": "Szombathely", "addr:housenumber": "2c", "addr:postcode": "9700", "addr:street": "Losonc utca", "amenity": "pub", "building": "yes", "name": "Katica pressz\u00f3"}}, {"type": "node", "id": 7592961253, "lat": 46.9242632, "lon": 16.6707066, "tags": {"amenity": "pub", "name": "Emcsi bet\u00e9r\u0151"}}, {"type": "node", "id": 7638765770, "lat": 47.2254506, "lon": 16.6090386}, {"type": "node", "id": 7638765771, "lat": 47.2254896, "lon": 16.6091325}, {"type": "node", "id": 7638765772, "lat": 47.2253701, "lon": 16.6092401}, {"type": "node", "id": 7638765773, "lat": 47.2253311, "lon": 16.6091463}, {"type": "node", "id": 7734828923, "lat": 46.8888117, "lon": 16.5364263, "tags": {"amenity": "pub", "name": "Italbolt"}}, {"type": "node", "id": 8128635022, "lat": 47.2292151, "lon": 16.6101407}, {"type": "node", "id": 8128635029, "lat": 47.2292037, "lon": 16.6099934}, {"type": "node", "id": 8207310157, "lat": 47.0084786, "lon": 16.5839546, "tags": {"addr:city": "K\u00f6rmend", "addr:housenumber": "2", "addr:postcode": "9900", "addr:street": "Dank\u00f3 Pista utca", "amenity": "pub", "name": "Miami boroz\u00f3", "opening_hours": "09:00 - 21:00"}}, {"type": "way", "id": 206144943, "nodes": [2161439584, 2161439717, 2161439594, 2161439563, 2161439656, 2161439606, 2161439584], "tags": {"addr:city": "K\u00f6rmend", "addr:housenumber": "110", "addr:postcode": "9900", "addr:street": "R\u00e1k\u00f3czi utca", "amenity": "pub", "building": "yes", "name": "Park Pressz\u00f3"}}, {"type": "way", "id": 206397360, "nodes": [2164118135, 2164118212, 2164118057, 2164118058, 2164118135], "tags": {"amenity": "pub", "building": "yes"}}, {"type": "way", "id": 229579880, "nodes": [2381509692, 2381509691, 2381509679, 2381509728, 2381509715, 2381509675, 2381509692], "tags": {"addr:city": "Szombathely", "addr:housenumber": "49", "addr:postcode": "9700", "addr:street": "Sz\u00f3fia utca", "amenity": "pub", "name": "Bl\u00f6ff Club", "wheelchair": "no"}}, {"type": "way", "id": 229586607, "nodes": [2381565911, 2381565890, 2381565867, 2381565926, 2381565869, 2381565878, 2381565884, 2381565909, 2381565911], "tags": {"addr:city": "Szombathely", "addr:housenumber": "9", "addr:postcode": "9700", "addr:street": "Szent Imre herceg \u00fatja", "amenity": "pub", "name": "Vidra Sarok Boroz\u00f3", "wheelchair": "no"}}, {"type": "way", "id": 229817953, "nodes": [2383620267, 2383620263, 2383620261, 2383620256, 2383620267], "tags": {"amenity": "pub", "building": "yes", "name": "P\u00e1lma pressz\u00f3", "toilets:wheelchair": "no", "wheelchair": "no"}}, {"type": "way", "id": 230028518, "nodes": [2385568601, 2385568539, 2385568581, 2385568544, 2385568601], "tags": {"amenity": "pub", "building": "residential", "name": "Csiti Espresso"}}, {"type": "way", "id": 230141470, "nodes": [2386686451, 2386686465, 2386686435, 2386686445, 2386686451], "tags": {"addr:city": "Szombathely", "addr:housenumber": "2", "addr:postcode": "9700", "addr:street": "N\u00e1dor utca", "amenity": "pub", "name": "Focimaci S\u00f6r\u00f6z\u0151"}}, {"type": "way", "id": 230257268, "nodes": [2387802139, 2387802141, 2387802108, 2387802105, 2387802139], "tags": {"addr:city": "Szombathely", "addr:housenumber": "6", "addr:postcode": "9700", "addr:street": "Kinizsi P\u00e1l utca", "amenity": "pub", "name": "Centr\u00e1l rulett club"}}, {"type": "way", "id": 230259573, "nodes": [2387837157, 2387837168, 2387837150, 2387837138, 2387837157], "tags": {"addr:city": "Szombathely", "addr:housenumber": "28", "addr:postcode": "9700", "addr:street": "Semmelweis Ign\u00e1c utca", "amenity": "pub", "building": "industrial", "name": "Mojo"}}, {"type": "way", "id": 230570884, "nodes": [2390627373, 2390627381, 2390627380, 2390627368, 2390627373], "tags": {"amenity": "pub", "building": "yes", "name": "Szikla s\u00f6r\u00f6z\u0151"}}, {"type": "way", "id": 230570886, "nodes": [2390627379, 2390627378, 2390627365, 2390627382, 2390627379], "tags": {"amenity": "pub", "building": "yes", "name": "Fa eszpressz\u00f3"}}, {"type": "way", "id": 288835497, "nodes": [2923891305, 2923891304, 2923891306, 2923891307, 2923891305], "tags": {"amenity": "pub"}}, {"type": "way", "id": 290483458, "nodes": [2940135330, 2940135325, 2940135327, 2940135324, 2940135326, 2940135332, 2940135330], "tags": {"amenity": "pub", "name": "Jani kocsma"}}, {"type": "way", "id": 290508115, "nodes": [2940334894, 2940334891, 2940334889, 2940334890, 2940334894], "tags": {"amenity": "pub"}}, {"type": "way", "id": 295014620, "nodes": [2986694649, 2986694637, 2986694639, 2986694651, 2986694649], "tags": {"amenity": "pub", "name": "B\u00f6d\u00f6r kocsma"}}, {"type": "way", "id": 313148101, "nodes": [3190600496, 3190600495, 3190600500, 3190600502, 3190600496], "tags": {"amenity": "pub", "building": "yes", "name": "Deck Bistro & Bar", "website": "http://deckbistro.hu"}}, {"type": "way", "id": 363977045, "nodes": [3680823305, 3680823296, 3680823295, 3680823301, 3680823305], "tags": {"addr:city": "Kondorfa", "addr:housenumber": "161", "addr:postcode": "9943", "addr:street": "Alv\u00e9g utca", "amenity": "pub", "building": "yes", "name": "Italbolt"}}, {"type": "way", "id": 364682744, "nodes": [3687296608, 3687296610, 3465190318, 3687296606, 3687296602, 3687296604, 3687296605, 3687296607, 3687296603, 3687296609, 3687296608], "tags": {"amenity": "pub", "building": "yes", "name": "Kern kocsma (Gostilna)"}}, {"type": "way", "id": 385125676, "nodes": [3884790126, 3884790127, 3884790128, 4298961267, 3884790129, 3884790126], "tags": {"addr:city": "Szentgotth\u00e1rd", "addr:postcode": "9970", "addr:street": "De\u00e1k Ferenc utca", "amenity": "pub", "building": "yes", "name": "Sik\u00e1tor Vend\u00e9gl\u0151", "smoking": "outside"}}, {"type": "way", "id": 430061101, "nodes": [4293251355, 4293251348, 4293251350, 4293251351, 4293251352, 4293251357, 4293251356, 4293251358, 4293251355], "tags": {"amenity": "pub", "building": "yes", "name": "Anita pressz\u00f3"}}, {"type": "way", "id": 467989312, "nodes": [4625471024, 4625471026, 4625471027, 4625471025, 4625471024], "tags": {"amenity": "pub", "building": "yes", "name": "Kofi kocsma"}}, {"type": "way", "id": 467989314, "nodes": [4625471021, 7066760337, 7066760336, 4625471020, 4625471022, 4625471023, 4625471021], "tags": {"addr:city": "Halogy", "addr:housenumber": "36", "addr:postcode": "9917", "addr:street": "Pet\u0151fi utca", "amenity": "pub", "building": "yes", "name": "K\u00f3nya kocsma"}}, {"type": "way", "id": 467989317, "nodes": [4625471035, 4625471037, 4625471036, 4625471034, 4625471033, 4625471032, 4625471035], "tags": {"amenity": "pub", "building": "yes", "name": "Pub S\u00f6r\u00f6z\u0151 \u00e9s Falatoz\u00f3"}}, {"type": "way", "id": 618012732, "nodes": [5841725464, 5841725473, 5841725465, 5841725466, 5841725468, 5841725467, 5841725464], "tags": {"amenity": "pub", "building": "yes", "name": "Monte Carlo Presso \u00e9s J\u00e1t\u00e9kterem"}}, {"type": "way", "id": 625705117, "nodes": [5907619530, 5907619531, 5907619532, 5907619533, 5907619534, 5907619535, 5907619536, 5907619537, 5907619530], "tags": {"addr:city": "K\u00f6rmend", "addr:housenumber": "39", "addr:postcode": "9900", "addr:street": "Hunyadi J\u00e1nos utca", "amenity": "pub", "building": "yes", "name": "K\u00f3nya K\u00e1v\u00e9h\u00e1z"}}, {"type": "way", "id": 655200352, "nodes": [6139014047, 6139014048, 6139014049, 6139014050, 6139014051, 6139014052, 6139014047], "tags": {"addr:city": "K\u00f6rmend", "addr:housenumber": "74/1", "addr:postcode": "9900", "addr:street": "M\u00e1ty\u00e1s kir\u00e1ly utca", "amenity": "pub", "building": "yes", "name": "M\u00e1ty\u00e1s kert", "opening_hours": "Mo-Su 09:00-22:00", "outdoor_seating": "yes"}}, {"type": "way", "id": 698008784, "nodes": [6555289189, 6555289190, 6555289191, 6555289192, 6555289189], "tags": {"addr:city": "Katafa", "addr:housenumber": "50", "addr:postcode": "9915", "addr:street": "Pet\u0151fi S\u00e1ndor \u00fat", "amenity": "pub", "building": "yes", "name": "Katafa pressz\u00f3"}}, {"type": "way", "id": 817934582, "nodes": [7638765771, 7638765772, 7638765773, 7638765770, 7638765771], "tags": {"addr:city": "Szombathely", "addr:housenumber": "7A", "addr:postcode": "9700", "addr:street": "Somlay Art\u00far utca", "amenity": "pub", "building": "residential", "name": "Badacsony boroz\u00f3"}}, {"type": "way", "id": 872901825, "nodes": [8128635022, 2383075527, 2383075545, 2383075521, 8128635022], "tags": {"addr:city": "Szombathely", "addr:country": "HU", "addr:housenumber": "34", "addr:postcode": "9700", "addr:street": "Szinyei Merse P\u00e1l utca", "amenity": "pub", "building": "yes", "name": "B\u00e1nya"}}, {"type": "way", "id": 872901828, "nodes": [8128635029, 2383322177, 2383322164, 2383322161, 2383322146, 2383322178, 8128635029], "tags": {"addr:city": "Szombathely", "addr:country": "HU", "addr:housenumber": "37", "addr:postcode": "9700", "addr:street": "Szinyei Merse P\u00e1l utca", "amenity": "pub", "building": "hotel", "name": "Haramia csapsz\u00e9k \u00e9s fogad\u00f3", "tourism": "hotel"}}]}