{"version": 0.6, "generator": "Overpass API 0.7.59 e21c39fe", "osm3s": {"timestamp_osm_base": "2023-01-17T15:17:22Z", "copyright": "The data included in this document is from www.openstreetmap.org. The data is made available under ODbL."}, "elements": [{"type": "node", "id": 1487471026, "lat": 47.5369041, "lon": 21.6254571, "tags": {"addr:city": "Debrecen", "amenity": "pub", "name": "P\u00e9terfia Rock K\u00e1v\u00e9z\u00f3", "toilets:wheelchair": "limited", "wheelchair": "limited"}}, {"type": "node", "id": 1601125701, "lat": 47.583064, "lon": 21.1501287, "tags": {"amenity": "pub"}}, {"type": "node", "id": 1601159381, "lat": 47.5829627, "lon": 21.1670266, "tags": {"amenity": "pub"}}, {"type": "node", "id": 1601159490, "lat": 47.5829555, "lon": 21.1516844, "tags": {"amenity": "pub", "wheelchair": "no"}}, {"type": "node", "id": 1601162562, "lat": 47.5945191, "lon": 21.1565935, "tags": {"addr:city": "Hortob\u00e1gy", "amenity": "pub", "mapillary": "302802791313124", "name": "Nyerges pressz\u00f3"}}, {"type": "node", "id": 1707999729, "lat": 47.5387995, "lon": 21.6391824, "tags": {"amenity": "pub", "name": "Kacag\u00f3 Hi\u00e9na S\u00f6r\u00f6z\u0151"}}, {"type": "node", "id": 2460128487, "lat": 47.5383472, "lon": 21.6320711, "tags": {"addr:city": "Debrecen", "addr:housenumber": "38", "addr:postcode": "4029", "addr:street": "Mar\u00f3thi Gy\u00f6rgy utca", "amenity": "pub", "name": "F\u00e1c\u00e1nkakas", "opening_hours": "24/7", "smoking": "isolated", "survey:date": "2013-09-14"}}, {"type": "node", "id": 2814588204, "lat": 47.4080651, "lon": 21.6272506, "tags": {"amenity": "pub", "name": "Ring pressz\u00f3"}}, {"type": "node", "id": 2889372644, "lat": 47.5549404, "lon": 21.6168979}, {"type": "node", "id": 2889372645, "lat": 47.5549496, "lon": 21.6169488}, {"type": "node", "id": 2889372646, "lat": 47.5549582, "lon": 21.6168523}, {"type": "node", "id": 2889372647, "lat": 47.5549804, "lon": 21.6169751}, {"type": "node", "id": 2889372648, "lat": 47.5549925, "lon": 21.6168386}, {"type": "node", "id": 2889372649, "lat": 47.5550147, "lon": 21.6169615}, {"type": "node", "id": 2889372650, "lat": 47.5550233, "lon": 21.616865}, {"type": "node", "id": 2889372651, "lat": 47.5550325, "lon": 21.6169159}, {"type": "node", "id": 2910895493, "lat": 47.5219379, "lon": 21.6292106, "tags": {"addr:city": "Debrecen", "amenity": "pub", "internet_access": "wlan", "name": "Al Capone"}}, {"type": "node", "id": 3210834086, "lat": 47.4670839, "lon": 21.4924755}, {"type": "node", "id": 3210834087, "lat": 47.4671464, "lon": 21.4924492}, {"type": "node", "id": 3210834088, "lat": 47.4670103, "lon": 21.4925107}, {"type": "node", "id": 3210834089, "lat": 47.4670299, "lon": 21.4926132}, {"type": "node", "id": 3210834090, "lat": 47.46717, "lon": 21.4925548}, {"type": "node", "id": 3214174128, "lat": 47.5317646, "lon": 21.6403591, "tags": {"amenity": "pub", "name": "Bocskai b\u00fcf\u00e9", "smoking": "outside"}}, {"type": "node", "id": 3360745838, "lat": 47.5936702, "lon": 21.6397556}, {"type": "node", "id": 3360745839, "lat": 47.5937061, "lon": 21.6397138}, {"type": "node", "id": 3360745840, "lat": 47.5937106, "lon": 21.6398318}, {"type": "node", "id": 3360745841, "lat": 47.5937464, "lon": 21.63979}, {"type": "node", "id": 3383611050, "lat": 47.4409321, "lon": 21.3963435}, {"type": "node", "id": 3383611051, "lat": 47.4409928, "lon": 21.3963959}, {"type": "node", "id": 3383611052, "lat": 47.4410299, "lon": 21.3960893}, {"type": "node", "id": 3383611053, "lat": 47.4410551, "lon": 21.3962837}, {"type": "node", "id": 3383611055, "lat": 47.4410973, "lon": 21.3964507}, {"type": "node", "id": 3383611056, "lat": 47.4411091, "lon": 21.3961467}, {"type": "node", "id": 3383611057, "lat": 47.4411276, "lon": 21.3963161}, {"type": "node", "id": 3384180769, "lat": 47.4345061, "lon": 21.4055903}, {"type": "node", "id": 3384180770, "lat": 47.4345061, "lon": 21.40566}, {"type": "node", "id": 3384180771, "lat": 47.4345253, "lon": 21.4056452}, {"type": "node", "id": 3384180772, "lat": 47.4345424, "lon": 21.4057638}, {"type": "node", "id": 3384180773, "lat": 47.4346047, "lon": 21.405515}, {"type": "node", "id": 3384180774, "lat": 47.434623, "lon": 21.4055673}, {"type": "node", "id": 3384180775, "lat": 47.4346462, "lon": 21.4055495}, {"type": "node", "id": 3384180776, "lat": 47.4346834, "lon": 21.405656}, {"type": "node", "id": 3385237341, "lat": 47.4298391, "lon": 21.3986658}, {"type": "node", "id": 3385237342, "lat": 47.4298645, "lon": 21.3987283}, {"type": "node", "id": 3385237345, "lat": 47.4299294, "lon": 21.3985858}, {"type": "node", "id": 3385237346, "lat": 47.4299547, "lon": 21.3986482}, {"type": "node", "id": 3419330716, "lat": 47.4445622, "lon": 21.3851044, "tags": {"addr:city": "Hajd\u00faszoboszl\u00f3", "addr:housenumber": "28", "addr:postcode": "4200", "addr:street": "Puskin utca", "amenity": "pub", "name": "Hajnal Pressz\u00f3"}}, {"type": "node", "id": 3437026982, "lat": 47.5422654, "lon": 21.6246952, "tags": {"addr:city": "Debrecen", "addr:housenumber": "15", "addr:postcode": "4026", "addr:street": "Bem t\u00e9r", "amenity": "pub", "description": "Kal\u00f3zhaj\u00f3nak berendezett \u00e9tterem.", "internet_access": "wlan", "name": "Calico Jack Pub", "phone": "+36 52 455 999", "source": "turistautak.hu", "source:date": "2011-05-03", "toilets:wheelchair": "no", "url": "http://turistautak.hu/poi.php?id=24163", "wheelchair": "no"}}, {"type": "node", "id": 3437027294, "lat": 47.540778, "lon": 21.625, "tags": {"amenity": "pub", "name": "Darts Klub s\u00f6r\u00f6z\u0151", "source": "turistautak.hu", "source:date": "2013-01-28", "url": "http://turistautak.hu/poi.php?id=150136"}}, {"type": "node", "id": 3437027325, "lat": 47.535567, "lon": 21.611767, "tags": {"amenity": "pub", "name": "Foci Tanya s\u00f6r\u00f6z\u0151", "source": "turistautak.hu", "source:date": "2011-08-03", "url": "http://turistautak.hu/poi.php?id=122669"}}, {"type": "node", "id": 3437027359, "lat": 47.5217347, "lon": 21.6228683, "tags": {"amenity": "pub", "name": "Jobb Mint Otthon pressz\u00f3", "source": "turistautak.hu", "source:date": "2011-05-03", "url": "http://turistautak.hu/poi.php?id=114396"}}, {"type": "node", "id": 3437027372, "lat": 47.5287076, "lon": 21.61426, "tags": {"amenity": "pub", "name": "Kisdebrecen s\u00f6r\u00f6z\u0151", "source": "turistautak.hu", "source:date": "2011-08-03", "url": "http://turistautak.hu/poi.php?id=122667"}}, {"type": "node", "id": 3437027513, "lat": 47.556, "lon": 21.608, "tags": {"amenity": "pub", "name": "Nyuszi s\u00f6r\u00f6z\u0151", "source": "turistautak.hu", "source:date": "2011-10-26", "url": "http://turistautak.hu/poi.php?id=126800"}}, {"type": "node", "id": 3437027519, "lat": 47.525461, "lon": 21.6187644, "tags": {"addr:city": "Debrecen", "addr:housenumber": "5", "addr:postcode": "4025", "addr:street": "K\u00fcls\u0151v\u00e1s\u00e1rt\u00e9r", "amenity": "pub", "name": "Obsitos s\u00f6r\u00f6z\u0151", "opening_hours": "Mo-Fr 06:00-20:00; Sa 06:00-19:00; Su 07:00-19:00"}}, {"type": "node", "id": 3437027546, "lat": 47.557733, "lon": 21.61125, "tags": {"amenity": "pub", "name": "Remetekert s\u00f6r\u00f6z\u0151", "source": "turistautak.hu", "source:date": "2011-10-26", "toilets:wheelchair": "yes", "url": "http://turistautak.hu/poi.php?id=126801", "wheelchair": "no"}}, {"type": "node", "id": 3437027582, "lat": 47.526368, "lon": 21.636861, "tags": {"amenity": "pub", "name": "Vad\u00e1szk\u00fcrt s\u00f6r\u00f6z\u0151", "source": "turistautak.hu", "source:date": "2014-03-15", "url": "http://turistautak.hu/poi.php?id=103809"}}, {"type": "node", "id": 3437029124, "lat": 47.57968, "lon": 21.48202, "tags": {"amenity": "pub", "source": "turistautak.hu", "source:date": "2012-12-04", "url": "http://turistautak.hu/poi.php?id=148110"}}, {"type": "node", "id": 3479922404, "lat": 47.435903, "lon": 21.167739, "tags": {"amenity": "pub", "name": "Bermuda s\u00f6r\u00f6z\u0151", "source": "turistautak.hu", "source:date": "2012-10-25", "url": "http://turistautak.hu/poi.php?id=111138"}}, {"type": "node", "id": 3479922411, "lat": 47.419689, "lon": 21.164344, "tags": {"amenity": "pub", "name": "B\u00fafelejt\u0151 Bend s\u00f6r\u00f6z\u0151", "source": "turistautak.hu", "source:date": "2014-06-07", "url": "http://turistautak.hu/poi.php?id=140148"}}, {"type": "node", "id": 3479922452, "lat": 47.392166, "lon": 21.479495, "tags": {"amenity": "pub", "name": "Kati pressz\u00f3", "source": "turistautak.hu", "source:date": "2011-05-03", "url": "http://turistautak.hu/poi.php?id=111287"}}, {"type": "node", "id": 3479922465, "lat": 47.539673, "lon": 21.337244, "tags": {"amenity": "pub", "name": "Nyugati pressz\u00f3", "source": "turistautak.hu", "source:date": "2011-05-03", "url": "http://turistautak.hu/poi.php?id=99774"}}, {"type": "node", "id": 3479922473, "lat": 47.456845, "lon": 21.376814, "tags": {"amenity": "pub", "name": "Pelik\u00e1n s\u00f6r\u00f6z\u0151", "source": "turistautak.hu", "source:date": "2014-04-27", "url": "http://turistautak.hu/poi.php?id=135470"}}, {"type": "node", "id": 3479922474, "lat": 47.432928, "lon": 21.398344, "tags": {"amenity": "pub", "name": "Pityeri s\u00f6r\u00f6z\u0151 (megsz\u0171nt)", "source": "turistautak.hu", "source:date": "2012-03-11", "url": "http://turistautak.hu/poi.php?id=66241"}}, {"type": "node", "id": 3479925703, "lat": 47.429974, "lon": 21.150033, "tags": {"amenity": "pub", "name": "Sziki s\u00f6r\u00f6z\u0151", "source": "turistautak.hu", "source:date": "2012-06-16", "url": "http://turistautak.hu/poi.php?id=140153"}}, {"type": "node", "id": 3479925704, "lat": 47.424395, "lon": 21.146071, "tags": {"amenity": "pub", "name": "Szilveszter s\u00f6r\u00f6z\u0151", "source": "turistautak.hu", "source:date": "2012-06-16", "url": "http://turistautak.hu/poi.php?id=140152"}}, {"type": "node", "id": 3479925707, "lat": 47.4293492, "lon": 21.3893328, "tags": {"amenity": "pub", "name": "S\u00f6r\u00f6z\u0151", "source": "turistautak.hu", "source:date": "2014-08-31", "url": "http://turistautak.hu/poi.php?id=171419"}}, {"type": "node", "id": 3479925714, "lat": 47.452787, "lon": 21.37727, "tags": {"amenity": "pub", "name": "V\u00e9nkert s\u00f6r\u00f6z\u0151", "source": "turistautak.hu", "source:date": "2012-03-12", "url": "http://turistautak.hu/poi.php?id=135469"}}, {"type": "node", "id": 3479925773, "lat": 47.53976, "lon": 21.34313, "tags": {"amenity": "pub", "source": "turistautak.hu", "source:date": "2012-12-04", "url": "http://turistautak.hu/poi.php?id=148104"}}, {"type": "node", "id": 3489588013, "lat": 47.603787, "lon": 21.336043, "tags": {"amenity": "pub", "name": "Borsodi s\u00f6r\u00f6z\u0151", "source": "turistautak.hu", "source:date": "2012-12-04", "url": "http://turistautak.hu/poi.php?id=148079"}}, {"type": "node", "id": 3489588017, "lat": 47.607412, "lon": 21.361675, "tags": {"amenity": "pub", "name": "Dream Pub", "source": "turistautak.hu", "source:date": "2012-12-04", "url": "http://turistautak.hu/poi.php?id=148092"}}, {"type": "node", "id": 3489588035, "lat": 47.605442, "lon": 21.33595, "tags": {"amenity": "pub", "name": "Presso", "source": "turistautak.hu", "source:date": "2012-12-04", "url": "http://turistautak.hu/poi.php?id=148080"}}, {"type": "node", "id": 3489588052, "lat": 47.608588, "lon": 21.33841, "tags": {"amenity": "pub", "name": "Z\u00f6ld Elef\u00e1nt s\u00f6r\u00f6z\u0151", "source": "turistautak.hu", "source:date": "2010-03-26", "url": "http://turistautak.hu/poi.php?id=87428"}}, {"type": "node", "id": 3489588072, "lat": 47.607315, "lon": 21.359883, "tags": {"amenity": "pub", "name": "\u00daj Vil\u00e1g kocsma", "source": "turistautak.hu", "source:date": "2012-12-04", "url": "http://turistautak.hu/poi.php?id=148093"}}, {"type": "node", "id": 3521609291, "lat": 47.5408821, "lon": 21.6141964}, {"type": "node", "id": 3521609292, "lat": 47.5408843, "lon": 21.6139314}, {"type": "node", "id": 3521609593, "lat": 47.5408851, "lon": 21.6138403}, {"type": "node", "id": 3521609594, "lat": 47.5411995, "lon": 21.6142023}, {"type": "node", "id": 3521609595, "lat": 47.5412025, "lon": 21.6138462}, {"type": "node", "id": 3623912175, "lat": 47.6140758, "lon": 21.3456439, "tags": {"amenity": "pub", "name": "Kast\u00e9lykert s\u00f6r\u00f6z\u0151"}}, {"type": "node", "id": 3662389951, "lat": 47.6628819, "lon": 21.5041789, "tags": {"amenity": "pub", "name": "Erd\u0151s kocsma"}}, {"type": "node", "id": 3662389954, "lat": 47.6651456, "lon": 21.4970798, "tags": {"amenity": "pub", "name": "Kolozsv\u00e1r pressz\u00f3"}}, {"type": "node", "id": 3742285049, "lat": 47.4075102, "lon": 21.6279809, "tags": {"amenity": "pub"}}, {"type": "node", "id": 3763058764, "lat": 47.5291983, "lon": 21.6235296, "tags": {"addr:city": "Debrecen", "addr:housenumber": "2/c", "addr:postcode": "4025", "addr:street": "Simonffy utca", "amenity": "pub", "name": "After Pressz\u00f3", "opening_hours": "Mo-Fr 10:00-02:00; Sa 15:00-02:00", "smoking": "outside", "toilets:wheelchair": "no", "wheelchair": "no"}}, {"type": "node", "id": 3825321601, "lat": 47.5325274, "lon": 21.6111825, "tags": {"amenity": "pub", "cuisine": "pizza", "name": "Felez\u0151 b\u00e1r", "opening_hours": "Su-Th 11:00-22:00; Fr-Sa 11:00-24:00", "phone": "+36 70 524 4440"}}, {"type": "node", "id": 3831855523, "lat": 47.5385757, "lon": 21.6140609, "tags": {"amenity": "pub", "name": "Gy\u00f6ngy kocsma"}}, {"type": "node", "id": 3831855537, "lat": 47.5426013, "lon": 21.613799}, {"type": "node", "id": 3831855538, "lat": 47.5426969, "lon": 21.6138015}, {"type": "node", "id": 3831855539, "lat": 47.5426951, "lon": 21.6139508}, {"type": "node", "id": 3831855540, "lat": 47.5425995, "lon": 21.6139483}, {"type": "node", "id": 3842600149, "lat": 47.5426725, "lon": 21.6138008}, {"type": "node", "id": 3843483290, "lat": 47.5382002, "lon": 21.6397525, "tags": {"addr:city": "Debrecen", "addr:housenumber": "2", "addr:postcode": "4028", "addr:street": "Sarl\u00f3 utca", "amenity": "pub", "facebook": "https://hu-hu.facebook.com/pg/valhallasorozo/about/?ref=page_internal", "name": "Valhalla S\u00f6r\u00f6z\u0151", "opening_hours": "Mo-Fr 14:00-03:00, Sa 16:00-03:00, Su 18:00-02:00", "phone": "+36 52 320 372", "url": "https://etterem.hu/valhalla-sorozo"}}, {"type": "node", "id": 3872456679, "lat": 47.5220353, "lon": 21.6225626}, {"type": "node", "id": 3872456680, "lat": 47.522035, "lon": 21.6227444}, {"type": "node", "id": 3872456681, "lat": 47.5218474, "lon": 21.6227436}, {"type": "node", "id": 3872456682, "lat": 47.5218476, "lon": 21.6226259}, {"type": "node", "id": 3872456683, "lat": 47.5219627, "lon": 21.6226264}, {"type": "node", "id": 3872456684, "lat": 47.5219628, "lon": 21.6225623}, {"type": "node", "id": 4053742842, "lat": 47.5313137, "lon": 21.6374011, "tags": {"amenity": "pub", "name": "Pacsirta S\u00f6r\u00f6z\u0151"}}, {"type": "node", "id": 4761464468, "lat": 47.5177286, "lon": 21.5996427}, {"type": "node", "id": 4761464469, "lat": 47.5177274, "lon": 21.5997597}, {"type": "node", "id": 4761464470, "lat": 47.5176056, "lon": 21.5997569}, {"type": "node", "id": 4761464471, "lat": 47.5176069, "lon": 21.5996399}, {"type": "node", "id": 4762442434, "lat": 47.5267143, "lon": 21.6026374}, {"type": "node", "id": 4762442435, "lat": 47.5266328, "lon": 21.6026351}, {"type": "node", "id": 4762453222, "lat": 47.5267169, "lon": 21.6024335}, {"type": "node", "id": 4762453223, "lat": 47.5266354, "lon": 21.6024313}, {"type": "node", "id": 4762485871, "lat": 47.5214249, "lon": 21.5978317, "tags": {"amenity": "pub", "name": "C\u00edvis pressz\u00f3"}}, {"type": "node", "id": 4764232166, "lat": 47.5292747, "lon": 21.6136245}, {"type": "node", "id": 4764232167, "lat": 47.5293359, "lon": 21.6137574}, {"type": "node", "id": 4764232168, "lat": 47.5292785, "lon": 21.613839}, {"type": "node", "id": 4764232169, "lat": 47.529212, "lon": 21.6136712}, {"type": "node", "id": 4773024209, "lat": 47.517142, "lon": 21.5983218, "tags": {"amenity": "pub", "name": "T\u00f3c\u00f3v\u00f6lgyi pressz\u00f3"}}, {"type": "node", "id": 4788761199, "lat": 47.5292439, "lon": 21.6137586}, {"type": "node", "id": 4795085814, "lat": 47.5319706, "lon": 21.6290286}, {"type": "node", "id": 4795085815, "lat": 47.5318211, "lon": 21.6291471}, {"type": "node", "id": 4795088435, "lat": 47.5320602, "lon": 21.6292158}, {"type": "node", "id": 4795088437, "lat": 47.5315431, "lon": 21.6296544}, {"type": "node", "id": 4795088438, "lat": 47.5315142, "lon": 21.6295865}, {"type": "node", "id": 4795088439, "lat": 47.5316491, "lon": 21.6294832}, {"type": "node", "id": 4795088440, "lat": 47.5316283, "lon": 21.6294269}, {"type": "node", "id": 4795088441, "lat": 47.5315468, "lon": 21.6294886}, {"type": "node", "id": 4795088442, "lat": 47.5315232, "lon": 21.6294202}, {"type": "node", "id": 4795088443, "lat": 47.5313956, "lon": 21.6295207}, {"type": "node", "id": 4795088444, "lat": 47.5313822, "lon": 21.6294798}, {"type": "node", "id": 4795090379, "lat": 47.5317303, "lon": 21.6295125}, {"type": "node", "id": 4795097141, "lat": 47.5318272, "lon": 21.6294286}, {"type": "node", "id": 4809853098, "lat": 47.5319916, "lon": 21.629071, "tags": {"entrance": "main"}}, {"type": "node", "id": 4846039067, "lat": 47.4312733, "lon": 21.1580079, "tags": {"amenity": "pub", "name": "N\u00e1das Pressz\u00f3"}}, {"type": "node", "id": 4846039094, "lat": 47.4268527, "lon": 21.1543303, "tags": {"amenity": "pub", "name": "B\u00f6gy\u0151 Pressz\u00f3"}}, {"type": "node", "id": 4933474323, "lat": 47.5625954, "lon": 21.5990741, "tags": {"amenity": "pub", "fixme": "verify", "name": "\u00c1sz Partyszerviz", "source": "route4u", "toilets:wheelchair": "yes", "wheelchair": "yes"}}, {"type": "node", "id": 4933475789, "lat": 47.6799177, "lon": 21.5156226, "tags": {"amenity": "pub", "fixme": "verify", "name": "Borosty\u00e1n Pressz\u00f3", "source": "route4u"}}, {"type": "node", "id": 4933475937, "lat": 47.6721518, "lon": 21.5129684, "tags": {"amenity": "pub", "fixme": "verify", "name": "Korpona Pressz\u00f3", "source": "route4u"}}, {"type": "node", "id": 4933475941, "lat": 47.673507, "lon": 21.5117188, "tags": {"amenity": "pub", "fixme": "verify", "name": "Z\u00f6ldfa S\u00f6r\u00f6z\u0151", "source": "route4u", "wheelchair": "yes"}}, {"type": "node", "id": 4939174130, "lat": 47.553211, "lon": 21.6325308, "tags": {"amenity": "pub", "fixme": "verify", "name": "Loki Bisztr\u00f3 Labdar\u00fag\u00f3 Akad\u00e9mia", "source": "route4u"}}, {"type": "node", "id": 4939175740, "lat": 47.5283065, "lon": 21.6260457, "tags": {"addr:city": "Debrecen", "amenity": "pub", "name": "Chicago Club \u00c9tterem", "source": "route4u", "wheelchair": "no"}}, {"type": "node", "id": 4939178882, "lat": 47.5967284, "lon": 21.5777757, "tags": {"amenity": "pub", "fixme": "verify", "name": "Zugiv\u00f3 S\u00f6r\u00f6z\u0151", "source": "route4u"}}, {"type": "node", "id": 4939179045, "lat": 47.5244818, "lon": 21.6269767, "tags": {"amenity": "pub", "name": "R\u00f3na pressz\u00f3", "opening_hours": "Mo-Th, Su 06:00-22:00; Fr, Sa 06:00-00:00", "source": "route4u"}}, {"type": "node", "id": 4939179201, "lat": 47.5219434, "lon": 21.6298394, "tags": {"amenity": "pub", "fixme": "verify", "name": "Krajc\u00e1ros S\u00f6r\u00f6z\u0151", "source": "route4u"}}, {"type": "node", "id": 4939179320, "lat": 47.516156, "lon": 21.6024275, "tags": {"amenity": "pub", "fixme": "verify", "name": "Kortyint\u00f3 S\u00f6r\u00f6z\u0151", "source": "route4u", "toilets:wheelchair": "no", "wheelchair": "no"}}, {"type": "node", "id": 4939179729, "lat": 47.5173904, "lon": 21.6137367, "tags": {"amenity": "pub", "fixme": "verify", "name": "Trombit\u00e1s \u00c9telb\u00e1r", "source": "route4u"}}, {"type": "node", "id": 4940534670, "lat": 47.5363961, "lon": 21.6355533, "tags": {"amenity": "pub", "name": "Club Pressz\u00f3", "source": "route4u", "toilets:wheelchair": "no", "wheelchair": "no"}}, {"type": "node", "id": 4940557189, "lat": 47.4518851, "lon": 21.4037821, "tags": {"amenity": "pub", "fixme": "verify", "name": "U-Pub S\u00f6r\u00f6z\u0151", "source": "route4u", "toilets:wheelchair": "no", "wheelchair": "no"}}, {"type": "node", "id": 4940562185, "lat": 47.5281113, "lon": 21.6252868, "tags": {"amenity": "pub", "name": "Satu S\u00f6r\u00f6z\u0151", "source": "route4u", "toilets:wheelchair": "no", "wheelchair": "no"}}, {"type": "node", "id": 4940565974, "lat": 47.5383394, "lon": 21.6394159, "tags": {"amenity": "pub", "fixme": "verify", "name": "\u00c1rp\u00e1d S\u00f6r\u00f6z\u0151", "source": "route4u"}}, {"type": "node", "id": 4983708664, "lat": 47.528597, "lon": 21.6208095, "tags": {"addr:city": "Debrecen", "amenity": "pub", "name": "Sheldon's", "toilets:wheelchair": "yes", "wheelchair": "yes"}}, {"type": "node", "id": 4983752714, "lat": 47.5288927, "lon": 21.6048499, "tags": {"amenity": "pub", "name": "Dorottya Pressz\u00f3"}}, {"type": "node", "id": 5257858974, "lat": 47.5395684, "lon": 21.6250345, "tags": {"amenity": "pub", "name": "MOB K\u00e1v\u00e9z\u00f3 \u00e9s S\u00f6r\u00f6z\u0151"}}, {"type": "node", "id": 5586036324, "lat": 47.555395, "lon": 21.6009953, "tags": {"amenity": "pub", "internet_access": "wlan", "name": "Tr\u00f3fea"}}, {"type": "node", "id": 6286794486, "lat": 47.4298686, "lon": 21.3986869, "tags": {"addr:city": "Hajd\u00faszoboszl\u00f3", "addr:postcode": "4200", "amenity": "pub", "name": "S\u00f6rpince"}}, {"type": "node", "id": 6556376684, "lat": 47.5287322, "lon": 21.6373513, "tags": {"addr:city": "Debrecen", "addr:housenumber": "16", "addr:postcode": "4029", "addr:street": "Baross G\u00e1bor utca", "amenity": "pub", "dog": "yes", "free_refill": "yes", "name": "Malter", "owncup": "yes"}}, {"type": "node", "id": 7432795181, "lat": 47.673536, "lon": 21.5115944}, {"type": "node", "id": 7432795182, "lat": 47.6734577, "lon": 21.5115963}, {"type": "node", "id": 7432795183, "lat": 47.6734598, "lon": 21.5117898}, {"type": "node", "id": 7432795184, "lat": 47.673588, "lon": 21.5117867}, {"type": "node", "id": 7432799185, "lat": 47.6735871, "lon": 21.5117027}, {"type": "node", "id": 7432799186, "lat": 47.6735373, "lon": 21.5117039}, {"type": "node", "id": 9195566495, "lat": 47.5290685, "lon": 21.5832918}, {"type": "node", "id": 9195566496, "lat": 47.5290342, "lon": 21.5833103}, {"type": "node", "id": 9195566497, "lat": 47.5290716, "lon": 21.5834857}, {"type": "node", "id": 9195566498, "lat": 47.5292825, "lon": 21.5833734}, {"type": "node", "id": 9195566499, "lat": 47.5292741, "lon": 21.5831595}, {"type": "node", "id": 9195566500, "lat": 47.5292689, "lon": 21.5830303}, {"type": "node", "id": 9195566501, "lat": 47.529055, "lon": 21.583058}, {"type": "node", "id": 9195566502, "lat": 47.5290602, "lon": 21.583198}, {"type": "node", "id": 9195566503, "lat": 47.5291734, "lon": 21.5831795}, {"type": "node", "id": 9195566504, "lat": 47.5291838, "lon": 21.5833195}, {"type": "node", "id": 9195566505, "lat": 47.5290903, "lon": 21.5833657}, {"type": "node", "id": 9822989811, "lat": 47.4083922, "lon": 21.63499}, {"type": "node", "id": 9822989813, "lat": 47.4084077, "lon": 21.6349556}, {"type": "node", "id": 9822989814, "lat": 47.4084594, "lon": 21.6350066}, {"type": "node", "id": 9822989815, "lat": 47.4084202, "lon": 21.6350935}, {"type": "node", "id": 9825383085, "lat": 47.4083782, "lon": 21.6351863}, {"type": "node", "id": 9825383086, "lat": 47.4083543, "lon": 21.6351628}, {"type": "node", "id": 9825383087, "lat": 47.4083625, "lon": 21.6351445}, {"type": "node", "id": 9825383088, "lat": 47.4083347, "lon": 21.6351171}, {"type": "node", "id": 9825383089, "lat": 47.4083865, "lon": 21.635168}, {"type": "node", "id": 10018262354, "lat": 47.471411, "lon": 21.5905327, "tags": {"amenity": "pub", "name": "Szepesi Kocsma"}}, {"type": "way", "id": 285258118, "nodes": [2889372647, 2889372649, 2889372651, 2889372650, 2889372648, 2889372646, 2889372644, 2889372645, 2889372647], "tags": {"amenity": "pub", "building": "yes", "internet_access": "wlan", "name": "Teniszke", "outdoor_seating": "yes", "smoking": "no", "wheelchair": "yes"}}, {"type": "way", "id": 314999684, "nodes": [3210834088, 3210834089, 3210834090, 3210834087, 3210834086, 3210834088], "tags": {"amenity": "pub", "building": "yes", "name": "Csaba B\u00e1csi kocsm\u00e1ja"}}, {"type": "way", "id": 329232649, "nodes": [3360745839, 3360745838, 3360745840, 3360745841, 3360745839], "tags": {"amenity": "pub", "image": "http://files.remlac.hu/magyarorszagi8as/foto/52_Debrecen_Teglas_Ujfeherto/26_114618T3300.JPG", "name": "Pallagi pressz\u00f3", "toilets:wheelchair": "no", "wheelchair": "no"}}, {"type": "way", "id": 331303857, "nodes": [3383611052, 3383611050, 3383611051, 3383611055, 3383611057, 3383611053, 3383611056, 3383611052], "tags": {"amenity": "pub", "building": "yes", "name": "Malta Cafe & Pub"}}, {"type": "way", "id": 331358181, "nodes": [3384180769, 3384180771, 3384180770, 3384180772, 3384180776, 3384180775, 3384180774, 3384180773, 3384180769], "tags": {"amenity": "pub", "building": "yes", "name": "Unicum Pub"}}, {"type": "way", "id": 331452018, "nodes": [3385237341, 3385237342, 3385237346, 3385237345, 3385237341], "tags": {"amenity": "pub", "building": "yes"}}, {"type": "way", "id": 345512930, "nodes": [3521609595, 3521609594, 3521609291, 3521609292, 3521609593, 3521609595], "tags": {"addr:city": "Debrecen", "addr:housenumber": "42-44", "addr:postcode": "4032", "addr:street": "F\u00fcredi \u00fat", "amenity": "pub", "building": "yes", "name": "F\u00fcredi S\u00f6r\u00f6z\u0151", "toilets:wheelchair": "yes", "wheelchair": "limited"}}, {"type": "way", "id": 379843573, "nodes": [3831855537, 3842600149, 3831855538, 3831855539, 3831855540, 3831855537], "tags": {"amenity": "pub", "building": "yes", "name": "Tequila b\u00e1r"}}, {"type": "way", "id": 383942158, "nodes": [3872456679, 3872456680, 3872456681, 3872456682, 3872456683, 3872456684, 3872456679], "tags": {"addr:city": "Debrecen", "addr:housenumber": "17", "addr:postcode": "4025", "addr:street": "Erzs\u00e9bet utca", "amenity": "pub", "building": "yes", "name": "Cosmo Pub"}}, {"type": "way", "id": 483404872, "nodes": [4761464468, 4761464469, 4761464470, 4761464471, 4761464468], "tags": {"amenity": "pub", "building": "yes", "name": "Fortuna pressz\u00f3"}}, {"type": "way", "id": 483499869, "nodes": [4762453222, 4762442434, 4762442435, 4762453223, 4762453222], "tags": {"amenity": "pub", "building": "yes", "name": "Plat\u00e1n s\u00f6r\u00f6z\u0151"}}, {"type": "way", "id": 483678745, "nodes": [4764232166, 4764232167, 4764232168, 4788761199, 4764232169, 4764232166], "tags": {"amenity": "pub", "building": "yes", "name": "Sarok pressz\u00f3"}}, {"type": "way", "id": 486977161, "nodes": [4795085814, 4809853098, 4795088435, 4795097141, 4795090379, 4795088437, 4795088438, 4795088439, 4795088440, 4795088441, 4795088442, 4795088443, 4795088444, 4795085815, 4795085814], "tags": {"amenity": "pub", "building": "yes", "name": "Roncs B\u00e1r", "toilets:wheelchair": "yes", "wheelchair": "yes"}}, {"type": "way", "id": 794677165, "nodes": [7432795181, 7432795182, 7432795183, 7432795184, 7432799185, 7432799186, 7432795181], "tags": {"amenity": "pub", "building": "yes", "name": "Z\u00f6ldfa S\u00f6r\u00f6z\u0151"}}, {"type": "way", "id": 995850079, "nodes": [9195566495, 9195566496, 9195566497, 9195566498, 9195566499, 9195566500, 9195566501, 9195566502, 9195566503, 9195566504, 9195566505, 9195566495], "tags": {"addr:city": "Debrecen", "addr:housenumber": "10", "addr:postcode": "4031", "addr:street": "P\u00f3sa utca", "amenity": "pub", "building": "yes", "name": "Var\u00e1zs S\u00f6r\u00f6z\u0151 (Kis\u00fczemi s\u00f6rf\u0151zde)", "old_name": "K\u00e9ses, N\u00e1jlon, Jakab"}}, {"type": "way", "id": 1070348287, "nodes": [9822989811, 9822989813, 9822989814, 9822989815, 9825383089, 9825383085, 9825383086, 9825383087, 9825383088, 9822989811], "tags": {"addr:city": "S\u00e1r\u00e1nd", "addr:housenumber": "2", "addr:postcode": "4272", "addr:street": "Kossuth utca", "amenity": "pub", "building": "yes", "name": "Bresztov\u00e1n kocsma"}}]}