{"version": 0.6, "generator": "Overpass API 0.7.59 e21c39fe", "osm3s": {"timestamp_osm_base": "2023-01-20T17:53:54Z", "copyright": "The data included in this document is from www.openstreetmap.org. The data is made available under ODbL."}, "elements": [{"type": "node", "id": 455003135, "lat": 45.7627486, "lon": 18.1635222, "tags": {"addr:city": "Donji Miholjac", "addr:housenumber": "21", "addr:postcode": "31540", "addr:street": "Trg Ante Star\u010devi\u0107a", "amenity": "library", "email": "upiti@gkgdm.hr", "name": "Gradska knji\u017enica Grada Donjeg Miholjca", "operator": "Grad Donji Miholjac", "operator:type": "public", "phone": "031 631 746", "website": "https://gkgdm.hr"}}, {"type": "node", "id": 457941261, "lat": 46.0774977, "lon": 18.2272761, "tags": {"amenity": "library", "name": "Egyetemi Lev\u00e9lt\u00e1r", "wheelchair": "yes"}}, {"type": "node", "id": 935393035, "lat": 46.0745423, "lon": 18.241535}, {"type": "node", "id": 935393124, "lat": 46.0749335, "lon": 18.2423194}, {"type": "node", "id": 935393408, "lat": 46.0743062, "lon": 18.2427267}, {"type": "node", "id": 935393427, "lat": 46.074321, "lon": 18.2421648}, {"type": "node", "id": 935393530, "lat": 46.0746709, "lon": 18.2419337}, {"type": "node", "id": 1161448800, "lat": 46.0767019, "lon": 18.2069629, "tags": {"amenity": "library"}}, {"type": "node", "id": 1259612288, "lat": 45.8586143, "lon": 18.2900996, "tags": {"amenity": "library", "name": "Sikl\u00f3s T\u00e9rs\u00e9gi K\u00f6nyvt\u00e1r \u00e9s Ismeretk\u00f6zpont"}}, {"type": "node", "id": 1717115942, "lat": 45.7705893, "lon": 18.5995021, "tags": {"amenity": "library", "name": "Gradska knji\u017enica"}}, {"type": "node", "id": 3421560793, "lat": 46.0765668, "lon": 18.2299149, "tags": {"amenity": "library", "name": "Belv\u00e1rosi k\u00f6nyvt\u00e1r"}}, {"type": "node", "id": 3464278645, "lat": 46.100138, "lon": 18.457621, "tags": {"amenity": "library", "name": "K\u00f6zs\u00e9gi k\u00f6nyvt\u00e1r", "source": "turistautak.hu", "source:date": "2011-04-23", "url": "http://turistautak.hu/poi.php?id=97628"}}, {"type": "node", "id": 3471841266, "lat": 46.045685, "lon": 18.516626, "tags": {"amenity": "library", "source": "turistautak.hu", "source:date": "2013-05-07", "url": "http://turistautak.hu/poi.php?id=153261"}}, {"type": "node", "id": 3485670790, "lat": 46.0744978, "lon": 18.2140375, "tags": {"amenity": "library", "name": "V\u00e1rkonyi N\u00e1ndor fi\u00f3kk\u00f6nyvt\u00e1r"}}, {"type": "node", "id": 3583259539, "lat": 46.0408832, "lon": 18.2235567, "tags": {"amenity": "library"}}, {"type": "node", "id": 3670752324, "lat": 46.0519332, "lon": 18.2242199}, {"type": "node", "id": 3670754027, "lat": 46.0520034, "lon": 18.2243259}, {"type": "node", "id": 3670754031, "lat": 46.0520078, "lon": 18.2241174}, {"type": "node", "id": 3670754035, "lat": 46.052078, "lon": 18.2242235}, {"type": "node", "id": 4878051573, "lat": 46.0354969, "lon": 18.2887142, "tags": {"amenity": "library"}}, {"type": "node", "id": 4909272172, "lat": 46.027071, "lon": 18.4608227}, {"type": "node", "id": 4909272177, "lat": 46.0270975, "lon": 18.4607953}, {"type": "node", "id": 4909272178, "lat": 46.0270081, "lon": 18.4608876}, {"type": "node", "id": 4909272179, "lat": 46.0269708, "lon": 18.4608127}, {"type": "node", "id": 4909272180, "lat": 46.0270602, "lon": 18.4607203}, {"type": "node", "id": 5046934603, "lat": 45.8058024, "lon": 18.2120898, "tags": {"addr:city": "Dr\u00e1vaszabolcs", "addr:housenumber": "2/b", "addr:postcode": "7851", "addr:street": "K\u00f6zt\u00e1rsas\u00e1g t\u00e9r", "amenity": "library", "name": "K\u00f6zs\u00e9gi k\u00f6nyvt\u00e1r", "website": "http://dravaszabolcs.hu/hirek/onkormanyzat/konyvtar/"}}, {"type": "node", "id": 5314411581, "lat": 45.9065453, "lon": 18.2587973, "tags": {"amenity": "library", "name": "Bisse, K\u00f6nyvt\u00e1r"}}, {"type": "node", "id": 5673547030, "lat": 45.8480912, "lon": 18.2360226, "tags": {"addr:city": "Hark\u00e1ny", "addr:housenumber": "2/A", "addr:postcode": "7815", "addr:street": "Kossuth Lajos utca", "amenity": "library", "source": "survey"}}, {"type": "node", "id": 6389055350, "lat": 46.051954, "lon": 18.2242512, "tags": {"entrance": "yes"}}, {"type": "node", "id": 6389055357, "lat": 46.0520259, "lon": 18.2241448, "tags": {"entrance": "yes"}}, {"type": "node", "id": 6700273607, "lat": 45.9069701, "lon": 18.4160527}, {"type": "node", "id": 6700273608, "lat": 45.9070575, "lon": 18.4160135}, {"type": "node", "id": 6700273609, "lat": 45.9070366, "lon": 18.4159174}, {"type": "node", "id": 6700273610, "lat": 45.9069492, "lon": 18.4159566}, {"type": "node", "id": 8380781339, "lat": 45.9558094, "lon": 18.3864901, "tags": {"amenity": "library", "name": "K\u00f6nyvt\u00e1r"}}, {"type": "node", "id": 8585634476, "lat": 45.7881299, "lon": 18.3527114, "tags": {"amenity": "library", "name": "K\u00f6nyvt\u00e1r"}}, {"type": "node", "id": 8662367471, "lat": 46.1317092, "lon": 18.5867529, "tags": {"amenity": "library", "name": "K\u00f6nyvt\u00e1r"}}, {"type": "way", "id": 80179216, "nodes": [935393408, 935393124, 935393530, 935393035, 935393427, 935393408], "tags": {"addr:city": "P\u00e9cs", "addr:housenumber": "2/A", "addr:postcode": "7622", "addr:street": "Universitas utca", "amenity": "library", "building": "yes", "name": "Tud\u00e1sk\u00f6zpont", "toilets:wheelchair": "yes", "wheelchair": "yes"}}, {"type": "way", "id": 362825505, "nodes": [3670754035, 6389055357, 3670754031, 3670752324, 6389055350, 3670754027, 3670754035], "tags": {"addr:city": "P\u00e9cs", "addr:country": "HU", "addr:housenumber": "1", "addr:postcode": "7632", "addr:street": "Honv\u00e9d t\u00e9r", "amenity": "library", "building": "yes", "name": "Kertv\u00e1rosi Fi\u00f3kk\u00f6nyvt\u00e1r", "operator": "Csorba Gy\u0151z\u0151 K\u00f6nyvt\u00e1r P\u00e9cs", "operator:type": "public", "phone": "+36 72 443 222", "ref:isil": "HU-IL-000376-3", "website": "https://www.csgyk.hu/fiokkonyvtarak/"}}, {"type": "way", "id": 499685202, "nodes": [4909272177, 4909272172, 4909272178, 4909272179, 4909272180, 4909272177], "tags": {"amenity": "library", "building": "yes", "name": "K\u00f6nyvt\u00e1r"}}, {"type": "way", "id": 712636093, "nodes": [6700273607, 6700273608, 6700273609, 6700273610, 6700273607], "tags": {"amenity": "library", "building": "yes"}}]}