{"version": 0.6, "generator": "Overpass API 0.7.59 e21c39fe", "osm3s": {"timestamp_osm_base": "2023-01-20T17:55:59Z", "copyright": "The data included in this document is from www.openstreetmap.org. The data is made available under ODbL."}, "elements": [{"type": "node", "id": 4518831792, "lat": 48.1783336, "lon": 18.3612207, "tags": {"addr:city": "Lula", "addr:conscriptionnumber": "55", "addr:housenumber": "55", "addr:place": "Lula", "addr:postcode": "935 35", "amenity": "library", "contact:email": "obeclula@stonline.sk", "contact:phone": "+421 36 639 8112", "name": "Obecn\u00e1 kni\u017enica Lula"}}, {"type": "node", "id": 4518831815, "lat": 48.205972, "lon": 18.4460347, "tags": {"addr:city": "Ve\u013ek\u00fd \u010eur", "addr:housenumber": "80", "addr:postcode": "935 34", "addr:street": "Hlavn\u00e1", "addr:streetnumber": "80", "amenity": "library", "contact:email": "obec.velkydur@stonline.sk", "contact:phone": "+421 36 633 1701", "name": "Obecn\u00e1 kni\u017enica Ve\u013ek\u00fd \u010eur"}}, {"type": "node", "id": 4520149445, "lat": 48.2020627, "lon": 18.3279042, "tags": {"addr:city": "Melek", "addr:conscriptionnumber": "250", "addr:housenumber": "250", "addr:place": "Melek", "addr:postcode": "952 01", "amenity": "library", "contact:email": "obecmelek@gmail.com", "contact:phone": "+421 908 371 507", "name": "Obecn\u00e1 kni\u017enica Melek"}}, {"type": "node", "id": 5417992378, "lat": 48.1653937, "lon": 18.2806485, "tags": {"addr:city": "Kme\u0165ovo", "addr:conscriptionnumber": "77", "addr:housenumber": "77", "addr:place": "Kme\u0165ovo", "addr:postcode": "941 62", "amenity": "library", "contact:email": "starosta@obeckmetovo.sk", "contact:phone": "+421 35 659 8123", "name": "Obecn\u00e1 kni\u017enica Kme\u0165ovo"}}, {"type": "node", "id": 8316953618, "lat": 48.1876297, "lon": 18.2074344, "tags": {"amenity": "library"}}]}