{"version": 0.6, "generator": "Overpass API 0.7.59 e21c39fe", "osm3s": {"timestamp_osm_base": "2023-01-20T17:55:59Z", "copyright": "The data included in this document is from www.openstreetmap.org. The data is made available under ODbL."}, "elements": [{"type": "node", "id": 1354628906, "lat": 47.7835098, "lon": 18.971782, "tags": {"addr:city": "Visegr\u00e1d", "addr:housenumber": "11", "addr:postcode": "2025", "addr:street": "Sz\u00e9chenyi utca", "amenity": "library", "name": "Visegr\u00e1di M\u0171vel\u0151d\u00e9sih\u00e1z \u00e9s K\u00f6nyvt\u00e1r"}}, {"type": "node", "id": 1908040161, "lat": 47.7718375, "lon": 19.133896, "tags": {"amenity": "library", "name": "Katona Lajos V\u00e1rosi K\u00f6nyvt\u00e1r"}}, {"type": "node", "id": 2429396055, "lat": 47.7890605, "lon": 18.9599921, "tags": {"addr:city": "Nagymaros", "addr:housenumber": "11", "addr:postcode": "2626", "addr:street": "V\u00e1ci \u00fat", "amenity": "library", "email": "konyvtar@nagymaros.hu", "facebook": "https://hu-hu.facebook.com/nagymarosikonyvtar", "name": "V\u00e1rosi K\u00f6nyvt\u00e1r", "phone": "+36 27 594 106", "url": "http://www.nagymaros.hu/intezmenyek/varosi-koenyvtar-es-mveldesi-haz", "website": "https://nagymaros.hu/intezmenyek/varosi-koenyvtar-es-mveldesi-haz?start=2"}}, {"type": "node", "id": 2812393145, "lat": 47.8735598, "lon": 18.9356344, "tags": {"amenity": "library", "ele": "266", "name": "K\u00f6zs\u00e9gi k\u00f6nyvt\u00e1r", "opening_hours": "Tu,Th 15:30-17:00"}}, {"type": "node", "id": 3439051259, "lat": 47.8219374, "lon": 19.0360211, "tags": {"addr:city": "Ver\u0151ce", "addr:housenumber": "21", "addr:postcode": "2621", "addr:street": "\u00c1rp\u00e1d \u00fat", "amenity": "library", "name": "K\u00f6zs\u00e9gi k\u00f6nyvt\u00e1r", "source": "turistautak.hu", "source:date": "2014-11-13", "url": "http://turistautak.hu/poi.php?id=173981"}}, {"type": "node", "id": 3702723550, "lat": 47.8159682, "lon": 18.8656703}, {"type": "node", "id": 3702723551, "lat": 47.8159958, "lon": 18.8655747}, {"type": "node", "id": 3702723552, "lat": 47.8160305, "lon": 18.8654546}, {"type": "node", "id": 3702723553, "lat": 47.816085, "lon": 18.8657451}, {"type": "node", "id": 3702723554, "lat": 47.8161473, "lon": 18.8655294}, {"type": "node", "id": 3712692082, "lat": 47.8660703, "lon": 18.8718607, "tags": {"amenity": "library", "name": "K\u00f6zs\u00e9gi K\u00f6zm\u0171vel\u0151d\u00e9si K\u00f6nyvt\u00e1r"}}, {"type": "node", "id": 3980709590, "lat": 47.796633, "lon": 18.7388029}, {"type": "node", "id": 3980709591, "lat": 47.7966998, "lon": 18.7384361}, {"type": "node", "id": 3980709592, "lat": 47.7965725, "lon": 18.7383955}, {"type": "node", "id": 3980709593, "lat": 47.7965527, "lon": 18.7384983}, {"type": "node", "id": 3980709594, "lat": 47.7962952, "lon": 18.738198}, {"type": "node", "id": 4514478986, "lat": 47.7962511, "lon": 18.7383409}, {"type": "node", "id": 4514481789, "lat": 47.79629, "lon": 18.7382147}, {"type": "node", "id": 4518791682, "lat": 48.1264655, "lon": 18.782494, "tags": {"addr:city": "Demandice", "addr:conscriptionnumber": "236", "addr:housenumber": "236", "addr:place": "Demandice", "addr:postcode": "935 85", "amenity": "library", "contact:email": "podatelna@demandice.sk", "contact:phone": "+421 907 727 511", "name": "Obecn\u00e1 kni\u017enica Demandice"}}, {"type": "node", "id": 4518791683, "lat": 48.1265795, "lon": 19.0471171, "tags": {"addr:city": "Ipe\u013esk\u00e9 \u00da\u013eany", "addr:conscriptionnumber": "98", "addr:housenumber": "98", "addr:place": "Ipe\u013esk\u00e9 \u00da\u013eany", "addr:postcode": "935 82", "amenity": "library", "contact:email": "ipulany@gmail.com", "contact:phone": "+421 36 749 4321", "name": "Obecn\u00e1 kni\u017enica Ipe\u013esk\u00e9 \u00da\u013eany"}}, {"type": "node", "id": 4518791684, "lat": 47.9650669, "lon": 18.5689525, "tags": {"addr:city": "Ke\u0165", "addr:conscriptionnumber": "246", "addr:housenumber": "246", "addr:place": "Ke\u0165", "addr:postcode": "935 64", "amenity": "library", "contact:email": "obec.ket@mail.t-com.sk", "contact:phone": "+421 36 773 7121", "name": "Obecn\u00e1 kni\u017enica Ke\u0165"}}, {"type": "node", "id": 4518791685, "lat": 48.1088896, "lon": 18.6279962, "tags": {"addr:city": "\u0160arovce", "addr:conscriptionnumber": "423", "addr:housenumber": "423", "addr:place": "\u0160arovce", "addr:postcode": "935 52", "amenity": "library", "contact:email": "sarovce@sarovce.sk", "contact:phone": "+421 36 779 2056", "name": "Obecn\u00e1 kni\u017enica \u0160arovce"}}, {"type": "node", "id": 4518831789, "lat": 48.0200638, "lon": 18.8074617, "tags": {"addr:city": "Ipe\u013esk\u00fd Sokolec", "addr:conscriptionnumber": "119", "addr:housenumber": "119", "addr:place": "Ipe\u013esk\u00fd Sokolec", "addr:postcode": "935 75", "amenity": "library", "contact:email": "obecsokolec@gmail.com", "contact:phone": "+421 36 778 7222", "name": "Obecn\u00e1 kni\u017enica Ipe\u013esk\u00fd Sokolec"}}, {"type": "node", "id": 4518831790, "lat": 48.0412947, "lon": 18.7767667, "tags": {"addr:city": "Lontov", "addr:conscriptionnumber": "67", "addr:housenumber": "67", "addr:place": "Lontov", "addr:postcode": "935 75", "amenity": "library", "contact:email": "obeclontov@slovanet.sk", "contact:phone": "+421 36 778 7210", "name": "Obecn\u00e1 kni\u017enica Lontov"}}, {"type": "node", "id": 4518831791, "lat": 48.0869815, "lon": 18.796104, "tags": {"amenity": "library", "contact:email": "sazdice@gmail.com", "contact:phone": "+421 36 749 3223", "name": "Obecn\u00e1 kni\u017enica Sazdice"}}, {"type": "node", "id": 4518831793, "lat": 48.0576676, "lon": 18.808921, "tags": {"addr:city": "Kub\u00e1\u0148ovo", "addr:conscriptionnumber": "22", "addr:housenumber": "22", "addr:place": "Kub\u00e1\u0148ovo", "addr:postcode": "935 75", "amenity": "library", "contact:email": "obeckubanovo@mail.t-com.sk", "contact:phone": "+421 36 778 8125", "name": "Obecn\u00e1 kni\u017enica Kub\u00e1\u0148ovo"}}, {"type": "node", "id": 4518831794, "lat": 48.1429719, "lon": 18.8971375, "tags": {"addr:city": "Slatina", "addr:conscriptionnumber": "135", "addr:housenumber": "135", "addr:place": "Slatina", "addr:postcode": "935 84", "amenity": "library", "contact:email": "ocuslatina@gmail.com", "contact:phone": "+421 915 777 748", "name": "Obecn\u00e1 kni\u017enica Slatina"}}, {"type": "node", "id": 4518831797, "lat": 47.9969247, "lon": 18.7738453, "tags": {"addr:city": "Bielovce", "addr:conscriptionnumber": "17", "addr:housenumber": "17", "addr:place": "Bielovce", "addr:postcode": "935 74", "amenity": "library", "contact:phone": "+421 36 772 0380", "name": "Obecn\u00e1 kni\u017enica Bielovce"}}, {"type": "node", "id": 4518831798, "lat": 48.1034689, "lon": 18.9459279, "tags": {"addr:city": "Ve\u013ek\u00e9 Turovce", "addr:conscriptionnumber": "321", "addr:housenumber": "321", "addr:place": "Ve\u013ek\u00e9 Turovce", "addr:postcode": "935 81", "amenity": "library", "contact:email": "info@velketurovce.sk", "contact:phone": "+421 915 080 159", "name": "Obecn\u00e1 kni\u017enica Ve\u013ek\u00e9 Turovce"}}, {"type": "node", "id": 4518831801, "lat": 48.1357597, "lon": 18.7041948, "tags": {"addr:city": "Hontianska Vrbica", "addr:conscriptionnumber": "267", "addr:housenumber": "267", "addr:place": "Hontianska Vrbica", "addr:postcode": "935 55", "amenity": "library", "contact:email": "obecnyurad@hontianskavrbica.sk", "contact:phone": "+421 36 778 9321", "name": "Obecn\u00e1 kni\u017enica Hontianska Vrbica"}}, {"type": "node", "id": 4518831802, "lat": 48.1128148, "lon": 18.8918894, "tags": {"addr:city": "Tup\u00e1", "addr:conscriptionnumber": "113", "addr:housenumber": "113", "addr:place": "Tup\u00e1", "addr:postcode": "935 84", "amenity": "library", "contact:email": "obectupa@zoznam.sk", "contact:phone": "+421 36 749 1168", "name": "Obecn\u00e1 kni\u017enica Tup\u00e1"}}, {"type": "node", "id": 4518831806, "lat": 48.0887966, "lon": 18.8993476, "tags": {"addr:city": "Hrkovce", "addr:conscriptionnumber": "94", "addr:housenumber": "94", "addr:place": "Hrkovce", "addr:postcode": "936 01", "amenity": "library", "contact:email": "obec.hrkovce@gmail.com", "contact:phone": "+421 36 741 0240", "name": "Obecn\u00e1 kni\u017enica Hrkovce"}}, {"type": "node", "id": 4518831807, "lat": 48.1553589, "lon": 18.5826549, "tags": {"addr:city": "Tur\u00e1", "addr:conscriptionnumber": "78", "addr:housenumber": "78", "addr:place": "Tur\u00e1", "addr:postcode": "935 51", "amenity": "library", "contact:email": "obectura@mail.t-com.sk", "contact:phone": "+421 36 772 0910", "name": "Obecn\u00e1 kni\u017enica Tur\u00e1"}}, {"type": "node", "id": 4518831808, "lat": 48.1259746, "lon": 18.9472995, "tags": {"addr:city": "Horn\u00e9 Turovce", "addr:conscriptionnumber": "108", "addr:housenumber": "108", "addr:place": "Horn\u00e9 Turovce", "addr:postcode": "93581", "amenity": "library", "contact:email": "hturovce@horneturovce.sk", "contact:phone": "+421 948 100 751", "name": "Obecn\u00e1 kni\u017enica Horn\u00e9 Turovce"}}, {"type": "node", "id": 4518831809, "lat": 48.1150436, "lon": 18.704663, "tags": {"addr:city": "Zbrojn\u00edky", "addr:conscriptionnumber": "166", "addr:housenumber": "166", "addr:place": "Zbrojn\u00edky", "addr:postcode": "935 55", "amenity": "library", "contact:email": "obecnyurad@zbrojniky.sk", "contact:phone": "+421 36 779 9115", "name": "Obecn\u00e1 kni\u017enica Zbrojn\u00edky"}}, {"type": "node", "id": 4518831816, "lat": 48.1591419, "lon": 18.9777975, "tags": {"addr:city": "Pl\u00e1\u0161\u0165ovce", "addr:conscriptionnumber": "670", "addr:housenumber": "670", "addr:place": "Pl\u00e1\u0161\u0165ovce", "addr:postcode": "93582", "amenity": "library", "contact:email": "plastovce@gmail.com", "contact:phone": "+421 36 749 4114", "name": "Obecn\u00e1 kni\u017enica Pl\u00e1\u0161\u0165ovce"}}, {"type": "node", "id": 4825498441, "lat": 48.1168462, "lon": 19.0761184, "tags": {"addr:city": "Kle\u0148any", "addr:conscriptionnumber": "149", "addr:housenumber": "149", "addr:place": "Kle\u0148any", "addr:postcode": "991 10", "amenity": "library", "contact:email": "klenany@pobox.sk", "contact:phone": "+421 47 489 1309", "name": "Obecn\u00e1 kni\u017enica Kle\u0148any"}}, {"type": "node", "id": 4825498442, "lat": 48.0765234, "lon": 19.0807189, "tags": {"addr:city": "Ve\u013ek\u00e1 Ves nad Ip\u013eom", "addr:conscriptionnumber": "124", "addr:housenumber": "124", "addr:place": "Ve\u013ek\u00e1 Ves nad Ip\u013eom", "addr:postcode": "991 10", "amenity": "library", "contact:email": "obecvelkavesnadiplom@gmail.com", "contact:phone": "+421 47 488 8121", "name": "Obecn\u00e1 kni\u017enica Ve\u013ek\u00e1 Ves nad Ip\u013eom"}}, {"type": "node", "id": 5238522031, "lat": 47.7869737, "lon": 18.9562239, "tags": {"amenity": "library", "name": "telefonf\u00fclke-k\u00f6nyvt\u00e1r", "opening_hours": "24/7"}}, {"type": "node", "id": 5417992374, "lat": 47.8836587, "lon": 18.755968, "tags": {"addr:city": "Salka", "addr:conscriptionnumber": "61", "addr:housenumber": "61", "addr:place": "Salka", "addr:postcode": "94361", "amenity": "library", "contact:email": "obecsalka@stonline.sk", "contact:phone": "+421 907 243 018", "name": "Obecn\u00e1 kni\u017enica Salka"}}, {"type": "node", "id": 5417992375, "lat": 47.9022109, "lon": 18.6748016, "tags": {"addr:city": "Pavlov\u00e1", "addr:conscriptionnumber": "153", "addr:housenumber": "153", "addr:place": "Pavlov\u00e1", "addr:postcode": "943 59", "amenity": "library", "contact:email": "obec.pavlova@zoznam.sk", "contact:phone": "+421 905 774 396", "name": "Obecn\u00e1 kni\u017enica Pavlov\u00e1"}}, {"type": "node", "id": 5417992376, "lat": 47.8290155, "lon": 18.7319436, "tags": {"addr:city": "Kamenica nad Hronom", "addr:conscriptionnumber": "106", "addr:housenumber": "106", "addr:place": "Kamenica nad Hronom", "addr:postcode": "943 65", "amenity": "library", "contact:email": "starosta@kamenicanadhronom.sk", "contact:phone": "+421 36 753 4271", "name": "Obecn\u00e1 kni\u017enica Kamenica nad Hronom"}}, {"type": "node", "id": 5417992379, "lat": 47.8304147, "lon": 18.8284736, "tags": {"addr:city": "Ch\u013eaba", "addr:conscriptionnumber": "197", "addr:housenumber": "197", "addr:place": "Ch\u013eaba", "addr:postcode": "94366", "amenity": "library", "contact:email": "chlaba@atlas.sk", "contact:phone": "+421 36 757 3162", "name": "Obecn\u00e1 kni\u017enica"}}, {"type": "node", "id": 5417992380, "lat": 47.9234279, "lon": 18.5812501, "tags": {"addr:city": "Bruty", "addr:conscriptionnumber": "111", "addr:housenumber": "111", "addr:place": "Bruty", "addr:postcode": "943 55", "amenity": "library", "contact:email": "obec@bruty.sk", "contact:phone": "+421 36 759 1111", "name": "Obecn\u00e1 kni\u017enica Bruty"}}, {"type": "node", "id": 5417992381, "lat": 47.9253259, "lon": 18.7510171, "tags": {"addr:city": "Mal\u00e9 Kosihy", "addr:conscriptionnumber": "3", "addr:housenumber": "3", "addr:place": "Mal\u00e9 Kosihy", "addr:postcode": "943 61", "amenity": "library", "contact:email": "obecmkosihy@mail.t-com.sk", "contact:phone": "+421 36 758 4133", "name": "Obecn\u00e1 kni\u017enica Mal\u00e9 Kosihy"}}, {"type": "node", "id": 5417992387, "lat": 47.849237, "lon": 18.5959164, "tags": {"addr:city": "\u013dub\u00e1", "addr:conscriptionnumber": "79", "addr:housenumber": "79", "addr:place": "\u013dub\u00e1", "addr:postcode": "943 53", "amenity": "library", "contact:email": "esilvi@inmail.sk", "contact:phone": "+421 36 752 0660", "name": "Obecn\u00e1 kni\u017enica \u013dub\u00e1"}}, {"type": "node", "id": 5417992388, "lat": 47.8336808, "lon": 18.5973144, "tags": {"addr:city": "Bel\u00e1", "addr:conscriptionnumber": "97", "addr:housenumber": "97", "addr:place": "Bel\u00e1", "addr:postcode": "943 53", "amenity": "library", "contact:email": "oubela@mail.viapvt.sk", "contact:phone": "+421 36 758 6111", "name": "Obecn\u00e1 kni\u017enica Bel\u00e1"}}, {"type": "node", "id": 5417992393, "lat": 47.8582621, "lon": 18.7731099, "tags": {"addr:city": "Le\u013ea", "addr:conscriptionnumber": "3", "addr:housenumber": "3", "addr:place": "Le\u013ea", "addr:postcode": "943 65", "amenity": "library", "contact:email": "ocu.lela@mail.t-com.sk", "contact:phone": "+421 36 757 5011", "name": "Obecn\u00e1 kni\u017enica Le\u013ea"}}, {"type": "node", "id": 5929895261, "lat": 47.7844665, "lon": 18.8755562, "tags": {"addr:city": "Pilismar\u00f3t", "addr:housenumber": "4", "addr:postcode": "2028", "addr:street": "R\u00e1k\u00f3czi Ferenc utca", "amenity": "library", "name": "Heckenast Guszt\u00e1v K\u00f6zs\u00e9gi K\u00f6nyvt\u00e1r"}}, {"type": "node", "id": 6468680681, "lat": 47.8009398, "lon": 18.9099732, "tags": {"amenity": "library"}}, {"type": "node", "id": 6486156866, "lat": 47.8010231, "lon": 18.7473838, "tags": {"addr:city": "Esztergom", "addr:housenumber": "8", "addr:postcode": "2500", "addr:street": "B\u00e1nomi \u00fat", "amenity": "library", "internet_access": "yes", "internet_access:fee": "customers", "internet_access:ssid": "Konyvtar", "name": "Helischer J\u00f3zsef V\u00e1rosi K\u00f6nyvt\u00e1r"}}, {"type": "node", "id": 9071464782, "lat": 47.8262969, "lon": 19.0123436, "tags": {"addr:city": "Kismaros", "addr:housenumber": "5", "addr:postcode": "2623", "addr:street": "Kossuth Lajos \u00fat", "amenity": "library", "name": "Kismarosi k\u00f6nyvt\u00e1r"}}, {"type": "node", "id": 9353964377, "lat": 47.8855441, "lon": 18.7765901, "tags": {"addr:city": "Letk\u00e9s", "addr:housenumber": "22/B", "addr:postcode": "2632", "addr:street": "D\u00f3zsa utca", "amenity": "library", "name": "M\u0171vel\u0151d\u00e9si H\u00e1z \u00e9s K\u00f6nyvt\u00e1r"}}, {"type": "node", "id": 9812511944, "lat": 47.9278478, "lon": 19.1367664, "tags": {"addr:city": "R\u00e9ts\u00e1g", "addr:housenumber": "26", "addr:postcode": "2651", "addr:street": "R\u00e1k\u00f3czi \u00fat", "amenity": "library", "internet_access": "yes", "level": "1", "name": "K\u00f6nyvt\u00e1r", "opening_hours": "Mo 11:00-16:00; Tu 09:00-18:00; Sa 13:00-17:00; PH off", "phone": "+36 35 350 785", "source": "https://www.facebook.com/VarosiMuvelodesiKozpontesKonyvtarRetsag/"}}, {"type": "way", "id": 366296955, "nodes": [3702723552, 3702723551, 3702723550, 3702723553, 3702723554, 3702723552], "tags": {"amenity": "library", "building": "yes", "name": "\u00c9rdy J\u00e1nos K\u00f6nyvt\u00e1r \u00e9s Inform\u00e1ci\u00f3s K\u00f6zpont"}}, {"type": "way", "id": 395170747, "nodes": [4514478986, 3980709590, 3980709591, 3980709592, 3980709593, 3980709594, 4514481789, 4514478986], "tags": {"addr:city": "Esztergom", "addr:housenumber": "2", "addr:postcode": "2500", "addr:street": "P\u00e1zm\u00e1ny P\u00e9ter utca", "amenity": "library", "building": "yes", "name": "F\u0151sz\u00e9kesegyh\u00e1zi K\u00f6nyvt\u00e1r", "name:de": "Bibliothek der Basilika", "name:en": "Basilica's Library", "wikidata": "Q1006825", "wikipedia": "hu:F\u0151sz\u00e9kesegyh\u00e1zi K\u00f6nyvt\u00e1r"}}]}