{"version": 0.6, "generator": "Overpass API 0.7.59 e21c39fe", "osm3s": {"timestamp_osm_base": "2023-01-17T15:09:09Z", "copyright": "The data included in this document is from www.openstreetmap.org. The data is made available under ODbL."}, "elements": [{"type": "node", "id": 3479961257, "lat": 47.738037, "lon": 19.677255, "tags": {"amenity": "pub", "source": "turistautak.hu", "source:date": "2011-07-10", "toilets:wheelchair": "no", "url": "http://turistautak.hu/poi.php?id=97296", "wheelchair": "no"}}, {"type": "node", "id": 6470010748, "lat": 47.7622858, "lon": 19.6740278, "tags": {"amenity": "pub", "name": "Sasf\u00e9szek"}}, {"type": "node", "id": 10300455461, "lat": 47.7608311, "lon": 19.6658822, "tags": {"amenity": "pub"}}, {"type": "node", "id": 10300455462, "lat": 47.7560625, "lon": 19.6779438, "tags": {"amenity": "pub", "brewery": "yes", "name": "Motor Rock Club Pub"}}, {"type": "node", "id": 10300455463, "lat": 47.7396491, "lon": 19.6691582, "tags": {"amenity": "pub", "brewery": "yes"}}, {"type": "node", "id": 10300455464, "lat": 47.7459822, "lon": 19.6752418, "tags": {"amenity": "pub", "brewery": "yes", "name": "Gerend\u00e1s", "toilets": "yes"}}]}