{"version": 0.6, "generator": "Overpass API 0.7.59 e21c39fe", "osm3s": {"timestamp_osm_base": "2023-01-17T15:18:24Z", "copyright": "The data included in this document is from www.openstreetmap.org. The data is made available under ODbL."}, "elements": [{"type": "node", "id": 2901766668, "lat": 46.6358025, "lon": 16.5343969}, {"type": "node", "id": 2901766679, "lat": 46.6357855, "lon": 16.5341904}, {"type": "node", "id": 2901766680, "lat": 46.6357277, "lon": 16.5344099}, {"type": "node", "id": 2901766681, "lat": 46.635719, "lon": 16.5343036}, {"type": "node", "id": 2901766682, "lat": 46.635681, "lon": 16.5343102}, {"type": "node", "id": 2901766683, "lat": 46.6356728, "lon": 16.53421}, {"type": "node", "id": 2901807338, "lat": 46.6293237, "lon": 16.5408735, "tags": {"amenity": "pub", "name": "Berek", "opening_hours": "06:00-22:00", "smoking": "no", "wheelchair": "no"}}, {"type": "node", "id": 2902323948, "lat": 46.6244259, "lon": 16.5318986, "tags": {"amenity": "pub"}}, {"type": "node", "id": 2902342168, "lat": 46.6852461, "lon": 16.6769864, "tags": {"amenity": "pub"}}, {"type": "node", "id": 2902342170, "lat": 46.6859486, "lon": 16.6808506, "tags": {"amenity": "pub"}}, {"type": "node", "id": 2902353522, "lat": 46.7385769, "lon": 16.724953}, {"type": "node", "id": 2902353523, "lat": 46.7385729, "lon": 16.7250841}, {"type": "node", "id": 2902353524, "lat": 46.738485, "lon": 16.7250812}, {"type": "node", "id": 2902353525, "lat": 46.738483, "lon": 16.72495}, {"type": "node", "id": 2923491045, "lat": 46.5737206, "lon": 16.6791031}, {"type": "node", "id": 2923491049, "lat": 46.5737598, "lon": 16.6792965}, {"type": "node", "id": 2923491052, "lat": 46.5738424, "lon": 16.6790461}, {"type": "node", "id": 2923491054, "lat": 46.5738522, "lon": 16.679041}, {"type": "node", "id": 2923491057, "lat": 46.57389, "lon": 16.6792293}, {"type": "node", "id": 2924875202, "lat": 46.572855, "lon": 16.5903815, "tags": {"amenity": "pub", "name": "Sziget s\u00f6r\u00f6z\u0151", "opening_hours": "Mo-Th, Su 08:00-12:00, 16:00-20:00; Fr-Sa 08:00-12:00, 16:00-21:00"}}, {"type": "node", "id": 2929508847, "lat": 46.6293996, "lon": 16.5632817}, {"type": "node", "id": 2929508848, "lat": 46.6294048, "lon": 16.5632151}, {"type": "node", "id": 2929508849, "lat": 46.6294206, "lon": 16.5633465}, {"type": "node", "id": 2929508850, "lat": 46.6294215, "lon": 16.5632666}, {"type": "node", "id": 2929508851, "lat": 46.6294425, "lon": 16.5633315}, {"type": "node", "id": 2929508852, "lat": 46.6294571, "lon": 16.5633763}, {"type": "node", "id": 2929508853, "lat": 46.6294727, "lon": 16.5631684}, {"type": "node", "id": 2929508854, "lat": 46.629525, "lon": 16.5633296}, {"type": "node", "id": 2988582368, "lat": 46.5254715, "lon": 16.5225187}, {"type": "node", "id": 2988582369, "lat": 46.5256227, "lon": 16.5227204}, {"type": "node", "id": 2988582370, "lat": 46.5255277, "lon": 16.5228708}, {"type": "node", "id": 2988582371, "lat": 46.5253765, "lon": 16.522669}, {"type": "node", "id": 3009518818, "lat": 46.7607394, "lon": 16.3420138, "tags": {"amenity": "pub", "name": "T\u0171zzom\u00e1nc szomjolt\u00f3"}}, {"type": "node", "id": 3024794222, "lat": 46.5828033, "lon": 16.4476601, "tags": {"addr:city": "Dolga Vas", "addr:housenumber": "120", "addr:postcode": "9220", "addr:street": "Glavna ulica", "amenity": "pub", "name": "Dnevni bar Medea", "opening_hours": "Mo-Sa 06:30-22:30; Su 08:00-22:00"}}, {"type": "node", "id": 3202829556, "lat": 46.565767, "lon": 16.476429}, {"type": "node", "id": 3202829557, "lat": 46.5657084, "lon": 16.4765772}, {"type": "node", "id": 3202829558, "lat": 46.56558, "lon": 16.4764698}, {"type": "node", "id": 3202829560, "lat": 46.5656263, "lon": 16.4763592}, {"type": "node", "id": 3202829561, "lat": 46.5656847, "lon": 16.476408}, {"type": "node", "id": 3202829562, "lat": 46.5656947, "lon": 16.4763827}, {"type": "node", "id": 3202829563, "lat": 46.5656628, "lon": 16.476356}, {"type": "node", "id": 3202829564, "lat": 46.5657019, "lon": 16.4762573}, {"type": "node", "id": 3202829565, "lat": 46.5657773, "lon": 16.4763204}, {"type": "node", "id": 3202829566, "lat": 46.5657424, "lon": 16.4764084}, {"type": "node", "id": 3324623983, "lat": 46.593863, "lon": 16.643806, "tags": {"amenity": "pub", "name": "Italbolt", "source": "turistautak.hu", "toilets:wheelchair": "no", "url": "http://turistautak.hu/poi.php?id=99634", "wheelchair": "no"}}, {"type": "node", "id": 3375192211, "lat": 46.847, "lon": 16.592558, "tags": {"amenity": "pub", "source": "turistautak.hu", "url": "http://turistautak.hu/poi.php?id=51506"}}, {"type": "node", "id": 3383419388, "lat": 46.801037, "lon": 16.719625, "tags": {"amenity": "pub", "name": "Patk\u00f3 pressz\u00f3", "source": "turistautak.hu", "url": "http://turistautak.hu/poi.php?id=108735"}}, {"type": "node", "id": 3386310676, "lat": 46.7380984, "lon": 16.7248276, "tags": {"amenity": "pub", "name": "Kocsma", "source": "turistautak.hu", "url": "http://turistautak.hu/poi.php?id=85041"}}, {"type": "node", "id": 3390023554, "lat": 46.540791, "lon": 16.694664, "tags": {"amenity": "pub", "source": "turistautak.hu", "url": "http://turistautak.hu/poi.php?id=26578"}}, {"type": "node", "id": 3446767187, "lat": 46.871233, "lon": 16.703204, "tags": {"amenity": "pub", "name": "T\u00f6lgyfa pressz\u00f3", "source": "turistautak.hu", "source:date": "2013-09-06", "toilets:wheelchair": "no", "url": "http://turistautak.hu/poi.php?id=158882", "wheelchair": "no"}}, {"type": "node", "id": 3446767815, "lat": 46.847582, "lon": 16.576123, "tags": {"amenity": "pub", "source": "turistautak.hu", "source:date": "2012-12-10", "url": "http://turistautak.hu/poi.php?id=28358"}}, {"type": "node", "id": 3459863021, "lat": 46.866545, "lon": 16.548358, "tags": {"amenity": "pub", "fixme": "resurvey (source was old)", "name": "Vad\u00e1sa kocsma, \u00e9tterem", "source": "turistautak.hu", "source:date": "2008-12-11", "url": "http://turistautak.hu/poi.php?id=28375"}}, {"type": "node", "id": 3459863045, "lat": 46.7897137, "lon": 16.3544925, "tags": {"amenity": "pub", "fixme": "resurvey (source was old)", "source": "turistautak.hu", "source:date": "2008-12-11", "url": "http://turistautak.hu/poi.php?id=29799"}}, {"type": "node", "id": 3459863056, "lat": 46.83012, "lon": 16.460442, "tags": {"amenity": "pub", "source": "turistautak.hu", "source:date": "2010-03-30", "toilets:wheelchair": "no", "url": "http://turistautak.hu/poi.php?id=29793", "wheelchair": "no"}}, {"type": "node", "id": 3459863057, "lat": 46.8374877, "lon": 16.5000861, "tags": {"amenity": "pub", "name": "T\u00f6lgy Pressz\u00f3", "source": "turistautak.hu", "source:date": "2010-08-31", "url": "http://turistautak.hu/poi.php?id=100835"}}, {"type": "node", "id": 3465219807, "lat": 46.500386, "lon": 16.579261, "tags": {"amenity": "pub", "source": "turistautak.hu", "source:date": "2012-03-24", "url": "http://turistautak.hu/poi.php?id=136183"}}, {"type": "node", "id": 3468083305, "lat": 46.679053, "lon": 16.558208, "tags": {"amenity": "pub", "name": "Italbolt", "source": "turistautak.hu", "source:date": "2014-02-12", "url": "http://turistautak.hu/poi.php?id=165691"}}, {"type": "node", "id": 3468083312, "lat": 46.57677, "lon": 16.57196, "tags": {"amenity": "pub", "name": "Kiskuck\u00f3 s\u00f6r\u00f6z\u0151", "source": "turistautak.hu", "source:date": "2011-09-19", "url": "http://turistautak.hu/poi.php?id=18280"}}, {"type": "node", "id": 3468083314, "lat": 46.744973, "lon": 16.47763, "tags": {"amenity": "pub", "name": "Kocsma", "source": "turistautak.hu", "source:date": "2010-03-30", "url": "http://turistautak.hu/poi.php?id=51528"}}, {"type": "node", "id": 3468083339, "lat": 46.659773, "lon": 16.698722, "tags": {"amenity": "pub", "name": "Orchidea pressz\u00f3", "source": "turistautak.hu", "source:date": "2011-09-19", "url": "http://turistautak.hu/poi.php?id=116431"}}, {"type": "node", "id": 3468083341, "lat": 46.61126, "lon": 16.641782, "tags": {"amenity": "pub", "name": "Park pressz\u00f3", "source": "turistautak.hu", "source:date": "2012-07-16", "url": "http://turistautak.hu/poi.php?id=113141"}}, {"type": "node", "id": 3468083348, "lat": 46.724738, "lon": 16.386462, "tags": {"amenity": "pub", "name": "S\u00f6r\u00f6z\u0151", "source": "turistautak.hu", "source:date": "2013-06-30", "url": "http://turistautak.hu/poi.php?id=52652"}}, {"type": "node", "id": 3468083699, "lat": 46.5363257, "lon": 16.5906369, "tags": {"amenity": "pub", "source": "turistautak.hu", "source:date": "2010-11-12", "url": "http://turistautak.hu/poi.php?id=92052"}}, {"type": "node", "id": 3468083724, "lat": 46.586778, "lon": 16.660131, "tags": {"amenity": "pub", "source": "turistautak.hu", "source:date": "2011-09-19", "url": "http://turistautak.hu/poi.php?id=99895"}}, {"type": "node", "id": 3468083740, "lat": 46.607982, "lon": 16.641382, "tags": {"amenity": "pub", "source": "turistautak.hu", "source:date": "2011-09-19", "url": "http://turistautak.hu/poi.php?id=59798"}}, {"type": "node", "id": 4254268548, "lat": 46.8457784, "lon": 16.5857197}, {"type": "node", "id": 4254268549, "lat": 46.8457818, "lon": 16.585833}, {"type": "node", "id": 4254268550, "lat": 46.8458504, "lon": 16.5858287}, {"type": "node", "id": 4254268551, "lat": 46.8458565, "lon": 16.5860368}, {"type": "node", "id": 4254268552, "lat": 46.8459124, "lon": 16.5857112}, {"type": "node", "id": 4254268553, "lat": 46.8459219, "lon": 16.5860327}, {"type": "node", "id": 4294382849, "lat": 46.7848803, "lon": 16.4262136}, {"type": "node", "id": 4294382859, "lat": 46.7849342, "lon": 16.4262715}, {"type": "node", "id": 4294382867, "lat": 46.7849834, "lon": 16.4261739}, {"type": "node", "id": 4294382868, "lat": 46.7849938, "lon": 16.4259886}, {"type": "node", "id": 4294382869, "lat": 46.784995, "lon": 16.4261864}, {"type": "node", "id": 4294382871, "lat": 46.7850054, "lon": 16.4261234}, {"type": "node", "id": 4294382877, "lat": 46.7850193, "lon": 16.4261383}, {"type": "node", "id": 4294382886, "lat": 46.7850454, "lon": 16.4260441}, {"type": "node", "id": 4370089446, "lat": 46.8807737, "lon": 16.496816, "tags": {"amenity": "pub", "name": "Italbolt"}}, {"type": "node", "id": 4387235481, "lat": 46.6229219, "lon": 16.5416719, "tags": {"amenity": "pub", "name": "Rezes Pressz\u00f3"}}, {"type": "node", "id": 4387252438, "lat": 46.6265362, "lon": 16.5380084}, {"type": "node", "id": 4387252439, "lat": 46.6264904, "lon": 16.538077}, {"type": "node", "id": 4387252440, "lat": 46.626539, "lon": 16.5381456}, {"type": "node", "id": 4387252441, "lat": 46.6265847, "lon": 16.538077}, {"type": "node", "id": 4438736769, "lat": 46.6576329, "lon": 16.5771606}, {"type": "node", "id": 4438736770, "lat": 46.6576056, "lon": 16.57739}, {"type": "node", "id": 4438736771, "lat": 46.6575549, "lon": 16.5773772}, {"type": "node", "id": 4438736772, "lat": 46.6575648, "lon": 16.577294}, {"type": "node", "id": 4438736773, "lat": 46.6575012, "lon": 16.5772779}, {"type": "node", "id": 4438736774, "lat": 46.6575185, "lon": 16.5771318}, {"type": "node", "id": 4457938888, "lat": 46.6290671, "lon": 16.56348}, {"type": "node", "id": 4457940189, "lat": 46.6290029, "lon": 16.5635209}, {"type": "node", "id": 4457940190, "lat": 46.6290307, "lon": 16.5636135}, {"type": "node", "id": 4457940191, "lat": 46.6290949, "lon": 16.5635726}, {"type": "node", "id": 4460387460, "lat": 46.7889469, "lon": 16.3515413, "tags": {"amenity": "pub", "name": "S\u00f6r\u00f6z\u0151", "opening_hours": "Mo,Tu 08:00-11:00,14:00-18:00;We-Sa 08:00-20:00;Su 14:00-20:00", "outdoor_seating": "yes", "smoking": "outside"}}, {"type": "node", "id": 4460957556, "lat": 46.6567563, "lon": 16.542734}, {"type": "node", "id": 4460957557, "lat": 46.6568209, "lon": 16.5428479}, {"type": "node", "id": 4460957558, "lat": 46.6569018, "lon": 16.5427505}, {"type": "node", "id": 4460957559, "lat": 46.6568372, "lon": 16.5426365}, {"type": "node", "id": 4565617557, "lat": 46.8593564, "lon": 16.5012224, "tags": {"addr:city": "Kisr\u00e1kos", "addr:housenumber": "26", "addr:postcode": "9936", "addr:street": "F\u0151 \u00fat", "amenity": "pub", "name": "\u0150rs\u00e9gi Parasztv\u00edgad\u00f3"}}, {"type": "node", "id": 4625465081, "lat": 46.5261914, "lon": 16.7279985}, {"type": "node", "id": 4625465082, "lat": 46.5262099, "lon": 16.7281367}, {"type": "node", "id": 4625465083, "lat": 46.5264147, "lon": 16.7279354}, {"type": "node", "id": 4625465084, "lat": 46.5264332, "lon": 16.7280737}, {"type": "node", "id": 4625470991, "lat": 46.7234081, "lon": 16.4143786}, {"type": "node", "id": 4625470992, "lat": 46.7234108, "lon": 16.4141949}, {"type": "node", "id": 4625470993, "lat": 46.7235253, "lon": 16.4143824}, {"type": "node", "id": 4625470994, "lat": 46.7235281, "lon": 16.4141986}, {"type": "node", "id": 4625471002, "lat": 46.7795549, "lon": 16.6766975}, {"type": "node", "id": 4625471003, "lat": 46.7796225, "lon": 16.6766235}, {"type": "node", "id": 4625471004, "lat": 46.7796307, "lon": 16.676845}, {"type": "node", "id": 4625471005, "lat": 46.7796582, "lon": 16.6767966}, {"type": "node", "id": 4625471006, "lat": 46.7796642, "lon": 16.6768083}, {"type": "node", "id": 4625471007, "lat": 46.7796923, "lon": 16.6767593}, {"type": "node", "id": 4933470991, "lat": 46.7155526, "lon": 16.5142649, "tags": {"amenity": "pub", "name": "Texas", "source": "route4u", "toilets:wheelchair": "limited", "wheelchair": "limited"}}, {"type": "node", "id": 4933471209, "lat": 46.7288244, "lon": 16.5832517, "tags": {"amenity": "pub", "fixme": "verify", "name": "Hegyalja S\u00f6r\u00f6z\u0151", "source": "route4u", "toilets:wheelchair": "limited", "wheelchair": "limited"}}, {"type": "node", "id": 4933471215, "lat": 46.7341087, "lon": 16.6272502, "tags": {"amenity": "pub", "fixme": "verify", "name": "S\u00f6r\u00f6m-Tanya S\u00f6r\u00f6z\u0151", "source": "route4u", "toilets:wheelchair": "no", "wheelchair": "yes"}}, {"type": "node", "id": 4933471324, "lat": 46.6997522, "lon": 16.4548525, "tags": {"amenity": "pub", "fixme": "verify", "name": "Retro-M Kocsma", "source": "route4u", "toilets:wheelchair": "no", "wheelchair": "no"}}, {"type": "node", "id": 5159130945, "lat": 46.6143698, "lon": 16.5791054}, {"type": "node", "id": 5159130946, "lat": 46.6143725, "lon": 16.5792677}, {"type": "node", "id": 5159130947, "lat": 46.6142414, "lon": 16.5792723}, {"type": "node", "id": 5159130948, "lat": 46.6142388, "lon": 16.57911}, {"type": "node", "id": 5691865512, "lat": 46.6437553, "lon": 16.7370154}, {"type": "node", "id": 5691865513, "lat": 46.6436438, "lon": 16.7369732}, {"type": "node", "id": 5691865514, "lat": 46.6436634, "lon": 16.7368688}, {"type": "node", "id": 5691865515, "lat": 46.6437738, "lon": 16.736912}, {"type": "node", "id": 5696815994, "lat": 46.6437392, "lon": 16.7368986}, {"type": "node", "id": 6080808501, "lat": 46.6324924, "lon": 16.4177491, "tags": {"amenity": "pub", "name": "Italbolt", "source": "route4u"}}, {"type": "node", "id": 6080808502, "lat": 46.6214164, "lon": 16.5501389, "tags": {"amenity": "pub", "name": "Sporttigris", "source": "route4u"}}, {"type": "node", "id": 6086596003, "lat": 46.7287689, "lon": 16.5734334, "tags": {"amenity": "pub", "name": "Horgony Italbolt", "source": "route4u"}}, {"type": "node", "id": 6087473564, "lat": 46.7391569, "lon": 16.3718079, "tags": {"amenity": "pub", "name": "Cip\u00f3 boroz\u00f3", "source": "route4u"}}, {"type": "node", "id": 6093961725, "lat": 46.851629, "lon": 16.6604206, "tags": {"amenity": "pub", "name": "Kurta Kocsma", "source": "route4u"}}, {"type": "node", "id": 6093961726, "lat": 46.8462156, "lon": 16.5867041, "tags": {"amenity": "pub", "name": "Talpon\u00e1ll\u00f3 Boroz\u00f3", "source": "route4u"}}, {"type": "node", "id": 6093961729, "lat": 46.8360643, "lon": 16.7168328, "tags": {"amenity": "pub", "name": "Italbolt", "source": "route4u"}}, {"type": "node", "id": 6093961739, "lat": 46.8863656, "lon": 16.6306293, "tags": {"amenity": "pub", "name": "Vadvir\u00e1g Bet\u00e9r\u0151", "source": "route4u"}}, {"type": "node", "id": 9500556802, "lat": 46.8479329, "lon": 16.1366225}, {"type": "node", "id": 9500556803, "lat": 46.8479333, "lon": 16.1366082}, {"type": "node", "id": 9500556804, "lat": 46.8479158, "lon": 16.1369386}, {"type": "node", "id": 9500556805, "lat": 46.8479566, "lon": 16.1369414}, {"type": "node", "id": 9500556806, "lat": 46.8479172, "lon": 16.1368969}, {"type": "node", "id": 9500556807, "lat": 46.8479579, "lon": 16.1368997}, {"type": "node", "id": 9500556808, "lat": 46.848049, "lon": 16.1367479}, {"type": "node", "id": 9500556809, "lat": 46.8480513, "lon": 16.1366782}, {"type": "node", "id": 9500556810, "lat": 46.8480313, "lon": 16.1367467}, {"type": "node", "id": 9500556811, "lat": 46.8480335, "lon": 16.1366769}, {"type": "node", "id": 9500556812, "lat": 46.8479241, "lon": 16.1368974}, {"type": "node", "id": 9500556813, "lat": 46.8480263, "lon": 16.1369044}, {"type": "node", "id": 9500556814, "lat": 46.8480355, "lon": 16.1366152}, {"type": "way", "id": 286497196, "nodes": [2901766679, 2901766668, 2901766680, 2901766681, 2901766682, 2901766683, 2901766679], "tags": {"addr:city": "Lenti", "amenity": "pub", "building": "yes"}}, {"type": "way", "id": 286553599, "nodes": [2902353522, 2902353523, 2902353524, 2902353525, 2902353522], "tags": {"amenity": "pub", "building": "yes", "name": "Kocsma", "outdoor_seating": "yes"}}, {"type": "way", "id": 288793604, "nodes": [2923491052, 2923491045, 2923491049, 2923491057, 2923491054, 2923491052], "tags": {"amenity": "pub", "building": "residential"}}, {"type": "way", "id": 289401766, "nodes": [2929508848, 2929508850, 2929508847, 2929508849, 2929508851, 2929508852, 2929508854, 2929508853, 2929508848], "tags": {"amenity": "pub", "building": "yes", "name": "T\u00f6rpe cs\u00e1rda"}}, {"type": "way", "id": 295165393, "nodes": [2988582368, 2988582369, 2988582370, 2988582371, 2988582368], "tags": {"addr:city": "Lendava / Lendva", "addr:city:hu": "Lendva", "addr:city:sl": "Lendava", "addr:country": "SI", "addr:housenumber": "41", "addr:postcode": "9220", "addr:street": "Lendavska cesta / Lendvai \u00fat", "addr:street:hu": "Lendvai \u00fat", "addr:street:sl": "Lendavska cesta", "addr:village": "Pince / Pince", "addr:village:hu": "Pince", "addr:village:sl": "Pince", "amenity": "pub", "building": "yes", "name": "Bar West", "operator": "Roland Sabo s.p.", "ref:gurs:hs_mid": "12634650", "ref:gurs:sta_sid": "23353474"}}, {"type": "way", "id": 314234258, "nodes": [3202829556, 3202829557, 3202829558, 3202829560, 3202829561, 3202829562, 3202829563, 3202829564, 3202829565, 3202829566, 3202829556], "tags": {"addr:housenumber": "217", "addr:postcode": "9220", "addr:street": "Lendavske Gorice", "amenity": "pub", "building": "house", "name": "Hi\u0161a Vina Cuk", "name:de": "Weinhaus Cuk", "name:en": "Wine House Cuk", "name:hu": "Cuk borh\u00e1z", "opening_hours": "Fr-Su 13:00-21:00", "phone": "+386 31 467990", "website": "http://www.hisa-vina-cuk.si"}}, {"type": "way", "id": 426111309, "nodes": [4254268552, 4254268553, 4254268551, 4254268550, 4254268549, 4254268548, 4254268552], "tags": {"amenity": "pub", "building": "yes", "name": "R\u00f3zsakert presso", "outdoor_seating": "yes", "toilets:wheelchair": "no", "wheelchair": "no"}}, {"type": "way", "id": 430170618, "nodes": [4294382859, 4294382849, 4294382868, 4294382886, 4294382871, 4294382877, 4294382869, 4294382867, 4294382859], "tags": {"amenity": "pub", "building": "yes"}}, {"type": "way", "id": 440956734, "nodes": [4387252438, 4387252439, 4387252440, 4387252441, 4387252438], "tags": {"amenity": "pub", "building": "yes"}}, {"type": "way", "id": 446629255, "nodes": [4438736769, 4438736770, 4438736771, 4438736772, 4438736773, 4438736774, 4438736769], "tags": {"addr:city": "Lenti", "addr:housenumber": "11", "addr:postcode": "8960", "addr:street": "Mih\u00e1lyfai \u00fat", "amenity": "pub", "building": "yes"}}, {"type": "way", "id": 448818405, "nodes": [4457938888, 4457940189, 4457940190, 4457940191, 4457938888], "tags": {"amenity": "pub", "building": "yes", "name": "Margar\u00e9ta Pressz\u00f3"}}, {"type": "way", "id": 449129728, "nodes": [4460957556, 4460957557, 4460957558, 4460957559, 4460957556], "tags": {"amenity": "pub", "building": "yes"}}, {"type": "way", "id": 467989310, "nodes": [4625465081, 4625465083, 4625465084, 4625465082, 4625465081], "tags": {"amenity": "pub", "building": "yes", "name": "B 24 kocsma", "source": "turistautak.hu", "toilets:wheelchair": "limited", "url": "http://turistautak.hu/poi.php?id=26580", "wheelchair": "yes"}}, {"type": "way", "id": 467989315, "nodes": [4625471002, 4625471003, 4625471007, 4625471005, 4625471006, 4625471004, 4625471002], "tags": {"amenity": "pub", "building": "yes", "name": "Lesz-Vigasz pressz\u00f3 (z\u00e1rva)"}}, {"type": "way", "id": 467989320, "nodes": [4625470991, 4625470992, 4625470994, 4625470993, 4625470991], "tags": {"amenity": "pub", "building": "yes", "name": "Vit\u00e9z s\u00f6r\u00f6z\u0151", "opening_hours": "Mo-Sa 07:00-21:00; Su 09:00-21:00", "source": "turistautak.hu", "source:date": "2011-10-03", "toilets:wheelchair": "limited", "url": "http://turistautak.hu/poi.php?id=52648", "wheelchair": "limited"}}, {"type": "way", "id": 531470521, "nodes": [5159130945, 5159130946, 5159130947, 5159130948, 5159130945], "tags": {"amenity": "pub", "building": "yes"}}, {"type": "way", "id": 597930731, "nodes": [5691865512, 5691865513, 5691865514, 5696815994, 5691865515, 5691865512], "tags": {"addr:city": "Gutorf\u00f6lde", "amenity": "pub", "building": "yes", "name": "Pikol\u00f3 s\u00f6r\u00f6z\u0151"}}, {"type": "way", "id": 1030676773, "nodes": [9500556814, 9500556811, 9500556809, 9500556808, 9500556810, 9500556813, 9500556807, 9500556805, 9500556804, 9500556806, 9500556812, 9500556802, 9500556803, 9500556814], "tags": {"addr:city": "Kuzma", "addr:housenumber": "54A", "addr:postcode": "9263", "addr:street": "Trdkova", "amenity": "pub", "building": "yes", "name": "okrep\u010devalnica Suki\u010d", "opening_hours:covid19": "open", "operator": "Suki\u010d Jo\u017ee s.p.", "phone": "+386 2 556 11 60"}}]}