{"version": 0.6, "generator": "Overpass API 0.7.59 e21c39fe", "osm3s": {"timestamp_osm_base": "2023-01-17T15:16:20Z", "copyright": "The data included in this document is from www.openstreetmap.org. The data is made available under ODbL."}, "elements": [{"type": "node", "id": 310001086, "lat": 46.1303868, "lon": 18.5866835, "tags": {"amenity": "pub", "created_by": "Potlatch 0.10f", "name": "Bagoly kocsma"}}, {"type": "node", "id": 310001302, "lat": 46.0979362, "lon": 18.5804622, "tags": {"amenity": "pub", "toilets:wheelchair": "limited", "wheelchair": "limited"}}, {"type": "node", "id": 448247668, "lat": 46.0802115, "lon": 18.2272022, "tags": {"amenity": "pub", "name": "Somogyi pinc\u00e9szet"}}, {"type": "node", "id": 455257732, "lat": 46.0671491, "lon": 18.2314609, "tags": {"amenity": "pub", "name": "Jackpot"}}, {"type": "node", "id": 890155302, "lat": 46.0800741, "lon": 18.0487435, "tags": {"amenity": "pub"}}, {"type": "node", "id": 1156542696, "lat": 46.0771189, "lon": 18.212595, "tags": {"amenity": "pub", "name": "Kis kors\u00f3"}}, {"type": "node", "id": 1161378567, "lat": 46.0646837, "lon": 18.1875007, "tags": {"amenity": "pub", "name": "Pokol", "toilets:wheelchair": "yes", "wheelchair": "limited"}}, {"type": "node", "id": 1239987563, "lat": 46.0650274, "lon": 18.213207, "tags": {"amenity": "pub", "name": "Flaming\u00f3"}}, {"type": "node", "id": 1330682558, "lat": 46.0791278, "lon": 18.2203893, "tags": {"addr:city": "P\u00e9cs", "addr:housenumber": "2", "addr:postcode": "7624", "addr:street": "Kacs\u00f3h Pongr\u00e1c utca", "amenity": "pub", "name": "Csalog\u00e1ny Pressz\u00f3"}}, {"type": "node", "id": 1686211647, "lat": 46.0656525, "lon": 18.3198619, "tags": {"addr:street": "Kossuth Lajos utca", "amenity": "pub", "name": "Lesz Vigasz"}}, {"type": "node", "id": 1706707565, "lat": 46.0838732, "lon": 18.223453, "tags": {"amenity": "pub", "name": "Le Bistro"}}, {"type": "node", "id": 1748530962, "lat": 46.0710064, "lon": 18.2284568, "tags": {"amenity": "pub", "name": "Kir\u00e1ly s\u00f6r\u00f6z\u0151"}}, {"type": "node", "id": 1750788686, "lat": 46.0805589, "lon": 18.2164213, "tags": {"amenity": "pub", "name": "THE Kitchen"}}, {"type": "node", "id": 1768906203, "lat": 46.0664094, "lon": 18.2245632, "tags": {"amenity": "pub", "name": "Resti"}}, {"type": "node", "id": 1907448158, "lat": 46.0742839, "lon": 18.2235417, "tags": {"amenity": "pub", "name": "Csinos Pressz\u00f3"}}, {"type": "node", "id": 2090058176, "lat": 46.0769403, "lon": 18.2070659, "tags": {"amenity": "pub", "name": "Szenes"}}, {"type": "node", "id": 2386691291, "lat": 46.076353, "lon": 18.2443432, "tags": {"addr:city": "P\u00e9cs", "addr:housenumber": "15", "addr:postcode": "7626", "addr:street": "Zsolnay Vilmos utca", "amenity": "pub", "name": "Jobb mint otthon", "note": "posta irsz. v\u00e1ltoz\u00e1s 2016.12.01 7626 > 7630"}}, {"type": "node", "id": 2617582794, "lat": 46.0710353, "lon": 18.235816}, {"type": "node", "id": 2617582802, "lat": 46.0710446, "lon": 18.2356716}, {"type": "node", "id": 2617582816, "lat": 46.0711271, "lon": 18.2358282}, {"type": "node", "id": 2617582820, "lat": 46.0711363, "lon": 18.2356838}, {"type": "node", "id": 2893676895, "lat": 46.1198844, "lon": 18.3397163}, {"type": "node", "id": 2893676897, "lat": 46.1199619, "lon": 18.3399196}, {"type": "node", "id": 2893676898, "lat": 46.1199873, "lon": 18.3396347}, {"type": "node", "id": 2893676899, "lat": 46.1200984, "lon": 18.3398114}, {"type": "node", "id": 3014255809, "lat": 46.0766003, "lon": 18.2321282, "tags": {"addr:city": "P\u00e9cs", "addr:country": "HU", "addr:housenumber": "26", "addr:postcode": "7621", "addr:street": "Kir\u00e1ly utca", "amenity": "pub", "image": "https://commons.wikimedia.org/wiki/File:HU_Pecs_cooltourcafe_bar_2014-08-04.jpg", "name": "Cooltour Caf\u00e9", "phone": "+36 30 742 1009", "website": "http://www.cooltourcafepecs.hu"}}, {"type": "node", "id": 3096837690, "lat": 46.0663308, "lon": 18.1959767, "tags": {"amenity": "pub", "name": "J\u00f3\u00f3zska... kocsma!"}}, {"type": "node", "id": 3131430187, "lat": 46.0381863, "lon": 18.2196429, "tags": {"amenity": "pub", "name": "Weekend"}}, {"type": "node", "id": 3182536958, "lat": 46.081496, "lon": 18.259254, "tags": {"amenity": "pub", "name": "Moha s\u00f6r\u00f6z\u0151"}}, {"type": "node", "id": 3206278792, "lat": 46.0667914, "lon": 18.1845662, "tags": {"addr:city": "P\u00e9cs", "addr:postcode": "7634", "addr:street": "R\u00e1cv\u00e1rosi \u00fat", "amenity": "pub", "name": "Boldi Boroz\u00f3"}}, {"type": "node", "id": 3250748386, "lat": 46.0754668, "lon": 18.2243159, "tags": {"addr:city": "P\u00e9cs", "addr:housenumber": "32", "addr:postcode": "7624", "addr:street": "Ferencesek utc\u00e1ja", "amenity": "pub", "contact:email": "balkanbisztro@gmail.com", "contact:instagram": "balkanbisztro", "contact:mobile": "+36 30 891 6809;+36 30 913 1151", "contact:website": "http://www.balkanbisztro.hu/", "cuisine": "balkan", "dog": "yes", "free_refill": "yes", "level": "0", "name": "Balk\u00e1n Bisztr\u00f3", "opening_hours": "We-Th 17:00-21:30;Fr17:00-22:00;Sa 12:00-22:00;Su 12:00-21:00", "operator": "Balk\u00e1n Bisztr\u00f3 Kft.", "operator:addr": "7761 Koz\u00e1rmisleny, Kinizsi utca 17.", "owncup": "yes", "ref:HU:company": "02-09-081050", "ref:HU:vatin": "24978675-2-02", "ref:vatin": "HU24978675", "wheelchair": "no"}}, {"type": "node", "id": 3250750501, "lat": 46.0737234, "lon": 18.228088, "tags": {"amenity": "pub", "cuisine": "friture", "name": "Fry s\u00f6r\u00f6z\u0151"}}, {"type": "node", "id": 3289663761, "lat": 46.0639859, "lon": 18.1915246, "tags": {"amenity": "pub", "microbrewery": "no", "name": "Club II. Pub"}}, {"type": "node", "id": 3331471228, "lat": 46.1285327, "lon": 18.0422795, "tags": {"addr:street": "R\u00e1k\u00f3czi utca", "amenity": "pub", "name": "Bal\u00e1zs italbolt"}}, {"type": "node", "id": 3332832492, "lat": 46.0728619, "lon": 18.2160473, "tags": {"amenity": "pub", "name": "Hangulat Pressz\u00f3"}}, {"type": "node", "id": 3360310119, "lat": 46.0820968, "lon": 18.2352984, "tags": {"amenity": "pub", "name": "L\u00e9tra"}}, {"type": "node", "id": 3428104084, "lat": 46.0725759, "lon": 18.2282697, "tags": {"amenity": "pub", "name": "P\u00e9csi Est Caf\u00e9"}}, {"type": "node", "id": 3428104085, "lat": 46.0981454, "lon": 18.2013826, "tags": {"amenity": "pub", "name": "Rad\u00f3 pince"}}, {"type": "node", "id": 3428104086, "lat": 46.073517, "lon": 18.2281379, "tags": {"amenity": "pub", "name": "Tramini s\u00f6r\u00f6z\u0151 \u00e9s boroz\u00f3"}}, {"type": "node", "id": 3428104087, "lat": 46.0870864, "lon": 18.2365883, "tags": {"addr:city": "P\u00e9cs", "addr:housenumber": "39/2", "addr:postcode": "7625", "addr:street": "B\u00f6ck J\u00e1nos utca", "amenity": "pub", "name": "T\u00fcke borh\u00e1z", "opening_hours": "Th-Fr 16:00-22:00; Sa 12:00-22:00; Su 12:00-19:00", "phone": "+36 20 317 8178", "website": "http://www.tukeborhaz.hu"}}, {"type": "node", "id": 3439562166, "lat": 46.0469482, "lon": 18.2146885}, {"type": "node", "id": 3439562167, "lat": 46.0469582, "lon": 18.2147641}, {"type": "node", "id": 3439562173, "lat": 46.0470472, "lon": 18.2146612}, {"type": "node", "id": 3439562174, "lat": 46.0470572, "lon": 18.2147368}, {"type": "node", "id": 3440811484, "lat": 45.933693, "lon": 18.152409, "tags": {"amenity": "pub", "source": "turistautak.hu", "source:date": "2012-12-13", "url": "http://turistautak.hu/poi.php?id=148485"}}, {"type": "node", "id": 3440812627, "lat": 46.082653, "lon": 18.122667, "tags": {"amenity": "pub", "description": "Bejelentve karo trackje alapj\u00e1n.", "name": "H\u00f6rpint\u0151", "source": "turistautak.hu", "source:date": "2010-07-13", "url": "http://turistautak.hu/poi.php?id=24779"}}, {"type": "node", "id": 3440812634, "lat": 46.000222, "lon": 18.351778, "tags": {"amenity": "pub", "name": "Italbolt", "source": "turistautak.hu", "source:date": "2011-09-08", "url": "http://turistautak.hu/poi.php?id=36974"}}, {"type": "node", "id": 3440812635, "lat": 46.0761898, "lon": 18.1361091, "tags": {"amenity": "pub", "source": "turistautak.hu", "source:date": "2011-09-08", "url": "http://turistautak.hu/poi.php?id=15312"}}, {"type": "node", "id": 3440812679, "lat": 46.08404, "lon": 18.12538, "tags": {"amenity": "pub", "description": "Bejelentve karo trackje alapj\u00e1n.", "name": "Lila Ak\u00e1c boroz\u00f3", "source": "turistautak.hu", "source:date": "2011-09-08", "toilets:wheelchair": "no", "url": "http://turistautak.hu/poi.php?id=25614", "wheelchair": "no"}}, {"type": "node", "id": 3440854376, "lat": 46.1321114, "lon": 18.3258506, "tags": {"amenity": "pub", "name": "Kacatos Pressz\u00f3", "source": "turistautak.hu", "source:date": "2015-03-12", "url": "http://turistautak.hu/poi.php?id=176840"}}, {"type": "node", "id": 3440854385, "lat": 46.08575, "lon": 18.25107, "tags": {"amenity": "pub", "name": "Kiskulacs boroz\u00f3", "source": "turistautak.hu", "source:date": "2011-09-08", "url": "http://turistautak.hu/poi.php?id=60196"}}, {"type": "node", "id": 3440854388, "lat": 46.08585, "lon": 18.25498, "tags": {"amenity": "pub", "name": "Kisvad\u00e1sz boroz\u00f3", "source": "turistautak.hu", "source:date": "2011-09-08", "toilets:wheelchair": "limited", "url": "http://turistautak.hu/poi.php?id=60197", "wheelchair": "limited"}}, {"type": "node", "id": 3440859651, "lat": 46.1337354, "lon": 18.326483, "tags": {"amenity": "pub", "description": "A Mecseki Z\u00f6ldt\u00fara t\u00faramozgalom alternat\u00edv pecs\u00e9tel\u0151helye. C\u00e9ges pecs\u00e9t van!", "name": "Mosoly S\u00f6r\u00f6z\u0151", "source": "turistautak.hu", "source:date": "2015-03-12", "toilets:wheelchair": "yes", "url": "http://turistautak.hu/poi.php?id=176838", "wheelchair": "limited"}}, {"type": "node", "id": 3440860222, "lat": 46.11025, "lon": 18.270867, "tags": {"amenity": "pub", "name": "Szabolcs vez\u00e9r fogad\u00f3 \u00e9s korcsma", "source": "turistautak.hu", "source:date": "2010-01-02", "toilets:wheelchair": "no", "url": "http://turistautak.hu/poi.php?id=84772", "wheelchair": "no"}}, {"type": "node", "id": 3445424879, "lat": 45.8478381, "lon": 18.4026143, "tags": {"amenity": "pub", "name": "Nekem8 kocsma", "source": "turistautak.hu", "source:date": "2011-09-08", "toilets:wheelchair": "limited", "url": "http://turistautak.hu/poi.php?id=52724", "wheelchair": "yes"}}, {"type": "node", "id": 3445424897, "lat": 45.849433, "lon": 18.243567, "tags": {"amenity": "pub", "source": "turistautak.hu", "source:date": "2011-09-08", "url": "http://turistautak.hu/poi.php?id=31345", "wheelchair": "no"}}, {"type": "node", "id": 3445424983, "lat": 45.795723, "lon": 18.264462, "tags": {"amenity": "pub", "source": "turistautak.hu", "source:date": "2011-09-08", "url": "http://turistautak.hu/poi.php?id=55388"}}, {"type": "node", "id": 3464278612, "lat": 46.099389, "lon": 18.460219, "tags": {"amenity": "pub", "name": "Erzs\u00e9bet s\u00f6r\u00f6z\u0151", "source": "turistautak.hu", "source:date": "2011-09-08", "url": "http://turistautak.hu/poi.php?id=97643"}}, {"type": "node", "id": 3464291589, "lat": 45.909059, "lon": 18.601462, "tags": {"amenity": "pub", "name": "Zsuzsi pressz\u00f3", "source": "turistautak.hu", "source:date": "2011-09-08", "toilets:wheelchair": "yes", "url": "http://turistautak.hu/poi.php?id=100343", "wheelchair": "limited"}}, {"type": "node", "id": 3471841268, "lat": 46.045987, "lon": 18.515374, "tags": {"amenity": "pub", "source": "turistautak.hu", "source:date": "2011-09-08", "url": "http://turistautak.hu/poi.php?id=102300"}}, {"type": "node", "id": 3471869644, "lat": 45.965903, "lon": 18.510884, "tags": {"amenity": "pub", "name": "Nimr\u00f3d s\u00f6r\u00f6z\u0151", "source": "turistautak.hu", "source:date": "2013-02-11", "url": "http://turistautak.hu/poi.php?id=150521"}}, {"type": "node", "id": 3471869671, "lat": 45.9109529, "lon": 18.4705799, "tags": {"amenity": "pub", "source": "turistautak.hu", "source:date": "2011-09-08", "url": "http://turistautak.hu/poi.php?id=112538"}}, {"type": "node", "id": 3484805354, "lat": 45.7853382, "lon": 18.0608694, "tags": {"amenity": "pub", "source": "turistautak.hu", "source:date": "2015-01-12", "url": "http://turistautak.hu/poi.php?id=27160"}}, {"type": "node", "id": 3530968014, "lat": 46.0509779, "lon": 18.2847473, "tags": {"amenity": "pub", "name": "Center s\u00f6r\u00f6z\u0151"}}, {"type": "node", "id": 3593946605, "lat": 46.0763003, "lon": 18.231891, "tags": {"addr:city": "P\u00e9cs", "addr:housenumber": "3", "addr:postcode": "7621", "addr:street": "Kazinczy utca", "amenity": "pub", "contact:facebook": "https://facebook.com/karavellapecs", "name": "Karavella S\u00f6rb\u00e1r"}}, {"type": "node", "id": 3657277967, "lat": 46.0481785, "lon": 18.2207351}, {"type": "node", "id": 3657277969, "lat": 46.0482152, "lon": 18.2208687}, {"type": "node", "id": 3657277975, "lat": 46.048254, "lon": 18.220692}, {"type": "node", "id": 3657277978, "lat": 46.0482907, "lon": 18.2208256}, {"type": "node", "id": 3658612423, "lat": 46.0447757, "lon": 18.2184368, "tags": {"addr:postcode": "7632", "amenity": "pub", "name": "Pitkin"}}, {"type": "node", "id": 3882539972, "lat": 46.0550087, "lon": 18.2234844, "tags": {"amenity": "pub", "name": "M\u00f3ra S\u00f6r\u00f6z\u0151", "source": "F\u00f6mi ortofot\u00f3 2005; Knowledge"}}, {"type": "node", "id": 3886546472, "lat": 46.0470697, "lon": 18.2177682, "tags": {"amenity": "pub", "name": "Sarok S\u00f6r\u00f6z\u0151"}}, {"type": "node", "id": 3903497553, "lat": 46.0382094, "lon": 18.2224462}, {"type": "node", "id": 3903497557, "lat": 46.0382086, "lon": 18.222287}, {"type": "node", "id": 3903497558, "lat": 46.0382699, "lon": 18.2224456}, {"type": "node", "id": 3903497559, "lat": 46.0382691, "lon": 18.2222863}, {"type": "node", "id": 4319002289, "lat": 46.07466, "lon": 18.2147664, "tags": {"addr:city": "P\u00e9cs", "addr:postcode": "7624", "addr:street": "Nagy Jen\u0151 utca", "amenity": "pub", "name": "Plat\u00e1n", "opening_hours": "Mo-Sa 07:00-21:00; Su 07:00-18:00", "toilets:wheelchair": "no", "wheelchair": "no"}}, {"type": "node", "id": 4577747662, "lat": 46.066966, "lon": 18.221524, "tags": {"amenity": "pub", "name": "Sabi s\u00f6r\u00f6z\u0151"}}, {"type": "node", "id": 4884411841, "lat": 45.9493272, "lon": 18.2379991, "tags": {"amenity": "pub", "name": "Szal\u00e1ntai Kocsma"}}, {"type": "node", "id": 4933456164, "lat": 45.813692, "lon": 18.1030541, "tags": {"amenity": "pub", "fixme": "verify", "name": "Mini Pi\u00e1l\u00f3", "source": "route4u", "toilets:wheelchair": "yes", "wheelchair": "yes"}}, {"type": "node", "id": 4933468517, "lat": 45.8532797, "lon": 18.3038271, "tags": {"amenity": "pub", "check_date": "2022-07-16", "name": "Napk\u00f6zi S\u00f6r\u00f6z\u0151", "source": "route4u", "toilets:wheelchair": "yes", "wheelchair": "no", "wheelchair:description": "lepcso a bejaratnal"}}, {"type": "node", "id": 4933469278, "lat": 46.0672209, "lon": 18.2273454, "tags": {"amenity": "pub", "description": "30+ bulik szoktak lenni", "name": "Kam\u00e9leon Klub"}}, {"type": "node", "id": 4933469329, "lat": 45.8747083, "lon": 18.459194, "tags": {"amenity": "pub", "fixme": "verify", "name": "Daffy-Pince Kft.", "source": "route4u", "toilets:wheelchair": "yes", "wheelchair": "yes"}}, {"type": "node", "id": 4933469332, "lat": 45.8753086, "lon": 18.4725634, "tags": {"amenity": "pub", "mapillary": "1926013637547978", "name": "Zsuzsi S\u00f6r\u00f6z\u0151", "source": "route4u", "toilets:wheelchair": "yes", "wheelchair": "yes"}}, {"type": "node", "id": 4933469334, "lat": 45.8908528, "lon": 18.3924298, "tags": {"amenity": "pub", "fixme": "verify", "name": "Mokos Pince", "source": "route4u"}}, {"type": "node", "id": 4933469349, "lat": 46.0343395, "lon": 18.3884579, "tags": {"amenity": "pub", "mapillary": "127678682947541", "name": "Italbolt", "source": "route4u", "toilets:wheelchair": "yes", "wheelchair": "limited"}}, {"type": "node", "id": 4933869320, "lat": 46.0787293, "lon": 18.245572, "tags": {"amenity": "pub", "name": "B\u00f6l\u00e9nybika"}}, {"type": "node", "id": 4939174006, "lat": 45.8667659, "lon": 18.4507708, "tags": {"amenity": "pub", "fixme": "verify", "name": "MenjBe S\u00f6rb\u00e1r", "source": "route4u", "toilets:wheelchair": "yes", "wheelchair": "limited"}}, {"type": "node", "id": 4939174331, "lat": 46.0638803, "lon": 18.1914104, "tags": {"amenity": "pub", "description": "S\u00f6r\u00f6z\u0151", "name": "Club2 Pub", "source": "local knowledge"}}, {"type": "node", "id": 4939175796, "lat": 45.8584459, "lon": 18.3641519, "tags": {"amenity": "pub", "fixme": "verify", "source": "route4u", "toilets:wheelchair": "yes", "wheelchair": "yes"}}, {"type": "node", "id": 4939177008, "lat": 45.9657363, "lon": 18.5109121, "tags": {"amenity": "pub", "fixme": "verify", "name": "\u00c9den King", "source": "route4u", "toilets:wheelchair": "yes", "wheelchair": "yes"}}, {"type": "node", "id": 4939178229, "lat": 45.8517866, "lon": 18.2412644, "tags": {"amenity": "pub", "fixme": "verify", "name": "Pasta King", "source": "route4u", "toilets:wheelchair": "limited", "wheelchair": "yes"}}, {"type": "node", "id": 4939178514, "lat": 46.0737506, "lon": 18.2282672, "tags": {"amenity": "pub", "fixme": "verify", "name": "S\u00f6r\u00f6z\u0151 a S\u00fcltkrumplihoz-Fry", "source": "route4u", "toilets:wheelchair": "no", "wheelchair": "no"}}, {"type": "node", "id": 4939178643, "lat": 45.78829, "lon": 18.0470549, "tags": {"amenity": "pub", "fixme": "verify", "name": "Italbolt", "source": "route4u", "toilets:wheelchair": "yes", "wheelchair": "yes"}}, {"type": "node", "id": 4939178653, "lat": 46.0763473, "lon": 18.2318883, "tags": {"amenity": "pub", "name": "Istv\u00e1n Pince", "source": "route4u", "toilets:wheelchair": "no", "wheelchair": "no"}}, {"type": "node", "id": 4939178670, "lat": 46.0729071, "lon": 18.2075489, "tags": {"amenity": "pub", "name": "PTE Bistro Bellagio", "toilets:wheelchair": "no", "wheelchair": "no"}}, {"type": "node", "id": 4939178823, "lat": 45.9869598, "lon": 18.5361738, "tags": {"amenity": "pub", "fixme": "verify", "name": "\u00c1rnyas S\u00f6r\u00f6z\u0151", "source": "route4u", "toilets:wheelchair": "yes", "wheelchair": "yes"}}, {"type": "node", "id": 4939178994, "lat": 45.8658692, "lon": 18.44871, "tags": {"amenity": "pub", "fixme": "verify", "name": "Roth Pince Mulat\u00f3", "source": "route4u", "toilets:wheelchair": "yes", "wheelchair": "yes"}}, {"type": "node", "id": 4939179020, "lat": 45.8539263, "lon": 18.3000443, "tags": {"amenity": "pub", "check_date": "2022-07-16", "name": "S\u00f6rkert", "source": "route4u", "toilets:wheelchair": "yes", "wheelchair": "yes"}}, {"type": "node", "id": 4939179327, "lat": 46.077661, "lon": 18.2395503, "tags": {"amenity": "pub", "name": "Ilona Boroz\u00f3", "source": "route4u"}}, {"type": "node", "id": 4940559072, "lat": 46.0418878, "lon": 18.2278318, "tags": {"amenity": "pub", "fixme": "verify", "name": "Szerencse S\u00f6r\u00f6z\u0151", "source": "route4u"}}, {"type": "node", "id": 4940561323, "lat": 45.7787387, "lon": 18.3976558, "tags": {"amenity": "pub", "name": "Tall\u00e9ros Kocsma", "toilets:wheelchair": "yes", "wheelchair": "yes"}}, {"type": "node", "id": 4940561502, "lat": 46.042508, "lon": 18.2844316, "tags": {"amenity": "pub", "name": "Bb.Boroz\u00f3", "source": "route4u"}}, {"type": "node", "id": 4940563400, "lat": 46.0316941, "lon": 18.2209874, "tags": {"amenity": "pub", "name": "Vad\u00e1szk\u00fcrt S\u00f6r\u00f6z\u0151"}}, {"type": "node", "id": 5018005819, "lat": 45.9591817, "lon": 18.0933147}, {"type": "node", "id": 5018005820, "lat": 45.9591038, "lon": 18.093354}, {"type": "node", "id": 5018005821, "lat": 45.9591733, "lon": 18.0936388}, {"type": "node", "id": 5018005822, "lat": 45.9592837, "lon": 18.0935831}, {"type": "node", "id": 5018005823, "lat": 45.9592544, "lon": 18.0934629}, {"type": "node", "id": 5018005824, "lat": 45.9592218, "lon": 18.0934793}, {"type": "node", "id": 5036647468, "lat": 46.0873462, "lon": 18.3382592}, {"type": "node", "id": 5036647469, "lat": 46.0873523, "lon": 18.3382935}, {"type": "node", "id": 5036647470, "lat": 46.0873703, "lon": 18.3382869}, {"type": "node", "id": 5036647471, "lat": 46.087382, "lon": 18.338353}, {"type": "node", "id": 5036647472, "lat": 46.0873618, "lon": 18.3383605}, {"type": "node", "id": 5036647473, "lat": 46.0873668, "lon": 18.3383882}, {"type": "node", "id": 5036647474, "lat": 46.0872756, "lon": 18.338422}, {"type": "node", "id": 5036647475, "lat": 46.0872602, "lon": 18.3383357}, {"type": "node", "id": 5036647476, "lat": 46.087299, "lon": 18.3383213}, {"type": "node", "id": 5036647477, "lat": 46.0872916, "lon": 18.3382794}, {"type": "node", "id": 5046934598, "lat": 45.8056311, "lon": 18.2115318, "tags": {"amenity": "pub"}}, {"type": "node", "id": 5109460859, "lat": 45.8606213, "lon": 18.2101693}, {"type": "node", "id": 5109460863, "lat": 45.8606235, "lon": 18.2103081}, {"type": "node", "id": 5109460888, "lat": 45.8606997, "lon": 18.2101683}, {"type": "node", "id": 5109460895, "lat": 45.8606996, "lon": 18.2103067}, {"type": "node", "id": 5734394180, "lat": 46.0444359, "lon": 18.2545981}, {"type": "node", "id": 5734394181, "lat": 46.0444389, "lon": 18.2546249}, {"type": "node", "id": 5734394182, "lat": 46.0444108, "lon": 18.2546315}, {"type": "node", "id": 5734394183, "lat": 46.0444239, "lon": 18.2547479}, {"type": "node", "id": 5734394184, "lat": 46.044451, "lon": 18.2547415}, {"type": "node", "id": 5734394185, "lat": 46.0444727, "lon": 18.2549343}, {"type": "node", "id": 5734394186, "lat": 46.0445479, "lon": 18.2549167}, {"type": "node", "id": 5734394187, "lat": 46.04451, "lon": 18.2545808}, {"type": "node", "id": 5827501179, "lat": 46.1200661, "lon": 18.3397267}, {"type": "node", "id": 5827501180, "lat": 46.1200493, "lon": 18.33974}, {"type": "node", "id": 5827501181, "lat": 46.1200188, "lon": 18.3396599}, {"type": "node", "id": 5827501182, "lat": 46.120002, "lon": 18.3396733}, {"type": "node", "id": 5839403024, "lat": 46.1219387, "lon": 18.3102087}, {"type": "node", "id": 5839403025, "lat": 46.1219146, "lon": 18.3102778}, {"type": "node", "id": 5839403026, "lat": 46.1220033, "lon": 18.3103423}, {"type": "node", "id": 5839403027, "lat": 46.1220274, "lon": 18.3102732}, {"type": "node", "id": 6404667057, "lat": 46.0382393, "lon": 18.2224459, "tags": {"access": "yes", "entrance": "yes"}}, {"type": "node", "id": 6404667058, "lat": 46.0382383, "lon": 18.2222867, "tags": {"access": "no", "entrance": "yes"}}, {"type": "node", "id": 6459173061, "lat": 46.070713, "lon": 18.215733, "tags": {"amenity": "pub", "name": "G\u00f3l s\u00f6r\u00f6z\u0151"}}, {"type": "node", "id": 6485776167, "lat": 46.0778539, "lon": 18.2245856}, {"type": "node", "id": 6485776169, "lat": 46.077854, "lon": 18.2245632}, {"type": "node", "id": 6485776170, "lat": 46.0778539, "lon": 18.2246066}, {"type": "node", "id": 6485776171, "lat": 46.0778798, "lon": 18.2246284}, {"type": "node", "id": 6485776172, "lat": 46.077906, "lon": 18.2246058}, {"type": "node", "id": 6485776173, "lat": 46.0779061, "lon": 18.2245636}, {"type": "node", "id": 6485776174, "lat": 46.0778804, "lon": 18.2245421}, {"type": "node", "id": 6485776286, "lat": 46.077719, "lon": 18.2253233, "tags": {"amenity": "pub", "name": "Volt K\u00e1ptalani boroz\u00f3 (papucs)"}}, {"type": "node", "id": 6512123244, "lat": 46.0711318, "lon": 18.2357543, "tags": {"entrance": "yes"}}, {"type": "node", "id": 6512167245, "lat": 46.0711128, "lon": 18.2356807}, {"type": "node", "id": 6515809547, "lat": 46.074535, "lon": 18.2271552, "tags": {"amenity": "pub", "name": "Cambrinus s\u00f6r\u00f6z\u0151"}}, {"type": "node", "id": 7553960363, "lat": 46.0291598, "lon": 18.2116359, "tags": {"amenity": "pub", "name": "Csaszi S\u00f6r\u00f6z\u0151"}}, {"type": "node", "id": 7736044495, "lat": 46.1012728, "lon": 18.4723506, "tags": {"amenity": "pub"}}, {"type": "node", "id": 8720169773, "lat": 45.9065914, "lon": 18.5989311, "tags": {"addr:city": "Majs", "addr:postcode": "7783", "amenity": "pub", "name": "Italbolt"}}, {"type": "node", "id": 9698613858, "lat": 46.0856462, "lon": 18.2689445, "tags": {"addr:postcode": "7629", "amenity": "pub", "level": "1", "name": "Meg\u00e1ll\u00f3"}}, {"type": "node", "id": 9709622804, "lat": 45.9370465, "lon": 18.3625788}, {"type": "node", "id": 9709622805, "lat": 45.9370218, "lon": 18.3625792}, {"type": "node", "id": 9709622806, "lat": 45.9370089, "lon": 18.362565}, {"type": "node", "id": 9709622807, "lat": 45.9370027, "lon": 18.3625198}, {"type": "node", "id": 9709622808, "lat": 45.9370112, "lon": 18.3624993}, {"type": "node", "id": 9709622809, "lat": 45.9370379, "lon": 18.3625833}, {"type": "node", "id": 9709622810, "lat": 45.937002, "lon": 18.3625437}, {"type": "node", "id": 9709622811, "lat": 45.9370255, "lon": 18.3624869}, {"type": "node", "id": 9709622812, "lat": 45.937087, "lon": 18.3627564}, {"type": "node", "id": 9709622813, "lat": 45.9371484, "lon": 18.3627275}, {"type": "node", "id": 9709622814, "lat": 45.9370868, "lon": 18.3624579}, {"type": "node", "id": 9866648328, "lat": 45.8556516, "lon": 18.291053, "tags": {"addr:city": "Sikl\u00f3s", "addr:housenumber": "1", "addr:postcode": "7800", "addr:street": "Gordisai \u00fat", "amenity": "pub", "email": "daczo@fibermail.hu", "name": "Holsten Mediterr\u00e1n S\u00f6r\u00f6z\u0151", "opening_hours": "Mo-Su 14:00-22:00; Sa 14:00-24:00", "payment:cash": "yes", "source": "local knowledge;http://www.siklos.net/sitemap-hidden/16-vendeglatas/45-mediterran-sorozo.html", "website": "https://medisorozo.hu"}}, {"type": "node", "id": 9921909154, "lat": 45.8568667, "lon": 18.2940344, "tags": {"amenity": "pub", "name": "Hysteria S\u00f6r\u00f6z\u0151"}}, {"type": "way", "id": 256059741, "nodes": [2617582820, 6512123244, 2617582816, 2617582794, 2617582802, 6512167245, 2617582820], "tags": {"addr:city": "P\u00e9cs", "addr:housenumber": "6", "addr:postcode": "7622", "addr:street": "Somogyi B\u00e9la utca", "amenity": "pub", "building": "yes", "name": "Hokedli"}}, {"type": "way", "id": 285726262, "nodes": [2893676899, 2893676897, 2893676895, 2893676898, 5827501182, 5827501181, 5827501180, 5827501179, 2893676899], "tags": {"amenity": "pub", "building": "commercial", "name": "K\u00f3cos b\u00fcf\u00e9-boroz\u00f3"}}, {"type": "way", "id": 336874319, "nodes": [3439562173, 3439562166, 3439562167, 3439562174, 3439562173], "tags": {"amenity": "pub", "building": "yes", "name": "Terefere s\u00f6r\u00f6z\u0151"}}, {"type": "way", "id": 361222228, "nodes": [3657277969, 3657277978, 3657277975, 3657277967, 3657277969], "tags": {"addr:city": "P\u00e9cs", "addr:housenumber": "36", "addr:postcode": "7632", "addr:street": "Kesz\u00fci \u00fat", "amenity": "pub", "building": "yes", "name": "B\u00e1lint Vend\u00e9gv\u00e1r\u00f3"}}, {"type": "way", "id": 387011107, "nodes": [3903497559, 3903497558, 6404667057, 3903497553, 3903497557, 6404667058, 3903497559], "tags": {"amenity": "pub", "building": "yes", "name": "T\u00f6lgyfa Boroz\u00f3"}}, {"type": "way", "id": 513304130, "nodes": [5018005819, 5018005820, 5018005821, 5018005822, 5018005823, 5018005824, 5018005819], "tags": {"addr:city": "Baksa", "addr:housenumber": "47", "addr:postcode": "7834", "addr:street": "Hunyadi J\u00e1nos utca", "amenity": "pub", "building": "yes", "name": "Italbolt"}}, {"type": "way", "id": 515821891, "nodes": [5036647468, 5036647469, 5036647470, 5036647471, 5036647472, 5036647473, 5036647474, 5036647475, 5036647476, 5036647477, 5036647468], "tags": {"amenity": "pub", "building": "yes"}}, {"type": "way", "id": 525172103, "nodes": [5109460859, 5109460888, 5109460895, 5109460863, 5109460859], "tags": {"amenity": "pub", "building": "yes"}}, {"type": "way", "id": 604298164, "nodes": [5734394187, 5734394186, 5734394185, 5734394184, 5734394183, 5734394182, 5734394181, 5734394180, 5734394187], "tags": {"addr:city": "P\u00e9cs", "addr:housenumber": "1", "addr:postcode": "7631", "addr:street": "Vigad\u00f3 utca", "addr:suburb": "Nagy\u00e1rp\u00e1d", "amenity": "pub", "building": "yes", "name": "Vigad\u00f3 Vend\u00e9gl\u0151", "opening_hours": "Mo-Su 06:00-22:00", "phone": "+36 72 439 462", "smoking": "outside", "website": "http://www.vigadovendeglo.hu"}}, {"type": "way", "id": 617750975, "nodes": [5839403027, 5839403026, 5839403025, 5839403024, 5839403027], "tags": {"addr:city": "P\u00e9cs", "addr:housenumber": "11", "addr:postcode": "7691", "addr:street": "B\u00fazakal\u00e1sz utca", "addr:suburb": "Somogy", "amenity": "pub", "building": "yes", "name": "Koccint\u00f3 Pressz\u00f3"}}, {"type": "way", "id": 691223954, "nodes": [6485776174, 6485776173, 6485776172, 6485776171, 6485776170, 6485776167, 6485776169, 6485776174], "tags": {"amenity": "pub", "building": "yes", "name": "Kiosk", "website": "https://blog.csgyk.hu/2021/06/03/125-eves-pecs-ikonikus-kerthelyisege-a-setateri-kioszk/"}}, {"type": "way", "id": 1056671381, "nodes": [9709622811, 9709622814, 9709622813, 9709622812, 9709622804, 9709622809, 9709622805, 9709622806, 9709622810, 9709622807, 9709622808, 9709622811], "tags": {"amenity": "pub", "building": "retail"}}]}