{"version": 0.6, "generator": "Overpass API 0.7.59 e21c39fe", "osm3s": {"timestamp_osm_base": "2023-01-17T15:16:20Z", "copyright": "The data included in this document is from www.openstreetmap.org. The data is made available under ODbL."}, "elements": [{"type": "node", "id": 506652567, "lat": 48.2146647, "lon": 18.5997468, "tags": {"amenity": "pub", "name": "Zero Pub"}}, {"type": "node", "id": 687035725, "lat": 48.1969437, "lon": 18.9709912, "tags": {"amenity": "pub"}}, {"type": "node", "id": 723173509, "lat": 48.2178257, "lon": 18.6167261}, {"type": "node", "id": 723174658, "lat": 48.2176953, "lon": 18.6167551}, {"type": "node", "id": 723175424, "lat": 48.217709, "lon": 18.6167368}, {"type": "node", "id": 723175639, "lat": 48.2177588, "lon": 18.6166152}, {"type": "node", "id": 723177179, "lat": 48.2177225, "lon": 18.6167995}, {"type": "node", "id": 723177502, "lat": 48.2176904, "lon": 18.6167072}, {"type": "node", "id": 723178726, "lat": 48.217791, "lon": 18.6167728}, {"type": "node", "id": 723179070, "lat": 48.2178035, "lon": 18.6167925}, {"type": "node", "id": 723179242, "lat": 48.2177685, "lon": 18.6168363}, {"type": "node", "id": 723189575, "lat": 48.217735, "lon": 18.6167814}, {"type": "node", "id": 724010879, "lat": 48.212589, "lon": 18.6107635}, {"type": "node", "id": 724017545, "lat": 48.2126209, "lon": 18.6107694}, {"type": "node", "id": 724023064, "lat": 48.2126913, "lon": 18.6106941}, {"type": "node", "id": 724031938, "lat": 48.2127462, "lon": 18.6108116}, {"type": "node", "id": 724038103, "lat": 48.2126555, "lon": 18.6109073}, {"type": "node", "id": 724062156, "lat": 48.2126083, "lon": 18.6107435}, {"type": "node", "id": 728617992, "lat": 48.2093908, "lon": 18.5209701}, {"type": "node", "id": 728618153, "lat": 48.2095293, "lon": 18.5206591}, {"type": "node", "id": 728618434, "lat": 48.2094727, "lon": 18.5210006}, {"type": "node", "id": 728618532, "lat": 48.2094487, "lon": 18.5206284}, {"type": "node", "id": 728625543, "lat": 48.2378384, "lon": 18.5694967}, {"type": "node", "id": 728625808, "lat": 48.2376866, "lon": 18.5697724}, {"type": "node", "id": 728626214, "lat": 48.2378707, "lon": 18.5697168}, {"type": "node", "id": 728626888, "lat": 48.2377608, "lon": 18.5696037}, {"type": "node", "id": 728628528, "lat": 48.2377537, "lon": 18.5695559}, {"type": "node", "id": 728629363, "lat": 48.2376676, "lon": 18.5696325}, {"type": "node", "id": 729744742, "lat": 48.1884181, "lon": 18.6638461}, {"type": "node", "id": 729745907, "lat": 48.1883566, "lon": 18.6638765}, {"type": "node", "id": 729746770, "lat": 48.1882966, "lon": 18.6635812}, {"type": "node", "id": 729747512, "lat": 48.1883583, "lon": 18.6635532}, {"type": "node", "id": 736049991, "lat": 48.2859443, "lon": 18.9903185}, {"type": "node", "id": 736050783, "lat": 48.2860755, "lon": 18.9900452}, {"type": "node", "id": 736050944, "lat": 48.2859339, "lon": 18.9902326}, {"type": "node", "id": 736052236, "lat": 48.2858736, "lon": 18.9903378}, {"type": "node", "id": 736052919, "lat": 48.2860929, "lon": 18.9901891}, {"type": "node", "id": 736053351, "lat": 48.2858458, "lon": 18.990108}, {"type": "node", "id": 831789329, "lat": 48.2866619, "lon": 18.9948399, "tags": {"amenity": "pub", "name": "Furmansk\u00e1 - Pizza Hont"}}, {"type": "node", "id": 852349861, "lat": 48.1868393, "lon": 18.846585}, {"type": "node", "id": 852349862, "lat": 48.186805, "lon": 18.8465767}, {"type": "node", "id": 852349863, "lat": 48.1868222, "lon": 18.8464322}, {"type": "node", "id": 852349864, "lat": 48.186932, "lon": 18.8464607}, {"type": "node", "id": 852349865, "lat": 48.1869235, "lon": 18.8465345}, {"type": "node", "id": 852349866, "lat": 48.1869189, "lon": 18.8465335}, {"type": "node", "id": 852349867, "lat": 48.1869125, "lon": 18.8466044}, {"type": "node", "id": 852349868, "lat": 48.1868724, "lon": 18.8465939}, {"type": "node", "id": 852349869, "lat": 48.1868687, "lon": 18.8466293}, {"type": "node", "id": 852349870, "lat": 48.1868355, "lon": 18.8466208}, {"type": "node", "id": 1122684679, "lat": 48.2002729, "lon": 18.6585353, "tags": {"amenity": "pub", "name": "Pohostinstvo E +R"}}, {"type": "node", "id": 1256686026, "lat": 48.2177743, "lon": 18.6033273, "tags": {"amenity": "pub", "name": "Schoellers Pub"}}, {"type": "node", "id": 1256686029, "lat": 48.2173338, "lon": 18.6031204, "tags": {"amenity": "pub", "name": "TriP street food & Pub"}}, {"type": "node", "id": 1256686058, "lat": 48.2178612, "lon": 18.6039797, "tags": {"amenity": "pub", "name": "Holland Pub"}}, {"type": "node", "id": 1257802134, "lat": 48.2182294, "lon": 18.6061787, "tags": {"amenity": "pub", "internet_access": "no", "internet_access:fee": "no", "name": "\u0160port Pub", "smoking": "yes", "wheelchair": "no"}}, {"type": "node", "id": 1366915575, "lat": 48.2195517, "lon": 18.6058667, "tags": {"amenity": "pub", "name": "Topvar"}}, {"type": "node", "id": 1378990398, "lat": 48.2139023, "lon": 18.6199046}, {"type": "node", "id": 1378990412, "lat": 48.2139539, "lon": 18.6199477}, {"type": "node", "id": 1378990416, "lat": 48.2139622, "lon": 18.6197478}, {"type": "node", "id": 1378990432, "lat": 48.214015, "lon": 18.6197971}, {"type": "node", "id": 1388272411, "lat": 48.2177163, "lon": 18.5975414, "tags": {"amenity": "pub", "name": "Country bar"}}, {"type": "node", "id": 1651983749, "lat": 48.2416866, "lon": 18.5736422, "tags": {"amenity": "pub", "name": "Hostinec U Capa"}}, {"type": "node", "id": 1719465396, "lat": 48.2148985, "lon": 18.6758715}, {"type": "node", "id": 1719465407, "lat": 48.214942, "lon": 18.6757489}, {"type": "node", "id": 1719465431, "lat": 48.2150788, "lon": 18.6760156}, {"type": "node", "id": 1719465449, "lat": 48.2151223, "lon": 18.675893}, {"type": "node", "id": 1990695298, "lat": 48.2151875, "lon": 18.7386544, "tags": {"amenity": "pub"}}, {"type": "node", "id": 1990706893, "lat": 48.1791092, "lon": 18.7494283, "tags": {"amenity": "pub", "name": "Margar\u00e9tka"}}, {"type": "node", "id": 1990706900, "lat": 48.1796275, "lon": 18.7517046, "tags": {"amenity": "pub", "name": "Pohostinstvo"}}, {"type": "node", "id": 2020725964, "lat": 48.2083881, "lon": 18.9736098, "tags": {"amenity": "pub", "name": "Pajta"}}, {"type": "node", "id": 2079181434, "lat": 48.2112039, "lon": 18.5930813, "tags": {"amenity": "pub", "name": "Bufet Per\u00f3n", "opening_hours": "Mo-Fr 06:30-21:00; Su 14:00-21:00", "wheelchair": "no"}}, {"type": "node", "id": 2094496529, "lat": 48.1830286, "lon": 18.6769222, "tags": {"amenity": "pub"}}, {"type": "node", "id": 2312675263, "lat": 48.2102695, "lon": 18.6089355, "tags": {"amenity": "pub", "name": "Drink", "source": "Local knowledge"}}, {"type": "node", "id": 2705278384, "lat": 48.2348795, "lon": 18.5218021, "tags": {"amenity": "pub", "name": "Pohostinstvo Topvar", "source": "survey"}}, {"type": "node", "id": 2893318882, "lat": 48.2149074, "lon": 18.6256144, "tags": {"amenity": "pub", "name": "Varadero"}}, {"type": "node", "id": 2893318886, "lat": 48.2158835, "lon": 18.6237116, "tags": {"amenity": "pub", "name": "Play"}}, {"type": "node", "id": 2992823663, "lat": 48.220518, "lon": 18.6086214, "tags": {"amenity": "pub", "name": "Sitno", "source": "survey"}}, {"type": "node", "id": 3050152528, "lat": 48.2025364, "lon": 18.5212578, "tags": {"amenity": "pub", "name": "U Bur\u00e1kov", "source": "survey"}}, {"type": "node", "id": 3075461119, "lat": 48.1698025, "lon": 18.8838253, "tags": {"amenity": "pub"}}, {"type": "node", "id": 3830926427, "lat": 48.2187904, "lon": 18.6060363, "tags": {"amenity": "pub", "name": "Sud", "opening_hours": "Mo-Th 19:00-23:00; Fr,Sa 19:00-01:00", "smoking": "yes", "wheelchair": "no"}}, {"type": "node", "id": 3848938557, "lat": 48.2216519, "lon": 18.5959023, "tags": {"amenity": "pub", "internet_access": "yes", "internet_access:fee": "no", "name": "Florence", "outdoor_seating": "yes", "smoking": "no", "wheelchair": "yes"}}, {"type": "node", "id": 5039607968, "lat": 48.3201009, "lon": 19.0881462, "tags": {"amenity": "pub"}}, {"type": "node", "id": 8275073966, "lat": 48.2420743, "lon": 18.5377604, "tags": {"amenity": "pub", "source": "survey"}}, {"type": "node", "id": 8900215731, "lat": 48.1687583, "lon": 18.8783969, "tags": {"amenity": "pub", "name": "Kaza\u010dok", "opening_hours": "Su-We 10:00-23:00; Th-Sa 10:00-24:00", "wheelchair": "yes"}}, {"type": "node", "id": 8923654377, "lat": 48.2191488, "lon": 18.6059658, "tags": {"amenity": "pub", "contact:email": "info@sypkalevice.sk", "contact:facebook": "https://www.facebook.com/sypkalevice/", "contact:phone": "+421 917 380 863", "name": "S\u00fdpka u Patriotov", "website": "http://www.sypkalevice.sk/"}}, {"type": "node", "id": 9939026125, "lat": 48.1995219, "lon": 18.519799, "tags": {"amenity": "pub", "name": "Deska"}}, {"type": "way", "id": 58323790, "nodes": [723179242, 723189575, 723177179, 723174658, 723175424, 723177502, 723175639, 723173509, 723178726, 723179070, 723179242], "tags": {"addr:city": "Levice", "addr:conscriptionnumber": "1657", "addr:country": "SK", "addr:housenumber": "1657/131", "addr:postcode": "93401", "addr:street": "Kpt. J. N\u00e1lepku", "addr:streetnumber": "131", "amenity": "pub", "building": "yes", "import": "budovy201004", "name": "Topvar", "source": "survey"}}, {"type": "way", "id": 58398037, "nodes": [724031938, 724038103, 724010879, 724062156, 724017545, 724023064, 724031938], "tags": {"addr:city": "Levice", "addr:conscriptionnumber": "5675", "addr:country": "SK", "addr:housenumber": "5675", "addr:street": "J. Holl\u00e9ho", "amenity": "pub", "building": "yes", "import": "budovy201004", "name": "Pol trojka", "outdoor_seating": "yes", "source": "kapor2", "wheelchair": "yes"}}, {"type": "way", "id": 58789853, "nodes": [728618434, 728617992, 728618532, 728618153, 728618434], "tags": {"addr:city": "Kaln\u00e1 nad Hronom", "addr:conscriptionnumber": "446", "addr:country": "SK", "addr:housenumber": "446/20", "addr:postcode": "93532", "addr:street": "Kpt. N\u00e1lepku", "addr:streetnumber": "20", "addr:suburb": "Kalnica", "amenity": "pub", "building": "yes", "import": "budovy201004", "name": "U mn\u00edcha", "ref:minvskaddress": "15092033", "source": "kapor2", "source:addr": "minvskaddress 2022-08"}}, {"type": "way", "id": 58793821, "nodes": [728625808, 728629363, 728626888, 728628528, 728625543, 728626214, 728625808], "tags": {"addr:city": "Hronsk\u00e9 K\u013ea\u010dany", "addr:conscriptionnumber": "325", "addr:country": "SK", "addr:housenumber": "325", "addr:place": "Hronsk\u00e9 K\u013ea\u010dany", "amenity": "pub", "building": "yes", "import": "budovy201004", "name": "\u0160port club", "source": "kapor2", "source:conscriptionnumber": "kapor2"}}, {"type": "way", "id": 58894384, "nodes": [729745907, 729746770, 729747512, 729744742, 729745907], "tags": {"amenity": "pub", "building": "yes", "import": "budovy201004", "source": "kapor2"}}, {"type": "way", "id": 59345103, "nodes": [736050783, 736052919, 736050944, 736049991, 736052236, 736053351, 736050783], "tags": {"addr:city": "Hontianske Nemce", "addr:conscriptionnumber": "25", "addr:housenumber": "25", "addr:place": "Hontianske Nemce", "amenity": "pub", "building": "yes", "name": "Hostinec", "source:conscriptionnumber": "kapor2"}}, {"type": "way", "id": 71689513, "nodes": [852349861, 852349862, 852349863, 852349864, 852349865, 852349866, 852349867, 852349868, 852349869, 852349870, 852349861], "tags": {"addr:city": "Hontianske Moravce", "addr:conscriptionnumber": "217", "addr:country": "SK", "addr:housenumber": "217/65", "addr:postcode": "96271", "addr:street": "Hontianska", "addr:streetnumber": "65", "addr:suburb": "Opatov\u00e9 Moravce", "amenity": "pub", "building": "yes", "import": "budovy201004", "name": "Hostinec", "ref:minvskaddress": "33874423", "source": "kapor2", "source:addr": "minvskaddress 2021-12"}}, {"type": "way", "id": 123753527, "nodes": [1378990432, 1378990412, 1378990398, 1378990416, 1378990432], "tags": {"addr:city": "Levice", "addr:conscriptionnumber": "505", "addr:country": "SK", "addr:housenumber": "505/29", "addr:street": "F. He\u010dku", "addr:streetnumber": "29", "amenity": "pub", "building": "yes", "name": "Z\u00e1hradka"}}, {"type": "way", "id": 159851405, "nodes": [1719465449, 1719465431, 1719465396, 1719465407, 1719465449], "tags": {"addr:city": "Kr\u0161kany", "addr:conscriptionnumber": "374", "addr:country": "SK", "addr:housenumber": "374", "addr:place": "Kr\u0161kany", "amenity": "pub", "building": "yes", "internet_access": "wlan", "internet_access:fee": "no", "name": "Krejzy pub", "outdoor_seating": "yes", "smoking": "yes", "source": "kapor2", "source:conscriptionnumber": "kapor2"}}]}