{"version": 0.6, "generator": "Overpass API 0.7.59 e21c39fe", "osm3s": {"timestamp_osm_base": "2023-01-21T09:22:38Z", "copyright": "The data included in this document is from www.openstreetmap.org. The data is made available under ODbL."}, "elements": [{"type": "node", "id": 1432559385, "lat": 47.2171385, "lon": 20.7507237, "tags": {"brand": "Lidl", "brand:wikidata": "Q151954", "brand:wikipedia": "en:Lidl", "name": "Lidl", "shop": "supermarket", "website": "https://www.lidl.hu/"}}, {"type": "node", "id": 1449747301, "lat": 47.2171252, "lon": 20.7578934, "tags": {"addr:city": "Kis\u00fajsz\u00e1ll\u00e1s", "addr:housenumber": "2/A", "addr:postcode": "5310", "addr:street": "Szabads\u00e1g utca", "brand": "Coop", "name": "Coop Szuper", "opening_hours": "Mo-Sa 06:15-20:00", "phone": "+36 59 520 743", "shop": "supermarket", "toilets:wheelchair": "no", "wheelchair": "yes"}}, {"type": "node", "id": 1454650724, "lat": 47.2182037, "lon": 20.7516609, "tags": {"brand": "Spar", "brand:wikidata": "Q610492", "brand:wikipedia": "en:Spar (retailer)", "name": "Spar", "shop": "supermarket", "toilets:wheelchair": "no", "wheelchair": "yes"}}, {"type": "node", "id": 1454652083, "lat": 47.2178239, "lon": 20.7545523, "tags": {"shop": "supermarket"}}, {"type": "node", "id": 1454654066, "lat": 47.2176683, "lon": 20.7610741, "tags": {"shop": "supermarket", "toilets:wheelchair": "no", "wheelchair": "yes"}}, {"type": "node", "id": 1456577484, "lat": 47.2199007, "lon": 20.7389907, "tags": {"brand": "Penny", "brand:wikidata": "Q284688", "brand:wikipedia": "en:Penny (supermarket)", "contact:website": "http://www.penny.hu", "name": "Penny", "shop": "supermarket", "website": "http://www.penny.hu"}}, {"type": "node", "id": 1886439108, "lat": 47.3193474, "lon": 20.9217896, "tags": {"addr:city": "Karcag", "addr:housenumber": "2-4", "addr:postcode": "5300", "addr:street": "Horv\u00e1th Ferenc utca", "brand": "Spar", "brand:wikidata": "Q610492", "brand:wikipedia": "en:Spar (retailer)", "contact:website": "http://www.spar.hu", "description": "SPAR szupermarket, Karcag (671)", "name": "Spar", "opening_hours": "Mo-Fr 06:30-20:00; Sa 06:30-18:00; Su 07:00-18:00", "shop": "supermarket", "toilets:wheelchair": "no", "website": "http://www.spar.hu", "wheelchair": "yes"}}, {"type": "node", "id": 2050553988, "lat": 47.3028377, "lon": 20.9059792}, {"type": "node", "id": 2050554001, "lat": 47.3032418, "lon": 20.9052714}, {"type": "node", "id": 2050554003, "lat": 47.3033184, "lon": 20.9065763}, {"type": "node", "id": 2050554022, "lat": 47.3037226, "lon": 20.9058684}, {"type": "node", "id": 2393362631, "lat": 47.3687151, "lon": 20.6328854}, {"type": "node", "id": 2393362632, "lat": 47.3684747, "lon": 20.6327844}, {"type": "node", "id": 2393362633, "lat": 47.3683799, "lon": 20.633286}, {"type": "node", "id": 2393362634, "lat": 47.3686225, "lon": 20.6333869}, {"type": "node", "id": 2393363023, "lat": 47.3681902, "lon": 20.6322992}, {"type": "node", "id": 2393363024, "lat": 47.3681919, "lon": 20.6320484}, {"type": "node", "id": 2393363025, "lat": 47.3681549, "lon": 20.6320419}, {"type": "node", "id": 2393363026, "lat": 47.3681615, "lon": 20.6315697}, {"type": "node", "id": 2393363027, "lat": 47.3679542, "lon": 20.6315534}, {"type": "node", "id": 2393363028, "lat": 47.3679409, "lon": 20.6322796}, {"type": "node", "id": 2393384806, "lat": 47.3659383, "lon": 20.6277524, "tags": {"name": "Re\u00e1l \u00c9lelmiszer", "shop": "supermarket", "toilets:wheelchair": "no", "wheelchair": "yes"}}, {"type": "node", "id": 2589457282, "lat": 47.0286194, "lon": 20.9583871}, {"type": "node", "id": 2589457284, "lat": 47.028634, "lon": 20.9585802}, {"type": "node", "id": 2589457286, "lat": 47.0282903, "lon": 20.9586875}, {"type": "node", "id": 2589457287, "lat": 47.028272, "lon": 20.9584944}, {"type": "node", "id": 2592858272, "lat": 47.0349043, "lon": 20.9643255}, {"type": "node", "id": 2592858274, "lat": 47.0349153, "lon": 20.9646152}, {"type": "node", "id": 2592858276, "lat": 47.03478, "lon": 20.9646152}, {"type": "node", "id": 2592858278, "lat": 47.03478, "lon": 20.9645025}, {"type": "node", "id": 2592858280, "lat": 47.0346776, "lon": 20.9645186}, {"type": "node", "id": 2592858282, "lat": 47.0346703, "lon": 20.9643309}, {"type": "node", "id": 2592858283, "lat": 47.0274891, "lon": 20.9723346}, {"type": "node", "id": 2592858285, "lat": 47.0272917, "lon": 20.9725921}, {"type": "node", "id": 2592858287, "lat": 47.0272076, "lon": 20.972474}, {"type": "node", "id": 2592858289, "lat": 47.027416, "lon": 20.9722005}, {"type": "node", "id": 2948969231, "lat": 46.9999177, "lon": 20.630254, "tags": {"name": "Coop", "shop": "supermarket", "website": "http://coop.hu", "wheelchair": "no"}}, {"type": "node", "id": 2948969232, "lat": 47.0024692, "lon": 20.6174717, "tags": {"name": "Coop", "shop": "supermarket", "website": "http://coop.hu"}}, {"type": "node", "id": 2948971136, "lat": 46.999835, "lon": 20.6294847, "tags": {"brand": "Spar", "brand:wikidata": "Q610492", "brand:wikipedia": "en:Spar (retailer)", "contact:website": "http://www.spar.hu", "name": "Spar", "shop": "supermarket", "website": "http://www.spar.hu"}}, {"type": "node", "id": 2954753638, "lat": 47.0295118, "lon": 20.9767314}, {"type": "node", "id": 2954753639, "lat": 47.0289878, "lon": 20.9770672}, {"type": "node", "id": 2954753640, "lat": 47.0291504, "lon": 20.977774}, {"type": "node", "id": 2954753641, "lat": 47.0293612, "lon": 20.9779022}, {"type": "node", "id": 2955671485, "lat": 47.0023477, "lon": 20.6121514}, {"type": "node", "id": 2955671492, "lat": 47.0024614, "lon": 20.6125612}, {"type": "node", "id": 2955671501, "lat": 47.002543, "lon": 20.6120348}, {"type": "node", "id": 2955671502, "lat": 47.0025442, "lon": 20.6143164}, {"type": "node", "id": 2955671505, "lat": 47.0025641, "lon": 20.612111}, {"type": "node", "id": 2955671511, "lat": 47.002637, "lon": 20.6145849}, {"type": "node", "id": 2955671521, "lat": 47.0027556, "lon": 20.6144507}, {"type": "node", "id": 2955671523, "lat": 47.0027683, "lon": 20.6144873}, {"type": "node", "id": 2955671530, "lat": 47.0028345, "lon": 20.6119496}, {"type": "node", "id": 2955671545, "lat": 47.0029272, "lon": 20.6122833}, {"type": "node", "id": 2955671550, "lat": 47.0029547, "lon": 20.6140113}, {"type": "node", "id": 2955671552, "lat": 47.0029757, "lon": 20.6142871}, {"type": "node", "id": 2955671555, "lat": 47.0029956, "lon": 20.6143447}, {"type": "node", "id": 2955671557, "lat": 47.0030136, "lon": 20.6141819}, {"type": "node", "id": 2955671561, "lat": 47.0030622, "lon": 20.6141458}, {"type": "node", "id": 2955671564, "lat": 47.0031033, "lon": 20.6142647}, {"type": "node", "id": 3216631998, "lat": 47.2992392, "lon": 20.8991574, "tags": {"addr:city": "Karcag", "addr:housenumber": "90", "addr:postcode": "5300", "addr:street": "Kis\u00fajsz\u00e1ll\u00e1si \u00fat", "air_conditioning": "yes", "brand": "Aldi", "brand:wikidata": "Q125054", "brand:wikipedia": "hu:Aldi", "contact:facebook": "https://www.facebook.com/ALDI.Magyarorszag", "contact:instagram": "https://www.instagram.com/aldi.magyarorszag", "contact:phone": "+36 80 088 264", "contact:website": "https://www.aldi.hu", "contact:youtube": "https://www.youtube.com/user/ALDIMagyarorszag", "name": "Aldi", "opening_hours": "Mo-Sa 07:00-20:00; Su 07:00-19:00; PH off", "operator": "ALDI Magyarorsz\u00e1g \u00c9lelmiszer Bt.", "operator:addr": "2051 Biatorb\u00e1gy, M\u00e9sz\u00e1rosok \u00fatja 2.", "payment:cash": "yes", "payment:contactless": "yes", "payment:maestro": "yes", "payment:mastercard": "yes", "payment:mastercard_contactless": "yes", "payment:mastercard_electronic": "yes", "payment:visa": "yes", "payment:visa_electron": "yes", "ref:HU:company": "13-06-058506", "ref:HU:vatin": "22234663-2-44", "ref:vatin": "HU22234663", "shop": "supermarket", "source": "import;website", "source:date": "2022-10-14"}}, {"type": "node", "id": 3489668109, "lat": 47.1034939, "lon": 20.7412719, "tags": {"brand": "Penny", "brand:wikidata": "Q284688", "brand:wikipedia": "en:Penny (supermarket)", "name": "Penny", "shop": "supermarket", "source": "turistautak.hu", "source:date": "2012-09-03", "url": "http://turistautak.hu/poi.php?id=144204"}}, {"type": "node", "id": 5058351222, "lat": 47.1790898, "lon": 20.4110203, "tags": {"name": "Rossmann", "shop": "supermarket"}}, {"type": "node", "id": 5081626063, "lat": 47.1831623, "lon": 20.4092764, "tags": {"name": "Kos\u00e1rka ABC", "shop": "supermarket", "toilets:wheelchair": "no", "wheelchair": "yes"}}, {"type": "node", "id": 5309522601, "lat": 47.3085668, "lon": 20.9372159}, {"type": "node", "id": 5309522602, "lat": 47.3084888, "lon": 20.9374318}, {"type": "node", "id": 5309522603, "lat": 47.308454, "lon": 20.9374106}, {"type": "node", "id": 5309522604, "lat": 47.3083724, "lon": 20.9376335}, {"type": "node", "id": 5309522605, "lat": 47.3081636, "lon": 20.9374778}, {"type": "node", "id": 5309522606, "lat": 47.3081732, "lon": 20.9374424}, {"type": "node", "id": 5309522607, "lat": 47.3081408, "lon": 20.9374194}, {"type": "node", "id": 5309522608, "lat": 47.308184, "lon": 20.9372884}, {"type": "node", "id": 5309522609, "lat": 47.3082248, "lon": 20.9373168}, {"type": "node", "id": 5309522610, "lat": 47.3083256, "lon": 20.9370301}, {"type": "node", "id": 5526102408, "lat": 47.3184797, "lon": 20.9248655}, {"type": "node", "id": 5526102409, "lat": 47.3183924, "lon": 20.9253375}, {"type": "node", "id": 5526102410, "lat": 47.3185904, "lon": 20.9254172}, {"type": "node", "id": 5526102411, "lat": 47.3186777, "lon": 20.9249451}, {"type": "node", "id": 5526133588, "lat": 47.3166713, "lon": 20.9256379}, {"type": "node", "id": 5526133589, "lat": 47.3167181, "lon": 20.9256148}, {"type": "node", "id": 5526133590, "lat": 47.3164342, "lon": 20.9255221}, {"type": "node", "id": 5526133591, "lat": 47.3168083, "lon": 20.9252126}, {"type": "node", "id": 5526133592, "lat": 47.3165338, "lon": 20.9250785}, {"type": "node", "id": 5604251252, "lat": 47.1802249, "lon": 20.4180757}, {"type": "node", "id": 5604251253, "lat": 47.1799365, "lon": 20.4181931}, {"type": "node", "id": 5604251254, "lat": 47.1799496, "lon": 20.4182626}, {"type": "node", "id": 5604251255, "lat": 47.1797899, "lon": 20.4183276}, {"type": "node", "id": 5604251256, "lat": 47.1797036, "lon": 20.4178683}, {"type": "node", "id": 5604251257, "lat": 47.1801516, "lon": 20.4176859}, {"type": "node", "id": 5604311522, "lat": 47.1802106, "lon": 20.417517}, {"type": "node", "id": 5604311523, "lat": 47.1796906, "lon": 20.417716}, {"type": "node", "id": 5604311524, "lat": 47.1796665, "lon": 20.4175794}, {"type": "node", "id": 5604311525, "lat": 47.1797032, "lon": 20.4175653}, {"type": "node", "id": 5604311526, "lat": 47.1796545, "lon": 20.41729}, {"type": "node", "id": 5604311527, "lat": 47.1801377, "lon": 20.4171049}, {"type": "node", "id": 5604329208, "lat": 47.1776069, "lon": 20.4056159}, {"type": "node", "id": 5604329209, "lat": 47.1772049, "lon": 20.4058053}, {"type": "node", "id": 5604329210, "lat": 47.1772763, "lon": 20.4061333}, {"type": "node", "id": 5604329211, "lat": 47.1774285, "lon": 20.4060616}, {"type": "node", "id": 5604329212, "lat": 47.1774037, "lon": 20.4059479}, {"type": "node", "id": 5604329213, "lat": 47.1776535, "lon": 20.4058302}, {"type": "node", "id": 5774016900, "lat": 47.1096074, "lon": 20.7340013}, {"type": "node", "id": 5774016901, "lat": 47.1097782, "lon": 20.7334623}, {"type": "node", "id": 5774016902, "lat": 47.1099397, "lon": 20.7342285}, {"type": "node", "id": 5774016904, "lat": 47.110084, "lon": 20.7337728}, {"type": "node", "id": 6559693123, "lat": 47.1802216, "lon": 20.4180579}, {"type": "node", "id": 6773632134, "lat": 47.3166556, "lon": 20.9256303}, {"type": "node", "id": 6868368608, "lat": 47.2480797, "lon": 20.6741113}, {"type": "node", "id": 6868368609, "lat": 47.248144, "lon": 20.6737666}, {"type": "node", "id": 6868368610, "lat": 47.2483657, "lon": 20.6738563}, {"type": "node", "id": 6868368611, "lat": 47.2483013, "lon": 20.6742011}, {"type": "node", "id": 8184339591, "lat": 47.1035508, "lon": 20.7446088, "tags": {"addr:city": "T\u00farkeve", "addr:housenumber": "17/a", "addr:postcode": "5420", "addr:street": "Kossuth Lajos utca", "name": "Nasi Sarok", "opening_hours": "Mo-Fr 09:00-17:00, Sa 08:00-12:00", "opening_hours:covid19": "same", "operator": "Nyitrai Zolt\u00e1nn\u00e9 Ed\u00f3", "payment:cash": "yes", "phone": "+36 30 573 2205", "shop": "supermarket"}}, {"type": "node", "id": 8335047624, "lat": 47.1099542, "lon": 20.7335827}, {"type": "node", "id": 8335047625, "lat": 47.1099278, "lon": 20.733666}, {"type": "node", "id": 10013128706, "lat": 47.1774544, "lon": 20.4056877}, {"type": "way", "id": 194553803, "nodes": [2050554022, 2050554003, 2050553988, 2050554001, 2050554022], "tags": {"addr:city": "Karcag", "addr:housenumber": "34", "addr:postcode": "5300", "addr:street": "Kis\u00fajsz\u00e1ll\u00e1si \u00fat", "air_conditioning": "yes", "branch": "Karcag Hipermarket", "brand": "Tesco", "brand:wikidata": "Q487494", "brand:wikipedia": "en:Tesco", "building": "retail", "contact:facebook": "https://www.facebook.com/tescoaruhazak", "contact:pinterest": "https://www.pinterest.com/tescohungary/", "contact:website": "https://tesco.hu/aruhazak/aruhaz/tesco-karcag-hipermarket/", "contact:youtube": "https://www.youtube.com/user/TescoMagyarorszag", "import": "osm_poi_matchmaker", "internet_access": "wlan", "internet_access:fee": "no", "internet_access:ssid": "tesco-internet", "loyalty_card": "yes", "name": "Tesco", "opening_hours": "Mo-Sa 06:00-21:00; Su 07:00-18:00; PH off", "operator": "TESCO-GLOBAL \u00c1ruh\u00e1zak Zrt.", "operator:addr": "2040 Buda\u00f6rs, Kinizsi \u00fat 1-3.", "payment:american_express": "yes", "payment:cash": "yes", "payment:contactless": "yes", "payment:edenred_card": "yes", "payment:edenred_voucher": "yes", "payment:gift_card": "yes", "payment:jcb": "yes", "payment:maestro": "yes", "payment:mastercard": "yes", "payment:mastercard_contactless": "yes", "payment:mastercard_electronic": "yes", "payment:multipay": "yes", "payment:otp_bankpont": "yes", "payment:otp_cafeteria": "yes", "payment:unionpay": "yes", "payment:v_pay": "yes", "payment:visa": "yes", "payment:visa_electron": "yes", "payment:wire_transfer": "yes", "ref:HU:company": "13-10-040628", "ref:HU:vatin": "10307078-2-44", "ref:vatin": "HU10307078", "shop": "supermarket", "source": "website", "source:date": "2020-09-28", "source:wheelchair": "website", "toilets:wheelchair": "yes", "wheelchair": "yes"}}, {"type": "way", "id": 230904680, "nodes": [2393362631, 2393362632, 2393362633, 2393362634, 2393362631], "tags": {"brand": "Coop", "building": "retail", "name": "Coop", "shop": "supermarket", "toilets:wheelchair": "no", "website": "http://coop.hu", "wheelchair": "yes"}}, {"type": "way", "id": 230904749, "nodes": [2393363024, 2393363025, 2393363026, 2393363027, 2393363028, 2393363023, 2393363024], "tags": {"brand": "Penny", "brand:wikidata": "Q284688", "brand:wikipedia": "en:Penny (supermarket)", "building": "retail", "contact:website": "http://www.penny.hu", "name": "Penny", "shop": "supermarket", "website": "http://www.penny.hu"}}, {"type": "way", "id": 252936681, "nodes": [2589457282, 2589457284, 2589457286, 2589457287, 2589457282], "tags": {"building": "retail", "name": "Coop", "operator": "Coop Zrt.", "shop": "supermarket", "website": "http://coop.hu", "wheelchair": "yes"}}, {"type": "way", "id": 253349878, "nodes": [2592858272, 2592858274, 2592858276, 2592858278, 2592858280, 2592858282, 2592858272], "tags": {"brand": "Coop", "building": "retail", "name": "Coop ABC", "operator": "Coop", "shop": "supermarket", "website": "http://www.coop.hu"}}, {"type": "way", "id": 253349879, "nodes": [2592858283, 2592858285, 2592858287, 2592858289, 2592858283], "tags": {"brand": "Coop", "building": "retail", "name": "Coop ABC", "operator": "Coop", "shop": "supermarket", "website": "http://www.coop.hu"}}, {"type": "way", "id": 291965705, "nodes": [2954753638, 2954753639, 2954753640, 2954753641, 2954753638], "tags": {"building": "retail", "name": "T\u00fcz\u00e9p", "shop": "supermarket"}}, {"type": "way", "id": 292054359, "nodes": [2955671561, 2955671564, 2955671555, 2955671552, 2955671521, 2955671523, 2955671511, 2955671502, 2955671550, 2955671557, 2955671561], "tags": {"brand": "Penny", "brand:wikidata": "Q284688", "brand:wikipedia": "en:Penny (supermarket)", "building": "retail", "name": "Penny", "shop": "supermarket", "website": "https://www.penny.hu/"}}, {"type": "way", "id": 292054390, "nodes": [2955671530, 2955671545, 2955671492, 2955671485, 2955671501, 2955671505, 2955671530], "tags": {"brand": "Lidl", "brand:wikidata": "Q151954", "brand:wikipedia": "en:Lidl", "building": "retail", "name": "Lidl", "shop": "supermarket", "website": "https://www.lidl.hu/"}}, {"type": "way", "id": 549657015, "nodes": [5309522601, 5309522602, 5309522603, 5309522604, 5309522605, 5309522606, 5309522607, 5309522608, 5309522609, 5309522610, 5309522601], "tags": {"alt_name": "Penny Market", "brand": "Penny", "brand:wikidata": "Q284688", "brand:wikipedia": "en:Penny (supermarket)", "building": "retail", "building:levels": "1", "name": "Penny", "opening_hours": "Mo-Sa 06:30-20:00; Su 07:00-18:00; PH off", "shop": "supermarket", "website": "https://www.penny.hu"}}, {"type": "way", "id": 576057129, "nodes": [5526102411, 5526102410, 5526102409, 5526102408, 5526102411], "tags": {"brand": "Coop Szuper", "brand:wikidata": "Q868980", "building": "yes", "name": "Coop Szuper", "shop": "supermarket", "source": "turistautak.hu", "source:date": "2009-10-27", "toilets:wheelchair": "no", "url": "http://turistautak.hu/poi.php?id=81061", "wheelchair": "yes"}}, {"type": "way", "id": 576061078, "nodes": [5526133592, 5526133591, 5526133589, 5526133588, 6773632134, 5526133590, 5526133592], "tags": {"brand": "CBA", "brand:wikidata": "Q779845", "brand:wikipedia": "en:CBA (food retail)", "building": "yes", "name": "CBA", "shop": "supermarket", "wheelchair": "no"}}, {"type": "way", "id": 586589116, "nodes": [5604251252, 5604251253, 5604251254, 5604251255, 5604251256, 5604251257, 6559693123, 5604251252], "tags": {"brand": "Spar", "brand:wikidata": "Q610492", "brand:wikipedia": "en:Spar (retailer)", "building": "retail", "building:levels": "1", "contact:website": "http://www.spar.hu", "name": "Spar", "opening_hours": "Mo-Sa 07:00-20:00; Su 07:00-13:00", "roof:levels": "0", "shop": "supermarket", "toilets:wheelchair": "no", "website": "http://www.spar.hu", "wheelchair": "yes"}}, {"type": "way", "id": 586596736, "nodes": [5604311522, 5604311523, 5604311524, 5604311525, 5604311526, 5604311527, 5604311522], "tags": {"brand": "Lidl", "brand:wikidata": "Q151954", "brand:wikipedia": "en:Lidl", "building": "yes", "name": "Lidl", "shop": "supermarket", "website": "https://www.lidl.hu/", "wheelchair": "yes"}}, {"type": "way", "id": 586598747, "nodes": [5604329208, 10013128706, 5604329209, 5604329210, 5604329211, 5604329212, 5604329213, 5604329208], "tags": {"brand": "Spar", "brand:wikidata": "Q610492", "brand:wikipedia": "en:Spar (retailer)", "building": "yes", "name": "Spar", "shop": "supermarket", "toilets:wheelchair": "no", "wheelchair": "yes"}}, {"type": "way", "id": 609605222, "nodes": [5774016900, 5774016901, 8335047624, 8335047625, 5774016904, 5774016902, 5774016900], "tags": {"addr:city": "T\u00farkeve", "addr:housenumber": "2", "addr:postcode": "5420", "addr:street": "Kabai utca", "air_conditioning": "yes", "branch": "T\u00farkeve Szupermarket", "brand": "Tesco", "brand:wikidata": "Q487494", "brand:wikipedia": "hu:Tesco", "building": "retail", "contact:facebook": "https://www.facebook.com/tescoaruhazak", "contact:pinterest": "https://www.pinterest.com/tescohungary/", "contact:website": "https://tesco.hu/aruhazak/aruhaz/tesco-turkeve-szupermarket/", "contact:youtube": "https://www.youtube.com/user/TescoMagyarorszag", "import": "osm_poi_matchmaker", "internet_access": "wlan", "internet_access:fee": "no", "internet_access:ssid": "tesco-internet", "loyalty_card": "yes", "name": "Tesco", "opening_hours": "Mo-Sa 06:00-21:00; Su 08:00-16:00; PH off", "operator": "TESCO-GLOBAL \u00c1ruh\u00e1zak Zrt.", "operator:addr": "2040 Buda\u00f6rs, Kinizsi \u00fat 1-3.", "payment:american_express": "yes", "payment:cash": "yes", "payment:contactless": "yes", "payment:edenred_card": "yes", "payment:edenred_voucher": "yes", "payment:gift_card": "yes", "payment:jcb": "yes", "payment:maestro": "yes", "payment:mastercard": "yes", "payment:mastercard_contactless": "yes", "payment:mastercard_electronic": "yes", "payment:multipay": "yes", "payment:otp_bankpont": "yes", "payment:otp_cafeteria": "yes", "payment:unionpay": "yes", "payment:v_pay": "yes", "payment:visa": "yes", "payment:visa_electron": "yes", "payment:wire_transfer": "yes", "ref:HU:company": "13-10-040628", "ref:HU:vatin": "10307078-2-44", "ref:vatin": "HU10307078", "shop": "supermarket", "source": "website", "source:date": "2020-09-28", "source:wheelchair": "website", "toilets:wheelchair": "no", "wheelchair": "yes"}}, {"type": "way", "id": 733416365, "nodes": [6868368608, 6868368609, 6868368610, 6868368611, 6868368608], "tags": {"building": "yes", "shop": "supermarket"}}]}