{"version": 0.6, "generator": "Overpass API 0.7.59 e21c39fe", "osm3s": {"timestamp_osm_base": "2023-01-21T09:22:38Z", "copyright": "The data included in this document is from www.openstreetmap.org. The data is made available under ODbL."}, "elements": [{"type": "node", "id": 468336960, "lat": 47.697425, "lon": 20.9904297, "tags": {"brand": "Re\u00e1l", "brand:wikidata": "Q100741414", "name": "Re\u00e1l", "shop": "supermarket", "website": "http://real.hu/"}}, {"type": "node", "id": 2305544387, "lat": 47.6209265, "lon": 20.7461941}, {"type": "node", "id": 2305544389, "lat": 47.62095, "lon": 20.7466208}, {"type": "node", "id": 2305544390, "lat": 47.6209507, "lon": 20.7480949}, {"type": "node", "id": 2305544397, "lat": 47.6209833, "lon": 20.7461871}, {"type": "node", "id": 2305544399, "lat": 47.6210078, "lon": 20.7488397}, {"type": "node", "id": 2305544401, "lat": 47.6210119, "lon": 20.7466133}, {"type": "node", "id": 2305544421, "lat": 47.6211203, "lon": 20.7480663}, {"type": "node", "id": 2305544422, "lat": 47.6211226, "lon": 20.7480964}, {"type": "node", "id": 2305544424, "lat": 47.6211373, "lon": 20.7487913}, {"type": "node", "id": 2305544425, "lat": 47.6211393, "lon": 20.7488175}, {"type": "node", "id": 2305544426, "lat": 47.6211432, "lon": 20.7483042}, {"type": "node", "id": 2305544429, "lat": 47.621164, "lon": 20.7480894}, {"type": "node", "id": 2305544430, "lat": 47.6211759, "lon": 20.7487848}, {"type": "node", "id": 2305544431, "lat": 47.62118, "lon": 20.7482986}, {"type": "node", "id": 2305544445, "lat": 47.6213217, "lon": 20.746146}, {"type": "node", "id": 2305544449, "lat": 47.6213453, "lon": 20.7465727}, {"type": "node", "id": 2305544561, "lat": 47.6232496, "lon": 20.746392}, {"type": "node", "id": 2305544562, "lat": 47.6232885, "lon": 20.7459186}, {"type": "node", "id": 2305544567, "lat": 47.6234794, "lon": 20.7464336}, {"type": "node", "id": 2305544568, "lat": 47.6234875, "lon": 20.7463351}, {"type": "node", "id": 2305544570, "lat": 47.6235262, "lon": 20.7459616}, {"type": "node", "id": 2305544571, "lat": 47.6235321, "lon": 20.7458899}, {"type": "node", "id": 2305544575, "lat": 47.6236283, "lon": 20.7459754}, {"type": "node", "id": 2305544576, "lat": 47.6236339, "lon": 20.7459083}, {"type": "node", "id": 2305544579, "lat": 47.6238356, "lon": 20.7463981}, {"type": "node", "id": 2305544582, "lat": 47.6238668, "lon": 20.7460186}, {"type": "node", "id": 2308457605, "lat": 47.7513485, "lon": 20.4200519}, {"type": "node", "id": 2308457615, "lat": 47.7514006, "lon": 20.4203208}, {"type": "node", "id": 2308457650, "lat": 47.7516445, "lon": 20.4199251}, {"type": "node", "id": 2308457656, "lat": 47.7516966, "lon": 20.4201939}, {"type": "node", "id": 2327856676, "lat": 47.6161207, "lon": 20.7581973}, {"type": "node", "id": 2327856677, "lat": 47.6161304, "lon": 20.7583527}, {"type": "node", "id": 2327856687, "lat": 47.6161693, "lon": 20.7582951}, {"type": "node", "id": 2327856698, "lat": 47.616273, "lon": 20.7585739}, {"type": "node", "id": 2327856703, "lat": 47.6162978, "lon": 20.757941}, {"type": "node", "id": 2327856707, "lat": 47.6163075, "lon": 20.7585755}, {"type": "node", "id": 2327856727, "lat": 47.6163551, "lon": 20.7580147}, {"type": "node", "id": 2327856735, "lat": 47.6163842, "lon": 20.7579666}, {"type": "node", "id": 2327856760, "lat": 47.6165484, "lon": 20.7582278}, {"type": "node", "id": 2354619846, "lat": 47.6059388, "lon": 20.7602858}, {"type": "node", "id": 2354619847, "lat": 47.6053854, "lon": 20.7604789}, {"type": "node", "id": 2354619848, "lat": 47.6051852, "lon": 20.7591265}, {"type": "node", "id": 2354619849, "lat": 47.6057579, "lon": 20.7590895}, {"type": "node", "id": 2388293429, "lat": 47.7505197, "lon": 20.417265, "tags": {"name": "Coop", "shop": "supermarket", "website": "http://coop.hu"}}, {"type": "node", "id": 2887771807, "lat": 47.4751151, "lon": 20.5993225}, {"type": "node", "id": 2927991049, "lat": 47.6445566, "lon": 20.6562583}, {"type": "node", "id": 2927991050, "lat": 47.6446534, "lon": 20.6564945}, {"type": "node", "id": 2927991053, "lat": 47.6447932, "lon": 20.6560436}, {"type": "node", "id": 2927991056, "lat": 47.6448903, "lon": 20.6562806}, {"type": "node", "id": 3342709785, "lat": 47.6103555, "lon": 20.7511365, "tags": {"addr:city": "Tiszaf\u00fcred", "addr:housenumber": "86", "addr:postcode": "5350", "addr:street": "Feszty \u00c1rp\u00e1d utca", "name": "Dr. Szalay L\u00fagos v\u00edz", "organic": "only", "shop": "supermarket", "website": "http://www.furedilugos.hu/"}}, {"type": "node", "id": 5326198465, "lat": 47.7396434, "lon": 20.408141}, {"type": "node", "id": 5326198466, "lat": 47.7394662, "lon": 20.4082057}, {"type": "node", "id": 5326198467, "lat": 47.7394257, "lon": 20.4082636}, {"type": "node", "id": 5326198468, "lat": 47.7394104, "lon": 20.4083352}, {"type": "node", "id": 5326198469, "lat": 47.7394631, "lon": 20.4086475}, {"type": "node", "id": 5326198470, "lat": 47.7395403, "lon": 20.4086168}, {"type": "node", "id": 5326198471, "lat": 47.7395861, "lon": 20.4088871}, {"type": "node", "id": 5326198472, "lat": 47.739638, "lon": 20.4088644}, {"type": "node", "id": 5326198473, "lat": 47.7396464, "lon": 20.4089121}, {"type": "node", "id": 5326198474, "lat": 47.7397701, "lon": 20.4088576}, {"type": "node", "id": 6337852185, "lat": 47.6434058, "lon": 20.6520491}, {"type": "node", "id": 6337852186, "lat": 47.643507, "lon": 20.6522865}, {"type": "node", "id": 6337852187, "lat": 47.6434084, "lon": 20.6523791}, {"type": "node", "id": 6337852188, "lat": 47.6433072, "lon": 20.6521417}, {"type": "node", "id": 6451812196, "lat": 47.4751395, "lon": 20.5998215}, {"type": "node", "id": 6451812197, "lat": 47.4752702, "lon": 20.5994384}, {"type": "node", "id": 6451812198, "lat": 47.4749844, "lon": 20.5997056}, {"type": "node", "id": 7791189986, "lat": 47.4293489, "lon": 20.7936625}, {"type": "node", "id": 7791189987, "lat": 47.4290486, "lon": 20.7937819}, {"type": "node", "id": 7791189988, "lat": 47.4289973, "lon": 20.7934995}, {"type": "node", "id": 7791189989, "lat": 47.4292976, "lon": 20.7933801}, {"type": "node", "id": 9908794785, "lat": 47.7515544, "lon": 20.4202549}, {"type": "way", "id": 221525563, "nodes": [2305544576, 2305544575, 2305544582, 2305544579, 2305544568, 2305544567, 2305544561, 2305544562, 2305544570, 2305544571, 2305544576], "tags": {"addr:city": "Tiszaf\u00fcred", "addr:housenumber": "25", "addr:postcode": "5350", "addr:street": "H\u00fasz\u00f6les \u00fat", "brand": "Lidl", "brand:wikidata": "Q151954", "brand:wikipedia": "en:Lidl", "building": "retail", "name": "Lidl", "opening_hours": "Mo-Sa 07:00-21:00; Su 07:00-20:00", "phone": "+36 40 789 000", "shop": "supermarket", "website": "https://www.lidl.hu/"}}, {"type": "way", "id": 221525564, "nodes": [2305544429, 2305544431, 2305544426, 2305544430, 2305544424, 2305544425, 2305544399, 2305544390, 2305544421, 2305544422, 2305544429], "tags": {"addr:street": "H\u00fasz\u00f6les \u00fat", "brand": "Penny", "brand:wikidata": "Q284688", "brand:wikipedia": "en:Penny (supermarket)", "building": "retail", "name": "Penny", "opening_hours": "Mo-Sa 07:00-20:00", "phone": "+36 29 339 345", "shop": "supermarket", "website": "https://www.penny.hu/"}}, {"type": "way", "id": 221525565, "nodes": [2305544445, 2305544449, 2305544401, 2305544389, 2305544387, 2305544397, 2305544445], "tags": {"brand": "Spar", "brand:wikidata": "Q610492", "brand:wikipedia": "en:Spar (retailer)", "building": "retail", "contact:website": "https://www.spar.hu/", "name": "Spar", "opening_hours": "Mo-Fr 06:30-20:00; Sa 06:30-18:00; Su 07:00-17:00", "ref": "811", "shop": "supermarket", "toilets:wheelchair": "no", "wheelchair": "yes"}}, {"type": "way", "id": 221864250, "nodes": [2308457650, 2308457656, 9908794785, 2308457615, 2308457605, 2308457650], "tags": {"brand": "CBA", "brand:wikidata": "Q779845", "building": "yes", "name": "CBA Outlet", "shop": "supermarket"}}, {"type": "way", "id": 223944283, "nodes": [2327856677, 2327856698, 2327856707, 2327856760, 2327856735, 2327856727, 2327856703, 2327856676, 2327856687, 2327856677], "tags": {"brand": "Coop Szuper", "brand:wikidata": "Q868980", "building": "retail", "name": "Coop Szuper", "shop": "supermarket", "toilets:wheelchair": "no", "website": "http://coop.hu", "wheelchair": "yes"}}, {"type": "way", "id": 226698475, "nodes": [2354619846, 2354619847, 2354619848, 2354619849, 2354619846], "tags": {"addr:city": "Tiszaf\u00fcred", "addr:housenumber": "2", "addr:postcode": "5350", "addr:street": "Mad\u00e1ch Imre utca", "air_conditioning": "yes", "branch": "Tiszaf\u00fcred Hipermarket", "brand": "Tesco", "brand:wikidata": "Q487494", "brand:wikipedia": "hu:Tesco", "building": "retail", "contact:facebook": "https://www.facebook.com/tescoaruhazak", "contact:phone": "+36 20 827 0000", "contact:pinterest": "https://www.pinterest.com/tescohungary/", "contact:website": "https://tesco.hu/aruhazak/aruhaz/tesco-tiszafured-hipermarket/", "contact:youtube": "https://www.youtube.com/user/TescoMagyarorszag", "import": "osm_poi_matchmaker", "internet_access": "wlan", "internet_access:fee": "no", "internet_access:ssid": "tesco-internet", "loyalty_card": "yes", "name": "Tesco", "opening_hours": "Mo-Sa 06:00-20:00; Su 07:00-18:00; PH off", "operator": "TESCO-GLOBAL \u00c1ruh\u00e1zak Zrt.", "operator:addr": "2040 Buda\u00f6rs, Kinizsi \u00fat 1-3.", "payment:american_express": "yes", "payment:cash": "yes", "payment:contactless": "yes", "payment:edenred_card": "yes", "payment:edenred_voucher": "yes", "payment:gift_card": "yes", "payment:jcb": "yes", "payment:maestro": "yes", "payment:mastercard": "yes", "payment:mastercard_contactless": "yes", "payment:mastercard_electronic": "yes", "payment:multipay": "yes", "payment:otp_bankpont": "yes", "payment:otp_cafeteria": "yes", "payment:unionpay": "yes", "payment:v_pay": "yes", "payment:visa": "yes", "payment:visa_electron": "yes", "payment:wire_transfer": "yes", "ref:HU:company": "13-10-040628", "ref:HU:vatin": "10307078-2-44", "ref:vatin": "HU10307078", "shop": "supermarket", "source": "website", "source:date": "2020-09-28", "source:wheelchair": "website", "toilets:wheelchair": "yes", "wheelchair": "yes"}}, {"type": "way", "id": 289249751, "nodes": [2927991056, 2927991053, 2927991049, 2927991050, 2927991056], "tags": {"brand": "CBA", "brand:wikidata": "Q779845", "building": "retail", "name": "CBA", "shop": "supermarket"}}, {"type": "way", "id": 551511267, "nodes": [5326198465, 5326198466, 5326198467, 5326198468, 5326198469, 5326198470, 5326198471, 5326198472, 5326198473, 5326198474, 5326198465], "tags": {"building": "yes", "name": "SPAR Szupermarket", "shop": "supermarket", "wheelchair": "yes"}}, {"type": "way", "id": 676812234, "nodes": [6337852188, 6337852185, 6337852186, 6337852187, 6337852188], "tags": {"addr:city": "Poroszl\u00f3", "addr:housenumber": "11", "addr:postcode": "3388", "addr:street": "F\u0151 \u00fat", "building": "yes", "name": "Mini \u00e9lelmiszer", "name:en": "Mini market", "opening_hours": "Mo-Sa 06:00-20:00; Su 07:00-20:00", "shop": "supermarket"}}, {"type": "way", "id": 688138756, "nodes": [2887771807, 6451812197, 6451812196, 6451812198, 2887771807], "tags": {"brand": "Penny", "brand:wikidata": "Q284688", "brand:wikipedia": "en:Penny (supermarket)", "building": "retail", "name": "Penny", "shop": "supermarket"}}, {"type": "way", "id": 834629887, "nodes": [7791189989, 7791189986, 7791189987, 7791189988, 7791189989], "tags": {"addr:city": "Kunmadaras", "addr:housenumber": "3", "addr:postcode": "5321", "addr:street": "Semmelweis Ign\u00e1c utca", "brand": "PENNY", "brand:wikidata": "Q284688", "brand:wikipedia": "en:Penny (supermarket)", "building": "yes", "name": "PENNY", "opening_hours": "Mo-Sa 07:00-20:00, Su 07:00-18:00", "payment:cash": "yes", "payment:mastercard": "yes", "payment:visa": "yes", "shop": "supermarket", "source": "turistautak.hu", "source:date": "2009-02-17", "url": "http://turistautak.hu/poi.php?id=66424", "wheelchair": "yes"}}]}