{"version": 0.6, "generator": "Overpass API 0.7.59 e21c39fe", "osm3s": {"timestamp_osm_base": "2023-01-21T09:22:38Z", "copyright": "The data included in this document is from www.openstreetmap.org. The data is made available under ODbL."}, "elements": [{"type": "node", "id": 1289495591, "lat": 46.9154069, "lon": 19.6981694, "tags": {"addr:city": "Kecskem\u00e9t", "addr:housenumber": "8", "addr:postcode": "6000", "addr:street": "Kod\u00e1ly Zolt\u00e1n t\u00e9r", "air_conditioning": "yes", "brand": "PENNY", "brand:wikidata": "Q284688", "brand:wikipedia": "en:Penny (supermarket)", "contact:email": "ugyfelszolgalat@penny.hu", "contact:website": "https://www.penny.hu", "currency:EUR": "yes", "currency:HUF": "yes", "internet_access": "wlan", "name": "PENNY", "opening_hours": "Mo-Fr 06:00-21:00; Sa 07:00-20:00; Su 07:00-18:00", "organic": "yes", "payment:cash": "yes", "payment:contactless": "yes", "payment:debit_cards": "yes", "shop": "supermarket", "wheelchair": "yes"}}, {"type": "node", "id": 1296374281, "lat": 46.9074917, "lon": 19.6882571, "tags": {"brand": "CBA", "brand:wikidata": "Q779845", "brand:wikipedia": "en:CBA (food retail)", "contact:phone": "+36 76 328 431", "name": "CBA", "opening_hours": "Mo-Sa 07:00-21:00; Su 08:00-19:00", "shop": "supermarket", "source": "http://www.malom.hu/uzletkereso?shop_src=34", "toilets:wheelchair": "yes", "wheelchair": "yes"}}, {"type": "node", "id": 1303961350, "lat": 46.8872738, "lon": 19.6362747, "tags": {"addr:city": "Kecskem\u00e9t", "addr:housenumber": "2", "addr:postcode": "6000", "addr:street": "Dunaf\u00f6ldv\u00e1ri \u00fat", "air_conditioning": "yes", "brand": "Auchan", "brand:wikidata": "Q758603", "brand:wikipedia": "en:Auchan", "contact:phone": "+36 40 109 010", "contact:website": "https://auchan.hu/aruhazak/auchan-kecskemet", "currency:HUF": "yes", "name": "Auchan", "opening_hours": "Mo-Th 06:00-21:00; Fr-Sa 06:00-22:00; Su 06:00-21:00", "payment:cash": "yes", "payment:debit_cards": "yes", "shop": "supermarket", "source": "https://auchan.hu/aruhazak/auchan-kecskemet", "toilets:wheelchair": "yes", "wheelchair": "yes"}}, {"type": "node", "id": 1303961374, "lat": 46.8931099, "lon": 19.6665489, "tags": {"addr:city": "Kecskem\u00e9t", "addr:housenumber": "12/B", "addr:postcode": "6000", "addr:street": "Izs\u00e1ki \u00fat", "air_conditioning": "yes", "branch": "Kecskem\u00e9t Target Center Hipermarket", "brand": "Tesco", "brand:wikidata": "Q487494", "brand:wikipedia": "en:Tesco", "contact:facebook": "https://www.facebook.com/tescoaruhazak", "contact:pinterest": "https://www.pinterest.com/tescohungary/", "contact:website": "https://tesco.hu/aruhazak/aruhaz/tesco-kecskemet-target-center-hipermarket/", "contact:youtube": "https://www.youtube.com/user/TescoMagyarorszag", "import": "osm_poi_matchmaker", "internet_access": "wlan", "internet_access:fee": "no", "internet_access:ssid": "tesco-internet", "loyalty_card": "yes", "name": "Tesco", "opening_hours": "Mo-Sa 06:00-22:00; Su 07:00-20:00; PH off", "operator": "TESCO-GLOBAL \u00c1ruh\u00e1zak Zrt.", "operator:addr": "2040 Buda\u00f6rs, Kinizsi \u00fat 1-3.", "payment:american_express": "yes", "payment:cash": "yes", "payment:contactless": "yes", "payment:edenred_card": "yes", "payment:edenred_voucher": "yes", "payment:gift_card": "yes", "payment:jcb": "yes", "payment:maestro": "yes", "payment:mastercard": "yes", "payment:mastercard_contactless": "yes", "payment:mastercard_electronic": "yes", "payment:multipay": "yes", "payment:otp_bankpont": "yes", "payment:otp_cafeteria": "yes", "payment:unionpay": "yes", "payment:v_pay": "yes", "payment:visa": "yes", "payment:visa_electron": "yes", "payment:wire_transfer": "yes", "ref": "41027", "ref:HU:company": "13-10-040628", "ref:HU:vatin": "10307078-2-44", "ref:vatin": "HU10307078", "shop": "supermarket", "source": "http://tesco.hu/akcio/41027", "source:date": "2020-09-28", "source:wheelchair": "website", "toilets:wheelchair": "yes", "wheelchair": "yes"}}, {"type": "node", "id": 1348269371, "lat": 46.9131699, "lon": 19.7105729}, {"type": "node", "id": 1348269403, "lat": 46.9134923, "lon": 19.7099277}, {"type": "node", "id": 1348269480, "lat": 46.9128128, "lon": 19.7102511}, {"type": "node", "id": 1408250273, "lat": 46.8755367, "lon": 19.2202945, "tags": {"brand": "Real", "brand:wikidata": "Q698473", "brand:wikipedia": "en:Real (hypermarket)", "name": "Real", "shop": "supermarket", "wheelchair": "yes"}}, {"type": "node", "id": 1408250296, "lat": 46.8759034, "lon": 19.2223062, "tags": {"shop": "supermarket"}}, {"type": "node", "id": 1824646479, "lat": 46.919987, "lon": 19.7069846}, {"type": "node", "id": 1824680775, "lat": 46.9161061, "lon": 19.6780693, "tags": {"addr:city": "Kecskem\u00e9t", "addr:housenumber": "4", "addr:postcode": "6000", "addr:street": "Aradi v\u00e9rtan\u00fak tere", "contact:phone": "+36 76 505 271", "contact:website": "http://www.coop.hu/", "name": "Coop Sz\u00e9chenyiv\u00e1rosi ABC", "opening_hours": "Mo-Fr 06:30-20:00; Sa 06:30-15:00; Su 07:00-12:00", "operator": "Univer-Coop Zrt.", "shop": "supermarket", "source": "http://www.coop.hu/shops/1519", "wheelchair": "yes"}}, {"type": "node", "id": 1906068485, "lat": 46.9321958, "lon": 19.6654717}, {"type": "node", "id": 1906068487, "lat": 46.9323307, "lon": 19.6669416}, {"type": "node", "id": 1906068497, "lat": 46.9325693, "lon": 19.6671957}, {"type": "node", "id": 1906068501, "lat": 46.9337996, "lon": 19.665138}, {"type": "node", "id": 1906068505, "lat": 46.9339636, "lon": 19.6668781}, {"type": "node", "id": 2396644291, "lat": 46.8896909, "lon": 19.6403976}, {"type": "node", "id": 2396644292, "lat": 46.889439, "lon": 19.6404183}, {"type": "node", "id": 2396644293, "lat": 46.8894374, "lon": 19.6403758}, {"type": "node", "id": 2396644296, "lat": 46.8892218, "lon": 19.6407657}, {"type": "node", "id": 2396644297, "lat": 46.8894452, "lon": 19.6407474}, {"type": "node", "id": 2396644298, "lat": 46.8894483, "lon": 19.640828}, {"type": "node", "id": 2396644299, "lat": 46.889557, "lon": 19.6407296}, {"type": "node", "id": 2396644300, "lat": 46.8897032, "lon": 19.6407176}, {"type": "node", "id": 2408247243, "lat": 46.6270369, "lon": 19.295296}, {"type": "node", "id": 2408247244, "lat": 46.6273373, "lon": 19.2947463}, {"type": "node", "id": 2408247245, "lat": 46.6273759, "lon": 19.294791}, {"type": "node", "id": 2408247246, "lat": 46.627512, "lon": 19.294542}, {"type": "node", "id": 2408247247, "lat": 46.628021, "lon": 19.2951319}, {"type": "node", "id": 2408247248, "lat": 46.6278577, "lon": 19.2954307}, {"type": "node", "id": 2408247249, "lat": 46.6277797, "lon": 19.2953402}, {"type": "node", "id": 2408247250, "lat": 46.6276021, "lon": 19.2956652}, {"type": "node", "id": 2408247252, "lat": 46.6276094, "lon": 19.295758}, {"type": "node", "id": 2408247254, "lat": 46.6274575, "lon": 19.2957832}, {"type": "node", "id": 2462262931, "lat": 46.9099327, "lon": 19.6936274, "tags": {"addr:city": "Kecskem\u00e9t", "addr:housenumber": "2", "addr:postcode": "6000", "addr:street": "Nagyk\u0151r\u00f6si utca", "brand": "Spar", "brand:wikidata": "Q610492", "brand:wikipedia": "en:Spar (retailer)", "contact:website": "https://www.spar.hu", "name": "Spar", "opening_hours": "Mo-Fr 07:00-20:00; Sa 07:00-16:00; Su 07:00-13:00", "operator": "SPAR Magyarorsz\u00e1g Kereskedelmi Kft.", "shop": "supermarket", "wheelchair": "yes"}}, {"type": "node", "id": 2463407943, "lat": 46.8937867, "lon": 19.6655512, "tags": {"addr:city": "Kecskem\u00e9t", "addr:housenumber": "12/B", "addr:postcode": "6000", "addr:street": "Izs\u00e1ki \u00fat", "contact:facebook": "https://www.facebook.com/eurofamily", "contact:instagram": "https://www.instagram.com/ecofamily_hu/", "contact:mobile": "+36 20 241 0766", "contact:website": "https://corporate.ecofamily.hu/", "name": "EcoFamily", "old_name": "EuroFamily", "opening_hours": "Mo-Sa 09:00-20:00; Su 09:00-18:00", "operator": "Napcsillag Kft.", "payment:american_express": "yes", "payment:cash": "yes", "payment:contactless": "yes", "payment:maestro": "yes", "payment:mastercard": "yes", "payment:visa": "yes", "shop": "supermarket", "source": "https://corporate.ecofamily.hu/hu/uzletek", "toilets:wheelchair": "yes", "wheelchair": "yes"}}, {"type": "node", "id": 2494162554, "lat": 46.9131517, "lon": 19.7104909}, {"type": "node", "id": 2494162598, "lat": 46.9129116, "lon": 19.7106959, "tags": {"entrance": "main"}}, {"type": "node", "id": 2615174132, "lat": 46.8896728, "lon": 19.6403991}, {"type": "node", "id": 2615174145, "lat": 46.8895604, "lon": 19.6408188}, {"type": "node", "id": 2615174148, "lat": 46.8895184, "lon": 19.6408222}, {"type": "node", "id": 2676233285, "lat": 46.9221283, "lon": 19.679068}, {"type": "node", "id": 2676233287, "lat": 46.921803, "lon": 19.6787706}, {"type": "node", "id": 2676233288, "lat": 46.9216954, "lon": 19.678949}, {"type": "node", "id": 2676233290, "lat": 46.9219662, "lon": 19.679321}, {"type": "node", "id": 2677412326, "lat": 46.8997518, "lon": 19.6917831}, {"type": "node", "id": 2677412328, "lat": 46.899522, "lon": 19.6918976}, {"type": "node", "id": 2677412330, "lat": 46.8996816, "lon": 19.6925303}, {"type": "node", "id": 2677412332, "lat": 46.8999001, "lon": 19.6923972}, {"type": "node", "id": 2679180919, "lat": 46.9143928, "lon": 19.6617181}, {"type": "node", "id": 2679180921, "lat": 46.9139645, "lon": 19.6614277}, {"type": "node", "id": 2679180923, "lat": 46.9138656, "lon": 19.6617402}, {"type": "node", "id": 2679180925, "lat": 46.9142939, "lon": 19.6620307}, {"type": "node", "id": 2708666336, "lat": 46.9197338, "lon": 19.706754}, {"type": "node", "id": 2708666338, "lat": 46.9199014, "lon": 19.7063592}, {"type": "node", "id": 2708666339, "lat": 46.9200571, "lon": 19.7068194}, {"type": "node", "id": 2708666340, "lat": 46.9200891, "lon": 19.7068485}, {"type": "node", "id": 2708666342, "lat": 46.9201866, "lon": 19.7066188}, {"type": "node", "id": 3075391496, "lat": 46.9218355, "lon": 19.6788149}, {"type": "node", "id": 3075391497, "lat": 46.9218863, "lon": 19.6787356}, {"type": "node", "id": 3342998196, "lat": 46.9051134, "lon": 19.6884987}, {"type": "node", "id": 3342998197, "lat": 46.9053687, "lon": 19.6882156}, {"type": "node", "id": 3342998198, "lat": 46.9053343, "lon": 19.6881491}, {"type": "node", "id": 3342998199, "lat": 46.9053629, "lon": 19.6881175}, {"type": "node", "id": 3342998200, "lat": 46.9051465, "lon": 19.6877486}, {"type": "node", "id": 3342998201, "lat": 46.9050634, "lon": 19.6878405}, {"type": "node", "id": 3342998202, "lat": 46.9050261, "lon": 19.6877683}, {"type": "node", "id": 3342998203, "lat": 46.9049229, "lon": 19.6878421}, {"type": "node", "id": 3342998204, "lat": 46.9048615, "lon": 19.6878574}, {"type": "node", "id": 3342998205, "lat": 46.9048118, "lon": 19.6879125}, {"type": "node", "id": 3342998206, "lat": 46.9048558, "lon": 19.6879976}, {"type": "node", "id": 3342998207, "lat": 46.9048251, "lon": 19.6880317}, {"type": "node", "id": 3342998208, "lat": 46.9050156, "lon": 19.6883998}, {"type": "node", "id": 3342998209, "lat": 46.9049546, "lon": 19.6884674}, {"type": "node", "id": 3342998210, "lat": 46.9050005, "lon": 19.6885561}, {"type": "node", "id": 3342998211, "lat": 46.9050771, "lon": 19.6884287}, {"type": "node", "id": 3342998212, "lat": 46.9053367, "lon": 19.6880669}, {"type": "node", "id": 3342998213, "lat": 46.9053431, "lon": 19.6880599}, {"type": "node", "id": 3342998214, "lat": 46.9053025, "lon": 19.6879812}, {"type": "node", "id": 3342998215, "lat": 46.9053373, "lon": 19.6879426}, {"type": "node", "id": 3342998216, "lat": 46.9053039, "lon": 19.687878}, {"type": "node", "id": 3342998217, "lat": 46.9052611, "lon": 19.6879254}, {"type": "node", "id": 3342998218, "lat": 46.9052068, "lon": 19.6878653}, {"type": "node", "id": 3342998219, "lat": 46.9052216, "lon": 19.6878489}, {"type": "node", "id": 3342998220, "lat": 46.9048789, "lon": 19.6878909}, {"type": "node", "id": 3342998221, "lat": 46.9049362, "lon": 19.6878678}, {"type": "node", "id": 3342998222, "lat": 46.9050494, "lon": 19.6884594}, {"type": "node", "id": 3342998223, "lat": 46.9050634, "lon": 19.6884864}, {"type": "node", "id": 3439444118, "lat": 46.86676, "lon": 19.63662, "tags": {"brand": "Real", "brand:wikidata": "Q698473", "brand:wikipedia": "en:Real (hypermarket)", "name": "Real", "shop": "supermarket", "source": "turistautak.hu", "source:date": "2013-03-12", "url": "http://turistautak.hu/poi.php?id=34106"}}, {"type": "node", "id": 3439444119, "lat": 46.88441, "lon": 19.68282, "tags": {"addr:city": "Kecskem\u00e9t", "addr:housenumber": "28", "addr:postcode": "6000", "addr:street": "Halasi \u00fat", "brand": "Real", "brand:wikidata": "Q698473", "brand:wikipedia": "en:Real (hypermarket)", "name": "Real", "shop": "supermarket", "source": "turistautak.hu", "source:date": "2011-06-24", "url": "http://turistautak.hu/poi.php?id=38538", "wheelchair": "limited"}}, {"type": "node", "id": 3439444120, "lat": 46.92791, "lon": 19.57765, "tags": {"brand": "Real", "brand:wikidata": "Q698473", "brand:wikipedia": "en:Real (hypermarket)", "name": "Real", "shop": "supermarket", "source": "turistautak.hu", "source:date": "2011-06-24", "url": "http://turistautak.hu/poi.php?id=40931", "wheelchair": "yes"}}, {"type": "node", "id": 3822359813, "lat": 46.9191231, "lon": 19.6751338, "tags": {"addr:city": "Kecskem\u00e9t", "addr:housenumber": "3-5", "addr:postcode": "6000", "addr:street": "M\u00e1rcius 15. utca", "contact:website": "http://oneeuro.hu/", "name": "One Euro Market", "opening_hours": "Mo-Fr 08:00-18:00; Sa 08:00-13:00", "shop": "supermarket", "source": "http://oneeuro.hu/one-euro-market-uzlet-id=30.html"}}, {"type": "node", "id": 4205573590, "lat": 46.9199185, "lon": 19.7069222, "tags": {"amenity": "atm", "name": "OTP", "operator": "OTP"}}, {"type": "node", "id": 4397705191, "lat": 46.9010003, "lon": 19.6967126, "tags": {"name": "Stihl szakbolt", "shop": "supermarket"}}, {"type": "node", "id": 4397722495, "lat": 46.8845437, "lon": 19.6819376, "tags": {"name": "d\u00edszn\u00f6v\u00e9ny \u00e1rud\u00e1k", "shop": "supermarket"}}, {"type": "node", "id": 4459257158, "lat": 46.8892076, "lon": 19.6403947}, {"type": "node", "id": 4459265504, "lat": 46.8892196, "lon": 19.6407079}, {"type": "node", "id": 4691333986, "lat": 46.9114574, "lon": 19.7194258}, {"type": "node", "id": 4691333987, "lat": 46.9107756, "lon": 19.7193642}, {"type": "node", "id": 4691333988, "lat": 46.9107675, "lon": 19.7196051}, {"type": "node", "id": 4691334889, "lat": 46.9114462, "lon": 19.7196677}, {"type": "node", "id": 4971878043, "lat": 46.9169358, "lon": 19.6619543, "tags": {"name": "Margar\u00e9ta Biobolt", "organic": "only", "shop": "supermarket"}}, {"type": "node", "id": 5163146399, "lat": 46.909596, "lon": 19.6978824, "tags": {"addr:city": "Kecskem\u00e9t", "addr:housenumber": "13/a", "addr:postcode": "6000", "addr:street": "R\u00e1k\u00f3czi \u00fat", "air_conditioning": "yes", "brand": "Aldi", "brand:wikidata": "Q125054", "brand:wikipedia": "hu:Aldi", "building": "retail", "contact:facebook": "https://www.facebook.com/ALDI.Magyarorszag", "contact:instagram": "https://www.instagram.com/aldi.magyarorszag", "contact:phone": "+36 80 088 264", "contact:website": "https://www.aldi.hu", "contact:youtube": "https://www.youtube.com/user/ALDIMagyarorszag", "currency:HUF": "yes", "name": "Aldi", "opening_hours": "Mo-Sa 07:00-21:00; Su 07:00-19:00; PH off", "operator": "ALDI Magyarorsz\u00e1g \u00c9lelmiszer Bt.", "operator:addr": "2051 Biatorb\u00e1gy, M\u00e9sz\u00e1rosok \u00fatja 2.", "payment:cash": "yes", "payment:contactless": "yes", "payment:debit_cards": "yes", "payment:maestro": "yes", "payment:mastercard": "yes", "payment:mastercard_contactless": "yes", "payment:mastercard_electronic": "yes", "payment:visa": "yes", "payment:visa_electron": "yes", "ref:HU:company": "13-06-058506", "ref:HU:vatin": "22234663-2-44", "ref:vatin": "HU22234663", "shop": "supermarket", "source": "import;website", "source:date": "2022-10-14", "wheelchair": "yes"}}, {"type": "node", "id": 5293638943, "lat": 46.7142353, "lon": 19.2629988}, {"type": "node", "id": 5293639331, "lat": 46.7141746, "lon": 19.2628522}, {"type": "node", "id": 5293639332, "lat": 46.7139475, "lon": 19.263052}, {"type": "node", "id": 5293639333, "lat": 46.7140082, "lon": 19.2631987}, {"type": "node", "id": 5349347539, "lat": 46.9134877, "lon": 19.7101036}, {"type": "node", "id": 5349347540, "lat": 46.9135272, "lon": 19.7100848}, {"type": "node", "id": 5349347541, "lat": 46.9135334, "lon": 19.7103092}, {"type": "node", "id": 5451774517, "lat": 46.9072758, "lon": 19.676809}, {"type": "node", "id": 5451774518, "lat": 46.907453, "lon": 19.6770269}, {"type": "node", "id": 5451774519, "lat": 46.9072118, "lon": 19.6774565}, {"type": "node", "id": 5451774520, "lat": 46.9070327, "lon": 19.6772329}, {"type": "node", "id": 5451775624, "lat": 46.9070359, "lon": 19.6771146}, {"type": "node", "id": 5451775625, "lat": 46.907159, "lon": 19.6770216}, {"type": "node", "id": 5453949717, "lat": 46.9071231, "lon": 19.6769737}, {"type": "node", "id": 7899616222, "lat": 46.9102007, "lon": 19.6938827, "tags": {"name": "Rossmann", "opening_hours": "Mo-Fr 08:00-19:00; Sa 08:00-17:00", "shop": "supermarket"}}, {"type": "node", "id": 8255585579, "lat": 46.6228395, "lon": 19.2896131, "tags": {"addr:city": "Kisk\u0151r\u00f6s", "addr:housenumber": "13", "addr:postcode": "6200", "addr:street": "Kossuth Lajos \u00fat", "air_conditioning": "yes", "brand": "Lidl", "brand:wikidata": "Q151954", "brand:wikipedia": "en:Lidl", "contact:website": "https://www.lidl.hu/", "currency:HUF": "yes", "name": "Lidl", "opening_hours": "Mo-Sa 06:00-19:00; Su 07:00-19:00", "organic": "yes", "payment:cash": "yes", "payment:debit_cards": "yes", "shop": "supermarket", "wheelchair": "yes"}}, {"type": "node", "id": 8459107542, "lat": 46.8980748, "lon": 19.6759672}, {"type": "node", "id": 8459107543, "lat": 46.8978466, "lon": 19.6753907}, {"type": "node", "id": 8459107544, "lat": 46.8980816, "lon": 19.6752171}, {"type": "node", "id": 8459107545, "lat": 46.8983023, "lon": 19.6757743}, {"type": "node", "id": 9496528465, "lat": 46.6219308, "lon": 19.278662}, {"type": "node", "id": 9496528466, "lat": 46.6219436, "lon": 19.2786501}, {"type": "node", "id": 9496528467, "lat": 46.6220651, "lon": 19.2786822}, {"type": "node", "id": 9496528468, "lat": 46.6220804, "lon": 19.2787175}, {"type": "node", "id": 9496528469, "lat": 46.6219906, "lon": 19.2788}, {"type": "node", "id": 9496528470, "lat": 46.6217792, "lon": 19.2782708}, {"type": "node", "id": 9496528471, "lat": 46.6219437, "lon": 19.2781198}, {"type": "node", "id": 9496528472, "lat": 46.6219499, "lon": 19.2781342}, {"type": "node", "id": 9496528473, "lat": 46.6219879, "lon": 19.2780994}, {"type": "node", "id": 9496528474, "lat": 46.6220544, "lon": 19.2782529}, {"type": "node", "id": 9496528475, "lat": 46.6220156, "lon": 19.2782885}, {"type": "node", "id": 9496528476, "lat": 46.6221517, "lon": 19.2786025}, {"type": "node", "id": 9709190013, "lat": 46.8978899, "lon": 19.6753539}, {"type": "node", "id": 9709190014, "lat": 46.8978462, "lon": 19.6752434}, {"type": "node", "id": 9709190015, "lat": 46.8980313, "lon": 19.6752598}, {"type": "node", "id": 9709190016, "lat": 46.8979799, "lon": 19.67513}, {"type": "node", "id": 9865958292, "lat": 46.9110286, "lon": 19.6732089, "tags": {"addr:city": "Kecskem\u00e9t", "addr:housenumber": "38/e", "addr:postcode": "6000", "addr:street": "Ny\u00edri \u00fat", "brand": "Lidl", "brand:wikidata": "Q151954", "name": "Lidl", "opening_hours": "Mo-Sa 06:30-21:00; Su 07:00-19:00", "operator": "Lidl", "shop": "supermarket", "wheelchair": "yes"}}, {"type": "node", "id": 10096049345, "lat": 46.5823935, "lon": 19.3727872, "tags": {"addr:city": "Soltvadkert", "addr:housenumber": "110", "addr:postcode": "6230", "addr:street": "Kossuth Lajos utca", "brand": "Lidl", "brand:wikidata": "Q151954", "contact:website": "https://www.lidl.hu/", "name": "Lidl", "opening_hours": "Mo-Sa 07:00-21:00; Su 07:00-19:00", "payment:cash": "yes", "payment:contactless": "yes", "shop": "supermarket", "start_date": "2022-10-13", "wheelchair": "yes"}}, {"type": "node", "id": 10171837943, "lat": 46.8994554, "lon": 19.6766974, "tags": {"addr:city": "Kecskem\u00e9t", "addr:housenumber": "2", "addr:postcode": "6000", "addr:street": "Izs\u00e1ki \u00fat", "brand:wikidata": "Q151954", "brand:wikipedia": "en:Lidl", "contact:website": "https://www.lidl.hu/", "name": "Lidl", "opening_hours": "Mo-Sa 06:30-21:00; Su 07:00-19:00", "operator": "Lidl Magyarorsz\u00e1g Kereskedelmi Bt.", "operator:addr": "1037 Budapest, R\u00e1dl \u00c1rok 6.", "payment:cash": "yes", "payment:contactless": "yes", "ref:HU:company": "01-06-757718", "ref:HU:vatin": "21588017-2-44", "shop": "supermarket", "wheelchair": "yes"}}, {"type": "node", "id": 10233685263, "lat": 46.9082453, "lon": 19.7035074, "tags": {"addr:city": "Kecskem\u00e9t", "addr:housenumber": "8", "addr:postcode": "6000", "addr:street": "Kuruc k\u00f6r\u00fat", "contact:facebook": "https://www.facebook.com/Xinpark.Webshop/", "name": "Xin Park H\u00e1ztart\u00e1si Diszkont", "opening_hours": "Mo-Sa 08:30-19:00; Su 08:30-17:00", "operator": "Honch Xin Park Europa Kft.", "operator:addr": "1107 Budapest, Fert\u0151 u. 1. A \u00e9p. A-7 ajt\u00f3", "payment:cash": "yes", "payment:contactless": "yes", "ref:HU:vatin": "27442298-2-42", "shop": "supermarket", "wheelchair": "yes"}}, {"type": "way", "id": 120199393, "nodes": [1348269480, 2494162598, 1348269371, 2494162554, 5349347541, 5349347539, 5349347540, 1348269403, 1348269480], "tags": {"addr:city": "Kecskem\u00e9t", "addr:housenumber": "18", "addr:postcode": "6000", "addr:street": "Szolnoki \u00fat", "air_conditioning": "yes", "brand": "Lidl", "brand:wikidata": "Q151954", "brand:wikipedia": "en:Lidl", "building": "retail", "contact:website": "https://www.lidl.hu/", "currency:HUF": "yes", "name": "Lidl", "opening_hours": "Mo-Su 07:00-21:00", "operator": "Lidl", "organic": "yes", "payment:cash": "yes", "payment:debit_cards": "yes", "shop": "supermarket", "source": "http://www.lidl.hu/cps/rde/xchg/lidl_hu/hs.xsl/19227.htm", "wheelchair": "yes"}}, {"type": "way", "id": 180176086, "nodes": [1906068501, 1906068485, 1906068487, 1906068497, 1906068505, 1906068501], "tags": {"addr:city": "Kecskem\u00e9t", "addr:housenumber": "1", "addr:place": "Talf\u00e1ja tanya", "addr:postcode": "6000", "air_conditioning": "yes", "branch": "Kecskem\u00e9t Hipermarket", "brand": "Tesco", "brand:wikidata": "Q487494", "brand:wikipedia": "en:Tesco", "building": "retail", "contact:facebook": "https://www.facebook.com/tescoaruhazak", "contact:pinterest": "https://www.pinterest.com/tescohungary/", "contact:website": "https://tesco.hu/aruhazak/aruhaz/tesco-kecskemet-hipermarket/", "contact:youtube": "https://www.youtube.com/user/TescoMagyarorszag", "import": "osm_poi_matchmaker", "internet_access": "wlan", "internet_access:fee": "no", "internet_access:ssid": "tesco-internet", "loyalty_card": "yes", "name": "Tesco", "opening_hours": "Mo-Sa 06:00-22:00; Su 07:00-20:00; PH off", "opening_hours:url": "http://tesco.hu/nyitvatartas", "operator": "TESCO-GLOBAL \u00c1ruh\u00e1zak Zrt.", "operator:addr": "2040 Buda\u00f6rs, Kinizsi \u00fat 1-3.", "payment:american_express": "yes", "payment:cash": "yes", "payment:contactless": "yes", "payment:edenred_card": "yes", "payment:edenred_voucher": "yes", "payment:gift_card": "yes", "payment:jcb": "yes", "payment:maestro": "yes", "payment:mastercard": "yes", "payment:mastercard_contactless": "yes", "payment:mastercard_electronic": "yes", "payment:multipay": "yes", "payment:otp_bankpont": "yes", "payment:otp_cafeteria": "yes", "payment:unionpay": "yes", "payment:v_pay": "yes", "payment:visa": "yes", "payment:visa_electron": "yes", "payment:wire_transfer": "yes", "ref:HU:company": "13-10-040628", "ref:HU:vatin": "10307078-2-44", "ref:vatin": "HU10307078", "shop": "supermarket", "source": "website", "source:date": "2020-09-28", "source:wheelchair": "website", "toilets:wheelchair": "yes", "wheelchair": "yes"}}, {"type": "way", "id": 231258814, "nodes": [2396644291, 2615174132, 2396644292, 2396644293, 4459257158, 4459265504, 2396644296, 2396644297, 2396644298, 2615174148, 2615174145, 2396644299, 2396644300, 2396644291], "tags": {"addr:city": "Kecskem\u00e9t", "addr:housenumber": "69", "addr:postcode": "6000", "addr:street": "Izs\u00e1ki \u00fat", "air_conditioning": "yes", "brand": "Aldi", "brand:wikidata": "Q125054", "brand:wikipedia": "hu:Aldi", "building": "retail", "contact:facebook": "https://www.facebook.com/ALDI.Magyarorszag", "contact:instagram": "https://www.instagram.com/aldi.magyarorszag", "contact:phone": "+36 80 088 264", "contact:website": "https://www.aldi.hu", "contact:youtube": "https://www.youtube.com/user/ALDIMagyarorszag", "currency:HUF": "yes", "name": "Aldi", "opening_hours": "Mo-Sa 06:30-21:00; Su 07:00-19:00; PH off", "operator": "ALDI Magyarorsz\u00e1g \u00c9lelmiszer Bt.", "operator:addr": "2051 Biatorb\u00e1gy, M\u00e9sz\u00e1rosok \u00fatja 2.", "payment:cash": "yes", "payment:contactless": "yes", "payment:debit_cards": "yes", "payment:maestro": "yes", "payment:mastercard": "yes", "payment:mastercard_contactless": "yes", "payment:mastercard_electronic": "yes", "payment:visa": "yes", "payment:visa_electron": "yes", "ref:HU:company": "13 06 058506", "ref:HU:vatin": "22234663-2-44", "ref:vatin": "HU22234663", "shop": "supermarket", "source": "http://www.aldi.hu/hu/html/service/uzleteink.htm;import;website", "source:date": "2022-10-14", "wheelchair": "yes"}}, {"type": "way", "id": 232477111, "nodes": [2408247243, 2408247244, 2408247245, 2408247246, 2408247247, 2408247248, 2408247249, 2408247250, 2408247252, 2408247254, 2408247243], "tags": {"addr:city": "Kisk\u0151r\u00f6s", "addr:housenumber": "61", "addr:postcode": "6200", "addr:street": "Kossuth Lajos \u00fat", "air_conditioning": "yes", "branch": "Kisk\u0151r\u00f6s Hipermarket", "brand": "Tesco", "brand:wikidata": "Q487494", "brand:wikipedia": "en:Tesco", "building": "retail", "contact:facebook": "https://www.facebook.com/tescoaruhazak", "contact:pinterest": "https://www.pinterest.com/tescohungary/", "contact:website": "https://tesco.hu/aruhazak/aruhaz/tesco-kiskoros-hipermarket/", "contact:youtube": "https://www.youtube.com/user/TescoMagyarorszag", "import": "osm_poi_matchmaker", "internet_access": "wlan", "internet_access:fee": "no", "internet_access:ssid": "tesco-internet", "loyalty_card": "yes", "name": "Tesco", "opening_hours": "Mo-Sa 06:00-20:00; Su 07:00-18:00; PH off", "operator": "TESCO-GLOBAL \u00c1ruh\u00e1zak Zrt.", "operator:addr": "2040 Buda\u00f6rs, Kinizsi \u00fat 1-3.", "payment:american_express": "yes", "payment:cash": "yes", "payment:contactless": "yes", "payment:edenred_card": "yes", "payment:edenred_voucher": "yes", "payment:gift_card": "yes", "payment:jcb": "yes", "payment:maestro": "yes", "payment:mastercard": "yes", "payment:mastercard_contactless": "yes", "payment:mastercard_electronic": "yes", "payment:multipay": "yes", "payment:otp_bankpont": "yes", "payment:otp_cafeteria": "yes", "payment:unionpay": "yes", "payment:v_pay": "yes", "payment:visa": "yes", "payment:visa_electron": "yes", "payment:wire_transfer": "yes", "ref:HU:company": "13-10-040628", "ref:HU:vatin": "10307078-2-44", "ref:vatin": "HU10307078", "shop": "supermarket", "source:tesco.hu:date": "2020-09-28", "source:wheelchair": "website", "toilets:wheelchair": "yes", "wheelchair": "yes"}}, {"type": "way", "id": 261971876, "nodes": [2676233285, 3075391497, 3075391496, 2676233287, 2676233288, 2676233290, 2676233285], "tags": {"addr:city": "Kecskem\u00e9t", "addr:housenumber": "2", "addr:postcode": "6000", "addr:street": "Tordai utca", "air_conditioning": "yes", "brand": "PENNY", "brand:wikidata": "Q284688", "brand:wikipedia": "en:Penny (supermarket)", "building": "retail", "contact:phone": "+36 29 339 300", "contact:website": "https://www.penny.hu", "currency:EUR": "yes", "currency:HUF": "yes", "internet_access": "wlan", "internet_access:fee": "no", "name": "PENNY", "opening_hours": "Mo-Sa 07:00-21:00; Su 07:00-18:00", "organic": "yes", "payment:cash": "yes", "payment:maestro": "yes", "payment:mastercard": "yes", "payment:visa": "yes", "shop": "supermarket", "wheelchair": "yes"}}, {"type": "way", "id": 262096182, "nodes": [2677412326, 2677412328, 2677412330, 2677412332, 2677412326], "tags": {"addr:city": "Kecskem\u00e9t", "addr:housenumber": "60", "addr:postcode": "6000", "addr:street": "Kossuth k\u00f6r\u00fat", "air_conditioning": "yes", "brand": "Penny", "brand:wikidata": "Q284688", "brand:wikipedia": "en:Penny (supermarket)", "building": "retail", "contact:website": "https://www.penny.hu", "currency:EUR": "yes", "currency:HUF": "yes", "internet_access": "wlan", "internet_access:fee": "no", "name": "Penny", "opening_hours": "Mo-Sa 07:00-21:00; Su 07:00-18:00", "organic": "yes", "payment:cash": "yes", "payment:debit_cards": "yes", "shop": "supermarket", "wheelchair": "yes"}}, {"type": "way", "id": 262257701, "nodes": [2679180919, 2679180921, 2679180923, 2679180925, 2679180919], "tags": {"addr:city": "Kecskem\u00e9t", "addr:postcode": "6000", "addr:street": "Ny\u00edri \u00fat", "building": "retail", "name": "Domb \u00c1ruh\u00e1z", "opening_hours": "Mo-Sa 06:30-19:00", "operator": "Univer-Coop Zrt.", "shop": "supermarket", "wheelchair": "yes"}}, {"type": "way", "id": 265204535, "nodes": [2708666342, 2708666338, 2708666336, 4205573590, 1824646479, 2708666339, 2708666340, 2708666342], "tags": {"building": "retail", "name": "Hunyadiv\u00e1rosi Univer ABC", "operator": "Coop", "shop": "supermarket"}}, {"type": "way", "id": 327511588, "nodes": [3342998196, 3342998197, 3342998198, 3342998199, 3342998212, 3342998213, 3342998214, 3342998215, 3342998216, 3342998217, 3342998219, 3342998218, 3342998200, 3342998201, 3342998202, 3342998221, 3342998203, 3342998220, 3342998204, 3342998205, 3342998206, 3342998207, 3342998208, 3342998209, 3342998210, 3342998223, 3342998222, 3342998211, 3342998196], "tags": {"building": "retail", "name": "Univer ABC", "shop": "supermarket", "toilets:wheelchair": "yes", "wheelchair": "yes"}}, {"type": "way", "id": 475381689, "nodes": [4691333986, 4691333987, 4691333988, 4691334889, 4691333986], "tags": {"addr:city": "Kecskem\u00e9t", "addr:housenumber": "30", "addr:postcode": "6000", "addr:street": "Szent Istv\u00e1n k\u00f6r\u00fat", "air_conditioning": "yes", "brand": "Aldi", "brand:wikidata": "Q125054", "brand:wikipedia": "hu:Aldi", "building": "retail", "contact:facebook": "https://www.facebook.com/ALDI.Magyarorszag", "contact:instagram": "https://www.instagram.com/aldi.magyarorszag", "contact:phone": "+36 80 088 264", "contact:website": "https://www.aldi.hu", "contact:youtube": "https://www.youtube.com/user/ALDIMagyarorszag", "name": "Aldi", "opening_hours": "Mo-Sa 07:00-21:00; Su 07:00-19:00; PH off", "operator": "ALDI Magyarorsz\u00e1g \u00c9lelmiszer Bt.", "operator:addr": "2051 Biatorb\u00e1gy, M\u00e9sz\u00e1rosok \u00fatja 2.", "payment:cash": "yes", "payment:contactless": "yes", "payment:maestro": "yes", "payment:mastercard": "yes", "payment:mastercard_contactless": "yes", "payment:mastercard_electronic": "yes", "payment:visa": "yes", "payment:visa_electron": "yes", "ref:HU:company": "13 06 058506", "ref:HU:vatin": "22234663-2-44", "ref:vatin": "HU22234663", "shop": "supermarket", "source": "import;website", "source:date": "2022-10-14"}}, {"type": "way", "id": 547905254, "nodes": [5293638943, 5293639333, 5293639332, 5293639331, 5293638943], "tags": {"building": "retail", "shop": "supermarket"}}, {"type": "way", "id": 566178298, "nodes": [5451774517, 5451774518, 5451774519, 5451774520, 5451775624, 5453949717, 5451775625, 5451774517], "tags": {"addr:city": "Kecskem\u00e9t", "addr:housenumber": "26", "addr:postcode": "6000", "addr:street": "J\u00e1sz utca", "brand": "Spar", "brand:wikidata": "Q610492", "brand:wikipedia": "en:Spar (retailer)", "building": "yes", "contact:website": "https://www.spar.hu", "name": "Spar", "opening_hours": "Mo-Fr 06:30-20:00, Sa 06:30-17:00, Su 08:00-13:00", "operator": "szupermarket", "payment:cash": "yes", "payment:contactless": "yes", "payment:debit_cards": "yes", "ref": "523", "shop": "supermarket", "wheelchair": "yes"}}, {"type": "way", "id": 911001469, "nodes": [8459107545, 8459107542, 8459107543, 9709190013, 9709190014, 9709190016, 9709190015, 8459107544, 8459107545], "tags": {"addr:city": "Kecskem\u00e9t", "addr:housenumber": "4/B", "addr:postcode": "6000", "addr:street": "Izs\u00e1ki \u00fat", "air_conditioning": "yes", "building": "retail", "contact:facebook": "https://www.facebook.com/szilvasiaruhaz/", "currency:HUF": "yes", "name": "Szilv\u00e1si \u00c1ruh\u00e1z", "opening_hours": "Mo-Sa 06:30-20:00; Su 06:30-12:00", "operator": "Szilv\u00e1si \u00e9s T\u00e1rsai Kft.", "operator:addr": "6000 Kecskem\u00e9t, Izs\u00e1ki \u00fat 2", "payment:american_express": "yes", "payment:cash": "yes", "payment:contactless": "yes", "payment:maestro": "yes", "payment:mastercard": "yes", "payment:szep": "otp", "payment:visa": "yes", "payment:visa_debit": "yes", "payment:visa_electron": "yes", "ref:HU:company": "03-09-119441", "ref:HU:vatin": "11722120-2-03", "shop": "supermarket", "wheelchair": "yes"}}, {"type": "way", "id": 1030185297, "nodes": [9496528476, 9496528475, 9496528474, 9496528473, 9496528472, 9496528471, 9496528470, 9496528466, 9496528465, 9496528469, 9496528468, 9496528467, 9496528476], "tags": {"addr:city": "Kisk\u0151r\u00f6s", "addr:housenumber": "31", "addr:postcode": "6200", "addr:street": "D\u00f3zsa Gy\u00f6rgy utca", "brand:wikidata": "Q284688", "brand:wikipedia": "en:Penny (supermarket)", "building": "retail", "building:levels": "1", "name": "Penny", "opening_hours": "Mo-Sa 07:00-20:00; Su 07:00-18:00; PH off", "phone": "+36 29 339 345", "shop": "supermarket", "survey:date": "2022-02-10", "website": "https://www.penny.hu/"}}]}