{"version": 0.6, "generator": "Overpass API 0.7.59 e21c39fe", "osm3s": {"timestamp_osm_base": "2023-01-17T15:17:22Z", "copyright": "The data included in this document is from www.openstreetmap.org. The data is made available under ODbL."}, "elements": [{"type": "node", "id": 572506107, "lat": 48.52101, "lon": 21.6258307, "tags": {"amenity": "pub", "name": "Piv\u00e1re\u0148", "outdoor_seating": "yes", "smoking": "yes", "wheelchair": "limited"}}, {"type": "node", "id": 1642039722, "lat": 48.511283, "lon": 21.6196982}, {"type": "node", "id": 1642039754, "lat": 48.5113213, "lon": 21.6197792}, {"type": "node", "id": 1642039782, "lat": 48.5113485, "lon": 21.6196256}, {"type": "node", "id": 1642039796, "lat": 48.5113556, "lon": 21.6196372}, {"type": "node", "id": 1642039805, "lat": 48.5114088, "lon": 21.6195232}, {"type": "node", "id": 1642039816, "lat": 48.5114255, "lon": 21.6195611}, {"type": "node", "id": 1642039824, "lat": 48.5114403, "lon": 21.6194878}, {"type": "node", "id": 1642039827, "lat": 48.5114571, "lon": 21.6195244}, {"type": "node", "id": 1642039832, "lat": 48.5114976, "lon": 21.6194831}, {"type": "node", "id": 1642039847, "lat": 48.51153, "lon": 21.6195538}, {"type": "node", "id": 2170990823, "lat": 48.5387989, "lon": 21.455906, "tags": {"amenity": "pub", "name": "V\u00e1r B\u00fcf\u00e9", "wheelchair": "limited"}}, {"type": "node", "id": 2258201235, "lat": 48.4571585, "lon": 21.4825805, "tags": {"amenity": "pub", "smoking": "outside"}}, {"type": "node", "id": 2273067001, "lat": 48.5142994, "lon": 21.4513895, "tags": {"amenity": "pub"}}, {"type": "node", "id": 2273822116, "lat": 48.5426667, "lon": 21.4128679, "tags": {"amenity": "pub", "name": "Vad\u00e1sz"}}, {"type": "node", "id": 2386233210, "lat": 48.4749164, "lon": 21.4672086, "tags": {"amenity": "pub", "toilets:wheelchair": "no", "wheelchair": "no"}}, {"type": "node", "id": 2392888628, "lat": 48.19952, "lon": 21.537022, "tags": {"amenity": "pub", "name": "\u00cdves panzi\u00f3"}}, {"type": "node", "id": 2395194734, "lat": 48.3196519, "lon": 21.5662467, "tags": {"amenity": "pub", "name": "Bowling Club S\u00f6r\u00f6z\u0151", "note": "Nyitva: H-V: 14-2 h", "wheelchair": "no"}}, {"type": "node", "id": 2395281758, "lat": 48.3171598, "lon": 21.5680156, "tags": {"addr:city": "S\u00e1rospatak", "addr:housenumber": "24", "addr:postcode": "3950", "addr:street": "Szent Erzs\u00e9bet utca", "amenity": "pub", "food": "yes", "name": "Mcintosh s\u00f6r\u00f6z\u0151 boroz\u00f3", "outdoor_seating": "yes", "smoking": "outside"}}, {"type": "node", "id": 2396553166, "lat": 48.3311079, "lon": 21.5844906, "tags": {"amenity": "pub", "name": "Tengerszem s\u00f6r\u00f6z\u0151"}}, {"type": "node", "id": 2396555820, "lat": 48.3313249, "lon": 21.5828725, "tags": {"amenity": "pub", "name": "Kik\u00f6t\u0151 b\u00fcf\u00e9", "toilets:wheelchair": "no", "wheelchair": "no"}}, {"type": "node", "id": 2397073212, "lat": 48.3286743, "lon": 21.575028, "tags": {"amenity": "pub", "name": "\u00c9den s\u00f6r\u00f6z\u0151"}}, {"type": "node", "id": 2504625515, "lat": 48.5472751, "lon": 21.4888578, "tags": {"amenity": "pub"}}, {"type": "node", "id": 2560142113, "lat": 48.1875623, "lon": 21.0594274, "tags": {"amenity": "pub"}}, {"type": "node", "id": 2813434232, "lat": 48.5648286, "lon": 21.3318208, "tags": {"amenity": "pub", "name": "IPO Bar"}}, {"type": "node", "id": 2813434236, "lat": 48.5669754, "lon": 21.3320009, "tags": {"amenity": "pub", "name": "Truck Expresso"}}, {"type": "node", "id": 2952106550, "lat": 48.4255948, "lon": 21.2831445, "tags": {"amenity": "pub"}}, {"type": "node", "id": 3207815646, "lat": 48.3335367, "lon": 21.115613, "tags": {"addr:city": "Encs", "addr:postcode": "3860", "addr:street": "Pet\u0151fi S\u00e1ndor utca", "amenity": "pub", "name": "Mang\u00f3 s\u00f6r\u00f6z\u0151"}}, {"type": "node", "id": 3280471983, "lat": 48.356179, "lon": 21.0633999, "tags": {"amenity": "pub", "toilets:wheelchair": "no", "wheelchair": "no"}}, {"type": "node", "id": 3280472004, "lat": 48.3726462, "lon": 21.0279373, "tags": {"amenity": "pub"}}, {"type": "node", "id": 3308625574, "lat": 48.4855364, "lon": 21.3543851, "tags": {"addr:city": "Telkib\u00e1nya", "addr:housenumber": "1", "addr:postcode": "3896", "addr:street": "Szabads\u00e1g utca", "amenity": "pub", "name": "Aranyhord\u00f3 S\u00f6r\u00f6z\u0151", "toilets:wheelchair": "no", "wheelchair": "no"}}, {"type": "node", "id": 3308634061, "lat": 48.48567, "lon": 21.3557291}, {"type": "node", "id": 3308634062, "lat": 48.4855831, "lon": 21.3557222}, {"type": "node", "id": 3308634063, "lat": 48.4855816, "lon": 21.3557653}, {"type": "node", "id": 3308634064, "lat": 48.4854067, "lon": 21.3557514}, {"type": "node", "id": 3308634065, "lat": 48.4854029, "lon": 21.355859}, {"type": "node", "id": 3308634066, "lat": 48.4856648, "lon": 21.3558798}, {"type": "node", "id": 3310045472, "lat": 48.3789538, "lon": 21.2454426, "tags": {"amenity": "pub"}}, {"type": "node", "id": 3399596306, "lat": 48.322262, "lon": 21.5632121}, {"type": "node", "id": 3399596307, "lat": 48.3222245, "lon": 21.5634897}, {"type": "node", "id": 3399596308, "lat": 48.3223074, "lon": 21.5635098}, {"type": "node", "id": 3399596309, "lat": 48.322344, "lon": 21.5632416}, {"type": "node", "id": 3439663884, "lat": 48.294733, "lon": 21.224017, "tags": {"amenity": "pub", "name": "Italbolt", "source": "turistautak.hu", "source:date": "2011-05-08", "url": "http://turistautak.hu/poi.php?id=32447"}}, {"type": "node", "id": 3439664061, "lat": 48.390913, "lon": 21.284546, "tags": {"amenity": "pub", "name": "Gergelyhegyi vend\u00e9gv\u00e1r\u00f3", "source": "turistautak.hu", "source:date": "2013-04-21", "url": "http://turistautak.hu/poi.php?id=152636"}}, {"type": "node", "id": 3439664590, "lat": 48.236, "lon": 21.233433, "tags": {"amenity": "pub", "name": "R\u00f3zsakert kocsma", "source": "turistautak.hu", "source:date": "2011-05-08", "toilets:wheelchair": "no", "url": "http://turistautak.hu/poi.php?id=49325", "wheelchair": "no"}}, {"type": "node", "id": 3439664699, "lat": 48.314886, "lon": 21.161472, "tags": {"amenity": "pub", "name": "Szerpentin s\u00f6r\u00f6z\u0151", "source": "turistautak.hu", "source:date": "2011-05-08", "url": "http://turistautak.hu/poi.php?id=95766"}}, {"type": "node", "id": 3439664710, "lat": 48.323189, "lon": 21.241048, "tags": {"amenity": "pub", "name": "S\u00f6r\u00f6z\u0151", "source": "turistautak.hu", "source:date": "2011-05-08", "url": "http://turistautak.hu/poi.php?id=96145"}}, {"type": "node", "id": 3456413882, "lat": 48.4309488, "lon": 21.4917999, "tags": {"amenity": "pub", "description": "Kocsma a pecs\u00e9ttel szemben. Nyitva: H-P: 7-11, 16-20 Sz: 9-11, 16-20 V: 9-11, 15-20", "name": "Gilev\u00e1r fogad\u00f3 korcsma", "source": "turistautak.hu", "source:date": "2011-05-08", "url": "http://turistautak.hu/poi.php?id=60268"}}, {"type": "node", "id": 3456413884, "lat": 48.4113217, "lon": 21.609175, "tags": {"amenity": "pub", "name": "Gomb\u00e1sz pressz\u00f3", "source": "turistautak.hu", "source:date": "2012-08-21", "url": "http://turistautak.hu/poi.php?id=126600"}}, {"type": "node", "id": 3456414485, "lat": 48.496633, "lon": 21.561083, "tags": {"amenity": "pub", "description": "Kocsma", "source": "turistautak.hu", "source:date": "2011-05-08", "url": "http://turistautak.hu/poi.php?id=13253"}}, {"type": "node", "id": 3457879315, "lat": 48.3172464, "lon": 21.5658392}, {"type": "node", "id": 3457879316, "lat": 48.3171088, "lon": 21.565791}, {"type": "node", "id": 3457879317, "lat": 48.3170926, "lon": 21.5658954}, {"type": "node", "id": 3457879318, "lat": 48.3171611, "lon": 21.5659194}, {"type": "node", "id": 3457879319, "lat": 48.3171464, "lon": 21.5660144}, {"type": "node", "id": 3457879320, "lat": 48.3172155, "lon": 21.5660386}, {"type": "node", "id": 3457879321, "lat": 48.3170916, "lon": 21.5660387}, {"type": "node", "id": 3457879322, "lat": 48.3170839, "lon": 21.5661913}, {"type": "node", "id": 3457879323, "lat": 48.3170161, "lon": 21.5661836}, {"type": "node", "id": 3457879324, "lat": 48.3170237, "lon": 21.566031}, {"type": "node", "id": 3462206437, "lat": 48.214717, "lon": 21.225833, "tags": {"amenity": "pub", "shelter": "yes", "source": "turistautak.hu", "source:date": "2011-05-08", "url": "http://turistautak.hu/poi.php?id=41394"}}, {"type": "node", "id": 3608370811, "lat": 48.5347863, "lon": 21.1874092, "tags": {"amenity": "pub", "name": "Vegas bar"}}, {"type": "node", "id": 3738955013, "lat": 48.3249158, "lon": 21.5654692}, {"type": "node", "id": 3738955014, "lat": 48.3250243, "lon": 21.565634}, {"type": "node", "id": 3738955015, "lat": 48.3250571, "lon": 21.5655832}, {"type": "node", "id": 3738955016, "lat": 48.3249496, "lon": 21.5654183}, {"type": "node", "id": 3739362381, "lat": 48.3183277, "lon": 21.5729419, "tags": {"amenity": "pub", "name": "L\u00e1bash\u00e1z - Sunrive"}}, {"type": "node", "id": 3755006497, "lat": 48.4066741, "lon": 21.6344506, "tags": {"amenity": "pub", "is_in": "Magas-hegy; Zempl\u00e9ni-hegys\u00e9g", "name": "B\u00fcf\u00e9", "source": "survey", "toilets:wheelchair": "no", "wheelchair": "no"}}, {"type": "node", "id": 3755158909, "lat": 48.4122859, "lon": 21.6387985, "tags": {"amenity": "pub", "is_in": "Zempl\u00e9ni-hegys\u00e9g", "name": "Tokaji Bor- \u00e9s Gasztroterasz"}}, {"type": "node", "id": 3758222926, "lat": 48.4750538, "lon": 21.4682983, "tags": {"addr:city": "B\u00f3zsva", "addr:housenumber": "30-31", "addr:postcode": "3994", "addr:street": "Esze Tam\u00e1s \u00fat", "amenity": "pub", "name": "K\u0151b\u00e9rc Bisztr\u00f3", "smoking": "outside", "toilets:wheelchair": "no", "wheelchair": "no"}}, {"type": "node", "id": 3974062525, "lat": 48.3170539, "lon": 21.5661879}, {"type": "node", "id": 4411925396, "lat": 48.4482035, "lon": 21.4791107, "tags": {"amenity": "pub", "name": "Nimr\u00f3d Pressz\u00f3"}}, {"type": "node", "id": 4449224563, "lat": 48.3158446, "lon": 21.5627378, "tags": {"amenity": "pub", "name": "Siker S\u00f6r\u00f6z\u0151"}}, {"type": "node", "id": 4463466929, "lat": 48.2156607, "lon": 21.2259077}, {"type": "node", "id": 4463466930, "lat": 48.215652, "lon": 21.225755}, {"type": "node", "id": 4463466931, "lat": 48.2153789, "lon": 21.22579}, {"type": "node", "id": 4463466932, "lat": 48.2153847, "lon": 21.2258912}, {"type": "node", "id": 4463466933, "lat": 48.2155045, "lon": 21.2258758}, {"type": "node", "id": 4463466934, "lat": 48.2155075, "lon": 21.2259273}, {"type": "node", "id": 4640516286, "lat": 48.2102471, "lon": 21.1512906}, {"type": "node", "id": 4640516287, "lat": 48.2101821, "lon": 21.151379}, {"type": "node", "id": 4640516288, "lat": 48.2102363, "lon": 21.1514686}, {"type": "node", "id": 4640516489, "lat": 48.2103012, "lon": 21.1513802}, {"type": "node", "id": 4805037628, "lat": 48.5388405, "lon": 21.4559832}, {"type": "node", "id": 4805037629, "lat": 48.5387562, "lon": 21.455998}, {"type": "node", "id": 4805037630, "lat": 48.5387446, "lon": 21.4558473}, {"type": "node", "id": 4805037631, "lat": 48.538829, "lon": 21.4558326}, {"type": "node", "id": 4805833930, "lat": 48.4571712, "lon": 21.4825781}, {"type": "node", "id": 4805833931, "lat": 48.4571702, "lon": 21.4825358}, {"type": "node", "id": 4805833932, "lat": 48.4572224, "lon": 21.4825753}, {"type": "node", "id": 4805833933, "lat": 48.4571236, "lon": 21.4825383}, {"type": "node", "id": 4805833934, "lat": 48.4571213, "lon": 21.482444}, {"type": "node", "id": 4805833935, "lat": 48.4572191, "lon": 21.4824386}, {"type": "node", "id": 4834299509, "lat": 48.3165628, "lon": 21.1587138}, {"type": "node", "id": 4834299510, "lat": 48.3165436, "lon": 21.1587504}, {"type": "node", "id": 4834299511, "lat": 48.3165213, "lon": 21.1586646}, {"type": "node", "id": 4834299512, "lat": 48.3163781, "lon": 21.1589372}, {"type": "node", "id": 4834299513, "lat": 48.3164473, "lon": 21.1590194}, {"type": "node", "id": 4834299514, "lat": 48.3165713, "lon": 21.1587833}, {"type": "node", "id": 4933478160, "lat": 48.1937864, "lon": 21.278715, "tags": {"amenity": "pub", "name": "Kacsa Kocsm\u00e1ja", "toilets:wheelchair": "no", "wheelchair": "limited"}}, {"type": "node", "id": 4933478211, "lat": 48.2583003, "lon": 21.4491649, "tags": {"amenity": "pub", "name": "R\u00e1k\u00f3czi Boroz\u00f3", "toilets:wheelchair": "no", "wheelchair": "no"}}, {"type": "node", "id": 4933478219, "lat": 48.3247232, "lon": 21.0878299, "tags": {"amenity": "pub", "fixme": "verify", "name": "S\u00f6r\u00f6z\u00f6", "source": "route4u", "toilets:wheelchair": "no", "wheelchair": "no"}}, {"type": "node", "id": 4933478220, "lat": 48.3254141, "lon": 21.1069354, "tags": {"amenity": "pub", "fixme": "verify", "name": "Roxbury", "source": "route4u", "toilets:wheelchair": "no", "wheelchair": "limited"}}, {"type": "node", "id": 4933478317, "lat": 48.397626, "lon": 21.1698955, "tags": {"amenity": "pub", "fixme": "verify", "name": "Laguna S\u00f6r\u00f6z\u0151", "source": "route4u", "toilets:wheelchair": "no", "wheelchair": "limited"}}, {"type": "node", "id": 4933478360, "lat": 48.2891863, "lon": 21.0555172, "tags": {"amenity": "pub", "fixme": "verify", "name": "S\u00f6r\u00f6z\u00f6", "source": "route4u", "toilets:wheelchair": "no", "wheelchair": "no"}}, {"type": "node", "id": 4933478367, "lat": 48.3586585, "lon": 21.1436347, "tags": {"amenity": "pub", "fixme": "verify", "name": "Party Kocsma", "source": "route4u", "toilets:wheelchair": "no", "wheelchair": "limited"}}, {"type": "node", "id": 4933478368, "lat": 48.3593322, "lon": 21.1422837, "tags": {"amenity": "pub", "fixme": "verify", "name": "S\u00f6r\u00f6z\u0151", "source": "route4u", "toilets:wheelchair": "no", "wheelchair": "no"}}, {"type": "node", "id": 4933478428, "lat": 48.3295286, "lon": 21.58069, "tags": {"amenity": "pub", "name": "Boszork\u00e1ny Tanya", "toilets:wheelchair": "no", "wheelchair": "no"}}, {"type": "node", "id": 4933478441, "lat": 48.3488749, "lon": 21.1428092, "tags": {"amenity": "pub", "fixme": "verify", "name": "Italbolt", "source": "route4u", "toilets:wheelchair": "no", "wheelchair": "limited"}}, {"type": "node", "id": 4933478543, "lat": 48.4743775, "lon": 21.2638745, "tags": {"amenity": "pub", "fixme": "verify", "name": "S\u00f6r\u00f6z\u00f6", "source": "route4u", "toilets:wheelchair": "no", "wheelchair": "no"}}, {"type": "node", "id": 4939178991, "lat": 48.2374952, "lon": 21.1911181, "tags": {"amenity": "pub", "fixme": "verify", "name": "Italbolt", "source": "route4u", "toilets:wheelchair": "no", "wheelchair": "limited"}}, {"type": "node", "id": 4939179584, "lat": 48.4715315, "lon": 21.5114608, "tags": {"amenity": "pub", "name": "For2Na Second Club", "source": "route4u"}}, {"type": "node", "id": 4939180029, "lat": 48.3314974, "lon": 21.5825257, "tags": {"amenity": "pub", "fixme": "verify", "name": "Sak\u00e1l Tanya", "source": "route4u", "toilets:wheelchair": "no", "wheelchair": "no"}}, {"type": "node", "id": 4939278821, "lat": 48.4480786, "lon": 21.2389833, "tags": {"amenity": "pub", "fixme": "verify", "name": "Italbolt", "source": "route4u", "toilets:wheelchair": "no", "wheelchair": "no"}}, {"type": "node", "id": 4940561360, "lat": 48.4478522, "lon": 21.240271, "tags": {"amenity": "pub", "fixme": "verify", "name": "Hangulat S\u00f6r\u00f6z\u0151", "source": "route4u", "toilets:wheelchair": "no", "wheelchair": "no"}}, {"type": "node", "id": 4940563951, "lat": 48.3292671, "lon": 21.0973533, "tags": {"amenity": "pub", "fixme": "verify", "name": "Fah\u00e1z S\u00f6r\u00f6z\u0151", "source": "route4u", "toilets:wheelchair": "no", "wheelchair": "yes"}}, {"type": "node", "id": 5008438714, "lat": 48.4713257, "lon": 21.2742573, "tags": {"amenity": "pub", "name": "S\u0151rb\u00e1r"}}, {"type": "node", "id": 5153830566, "lat": 48.2213217, "lon": 21.028555}, {"type": "node", "id": 5153830567, "lat": 48.2213643, "lon": 21.0284805}, {"type": "node", "id": 5153830568, "lat": 48.2212469, "lon": 21.0283237}, {"type": "node", "id": 5153830569, "lat": 48.2212028, "lon": 21.0283979}, {"type": "node", "id": 5661409473, "lat": 48.4647536, "lon": 21.1025049, "tags": {"amenity": "pub", "name": "Kast\u00e9lykert pressz\u00f3"}}, {"type": "node", "id": 5802238574, "lat": 48.5723053, "lon": 21.1739829, "tags": {"amenity": "pub"}}, {"type": "node", "id": 5805089101, "lat": 48.5730232, "lon": 21.3305019, "tags": {"amenity": "pub"}}, {"type": "node", "id": 5844060989, "lat": 48.4518633, "lon": 21.5288429, "tags": {"amenity": "pub", "name": "Feny\u0151-B\u00e1r Bisztr\u00f3"}}, {"type": "node", "id": 5844247426, "lat": 48.4966883, "lon": 21.5609797}, {"type": "node", "id": 5844247427, "lat": 48.4965433, "lon": 21.5610696}, {"type": "node", "id": 5844247428, "lat": 48.4965906, "lon": 21.5612437}, {"type": "node", "id": 5844247429, "lat": 48.4967357, "lon": 21.5611538}, {"type": "node", "id": 6012039097, "lat": 48.3171246, "lon": 21.427516, "tags": {"amenity": "pub"}}, {"type": "node", "id": 6012039120, "lat": 48.3156833, "lon": 21.4293842, "tags": {"amenity": "pub"}}, {"type": "node", "id": 6721182517, "lat": 48.5263353, "lon": 21.3152039, "tags": {"amenity": "pub", "name": "E.G.S - Family"}}, {"type": "node", "id": 8872735423, "lat": 48.3919747, "lon": 21.3435978, "tags": {"amenity": "pub", "name": "B\u00fcf\u00e9"}}, {"type": "node", "id": 9632958947, "lat": 48.3847133, "lon": 21.2161757, "tags": {"amenity": "pub", "name": "Alibi S\u00f6r\u00f6z\u0151"}}, {"type": "node", "id": 9911288450, "lat": 48.28672, "lon": 21.5224077, "tags": {"amenity": "pub"}}, {"type": "way", "id": 151377495, "nodes": [1642039847, 1642039754, 1642039722, 1642039782, 1642039796, 1642039816, 1642039805, 1642039824, 1642039827, 1642039832, 1642039847], "tags": {"addr:city": "Micha\u013eany", "addr:conscriptionnumber": "136", "addr:country": "SK", "addr:housenumber": "136/7", "addr:postcode": "07614", "addr:street": "Luhy\u0148sk\u00e1", "addr:streetnumber": "7", "amenity": "pub", "building": "yes", "name": "ROXA", "ref:minvskaddress": "30563170", "source": "kapor2", "source:addr": "minvskaddress 2022-12"}}, {"type": "way", "id": 324113149, "nodes": [3308634061, 3308634062, 3308634063, 3308634064, 3308634065, 3308634066, 3308634061], "tags": {"addr:city": "Telkib\u00e1nya", "addr:housenumber": "4", "addr:postcode": "3896", "addr:street": "Nagy \u00fat", "amenity": "pub", "building": "yes", "name": "Aranykulacs Boroz\u00f3", "source": "survey", "survey:date": "2020-08-08", "toilets:wheelchair": "no", "wheelchair": "limited"}}, {"type": "way", "id": 332851920, "nodes": [3399596306, 3399596307, 3399596308, 3399596309, 3399596306], "tags": {"amenity": "pub", "building": "yes", "name": "B\u00fafelejt\u0151"}}, {"type": "way", "id": 338668629, "nodes": [3457879315, 3457879316, 3457879317, 3457879318, 3457879319, 3457879320, 3457879315], "tags": {"addr:city": "S\u00e1rospatak", "addr:housenumber": "63", "addr:postcode": "3950", "addr:street": "R\u00e1k\u00f3czi \u00fat", "amenity": "pub", "building": "yes", "name": "Grill G\u00f6d\u00f6r"}}, {"type": "way", "id": 338668631, "nodes": [3457879321, 3457879322, 3974062525, 3457879323, 3457879324, 3457879321], "tags": {"amenity": "pub", "building": "yes", "name": "Romkocsma"}}, {"type": "way", "id": 370171691, "nodes": [3738955013, 3738955014, 3738955015, 3738955016, 3738955013], "tags": {"amenity": "pub", "building": "yes"}}, {"type": "way", "id": 449383162, "nodes": [4463466929, 4463466930, 4463466931, 4463466932, 4463466933, 4463466934, 4463466929], "tags": {"amenity": "pub", "building": "yes"}}, {"type": "way", "id": 469766181, "nodes": [4640516489, 4640516288, 4640516287, 4640516286, 4640516489], "tags": {"amenity": "pub", "building": "yes", "source": "turistautak.hu"}}, {"type": "way", "id": 488160821, "nodes": [4805037631, 4805037628, 4805037629, 4805037630, 4805037631], "tags": {"amenity": "pub", "building": "yes", "wheelchair": "limited"}}, {"type": "way", "id": 488259790, "nodes": [4805833935, 4805833932, 4805833930, 4805833931, 4805833933, 4805833934, 4805833935], "tags": {"amenity": "pub", "building": "yes", "internet_access": "wlan", "internet_access:fee": "no", "mapillary": "816834742270545", "name": "Fah\u00e1z pressz\u00f3", "outdoor_seating": "yes", "shop": "convenience", "smoking": "outside"}}, {"type": "way", "id": 491298291, "nodes": [4834299514, 4834299513, 4834299512, 4834299511, 4834299509, 4834299510, 4834299514], "tags": {"amenity": "pub", "building": "yes", "name": "H\u00edd pressz\u00f3", "outdoor_seating": "yes", "toilets:wheelchair": "no", "url": "http://turistautak.hu/poi.php?id=23832", "wheelchair": "no"}}, {"type": "way", "id": 530840993, "nodes": [5153830567, 5153830568, 5153830569, 5153830566, 5153830567], "tags": {"amenity": "pub", "building": "yes"}}, {"type": "way", "id": 618297316, "nodes": [5844247426, 5844247427, 5844247428, 5844247429, 5844247426], "tags": {"amenity": "pub", "building": "yes"}}]}